[
   {
      "GoBack" : "1",
      "longitude" : "120.68818",
      "outDis" : "50",
      "Id" : "0048",
      "oid" : "12625",
      "districtId" : "1",
      "nameZh" : "莒光新城",
      "pgp" : "0",
      "terminal" : "0",
      "latitude" : "24.15388",
      "inDis" : "50",
      "routeId" : "99",
      "seqNo" : "1"
   },
   {
      "GoBack" : "1",
      "longitude" : "120.68569",
      "outDis" : "50",
      "Id" : "0047",
      "oid" : "67E2AACFE41F463BBF4D9CF73AA32B3B",
      "districtId" : "1",
      "nameZh" : "一心市場",
      "pgp" : "0",
      "terminal" : "0",
      "latitude" : "24.15378",
      "inDis" : "50",
      "routeId" : "99",
      "seqNo" : "2"
   },
   {
      "GoBack" : "1",
      "longitude" : "120.68525",
      "outDis" : "50",
      "Id" : "0046",
      "oid" : "49A21CDA421141C09F307D70A4567AA9",
      "districtId" : "1",
      "nameZh" : "中友百貨",
      "pgp" : "0",
      "terminal" : "0",
      "latitude" : "24.1525",
      "inDis" : "50",
      "routeId" : "99",
      "seqNo" : "3"
   },
   {
      "GoBack" : "1",
      "longitude" : "120.68396",
      "outDis" : "50",
      "Id" : "0045",
      "oid" : "44C6A2F593D24AA9865FA38948F2EE5E",
      "districtId" : "1",
      "nameZh" : "國立臺中科技大學",
      "pgp" : "0",
      "terminal" : "0",
      "latitude" : "24.14936",
      "inDis" : "50",
      "routeId" : "99",
      "seqNo" : "4"
   },
   {
      "GoBack" : "1",
      "longitude" : "120.68228",
      "outDis" : "50",
      "Id" : "4543",
      "oid" : "58F2817B10D1466999EC444F92B814CC",
      "districtId" : "1",
      "nameZh" : "臺中公園(三民路)",
      "pgp" : "0",
      "terminal" : "0",
      "latitude" : "24.14554",
      "inDis" : "50",
      "routeId" : "99",
      "seqNo" : "5"
   },
   {
      "GoBack" : "1",
      "longitude" : "120.68113",
      "outDis" : "50",
      "Id" : "5506",
      "oid" : "616D59CD870B43DD968A5F864191F4F3",
      "districtId" : "1",
      "nameZh" : "光復國小(三民路)",
      "pgp" : "0",
      "terminal" : "0",
      "latitude" : "24.14401",
      "inDis" : "50",
      "routeId" : "99",
      "seqNo" : "6"
   },
   {
      "GoBack" : "1",
      "longitude" : "120.67986",
      "outDis" : "50",
      "Id" : "4609",
      "oid" : "76ACFB8D14C44242BAEA8DCC65C9B889",
      "districtId" : "1",
      "nameZh" : "第二市場(三民路)",
      "pgp" : "0",
      "terminal" : "0",
      "latitude" : "24.14274",
      "inDis" : "50",
      "routeId" : "99",
      "seqNo" : "7"
   },
   {
      "GoBack" : "1",
      "longitude" : "120.67838",
      "outDis" : "50",
      "Id" : "5026",
      "oid" : "309504377",
      "districtId" : "1",
      "nameZh" : "美榮藥局",
      "pgp" : "0",
      "terminal" : "0",
      "latitude" : "24.14131",
      "inDis" : "50",
      "routeId" : "99",
      "seqNo" : "8"
   },
   {
      "GoBack" : "1",
      "longitude" : "120.67604",
      "outDis" : "50",
      "Id" : "0209",
      "oid" : "10382",
      "districtId" : "1",
      "nameZh" : "臺中科大民生校區",
      "pgp" : "0",
      "terminal" : "0",
      "latitude" : "24.139",
      "inDis" : "50",
      "routeId" : "99",
      "seqNo" : "9"
   },
   {
      "GoBack" : "1",
      "longitude" : "120.67406",
      "outDis" : "50",
      "Id" : "0210",
      "oid" : "10387",
      "districtId" : "1",
      "nameZh" : "忠孝國小",
      "pgp" : "0",
      "terminal" : "0",
      "latitude" : "24.13715",
      "inDis" : "50",
      "routeId" : "99",
      "seqNo" : "10"
   },
   {
      "GoBack" : "1",
      "longitude" : "120.67248",
      "outDis" : "50",
      "Id" : "0673",
      "oid" : "10388",
      "districtId" : "1",
      "nameZh" : "三民林森路口",
      "pgp" : "0",
      "terminal" : "0",
      "latitude" : "24.13556",
      "inDis" : "50",
      "routeId" : "99",
      "seqNo" : "11"
   },
   {
      "GoBack" : "1",
      "longitude" : "120.6696",
      "outDis" : "50",
      "Id" : "5661",
      "oid" : "10379",
      "districtId" : "1",
      "nameZh" : "公館(三民路) ",
      "pgp" : "0",
      "terminal" : "0",
      "latitude" : "24.13275",
      "inDis" : "50",
      "routeId" : "99",
      "seqNo" : "12"
   },
   {
      "GoBack" : "1",
      "longitude" : "120.6648",
      "outDis" : "50",
      "Id" : "0562",
      "oid" : "10384",
      "districtId" : "1",
      "nameZh" : "永安市場",
      "pgp" : "0",
      "terminal" : "0",
      "latitude" : "24.13215",
      "inDis" : "50",
      "routeId" : "99",
      "seqNo" : "13"
   },
   {
      "GoBack" : "1",
      "longitude" : "120.66132",
      "outDis" : "50",
      "Id" : "4637",
      "oid" : "10389",
      "districtId" : "1",
      "nameZh" : "南屯美村路口",
      "pgp" : "0",
      "terminal" : "0",
      "latitude" : "24.13231",
      "inDis" : "50",
      "routeId" : "99",
      "seqNo" : "14"
   },
   {
      "GoBack" : "1",
      "longitude" : "120.65968",
      "outDis" : "50",
      "Id" : "0935",
      "oid" : "10400",
      "districtId" : "1",
      "nameZh" : "靜和醫院",
      "pgp" : "0",
      "terminal" : "0",
      "latitude" : "24.13321",
      "inDis" : "50",
      "routeId" : "99",
      "seqNo" : "15"
   },
   {
      "GoBack" : "1",
      "longitude" : "120.65784",
      "outDis" : "50",
      "Id" : "0126",
      "oid" : "10390",
      "districtId" : "1",
      "nameZh" : "崇倫國中(南屯路)",
      "pgp" : "0",
      "terminal" : "0",
      "latitude" : "24.13368",
      "inDis" : "50",
      "routeId" : "99",
      "seqNo" : "16"
   },
   {
      "GoBack" : "1",
      "longitude" : "120.65592",
      "outDis" : "50",
      "Id" : "0348",
      "oid" : "10375",
      "districtId" : "1",
      "nameZh" : "土庫",
      "pgp" : "0",
      "terminal" : "0",
      "latitude" : "24.13458",
      "inDis" : "50",
      "routeId" : "99",
      "seqNo" : "17"
   },
   {
      "GoBack" : "1",
      "longitude" : "120.65335",
      "outDis" : "50",
      "Id" : "0569",
      "oid" : "10385",
      "districtId" : "1",
      "nameZh" : "永春東東興路口",
      "pgp" : "0",
      "terminal" : "0",
      "latitude" : "24.13496",
      "inDis" : "50",
      "routeId" : "99",
      "seqNo" : "18"
   },
   {
      "GoBack" : "1",
      "longitude" : "120.65312",
      "outDis" : "50",
      "Id" : "4029",
      "oid" : "10394",
      "districtId" : "1",
      "nameZh" : "愛心家園",
      "pgp" : "0",
      "terminal" : "0",
      "latitude" : "24.13231",
      "inDis" : "50",
      "routeId" : "99",
      "seqNo" : "19"
   },
   {
      "GoBack" : "1",
      "longitude" : "120.6511",
      "outDis" : "50",
      "Id" : "4970",
      "oid" : "309040915",
      "districtId" : "1",
      "nameZh" : "文心南五路260巷口",
      "pgp" : "0",
      "terminal" : "0",
      "latitude" : "24.13208",
      "inDis" : "50",
      "routeId" : "99",
      "seqNo" : "20"
   },
   {
      "GoBack" : "1",
      "longitude" : "120.64853",
      "outDis" : "50",
      "Id" : "4030",
      "oid" : "10386",
      "districtId" : "1",
      "nameZh" : "好市多",
      "pgp" : "0",
      "terminal" : "0",
      "latitude" : "24.13201",
      "inDis" : "50",
      "routeId" : "99",
      "seqNo" : "21"
   },
   {
      "GoBack" : "1",
      "longitude" : "120.6465",
      "outDis" : "50",
      "Id" : "0026",
      "oid" : "10401",
      "districtId" : "1",
      "nameZh" : "豐樂公園",
      "pgp" : "0",
      "terminal" : "0",
      "latitude" : "24.13027",
      "inDis" : "50",
      "routeId" : "99",
      "seqNo" : "22"
   },
   {
      "GoBack" : "1",
      "longitude" : "120.64885",
      "outDis" : "50",
      "Id" : "4034",
      "oid" : "10377",
      "districtId" : "1",
      "nameZh" : "中山醫學大學",
      "pgp" : "0",
      "terminal" : "0",
      "latitude" : "24.12251",
      "inDis" : "50",
      "routeId" : "99",
      "seqNo" : "24"
   },
   {
      "GoBack" : "1",
      "longitude" : "120.64786",
      "outDis" : "50",
      "Id" : "4032",
      "oid" : "10376",
      "districtId" : "1",
      "nameZh" : "大慶火車站",
      "pgp" : "0",
      "terminal" : "0",
      "latitude" : "24.11912",
      "inDis" : "50",
      "routeId" : "99",
      "seqNo" : "25"
   },
   {
      "GoBack" : "1",
      "longitude" : "120.63425",
      "outDis" : "50",
      "Id" : "5379",
      "oid" : "312026957",
      "districtId" : "1",
      "nameZh" : "九德(建國路)",
      "pgp" : "0",
      "terminal" : "0",
      "latitude" : "24.11078",
      "inDis" : "50",
      "routeId" : "99",
      "seqNo" : "28"
   },
   {
      "GoBack" : "1",
      "longitude" : "120.62663",
      "outDis" : "50",
      "Id" : "4176",
      "oid" : "129833955",
      "districtId" : "1",
      "nameZh" : "光日站",
      "pgp" : "0",
      "terminal" : "0",
      "latitude" : "24.1088",
      "inDis" : "50",
      "routeId" : "99",
      "seqNo" : "29"
   },
   {
      "GoBack" : "1",
      "longitude" : "120.61715",
      "outDis" : "50",
      "Id" : "2907",
      "oid" : "310692262",
      "districtId" : "1",
      "nameZh" : "高鐵台中站(16月台)",
      "pgp" : "0",
      "terminal" : "0",
      "latitude" : "24.11181",
      "inDis" : "50",
      "routeId" : "99",
      "seqNo" : "30"
   },
   {
      "GoBack" : "1",
      "longitude" : "120.60802",
      "outDis" : "50",
      "Id" : "4757",
      "oid" : "307153397",
      "districtId" : "1",
      "nameZh" : "幸記公司",
      "pgp" : "0",
      "terminal" : "0",
      "latitude" : "24.11806",
      "inDis" : "50",
      "routeId" : "99",
      "seqNo" : "33"
   },
   {
      "GoBack" : "1",
      "longitude" : "120.60777",
      "outDis" : "50",
      "Id" : "4758",
      "oid" : "307153496",
      "districtId" : "1",
      "nameZh" : "學田診所",
      "pgp" : "0",
      "terminal" : "0",
      "latitude" : "24.12063",
      "inDis" : "50",
      "routeId" : "99",
      "seqNo" : "34"
   },
   {
      "GoBack" : "1",
      "longitude" : "120.6073",
      "outDis" : "50",
      "Id" : "5472",
      "oid" : "314251941",
      "districtId" : "1",
      "nameZh" : "學田活動中心",
      "pgp" : "0",
      "terminal" : "0",
      "latitude" : "24.12222",
      "inDis" : "50",
      "routeId" : "99",
      "seqNo" : "35"
   },
   {
      "GoBack" : "1",
      "longitude" : "120.60689",
      "outDis" : "50",
      "Id" : "4759",
      "oid" : "307153497",
      "districtId" : "1",
      "nameZh" : "烏日學田里",
      "pgp" : "0",
      "terminal" : "0",
      "latitude" : "24.12455",
      "inDis" : "50",
      "routeId" : "99",
      "seqNo" : "36"
   },
   {
      "GoBack" : "1",
      "longitude" : "120.60748",
      "outDis" : "50",
      "Id" : "4760",
      "oid" : "307153499",
      "districtId" : "1",
      "nameZh" : "成功嶺3號門",
      "pgp" : "0",
      "terminal" : "0",
      "latitude" : "24.12644",
      "inDis" : "50",
      "routeId" : "99",
      "seqNo" : "37"
   },
   {
      "GoBack" : "1",
      "longitude" : "120.60908",
      "outDis" : "50",
      "Id" : "4964",
      "oid" : "308523039",
      "districtId" : "1",
      "nameZh" : "同安南北巷口",
      "pgp" : "0",
      "terminal" : "0",
      "latitude" : "24.12914",
      "inDis" : "50",
      "routeId" : "99",
      "seqNo" : "38"
   },
   {
      "GoBack" : "1",
      "longitude" : "120.61049",
      "outDis" : "50",
      "Id" : "4761",
      "oid" : "307153500",
      "districtId" : "1",
      "nameZh" : "南屯同安厝",
      "pgp" : "0",
      "terminal" : "0",
      "latitude" : "24.13168",
      "inDis" : "50",
      "routeId" : "99",
      "seqNo" : "39"
   },
   {
      "GoBack" : "1",
      "longitude" : "120.61133",
      "outDis" : "50",
      "Id" : "4762",
      "oid" : "307153501",
      "districtId" : "1",
      "nameZh" : "彩虹眷村",
      "pgp" : "0",
      "terminal" : "0",
      "latitude" : "24.13403",
      "inDis" : "50",
      "routeId" : "99",
      "seqNo" : "40"
   },
   {
      "GoBack" : "1",
      "longitude" : "120.61191",
      "outDis" : "50",
      "Id" : "4763",
      "oid" : "307153502",
      "districtId" : "1",
      "nameZh" : "春社派出所",
      "pgp" : "0",
      "terminal" : "0",
      "latitude" : "24.13612",
      "inDis" : "50",
      "routeId" : "99",
      "seqNo" : "41"
   },
   {
      "GoBack" : "1",
      "longitude" : "120.61147",
      "outDis" : "50",
      "Id" : "3874",
      "oid" : "619A4DBF26E64900BA55CB46F2B68A6F",
      "districtId" : "1",
      "nameZh" : "嶺東高中",
      "pgp" : "0",
      "terminal" : "0",
      "latitude" : "24.13851",
      "inDis" : "50",
      "routeId" : "99",
      "seqNo" : "42"
   },
   {
      "GoBack" : "1",
      "longitude" : "120.60886",
      "outDis" : "50",
      "Id" : "5162",
      "oid" : "68BF85D4CE04447087962CF1EEDACFB6",
      "districtId" : "1",
      "nameZh" : "嶺東科技大學(永春南路)",
      "pgp" : "0",
      "terminal" : "0",
      "latitude" : "24.13859",
      "inDis" : "50",
      "routeId" : "99",
      "seqNo" : "43"
   },
   {
      "GoBack" : "2",
      "longitude" : "120.60906",
      "outDis" : "50",
      "Id" : "5162",
      "oid" : "A5BA82E1E5D84D6996CBC2459367C9A8",
      "districtId" : "1",
      "nameZh" : "嶺東科技大學(永春南路)",
      "pgp" : "0",
      "terminal" : "0",
      "latitude" : "24.13851",
      "inDis" : "50",
      "routeId" : "99",
      "seqNo" : "1"
   },
   {
      "GoBack" : "2",
      "longitude" : "120.61141",
      "outDis" : "50",
      "Id" : "3874",
      "oid" : "7C771850A3814FF691E283A433E21890",
      "districtId" : "1",
      "nameZh" : "嶺東高中",
      "pgp" : "0",
      "terminal" : "0",
      "latitude" : "24.13851",
      "inDis" : "50",
      "routeId" : "99",
      "seqNo" : "2"
   },
   {
      "GoBack" : "2",
      "longitude" : "120.61191",
      "outDis" : "50",
      "Id" : "4763",
      "oid" : "307153502",
      "districtId" : "1",
      "nameZh" : "春社派出所",
      "pgp" : "0",
      "terminal" : "0",
      "latitude" : "24.13612",
      "inDis" : "50",
      "routeId" : "99",
      "seqNo" : "3"
   },
   {
      "GoBack" : "2",
      "longitude" : "120.61133",
      "outDis" : "50",
      "Id" : "4762",
      "oid" : "307153501",
      "districtId" : "1",
      "nameZh" : "彩虹眷村",
      "pgp" : "0",
      "terminal" : "0",
      "latitude" : "24.13403",
      "inDis" : "50",
      "routeId" : "99",
      "seqNo" : "4"
   },
   {
      "GoBack" : "2",
      "longitude" : "120.61049",
      "outDis" : "50",
      "Id" : "4761",
      "oid" : "307153500",
      "districtId" : "1",
      "nameZh" : "南屯同安厝",
      "pgp" : "0",
      "terminal" : "0",
      "latitude" : "24.13168",
      "inDis" : "50",
      "routeId" : "99",
      "seqNo" : "5"
   },
   {
      "GoBack" : "2",
      "longitude" : "120.60908",
      "outDis" : "50",
      "Id" : "4964",
      "oid" : "308523040",
      "districtId" : "1",
      "nameZh" : "同安南北巷口",
      "pgp" : "0",
      "terminal" : "0",
      "latitude" : "24.12914",
      "inDis" : "50",
      "routeId" : "99",
      "seqNo" : "6"
   },
   {
      "GoBack" : "2",
      "longitude" : "120.60748",
      "outDis" : "50",
      "Id" : "4760",
      "oid" : "307153499",
      "districtId" : "1",
      "nameZh" : "成功嶺3號門",
      "pgp" : "0",
      "terminal" : "0",
      "latitude" : "24.12644",
      "inDis" : "50",
      "routeId" : "99",
      "seqNo" : "7"
   },
   {
      "GoBack" : "2",
      "longitude" : "120.60689",
      "outDis" : "50",
      "Id" : "4759",
      "oid" : "307153497",
      "districtId" : "1",
      "nameZh" : "烏日學田里",
      "pgp" : "0",
      "terminal" : "0",
      "latitude" : "24.12455",
      "inDis" : "50",
      "routeId" : "99",
      "seqNo" : "8"
   },
   {
      "GoBack" : "2",
      "longitude" : "120.6073",
      "outDis" : "50",
      "Id" : "5472",
      "oid" : "314251941",
      "districtId" : "1",
      "nameZh" : "學田活動中心",
      "pgp" : "0",
      "terminal" : "0",
      "latitude" : "24.12222",
      "inDis" : "50",
      "routeId" : "99",
      "seqNo" : "9"
   },
   {
      "GoBack" : "2",
      "longitude" : "120.60777",
      "outDis" : "50",
      "Id" : "4758",
      "oid" : "307153496",
      "districtId" : "1",
      "nameZh" : "學田診所",
      "pgp" : "0",
      "terminal" : "0",
      "latitude" : "24.12063",
      "inDis" : "50",
      "routeId" : "99",
      "seqNo" : "10"
   },
   {
      "GoBack" : "2",
      "longitude" : "120.60802",
      "outDis" : "50",
      "Id" : "4757",
      "oid" : "307153397",
      "districtId" : "1",
      "nameZh" : "幸記公司",
      "pgp" : "0",
      "terminal" : "0",
      "latitude" : "24.11806",
      "inDis" : "50",
      "routeId" : "99",
      "seqNo" : "11"
   },
   {
      "GoBack" : "2",
      "longitude" : "120.61872",
      "outDis" : "50",
      "Id" : "2907",
      "oid" : "310692263",
      "districtId" : "1",
      "nameZh" : "高鐵台中站(16月台)",
      "pgp" : "0",
      "terminal" : "0",
      "latitude" : "24.11117",
      "inDis" : "50",
      "routeId" : "99",
      "seqNo" : "14"
   },
   {
      "GoBack" : "2",
      "longitude" : "120.62606",
      "outDis" : "50",
      "Id" : "4176",
      "oid" : "129833958",
      "districtId" : "1",
      "nameZh" : "光日站",
      "pgp" : "0",
      "terminal" : "0",
      "latitude" : "24.1086",
      "inDis" : "50",
      "routeId" : "99",
      "seqNo" : "15"
   },
   {
      "GoBack" : "2",
      "longitude" : "120.63425",
      "outDis" : "50",
      "Id" : "5379",
      "oid" : "312026957",
      "districtId" : "1",
      "nameZh" : "九德(建國路)",
      "pgp" : "0",
      "terminal" : "0",
      "latitude" : "24.11078",
      "inDis" : "50",
      "routeId" : "99",
      "seqNo" : "16"
   },
   {
      "GoBack" : "2",
      "longitude" : "120.64786",
      "outDis" : "50",
      "Id" : "4032",
      "oid" : "10376",
      "districtId" : "1",
      "nameZh" : "大慶火車站",
      "pgp" : "0",
      "terminal" : "0",
      "latitude" : "24.11912",
      "inDis" : "50",
      "routeId" : "99",
      "seqNo" : "19"
   },
   {
      "GoBack" : "2",
      "longitude" : "120.64885",
      "outDis" : "50",
      "Id" : "4034",
      "oid" : "10377",
      "districtId" : "1",
      "nameZh" : "中山醫學大學",
      "pgp" : "0",
      "terminal" : "0",
      "latitude" : "24.12251",
      "inDis" : "50",
      "routeId" : "99",
      "seqNo" : "20"
   },
   {
      "GoBack" : "2",
      "longitude" : "120.6465",
      "outDis" : "50",
      "Id" : "0026",
      "oid" : "10401",
      "districtId" : "1",
      "nameZh" : "豐樂公園",
      "pgp" : "0",
      "terminal" : "0",
      "latitude" : "24.13027",
      "inDis" : "50",
      "routeId" : "99",
      "seqNo" : "22"
   },
   {
      "GoBack" : "2",
      "longitude" : "120.64853",
      "outDis" : "50",
      "Id" : "4030",
      "oid" : "10386",
      "districtId" : "1",
      "nameZh" : "好市多",
      "pgp" : "0",
      "terminal" : "0",
      "latitude" : "24.13201",
      "inDis" : "50",
      "routeId" : "99",
      "seqNo" : "23"
   },
   {
      "GoBack" : "2",
      "longitude" : "120.6511",
      "outDis" : "50",
      "Id" : "4970",
      "oid" : "309040915",
      "districtId" : "1",
      "nameZh" : "文心南五路260巷口",
      "pgp" : "0",
      "terminal" : "0",
      "latitude" : "24.13208",
      "inDis" : "50",
      "routeId" : "99",
      "seqNo" : "24"
   },
   {
      "GoBack" : "2",
      "longitude" : "120.65312",
      "outDis" : "50",
      "Id" : "4029",
      "oid" : "10394",
      "districtId" : "1",
      "nameZh" : "愛心家園",
      "pgp" : "0",
      "terminal" : "0",
      "latitude" : "24.13231",
      "inDis" : "50",
      "routeId" : "99",
      "seqNo" : "25"
   },
   {
      "GoBack" : "2",
      "longitude" : "120.65335",
      "outDis" : "50",
      "Id" : "0569",
      "oid" : "10385",
      "districtId" : "1",
      "nameZh" : "永春東東興路口",
      "pgp" : "0",
      "terminal" : "0",
      "latitude" : "24.13496",
      "inDis" : "50",
      "routeId" : "99",
      "seqNo" : "26"
   },
   {
      "GoBack" : "2",
      "longitude" : "120.65592",
      "outDis" : "50",
      "Id" : "0348",
      "oid" : "10375",
      "districtId" : "1",
      "nameZh" : "土庫",
      "pgp" : "0",
      "terminal" : "0",
      "latitude" : "24.13458",
      "inDis" : "50",
      "routeId" : "99",
      "seqNo" : "27"
   },
   {
      "GoBack" : "2",
      "longitude" : "120.65784",
      "outDis" : "50",
      "Id" : "0126",
      "oid" : "10390",
      "districtId" : "1",
      "nameZh" : "崇倫國中(南屯路)",
      "pgp" : "0",
      "terminal" : "0",
      "latitude" : "24.13368",
      "inDis" : "50",
      "routeId" : "99",
      "seqNo" : "28"
   },
   {
      "GoBack" : "2",
      "longitude" : "120.65968",
      "outDis" : "50",
      "Id" : "0935",
      "oid" : "10400",
      "districtId" : "1",
      "nameZh" : "靜和醫院",
      "pgp" : "0",
      "terminal" : "0",
      "latitude" : "24.13321",
      "inDis" : "50",
      "routeId" : "99",
      "seqNo" : "29"
   },
   {
      "GoBack" : "2",
      "longitude" : "120.66132",
      "outDis" : "50",
      "Id" : "4637",
      "oid" : "10389",
      "districtId" : "1",
      "nameZh" : "南屯美村路口",
      "pgp" : "0",
      "terminal" : "0",
      "latitude" : "24.13231",
      "inDis" : "50",
      "routeId" : "99",
      "seqNo" : "30"
   },
   {
      "GoBack" : "2",
      "longitude" : "120.6648",
      "outDis" : "50",
      "Id" : "0562",
      "oid" : "10384",
      "districtId" : "1",
      "nameZh" : "永安市場",
      "pgp" : "0",
      "terminal" : "0",
      "latitude" : "24.13215",
      "inDis" : "50",
      "routeId" : "99",
      "seqNo" : "31"
   },
   {
      "GoBack" : "2",
      "longitude" : "120.6696",
      "outDis" : "50",
      "Id" : "5661",
      "oid" : "10379",
      "districtId" : "1",
      "nameZh" : "公館(三民路) ",
      "pgp" : "0",
      "terminal" : "0",
      "latitude" : "24.13275",
      "inDis" : "50",
      "routeId" : "99",
      "seqNo" : "32"
   },
   {
      "GoBack" : "2",
      "longitude" : "120.67248",
      "outDis" : "50",
      "Id" : "0673",
      "oid" : "10388",
      "districtId" : "1",
      "nameZh" : "三民林森路口",
      "pgp" : "0",
      "terminal" : "0",
      "latitude" : "24.13556",
      "inDis" : "50",
      "routeId" : "99",
      "seqNo" : "33"
   },
   {
      "GoBack" : "2",
      "longitude" : "120.67406",
      "outDis" : "50",
      "Id" : "0210",
      "oid" : "10387",
      "districtId" : "1",
      "nameZh" : "忠孝國小",
      "pgp" : "0",
      "terminal" : "0",
      "latitude" : "24.13715",
      "inDis" : "50",
      "routeId" : "99",
      "seqNo" : "34"
   },
   {
      "GoBack" : "2",
      "longitude" : "120.67604",
      "outDis" : "50",
      "Id" : "0209",
      "oid" : "10382",
      "districtId" : "1",
      "nameZh" : "臺中科大民生校區",
      "pgp" : "0",
      "terminal" : "0",
      "latitude" : "24.139",
      "inDis" : "50",
      "routeId" : "99",
      "seqNo" : "35"
   },
   {
      "GoBack" : "2",
      "longitude" : "120.67821",
      "outDis" : "50",
      "Id" : "5026",
      "oid" : "309504378",
      "districtId" : "1",
      "nameZh" : "美榮藥局",
      "pgp" : "0",
      "terminal" : "0",
      "latitude" : "24.14119",
      "inDis" : "50",
      "routeId" : "99",
      "seqNo" : "36"
   },
   {
      "GoBack" : "2",
      "longitude" : "120.68091",
      "outDis" : "50",
      "Id" : "5506",
      "oid" : "8A3D17D8A606447DAE64873A8642C36F",
      "districtId" : "1",
      "nameZh" : "光復國小(三民路)",
      "pgp" : "0",
      "terminal" : "0",
      "latitude" : "24.14368",
      "inDis" : "50",
      "routeId" : "99",
      "seqNo" : "37"
   },
   {
      "GoBack" : "2",
      "longitude" : "120.68224",
      "outDis" : "50",
      "Id" : "4543",
      "oid" : "A02806217F234B188F720CDC03520228",
      "districtId" : "1",
      "nameZh" : "臺中公園(三民路)",
      "pgp" : "0",
      "terminal" : "0",
      "latitude" : "24.14526",
      "inDis" : "50",
      "routeId" : "99",
      "seqNo" : "38"
   },
   {
      "GoBack" : "2",
      "longitude" : "120.68393",
      "outDis" : "50",
      "Id" : "0045",
      "oid" : "52574759FAE1418FAD75EDCB5FB7D79A",
      "districtId" : "1",
      "nameZh" : "國立臺中科技大學",
      "pgp" : "0",
      "terminal" : "0",
      "latitude" : "24.14947",
      "inDis" : "50",
      "routeId" : "99",
      "seqNo" : "39"
   },
   {
      "GoBack" : "2",
      "longitude" : "120.68488",
      "outDis" : "50",
      "Id" : "0046",
      "oid" : "E64A82A8B1B648D284C7AEB6AF35F5A1",
      "districtId" : "1",
      "nameZh" : "中友百貨",
      "pgp" : "0",
      "terminal" : "0",
      "latitude" : "24.1517",
      "inDis" : "50",
      "routeId" : "99",
      "seqNo" : "40"
   },
   {
      "GoBack" : "2",
      "longitude" : "120.68587",
      "outDis" : "50",
      "Id" : "0047",
      "oid" : "F4B71140B9D244C68A570881F199A969",
      "districtId" : "1",
      "nameZh" : "一心市場",
      "pgp" : "0",
      "terminal" : "0",
      "latitude" : "24.1542",
      "inDis" : "50",
      "routeId" : "99",
      "seqNo" : "41"
   },
   {
      "GoBack" : "2",
      "longitude" : "120.68854",
      "outDis" : "50",
      "Id" : "4399",
      "oid" : "AA7470515917490F81BDF9339CA99C37",
      "districtId" : "1",
      "nameZh" : "新民高中(三民路)",
      "pgp" : "0",
      "terminal" : "0",
      "latitude" : "24.15679",
      "inDis" : "50",
      "routeId" : "99",
      "seqNo" : "42"
   },
   {
      "GoBack" : "2",
      "longitude" : "120.68941",
      "outDis" : "50",
      "Id" : "4520",
      "oid" : "305458530",
      "districtId" : "1",
      "nameZh" : "文英兒童公園",
      "pgp" : "0",
      "terminal" : "0",
      "latitude" : "24.15652",
      "inDis" : "50",
      "routeId" : "99",
      "seqNo" : "43"
   },
   {
      "GoBack" : "2",
      "longitude" : "120.68797",
      "outDis" : "50",
      "Id" : "0048",
      "oid" : "12624",
      "districtId" : "1",
      "nameZh" : "莒光新城",
      "pgp" : "0",
      "terminal" : "0",
      "latitude" : "24.15401",
      "inDis" : "50",
      "routeId" : "99",
      "seqNo" : "44"
   }
]
