[
   {
      "GoBack" : "1",
      "longitude" : "120.54284",
      "outDis" : "50",
      "Id" : "0099",
      "oid" : "318991869",
      "districtId" : "1",
      "nameZh" : "大肚火車站(華山路)",
      "pgp" : "0",
      "terminal" : "0",
      "latitude" : "24.15404",
      "inDis" : "50",
      "routeId" : "藍11",
      "seqNo" : "1"
   },
   {
      "GoBack" : "1",
      "longitude" : "120.54536",
      "outDis" : "50",
      "Id" : "4786",
      "oid" : "318991871",
      "districtId" : "1",
      "nameZh" : "大肚區公所",
      "pgp" : "0",
      "terminal" : "0",
      "latitude" : "24.1512",
      "inDis" : "50",
      "routeId" : "藍11",
      "seqNo" : "2"
   },
   {
      "GoBack" : "1",
      "longitude" : "120.54565",
      "outDis" : "50",
      "Id" : "1302",
      "oid" : "7217",
      "districtId" : "1",
      "nameZh" : "大肚",
      "pgp" : "0",
      "terminal" : "0",
      "latitude" : "24.15014",
      "inDis" : "50",
      "routeId" : "藍11",
      "seqNo" : "3"
   },
   {
      "GoBack" : "1",
      "longitude" : "120.54619",
      "outDis" : "50",
      "Id" : "5401",
      "oid" : "318991875",
      "districtId" : "1",
      "nameZh" : "平和東沙田路口",
      "pgp" : "0",
      "terminal" : "0",
      "latitude" : "24.14857",
      "inDis" : "50",
      "routeId" : "藍11",
      "seqNo" : "4"
   },
   {
      "GoBack" : "1",
      "longitude" : "120.54838",
      "outDis" : "50",
      "Id" : "5400",
      "oid" : "318991877",
      "districtId" : "1",
      "nameZh" : "育英平和東路口",
      "pgp" : "0",
      "terminal" : "0",
      "latitude" : "24.1487",
      "inDis" : "50",
      "routeId" : "藍11",
      "seqNo" : "5"
   },
   {
      "GoBack" : "1",
      "longitude" : "120.54779",
      "outDis" : "50",
      "Id" : "5395",
      "oid" : "318991879",
      "districtId" : "1",
      "nameZh" : "自治育英路口",
      "pgp" : "0",
      "terminal" : "0",
      "latitude" : "24.15184",
      "inDis" : "50",
      "routeId" : "藍11",
      "seqNo" : "6"
   },
   {
      "GoBack" : "1",
      "longitude" : "120.572",
      "outDis" : "50",
      "Id" : "0455",
      "oid" : "318991881",
      "districtId" : "1",
      "nameZh" : "臺中區監理所（華南路）",
      "pgp" : "0",
      "terminal" : "0",
      "latitude" : "24.15583",
      "inDis" : "50",
      "routeId" : "藍11",
      "seqNo" : "7"
   },
   {
      "GoBack" : "1",
      "longitude" : "120.57336",
      "outDis" : "50",
      "Id" : "4752",
      "oid" : "318991883",
      "districtId" : "1",
      "nameZh" : "幸福新城",
      "pgp" : "0",
      "terminal" : "0",
      "latitude" : "24.15784",
      "inDis" : "50",
      "routeId" : "藍11",
      "seqNo" : "8"
   },
   {
      "GoBack" : "1",
      "longitude" : "120.57437",
      "outDis" : "50",
      "Id" : "1480",
      "oid" : "318991885",
      "districtId" : "1",
      "nameZh" : "中富國宅",
      "pgp" : "0",
      "terminal" : "0",
      "latitude" : "24.1598",
      "inDis" : "50",
      "routeId" : "藍11",
      "seqNo" : "9"
   },
   {
      "GoBack" : "1",
      "longitude" : "120.57538",
      "outDis" : "50",
      "Id" : "1521",
      "oid" : "318992065",
      "districtId" : "1",
      "nameZh" : "井子頭",
      "pgp" : "0",
      "terminal" : "0",
      "latitude" : "24.16178",
      "inDis" : "50",
      "routeId" : "藍11",
      "seqNo" : "10"
   },
   {
      "GoBack" : "1",
      "longitude" : "120.5763",
      "outDis" : "50",
      "Id" : "5145",
      "oid" : "318992067",
      "districtId" : "1",
      "nameZh" : "瑞井里",
      "pgp" : "0",
      "terminal" : "0",
      "latitude" : "24.16337",
      "inDis" : "50",
      "routeId" : "藍11",
      "seqNo" : "11"
   },
   {
      "GoBack" : "1",
      "longitude" : "120.5776",
      "outDis" : "50",
      "Id" : "2419",
      "oid" : "318992069",
      "districtId" : "1",
      "nameZh" : "東海駕訓班",
      "pgp" : "0",
      "terminal" : "0",
      "latitude" : "24.16589",
      "inDis" : "50",
      "routeId" : "藍11",
      "seqNo" : "12"
   },
   {
      "GoBack" : "1",
      "longitude" : "120.5788",
      "outDis" : "50",
      "Id" : "1501",
      "oid" : "318992071",
      "districtId" : "1",
      "nameZh" : "遊園中蔗路口",
      "pgp" : "0",
      "terminal" : "0",
      "latitude" : "24.16828",
      "inDis" : "50",
      "routeId" : "藍11",
      "seqNo" : "13"
   },
   {
      "GoBack" : "1",
      "longitude" : "120.57977",
      "outDis" : "50",
      "Id" : "3751",
      "oid" : "318992073",
      "districtId" : "1",
      "nameZh" : "蔗部",
      "pgp" : "0",
      "terminal" : "0",
      "latitude" : "24.17085",
      "inDis" : "50",
      "routeId" : "藍11",
      "seqNo" : "14"
   },
   {
      "GoBack" : "1",
      "longitude" : "120.58047",
      "outDis" : "50",
      "Id" : "2168",
      "oid" : "318992075",
      "districtId" : "1",
      "nameZh" : "自強新城",
      "pgp" : "0",
      "terminal" : "0",
      "latitude" : "24.1724",
      "inDis" : "50",
      "routeId" : "藍11",
      "seqNo" : "15"
   },
   {
      "GoBack" : "1",
      "longitude" : "120.58156",
      "outDis" : "50",
      "Id" : "1875",
      "oid" : "318992077",
      "districtId" : "1",
      "nameZh" : "巧聖先師",
      "pgp" : "0",
      "terminal" : "0",
      "latitude" : "24.17563",
      "inDis" : "50",
      "routeId" : "藍11",
      "seqNo" : "16"
   },
   {
      "GoBack" : "1",
      "longitude" : "120.58207",
      "outDis" : "50",
      "Id" : "3747",
      "oid" : "318992079",
      "districtId" : "1",
      "nameZh" : "磐頂教會",
      "pgp" : "0",
      "terminal" : "0",
      "latitude" : "24.17694",
      "inDis" : "50",
      "routeId" : "藍11",
      "seqNo" : "17"
   },
   {
      "GoBack" : "1",
      "longitude" : "120.58327",
      "outDis" : "50",
      "Id" : "5144",
      "oid" : "318992081",
      "districtId" : "1",
      "nameZh" : "新庄里",
      "pgp" : "0",
      "terminal" : "0",
      "latitude" : "24.18024",
      "inDis" : "50",
      "routeId" : "藍11",
      "seqNo" : "18"
   },
   {
      "GoBack" : "1",
      "longitude" : "120.5847",
      "outDis" : "50",
      "Id" : "5389",
      "oid" : "318992083",
      "districtId" : "1",
      "nameZh" : "東海停車場",
      "pgp" : "0",
      "terminal" : "0",
      "latitude" : "24.18357",
      "inDis" : "50",
      "routeId" : "藍11",
      "seqNo" : "19"
   },
   {
      "GoBack" : "1",
      "longitude" : "120.58603",
      "outDis" : "50",
      "Id" : "2325",
      "oid" : "318992085",
      "districtId" : "1",
      "nameZh" : "坪頂",
      "pgp" : "0",
      "terminal" : "0",
      "latitude" : "24.186",
      "inDis" : "50",
      "routeId" : "藍11",
      "seqNo" : "20"
   },
   {
      "GoBack" : "1",
      "longitude" : "120.58788",
      "outDis" : "50",
      "Id" : "5304",
      "oid" : "318992087",
      "districtId" : "1",
      "nameZh" : "東海街口",
      "pgp" : "0",
      "terminal" : "0",
      "latitude" : "24.1853",
      "inDis" : "50",
      "routeId" : "藍11",
      "seqNo" : "21"
   },
   {
      "GoBack" : "1",
      "longitude" : "120.59084",
      "outDis" : "50",
      "Id" : "0094",
      "oid" : "318992089",
      "districtId" : "1",
      "nameZh" : "台糖公營學苑",
      "pgp" : "0",
      "terminal" : "0",
      "latitude" : "24.18385",
      "inDis" : "50",
      "routeId" : "藍11",
      "seqNo" : "22"
   },
   {
      "GoBack" : "1",
      "longitude" : "120.59349",
      "outDis" : "50",
      "Id" : "0240",
      "oid" : "318992091",
      "districtId" : "1",
      "nameZh" : "東海別墅",
      "pgp" : "0",
      "terminal" : "0",
      "latitude" : "24.18299",
      "inDis" : "50",
      "routeId" : "藍11",
      "seqNo" : "23"
   },
   {
      "GoBack" : "1",
      "longitude" : "120.59644",
      "outDis" : "50",
      "Id" : "0526",
      "oid" : "318992093",
      "districtId" : "1",
      "nameZh" : "台中精機",
      "pgp" : "0",
      "terminal" : "0",
      "latitude" : "24.18203",
      "inDis" : "50",
      "routeId" : "藍11",
      "seqNo" : "24"
   },
   {
      "GoBack" : "1",
      "longitude" : "120.60491",
      "outDis" : "50",
      "Id" : "5386",
      "oid" : "318992095",
      "districtId" : "1",
      "nameZh" : "臺中榮總(臺灣大道)",
      "pgp" : "0",
      "terminal" : "0",
      "latitude" : "24.18349",
      "inDis" : "50",
      "routeId" : "藍11",
      "seqNo" : "25"
   },
   {
      "GoBack" : "1",
      "longitude" : "120.60633",
      "outDis" : "50",
      "Id" : "2378",
      "oid" : "318992097",
      "districtId" : "1",
      "nameZh" : "東大附中",
      "pgp" : "0",
      "terminal" : "0",
      "latitude" : "24.18371",
      "inDis" : "50",
      "routeId" : "藍11",
      "seqNo" : "26"
   },
   {
      "GoBack" : "1",
      "longitude" : "120.60821",
      "outDis" : "50",
      "Id" : "0004",
      "oid" : "318992099",
      "districtId" : "1",
      "nameZh" : "普濟寺",
      "pgp" : "0",
      "terminal" : "0",
      "latitude" : "24.18422",
      "inDis" : "50",
      "routeId" : "藍11",
      "seqNo" : "27"
   },
   {
      "GoBack" : "1",
      "longitude" : "120.60964",
      "outDis" : "50",
      "Id" : "5287",
      "oid" : "318992101",
      "districtId" : "1",
      "nameZh" : "玉門臺灣大道口",
      "pgp" : "0",
      "terminal" : "0",
      "latitude" : "24.18516",
      "inDis" : "50",
      "routeId" : "藍11",
      "seqNo" : "28"
   },
   {
      "GoBack" : "1",
      "longitude" : "120.61408",
      "outDis" : "50",
      "Id" : "5316",
      "oid" : "318992103",
      "districtId" : "1",
      "nameZh" : "福科福林路口",
      "pgp" : "0",
      "terminal" : "0",
      "latitude" : "24.18674",
      "inDis" : "50",
      "routeId" : "藍11",
      "seqNo" : "29"
   },
   {
      "GoBack" : "1",
      "longitude" : "120.61712",
      "outDis" : "50",
      "Id" : "0052",
      "oid" : "318992105",
      "districtId" : "1",
      "nameZh" : "福科福康路口",
      "pgp" : "0",
      "terminal" : "0",
      "latitude" : "24.18554",
      "inDis" : "50",
      "routeId" : "藍11",
      "seqNo" : "30"
   },
   {
      "GoBack" : "1",
      "longitude" : "120.62096",
      "outDis" : "50",
      "Id" : "0053",
      "oid" : "318992107",
      "districtId" : "1",
      "nameZh" : "福科永福路口",
      "pgp" : "0",
      "terminal" : "0",
      "latitude" : "24.18382",
      "inDis" : "50",
      "routeId" : "藍11",
      "seqNo" : "31"
   },
   {
      "GoBack" : "1",
      "longitude" : "120.62466",
      "outDis" : "50",
      "Id" : "0010",
      "oid" : "318992109",
      "districtId" : "1",
      "nameZh" : "福科安和路口",
      "pgp" : "0",
      "terminal" : "0",
      "latitude" : "24.18224",
      "inDis" : "50",
      "routeId" : "藍11",
      "seqNo" : "32"
   },
   {
      "GoBack" : "1",
      "longitude" : "120.62508",
      "outDis" : "50",
      "Id" : "0287",
      "oid" : "319311027",
      "districtId" : "1",
      "nameZh" : "福華/裕元",
      "pgp" : "0",
      "terminal" : "0",
      "latitude" : "24.17956",
      "inDis" : "50",
      "routeId" : "藍11",
      "seqNo" : "33"
   },
   {
      "GoBack" : "1",
      "longitude" : "120.62438",
      "outDis" : "50",
      "Id" : "1481",
      "oid" : "318992111",
      "districtId" : "1",
      "nameZh" : "安和臺灣大道口",
      "pgp" : "0",
      "terminal" : "0",
      "latitude" : "24.17838",
      "inDis" : "50",
      "routeId" : "藍11",
      "seqNo" : "34"
   },
   {
      "GoBack" : "1",
      "longitude" : "120.623",
      "outDis" : "50",
      "Id" : "0285",
      "oid" : "319311017",
      "districtId" : "1",
      "nameZh" : "安和福玄路口",
      "pgp" : "0",
      "terminal" : "0",
      "latitude" : "24.1768",
      "inDis" : "50",
      "routeId" : "藍11",
      "seqNo" : "35"
   },
   {
      "GoBack" : "1",
      "longitude" : "120.62225",
      "outDis" : "50",
      "Id" : "5106",
      "oid" : "318992113",
      "districtId" : "1",
      "nameZh" : "安和朝馬路口",
      "pgp" : "0",
      "terminal" : "0",
      "latitude" : "24.17457",
      "inDis" : "50",
      "routeId" : "藍11",
      "seqNo" : "36"
   },
   {
      "GoBack" : "1",
      "longitude" : "120.62001",
      "outDis" : "50",
      "Id" : "0629",
      "oid" : "318992115",
      "districtId" : "1",
      "nameZh" : "協和國小",
      "pgp" : "0",
      "terminal" : "0",
      "latitude" : "24.17012",
      "inDis" : "50",
      "routeId" : "藍11",
      "seqNo" : "37"
   },
   {
      "GoBack" : "1",
      "longitude" : "120.61848",
      "outDis" : "50",
      "Id" : "0329",
      "oid" : "318992117",
      "districtId" : "1",
      "nameZh" : "下七張犁",
      "pgp" : "0",
      "terminal" : "0",
      "latitude" : "24.16461",
      "inDis" : "50",
      "routeId" : "藍11",
      "seqNo" : "38"
   },
   {
      "GoBack" : "1",
      "longitude" : "120.61786",
      "outDis" : "50",
      "Id" : "0765",
      "oid" : "318992119",
      "districtId" : "1",
      "nameZh" : "啟聰學校",
      "pgp" : "0",
      "terminal" : "0",
      "latitude" : "24.1615",
      "inDis" : "50",
      "routeId" : "藍11",
      "seqNo" : "39"
   },
   {
      "GoBack" : "1",
      "longitude" : "120.61713",
      "outDis" : "50",
      "Id" : "3985",
      "oid" : "318992121",
      "districtId" : "1",
      "nameZh" : "寶山里",
      "pgp" : "0",
      "terminal" : "0",
      "latitude" : "24.15748",
      "inDis" : "50",
      "routeId" : "藍11",
      "seqNo" : "40"
   },
   {
      "GoBack" : "1",
      "longitude" : "120.61664",
      "outDis" : "50",
      "Id" : "5494",
      "oid" : "318992123",
      "districtId" : "1",
      "nameZh" : "忠勇五權西路口",
      "pgp" : "0",
      "terminal" : "0",
      "latitude" : "24.15434",
      "inDis" : "50",
      "routeId" : "藍11",
      "seqNo" : "41"
   },
   {
      "GoBack" : "1",
      "longitude" : "120.61641",
      "outDis" : "50",
      "Id" : "5488",
      "oid" : "318992125",
      "districtId" : "1",
      "nameZh" : "忠勇寶山東二街口",
      "pgp" : "0",
      "terminal" : "0",
      "latitude" : "24.15269",
      "inDis" : "50",
      "routeId" : "藍11",
      "seqNo" : "42"
   },
   {
      "GoBack" : "1",
      "longitude" : "120.6157",
      "outDis" : "50",
      "Id" : "5489",
      "oid" : "318992127",
      "districtId" : "1",
      "nameZh" : "寶山里土地公",
      "pgp" : "0",
      "terminal" : "0",
      "latitude" : "24.15073",
      "inDis" : "50",
      "routeId" : "藍11",
      "seqNo" : "43"
   },
   {
      "GoBack" : "1",
      "longitude" : "120.61561",
      "outDis" : "50",
      "Id" : "0165",
      "oid" : "318992129",
      "districtId" : "1",
      "nameZh" : "文山國小(忠勇路)",
      "pgp" : "0",
      "terminal" : "0",
      "latitude" : "24.14961",
      "inDis" : "50",
      "routeId" : "藍11",
      "seqNo" : "44"
   },
   {
      "GoBack" : "1",
      "longitude" : "120.61502",
      "outDis" : "50",
      "Id" : "0160",
      "oid" : "318992131",
      "districtId" : "1",
      "nameZh" : "文山里",
      "pgp" : "0",
      "terminal" : "0",
      "latitude" : "24.14655",
      "inDis" : "50",
      "routeId" : "藍11",
      "seqNo" : "45"
   },
   {
      "GoBack" : "1",
      "longitude" : "120.61473",
      "outDis" : "50",
      "Id" : "0159",
      "oid" : "318992133",
      "districtId" : "1",
      "nameZh" : "一善堂",
      "pgp" : "0",
      "terminal" : "0",
      "latitude" : "24.14489",
      "inDis" : "50",
      "routeId" : "藍11",
      "seqNo" : "46"
   },
   {
      "GoBack" : "1",
      "longitude" : "120.61372",
      "outDis" : "50",
      "Id" : "0158",
      "oid" : "318992135",
      "districtId" : "1",
      "nameZh" : "下文山",
      "pgp" : "0",
      "terminal" : "0",
      "latitude" : "24.14275",
      "inDis" : "50",
      "routeId" : "藍11",
      "seqNo" : "47"
   },
   {
      "GoBack" : "1",
      "longitude" : "120.61318",
      "outDis" : "50",
      "Id" : "0157",
      "oid" : "318992137",
      "districtId" : "1",
      "nameZh" : "七星橋",
      "pgp" : "0",
      "terminal" : "0",
      "latitude" : "24.14074",
      "inDis" : "50",
      "routeId" : "藍11",
      "seqNo" : "48"
   },
   {
      "GoBack" : "1",
      "longitude" : "120.61287",
      "outDis" : "50",
      "Id" : "4599",
      "oid" : "318992139",
      "districtId" : "1",
      "nameZh" : "春社里(忠勇路)",
      "pgp" : "0",
      "terminal" : "0",
      "latitude" : "24.13912",
      "inDis" : "50",
      "routeId" : "藍11",
      "seqNo" : "49"
   },
   {
      "GoBack" : "1",
      "longitude" : "120.61119",
      "outDis" : "50",
      "Id" : "3874",
      "oid" : "318992141",
      "districtId" : "1",
      "nameZh" : "嶺東高中",
      "pgp" : "0",
      "terminal" : "0",
      "latitude" : "24.1385",
      "inDis" : "50",
      "routeId" : "藍11",
      "seqNo" : "50"
   },
   {
      "GoBack" : "1",
      "longitude" : "120.60918",
      "outDis" : "50",
      "Id" : "5162",
      "oid" : "318992143",
      "districtId" : "1",
      "nameZh" : "嶺東科技大學(永春南路)",
      "pgp" : "0",
      "terminal" : "0",
      "latitude" : "24.13853",
      "inDis" : "50",
      "routeId" : "藍11",
      "seqNo" : "51"
   },
   {
      "GoBack" : "2",
      "longitude" : "120.60918",
      "outDis" : "50",
      "Id" : "5162",
      "oid" : "318992145",
      "districtId" : "1",
      "nameZh" : "嶺東科技大學(永春南路)",
      "pgp" : "0",
      "terminal" : "0",
      "latitude" : "24.13853",
      "inDis" : "50",
      "routeId" : "藍11",
      "seqNo" : "1"
   },
   {
      "GoBack" : "2",
      "longitude" : "120.61119",
      "outDis" : "50",
      "Id" : "3874",
      "oid" : "318992147",
      "districtId" : "1",
      "nameZh" : "嶺東高中",
      "pgp" : "0",
      "terminal" : "0",
      "latitude" : "24.1385",
      "inDis" : "50",
      "routeId" : "藍11",
      "seqNo" : "2"
   },
   {
      "GoBack" : "2",
      "longitude" : "120.61287",
      "outDis" : "50",
      "Id" : "4599",
      "oid" : "318992149",
      "districtId" : "1",
      "nameZh" : "春社里(忠勇路)",
      "pgp" : "0",
      "terminal" : "0",
      "latitude" : "24.13912",
      "inDis" : "50",
      "routeId" : "藍11",
      "seqNo" : "3"
   },
   {
      "GoBack" : "2",
      "longitude" : "120.61318",
      "outDis" : "50",
      "Id" : "0157",
      "oid" : "318992151",
      "districtId" : "1",
      "nameZh" : "七星橋",
      "pgp" : "0",
      "terminal" : "0",
      "latitude" : "24.14074",
      "inDis" : "50",
      "routeId" : "藍11",
      "seqNo" : "4"
   },
   {
      "GoBack" : "2",
      "longitude" : "120.61372",
      "outDis" : "50",
      "Id" : "0158",
      "oid" : "318992153",
      "districtId" : "1",
      "nameZh" : "下文山",
      "pgp" : "0",
      "terminal" : "0",
      "latitude" : "24.14275",
      "inDis" : "50",
      "routeId" : "藍11",
      "seqNo" : "5"
   },
   {
      "GoBack" : "2",
      "longitude" : "120.61474",
      "outDis" : "50",
      "Id" : "0159",
      "oid" : "318992155",
      "districtId" : "1",
      "nameZh" : "一善堂",
      "pgp" : "0",
      "terminal" : "0",
      "latitude" : "24.14496",
      "inDis" : "50",
      "routeId" : "藍11",
      "seqNo" : "6"
   },
   {
      "GoBack" : "2",
      "longitude" : "120.61497",
      "outDis" : "50",
      "Id" : "0160",
      "oid" : "318992157",
      "districtId" : "1",
      "nameZh" : "文山里",
      "pgp" : "0",
      "terminal" : "0",
      "latitude" : "24.14588",
      "inDis" : "50",
      "routeId" : "藍11",
      "seqNo" : "7"
   },
   {
      "GoBack" : "2",
      "longitude" : "120.6156",
      "outDis" : "50",
      "Id" : "0165",
      "oid" : "318992159",
      "districtId" : "1",
      "nameZh" : "文山國小(忠勇路)",
      "pgp" : "0",
      "terminal" : "0",
      "latitude" : "24.14938",
      "inDis" : "50",
      "routeId" : "藍11",
      "seqNo" : "8"
   },
   {
      "GoBack" : "2",
      "longitude" : "120.6157",
      "outDis" : "50",
      "Id" : "5489",
      "oid" : "318992161",
      "districtId" : "1",
      "nameZh" : "寶山里土地公",
      "pgp" : "0",
      "terminal" : "0",
      "latitude" : "24.15073",
      "inDis" : "50",
      "routeId" : "藍11",
      "seqNo" : "9"
   },
   {
      "GoBack" : "2",
      "longitude" : "120.61629",
      "outDis" : "50",
      "Id" : "5488",
      "oid" : "318992163",
      "districtId" : "1",
      "nameZh" : "忠勇寶山東二街口",
      "pgp" : "0",
      "terminal" : "0",
      "latitude" : "24.15275",
      "inDis" : "50",
      "routeId" : "藍11",
      "seqNo" : "10"
   },
   {
      "GoBack" : "2",
      "longitude" : "120.61664",
      "outDis" : "50",
      "Id" : "5494",
      "oid" : "318992165",
      "districtId" : "1",
      "nameZh" : "忠勇五權西路口",
      "pgp" : "0",
      "terminal" : "0",
      "latitude" : "24.15434",
      "inDis" : "50",
      "routeId" : "藍11",
      "seqNo" : "11"
   },
   {
      "GoBack" : "2",
      "longitude" : "120.61713",
      "outDis" : "50",
      "Id" : "3985",
      "oid" : "318992167",
      "districtId" : "1",
      "nameZh" : "寶山里",
      "pgp" : "0",
      "terminal" : "0",
      "latitude" : "24.15748",
      "inDis" : "50",
      "routeId" : "藍11",
      "seqNo" : "12"
   },
   {
      "GoBack" : "2",
      "longitude" : "120.61786",
      "outDis" : "50",
      "Id" : "0765",
      "oid" : "318992169",
      "districtId" : "1",
      "nameZh" : "啟聰學校",
      "pgp" : "0",
      "terminal" : "0",
      "latitude" : "24.1615",
      "inDis" : "50",
      "routeId" : "藍11",
      "seqNo" : "13"
   },
   {
      "GoBack" : "2",
      "longitude" : "120.61848",
      "outDis" : "50",
      "Id" : "0329",
      "oid" : "318992171",
      "districtId" : "1",
      "nameZh" : "下七張犁",
      "pgp" : "0",
      "terminal" : "0",
      "latitude" : "24.16461",
      "inDis" : "50",
      "routeId" : "藍11",
      "seqNo" : "14"
   },
   {
      "GoBack" : "2",
      "longitude" : "120.62001",
      "outDis" : "50",
      "Id" : "0629",
      "oid" : "318992173",
      "districtId" : "1",
      "nameZh" : "協和國小",
      "pgp" : "0",
      "terminal" : "0",
      "latitude" : "24.17012",
      "inDis" : "50",
      "routeId" : "藍11",
      "seqNo" : "15"
   },
   {
      "GoBack" : "2",
      "longitude" : "120.62225",
      "outDis" : "50",
      "Id" : "5106",
      "oid" : "318992175",
      "districtId" : "1",
      "nameZh" : "安和朝馬路口",
      "pgp" : "0",
      "terminal" : "0",
      "latitude" : "24.17457",
      "inDis" : "50",
      "routeId" : "藍11",
      "seqNo" : "16"
   },
   {
      "GoBack" : "2",
      "longitude" : "120.623",
      "outDis" : "50",
      "Id" : "0285",
      "oid" : "319311017",
      "districtId" : "1",
      "nameZh" : "安和福玄路口",
      "pgp" : "0",
      "terminal" : "0",
      "latitude" : "24.1768",
      "inDis" : "50",
      "routeId" : "藍11",
      "seqNo" : "17"
   },
   {
      "GoBack" : "2",
      "longitude" : "120.62438",
      "outDis" : "50",
      "Id" : "1481",
      "oid" : "318992177",
      "districtId" : "1",
      "nameZh" : "安和臺灣大道口",
      "pgp" : "0",
      "terminal" : "0",
      "latitude" : "24.17838",
      "inDis" : "50",
      "routeId" : "藍11",
      "seqNo" : "18"
   },
   {
      "GoBack" : "2",
      "longitude" : "120.62508",
      "outDis" : "50",
      "Id" : "0287",
      "oid" : "319311027",
      "districtId" : "1",
      "nameZh" : "福華/裕元",
      "pgp" : "0",
      "terminal" : "0",
      "latitude" : "24.17956",
      "inDis" : "50",
      "routeId" : "藍11",
      "seqNo" : "19"
   },
   {
      "GoBack" : "2",
      "longitude" : "120.62447",
      "outDis" : "50",
      "Id" : "0010",
      "oid" : "318992179",
      "districtId" : "1",
      "nameZh" : "福科安和路口",
      "pgp" : "0",
      "terminal" : "0",
      "latitude" : "24.18235",
      "inDis" : "50",
      "routeId" : "藍11",
      "seqNo" : "20"
   },
   {
      "GoBack" : "2",
      "longitude" : "120.62129",
      "outDis" : "50",
      "Id" : "0053",
      "oid" : "318992181",
      "districtId" : "1",
      "nameZh" : "福科永福路口",
      "pgp" : "0",
      "terminal" : "0",
      "latitude" : "24.18368",
      "inDis" : "50",
      "routeId" : "藍11",
      "seqNo" : "21"
   },
   {
      "GoBack" : "2",
      "longitude" : "120.61728",
      "outDis" : "50",
      "Id" : "0052",
      "oid" : "318992183",
      "districtId" : "1",
      "nameZh" : "福科福康路口",
      "pgp" : "0",
      "terminal" : "0",
      "latitude" : "24.18562",
      "inDis" : "50",
      "routeId" : "藍11",
      "seqNo" : "22"
   },
   {
      "GoBack" : "2",
      "longitude" : "120.61333",
      "outDis" : "50",
      "Id" : "5316",
      "oid" : "318992185",
      "districtId" : "1",
      "nameZh" : "福科福林路口",
      "pgp" : "0",
      "terminal" : "0",
      "latitude" : "24.18681",
      "inDis" : "50",
      "routeId" : "藍11",
      "seqNo" : "23"
   },
   {
      "GoBack" : "2",
      "longitude" : "120.6098",
      "outDis" : "50",
      "Id" : "5287",
      "oid" : "318992187",
      "districtId" : "1",
      "nameZh" : "玉門臺灣大道口",
      "pgp" : "0",
      "terminal" : "0",
      "latitude" : "24.18503",
      "inDis" : "50",
      "routeId" : "藍11",
      "seqNo" : "24"
   },
   {
      "GoBack" : "2",
      "longitude" : "120.60898",
      "outDis" : "50",
      "Id" : "0004",
      "oid" : "318992189",
      "districtId" : "1",
      "nameZh" : "普濟寺",
      "pgp" : "0",
      "terminal" : "0",
      "latitude" : "24.18437",
      "inDis" : "50",
      "routeId" : "藍11",
      "seqNo" : "25"
   },
   {
      "GoBack" : "2",
      "longitude" : "120.60686",
      "outDis" : "50",
      "Id" : "2378",
      "oid" : "318992191",
      "districtId" : "1",
      "nameZh" : "東大附中",
      "pgp" : "0",
      "terminal" : "0",
      "latitude" : "24.18365",
      "inDis" : "50",
      "routeId" : "藍11",
      "seqNo" : "26"
   },
   {
      "GoBack" : "2",
      "longitude" : "120.60491",
      "outDis" : "50",
      "Id" : "5386",
      "oid" : "318992193",
      "districtId" : "1",
      "nameZh" : "臺中榮總(臺灣大道)",
      "pgp" : "0",
      "terminal" : "0",
      "latitude" : "24.18349",
      "inDis" : "50",
      "routeId" : "藍11",
      "seqNo" : "27"
   },
   {
      "GoBack" : "2",
      "longitude" : "120.59644",
      "outDis" : "50",
      "Id" : "0526",
      "oid" : "318992195",
      "districtId" : "1",
      "nameZh" : "台中精機",
      "pgp" : "0",
      "terminal" : "0",
      "latitude" : "24.18203",
      "inDis" : "50",
      "routeId" : "藍11",
      "seqNo" : "28"
   },
   {
      "GoBack" : "2",
      "longitude" : "120.59424",
      "outDis" : "50",
      "Id" : "0240",
      "oid" : "318992197",
      "districtId" : "1",
      "nameZh" : "東海別墅",
      "pgp" : "0",
      "terminal" : "0",
      "latitude" : "24.18244",
      "inDis" : "50",
      "routeId" : "藍11",
      "seqNo" : "29"
   },
   {
      "GoBack" : "2",
      "longitude" : "120.59084",
      "outDis" : "50",
      "Id" : "0094",
      "oid" : "318992199",
      "districtId" : "1",
      "nameZh" : "台糖公營學苑",
      "pgp" : "0",
      "terminal" : "0",
      "latitude" : "24.18385",
      "inDis" : "50",
      "routeId" : "藍11",
      "seqNo" : "30"
   },
   {
      "GoBack" : "2",
      "longitude" : "120.58788",
      "outDis" : "50",
      "Id" : "5304",
      "oid" : "318992201",
      "districtId" : "1",
      "nameZh" : "東海街口",
      "pgp" : "0",
      "terminal" : "0",
      "latitude" : "24.1853",
      "inDis" : "50",
      "routeId" : "藍11",
      "seqNo" : "31"
   },
   {
      "GoBack" : "2",
      "longitude" : "120.5847",
      "outDis" : "50",
      "Id" : "5389",
      "oid" : "318992203",
      "districtId" : "1",
      "nameZh" : "東海停車場",
      "pgp" : "0",
      "terminal" : "0",
      "latitude" : "24.18357",
      "inDis" : "50",
      "routeId" : "藍11",
      "seqNo" : "32"
   },
   {
      "GoBack" : "2",
      "longitude" : "120.58327",
      "outDis" : "50",
      "Id" : "5144",
      "oid" : "318992205",
      "districtId" : "1",
      "nameZh" : "新庄里",
      "pgp" : "0",
      "terminal" : "0",
      "latitude" : "24.18024",
      "inDis" : "50",
      "routeId" : "藍11",
      "seqNo" : "33"
   },
   {
      "GoBack" : "2",
      "longitude" : "120.58207",
      "outDis" : "50",
      "Id" : "3747",
      "oid" : "318992207",
      "districtId" : "1",
      "nameZh" : "磐頂教會",
      "pgp" : "0",
      "terminal" : "0",
      "latitude" : "24.17694",
      "inDis" : "50",
      "routeId" : "藍11",
      "seqNo" : "34"
   },
   {
      "GoBack" : "2",
      "longitude" : "120.58156",
      "outDis" : "50",
      "Id" : "1875",
      "oid" : "318992209",
      "districtId" : "1",
      "nameZh" : "巧聖先師",
      "pgp" : "0",
      "terminal" : "0",
      "latitude" : "24.17563",
      "inDis" : "50",
      "routeId" : "藍11",
      "seqNo" : "35"
   },
   {
      "GoBack" : "2",
      "longitude" : "120.58047",
      "outDis" : "50",
      "Id" : "2168",
      "oid" : "318992211",
      "districtId" : "1",
      "nameZh" : "自強新城",
      "pgp" : "0",
      "terminal" : "0",
      "latitude" : "24.1724",
      "inDis" : "50",
      "routeId" : "藍11",
      "seqNo" : "36"
   },
   {
      "GoBack" : "2",
      "longitude" : "120.57977",
      "outDis" : "50",
      "Id" : "3751",
      "oid" : "318992213",
      "districtId" : "1",
      "nameZh" : "蔗部",
      "pgp" : "0",
      "terminal" : "0",
      "latitude" : "24.17085",
      "inDis" : "50",
      "routeId" : "藍11",
      "seqNo" : "37"
   },
   {
      "GoBack" : "2",
      "longitude" : "120.5788",
      "outDis" : "50",
      "Id" : "1501",
      "oid" : "318992215",
      "districtId" : "1",
      "nameZh" : "遊園中蔗路口",
      "pgp" : "0",
      "terminal" : "0",
      "latitude" : "24.16828",
      "inDis" : "50",
      "routeId" : "藍11",
      "seqNo" : "38"
   },
   {
      "GoBack" : "2",
      "longitude" : "120.5776",
      "outDis" : "50",
      "Id" : "2419",
      "oid" : "318992217",
      "districtId" : "1",
      "nameZh" : "東海駕訓班",
      "pgp" : "0",
      "terminal" : "0",
      "latitude" : "24.16589",
      "inDis" : "50",
      "routeId" : "藍11",
      "seqNo" : "39"
   },
   {
      "GoBack" : "2",
      "longitude" : "120.5763",
      "outDis" : "50",
      "Id" : "5145",
      "oid" : "318992219",
      "districtId" : "1",
      "nameZh" : "瑞井里",
      "pgp" : "0",
      "terminal" : "0",
      "latitude" : "24.16337",
      "inDis" : "50",
      "routeId" : "藍11",
      "seqNo" : "40"
   },
   {
      "GoBack" : "2",
      "longitude" : "120.57538",
      "outDis" : "50",
      "Id" : "1521",
      "oid" : "318992221",
      "districtId" : "1",
      "nameZh" : "井子頭",
      "pgp" : "0",
      "terminal" : "0",
      "latitude" : "24.16178",
      "inDis" : "50",
      "routeId" : "藍11",
      "seqNo" : "41"
   },
   {
      "GoBack" : "2",
      "longitude" : "120.57437",
      "outDis" : "50",
      "Id" : "1480",
      "oid" : "318992223",
      "districtId" : "1",
      "nameZh" : "中富國宅",
      "pgp" : "0",
      "terminal" : "0",
      "latitude" : "24.1598",
      "inDis" : "50",
      "routeId" : "藍11",
      "seqNo" : "42"
   },
   {
      "GoBack" : "2",
      "longitude" : "120.57336",
      "outDis" : "50",
      "Id" : "4752",
      "oid" : "318992225",
      "districtId" : "1",
      "nameZh" : "幸福新城",
      "pgp" : "0",
      "terminal" : "0",
      "latitude" : "24.15784",
      "inDis" : "50",
      "routeId" : "藍11",
      "seqNo" : "43"
   },
   {
      "GoBack" : "2",
      "longitude" : "120.572",
      "outDis" : "50",
      "Id" : "0455",
      "oid" : "318991881",
      "districtId" : "1",
      "nameZh" : "臺中區監理所（華南路）",
      "pgp" : "0",
      "terminal" : "0",
      "latitude" : "24.15583",
      "inDis" : "50",
      "routeId" : "藍11",
      "seqNo" : "44"
   },
   {
      "GoBack" : "2",
      "longitude" : "120.54779",
      "outDis" : "50",
      "Id" : "5395",
      "oid" : "318992229",
      "districtId" : "1",
      "nameZh" : "自治育英路口",
      "pgp" : "0",
      "terminal" : "0",
      "latitude" : "24.15184",
      "inDis" : "50",
      "routeId" : "藍11",
      "seqNo" : "45"
   },
   {
      "GoBack" : "2",
      "longitude" : "120.54838",
      "outDis" : "50",
      "Id" : "5400",
      "oid" : "318992231",
      "districtId" : "1",
      "nameZh" : "育英平和東路口",
      "pgp" : "0",
      "terminal" : "0",
      "latitude" : "24.1487",
      "inDis" : "50",
      "routeId" : "藍11",
      "seqNo" : "46"
   },
   {
      "GoBack" : "2",
      "longitude" : "120.54619",
      "outDis" : "50",
      "Id" : "5401",
      "oid" : "318992233",
      "districtId" : "1",
      "nameZh" : "平和東沙田路口",
      "pgp" : "0",
      "terminal" : "0",
      "latitude" : "24.14857",
      "inDis" : "50",
      "routeId" : "藍11",
      "seqNo" : "47"
   },
   {
      "GoBack" : "2",
      "longitude" : "120.54565",
      "outDis" : "50",
      "Id" : "1302",
      "oid" : "318992235",
      "districtId" : "1",
      "nameZh" : "大肚",
      "pgp" : "0",
      "terminal" : "0",
      "latitude" : "24.15014",
      "inDis" : "50",
      "routeId" : "藍11",
      "seqNo" : "48"
   },
   {
      "GoBack" : "2",
      "longitude" : "120.54536",
      "outDis" : "50",
      "Id" : "4786",
      "oid" : "318992237",
      "districtId" : "1",
      "nameZh" : "大肚區公所",
      "pgp" : "0",
      "terminal" : "0",
      "latitude" : "24.1512",
      "inDis" : "50",
      "routeId" : "藍11",
      "seqNo" : "49"
   },
   {
      "GoBack" : "2",
      "longitude" : "120.54284",
      "outDis" : "50",
      "Id" : "0099",
      "oid" : "318992239",
      "districtId" : "1",
      "nameZh" : "大肚火車站(華山路)",
      "pgp" : "0",
      "terminal" : "0",
      "latitude" : "24.15404",
      "inDis" : "50",
      "routeId" : "藍11",
      "seqNo" : "50"
   }
]
