[
   {
      "GoBack" : "1",
      "longitude" : "120.69683",
      "outDis" : "50",
      "Id" : "2692",
      "oid" : "13186",
      "districtId" : "1",
      "nameZh" : "省議會",
      "pgp" : "0",
      "terminal" : "0",
      "latitude" : "24.05493",
      "inDis" : "50",
      "routeId" : "283",
      "seqNo" : "1"
   },
   {
      "GoBack" : "1",
      "longitude" : "120.69786",
      "outDis" : "50",
      "Id" : "3976",
      "oid" : "318971748",
      "districtId" : "1",
      "nameZh" : "霧峰國小",
      "pgp" : "0",
      "terminal" : "0",
      "latitude" : "24.05787",
      "inDis" : "50",
      "routeId" : "283",
      "seqNo" : "2"
   },
   {
      "GoBack" : "1",
      "longitude" : "120.69794",
      "outDis" : "50",
      "Id" : "5546",
      "oid" : "318971750",
      "districtId" : "1",
      "nameZh" : "教育部國教署",
      "pgp" : "0",
      "terminal" : "0",
      "latitude" : "24.05838",
      "inDis" : "50",
      "routeId" : "283",
      "seqNo" : "3"
   },
   {
      "GoBack" : "1",
      "longitude" : "120.69822",
      "outDis" : "50",
      "Id" : "3978",
      "oid" : "318971751",
      "districtId" : "1",
      "nameZh" : "霧峰郵局",
      "pgp" : "0",
      "terminal" : "0",
      "latitude" : "24.06094",
      "inDis" : "50",
      "routeId" : "283",
      "seqNo" : "4"
   },
   {
      "GoBack" : "1",
      "longitude" : "120.6985",
      "outDis" : "50",
      "Id" : "3972",
      "oid" : "318971752",
      "districtId" : "1",
      "nameZh" : "霧峰",
      "pgp" : "0",
      "terminal" : "0",
      "latitude" : "24.06306",
      "inDis" : "50",
      "routeId" : "283",
      "seqNo" : "5"
   },
   {
      "GoBack" : "1",
      "longitude" : "120.69864",
      "outDis" : "50",
      "Id" : "4930",
      "oid" : "318971753",
      "districtId" : "1",
      "nameZh" : "霧峰農會",
      "pgp" : "0",
      "terminal" : "0",
      "latitude" : "24.06431",
      "inDis" : "50",
      "routeId" : "283",
      "seqNo" : "6"
   },
   {
      "GoBack" : "1",
      "longitude" : "120.69658",
      "outDis" : "50",
      "Id" : "3512",
      "oid" : "318971754",
      "districtId" : "1",
      "nameZh" : "聖賢宮",
      "pgp" : "0",
      "terminal" : "0",
      "latitude" : "24.06529",
      "inDis" : "50",
      "routeId" : "283",
      "seqNo" : "7"
   },
   {
      "GoBack" : "1",
      "longitude" : "120.69345",
      "outDis" : "50",
      "Id" : "3977",
      "oid" : "318971755",
      "districtId" : "1",
      "nameZh" : "霧峰國中",
      "pgp" : "0",
      "terminal" : "0",
      "latitude" : "24.06606",
      "inDis" : "50",
      "routeId" : "283",
      "seqNo" : "8"
   },
   {
      "GoBack" : "1",
      "longitude" : "120.68939",
      "outDis" : "50",
      "Id" : "2293",
      "oid" : "318971756",
      "districtId" : "1",
      "nameZh" : "佳興新村",
      "pgp" : "0",
      "terminal" : "0",
      "latitude" : "24.06595",
      "inDis" : "50",
      "routeId" : "283",
      "seqNo" : "9"
   },
   {
      "GoBack" : "1",
      "longitude" : "120.68724",
      "outDis" : "50",
      "Id" : "3105",
      "oid" : "318971757",
      "districtId" : "1",
      "nameZh" : "頂北柳",
      "pgp" : "0",
      "terminal" : "0",
      "latitude" : "24.06579",
      "inDis" : "50",
      "routeId" : "283",
      "seqNo" : "10"
   },
   {
      "GoBack" : "1",
      "longitude" : "120.68417",
      "outDis" : "50",
      "Id" : "5267",
      "oid" : "318971758",
      "districtId" : "1",
      "nameZh" : "領鮮超市",
      "pgp" : "0",
      "terminal" : "0",
      "latitude" : "24.06549",
      "inDis" : "50",
      "routeId" : "283",
      "seqNo" : "11"
   },
   {
      "GoBack" : "1",
      "longitude" : "120.68081",
      "outDis" : "50",
      "Id" : "1779",
      "oid" : "318971759",
      "districtId" : "1",
      "nameZh" : "北柳",
      "pgp" : "0",
      "terminal" : "0",
      "latitude" : "24.06515",
      "inDis" : "50",
      "routeId" : "283",
      "seqNo" : "12"
   },
   {
      "GoBack" : "1",
      "longitude" : "120.67744",
      "outDis" : "50",
      "Id" : "3406",
      "oid" : "318971762",
      "districtId" : "1",
      "nameZh" : "新厝(四德路)",
      "pgp" : "0",
      "terminal" : "0",
      "latitude" : "24.06442",
      "inDis" : "50",
      "routeId" : "283",
      "seqNo" : "13"
   },
   {
      "GoBack" : "1",
      "longitude" : "120.67486",
      "outDis" : "50",
      "Id" : "5622",
      "oid" : "318971763",
      "districtId" : "1",
      "nameZh" : "水牛城",
      "pgp" : "0",
      "terminal" : "0",
      "latitude" : "24.06358",
      "inDis" : "50",
      "routeId" : "283",
      "seqNo" : "14"
   },
   {
      "GoBack" : "1",
      "longitude" : "120.6701",
      "outDis" : "50",
      "Id" : "5231",
      "oid" : "318971765",
      "districtId" : "1",
      "nameZh" : "四德國小",
      "pgp" : "0",
      "terminal" : "0",
      "latitude" : "24.06174",
      "inDis" : "50",
      "routeId" : "283",
      "seqNo" : "15"
   },
   {
      "GoBack" : "1",
      "longitude" : "120.66569",
      "outDis" : "50",
      "Id" : "0331",
      "oid" : "318971766",
      "districtId" : "1",
      "nameZh" : "四德厝",
      "pgp" : "0",
      "terminal" : "0",
      "latitude" : "24.06023",
      "inDis" : "50",
      "routeId" : "283",
      "seqNo" : "16"
   },
   {
      "GoBack" : "1",
      "longitude" : "120.6645",
      "outDis" : "50",
      "Id" : "0332",
      "oid" : "318971767",
      "districtId" : "1",
      "nameZh" : "五福里1鄰",
      "pgp" : "0",
      "terminal" : "0",
      "latitude" : "24.06139",
      "inDis" : "50",
      "routeId" : "283",
      "seqNo" : "17"
   },
   {
      "GoBack" : "1",
      "longitude" : "120.6652",
      "outDis" : "50",
      "Id" : "0333",
      "oid" : "318971768",
      "districtId" : "1",
      "nameZh" : "四德北路85巷",
      "pgp" : "0",
      "terminal" : "0",
      "latitude" : "24.06638",
      "inDis" : "50",
      "routeId" : "283",
      "seqNo" : "18"
   },
   {
      "GoBack" : "1",
      "longitude" : "120.66658",
      "outDis" : "50",
      "Id" : "0336",
      "oid" : "318971769",
      "districtId" : "1",
      "nameZh" : "五福活動中心",
      "pgp" : "0",
      "terminal" : "0",
      "latitude" : "24.07061",
      "inDis" : "50",
      "routeId" : "283",
      "seqNo" : "19"
   },
   {
      "GoBack" : "1",
      "longitude" : "120.66567",
      "outDis" : "50",
      "Id" : "0339",
      "oid" : "318971770",
      "districtId" : "1",
      "nameZh" : "五福國小",
      "pgp" : "0",
      "terminal" : "0",
      "latitude" : "24.07196",
      "inDis" : "50",
      "routeId" : "283",
      "seqNo" : "20"
   },
   {
      "GoBack" : "1",
      "longitude" : "120.66737",
      "outDis" : "50",
      "Id" : "0343",
      "oid" : "318971773",
      "districtId" : "1",
      "nameZh" : "新埔福德祠",
      "pgp" : "0",
      "terminal" : "0",
      "latitude" : "24.0765",
      "inDis" : "50",
      "routeId" : "283",
      "seqNo" : "21"
   },
   {
      "GoBack" : "1",
      "longitude" : "120.67114",
      "outDis" : "50",
      "Id" : "0344",
      "oid" : "318971774",
      "districtId" : "1",
      "nameZh" : "頂厝夏田路口",
      "pgp" : "0",
      "terminal" : "0",
      "latitude" : "24.0815",
      "inDis" : "50",
      "routeId" : "283",
      "seqNo" : "22"
   },
   {
      "GoBack" : "1",
      "longitude" : "120.66986",
      "outDis" : "50",
      "Id" : "0345",
      "oid" : "318971775",
      "districtId" : "1",
      "nameZh" : "夏田活動中心",
      "pgp" : "0",
      "terminal" : "0",
      "latitude" : "24.08538",
      "inDis" : "50",
      "routeId" : "283",
      "seqNo" : "23"
   },
   {
      "GoBack" : "1",
      "longitude" : "120.66847",
      "outDis" : "50",
      "Id" : "0349",
      "oid" : "318971776",
      "districtId" : "1",
      "nameZh" : "夏田社區",
      "pgp" : "0",
      "terminal" : "0",
      "latitude" : "24.08646",
      "inDis" : "50",
      "routeId" : "283",
      "seqNo" : "24"
   },
   {
      "GoBack" : "1",
      "longitude" : "120.67119",
      "outDis" : "50",
      "Id" : "0352",
      "oid" : "318971777",
      "districtId" : "1",
      "nameZh" : "國中路",
      "pgp" : "0",
      "terminal" : "0",
      "latitude" : "24.08836",
      "inDis" : "50",
      "routeId" : "283",
      "seqNo" : "25"
   },
   {
      "GoBack" : "1",
      "longitude" : "120.67686",
      "outDis" : "50",
      "Id" : "4922",
      "oid" : "318971778",
      "districtId" : "1",
      "nameZh" : "市立大里高中",
      "pgp" : "0",
      "terminal" : "0",
      "latitude" : "24.09325",
      "inDis" : "50",
      "routeId" : "283",
      "seqNo" : "26"
   },
   {
      "GoBack" : "1",
      "longitude" : "120.67964",
      "outDis" : "50",
      "Id" : "4921",
      "oid" : "309153574",
      "districtId" : "1",
      "nameZh" : "東里國中路口",
      "pgp" : "0",
      "terminal" : "0",
      "latitude" : "24.09545",
      "inDis" : "50",
      "routeId" : "283",
      "seqNo" : "27"
   },
   {
      "GoBack" : "1",
      "longitude" : "120.67891",
      "outDis" : "50",
      "Id" : "4920",
      "oid" : "318971779",
      "districtId" : "1",
      "nameZh" : "大里區公所",
      "pgp" : "0",
      "terminal" : "0",
      "latitude" : "24.09832",
      "inDis" : "50",
      "routeId" : "283",
      "seqNo" : "28"
   },
   {
      "GoBack" : "1",
      "longitude" : "120.68152",
      "outDis" : "50",
      "Id" : "5128",
      "oid" : "318971780",
      "districtId" : "1",
      "nameZh" : "國光大里路口",
      "pgp" : "0",
      "terminal" : "0",
      "latitude" : "24.10018",
      "inDis" : "50",
      "routeId" : "283",
      "seqNo" : "29"
   },
   {
      "GoBack" : "1",
      "longitude" : "120.68189",
      "outDis" : "50",
      "Id" : "2928",
      "oid" : "318971781",
      "districtId" : "1",
      "nameZh" : "國光花市",
      "pgp" : "0",
      "terminal" : "0",
      "latitude" : "24.10261",
      "inDis" : "50",
      "routeId" : "283",
      "seqNo" : "30"
   },
   {
      "GoBack" : "1",
      "longitude" : "120.68152",
      "outDis" : "50",
      "Id" : "4294",
      "oid" : "12620",
      "districtId" : "1",
      "nameZh" : "國光德芳路口",
      "pgp" : "0",
      "terminal" : "0",
      "latitude" : "24.10448",
      "inDis" : "50",
      "routeId" : "283",
      "seqNo" : "31"
   },
   {
      "GoBack" : "1",
      "longitude" : "120.68033",
      "outDis" : "50",
      "Id" : "1558",
      "oid" : "12514",
      "districtId" : "1",
      "nameZh" : "大里仁愛醫院",
      "pgp" : "0",
      "terminal" : "0",
      "latitude" : "24.10843",
      "inDis" : "50",
      "routeId" : "283",
      "seqNo" : "32"
   },
   {
      "GoBack" : "2",
      "longitude" : "120.67994",
      "outDis" : "50",
      "Id" : "1558",
      "oid" : "318971782",
      "districtId" : "1",
      "nameZh" : "大里仁愛醫院",
      "pgp" : "0",
      "terminal" : "0",
      "latitude" : "24.10847",
      "inDis" : "50",
      "routeId" : "283",
      "seqNo" : "1"
   },
   {
      "GoBack" : "2",
      "longitude" : "120.68056",
      "outDis" : "50",
      "Id" : "4294",
      "oid" : "318971783",
      "districtId" : "1",
      "nameZh" : "國光德芳路口",
      "pgp" : "0",
      "terminal" : "0",
      "latitude" : "24.10656",
      "inDis" : "50",
      "routeId" : "283",
      "seqNo" : "2"
   },
   {
      "GoBack" : "2",
      "longitude" : "120.68152",
      "outDis" : "50",
      "Id" : "2928",
      "oid" : "10330",
      "districtId" : "1",
      "nameZh" : "國光花市",
      "pgp" : "0",
      "terminal" : "0",
      "latitude" : "24.10403",
      "inDis" : "50",
      "routeId" : "283",
      "seqNo" : "3"
   },
   {
      "GoBack" : "2",
      "longitude" : "120.68199",
      "outDis" : "50",
      "Id" : "5128",
      "oid" : "318971784",
      "districtId" : "1",
      "nameZh" : "國光大里路口",
      "pgp" : "0",
      "terminal" : "0",
      "latitude" : "24.10184",
      "inDis" : "50",
      "routeId" : "283",
      "seqNo" : "4"
   },
   {
      "GoBack" : "2",
      "longitude" : "120.6807",
      "outDis" : "50",
      "Id" : "4920",
      "oid" : "318971785",
      "districtId" : "1",
      "nameZh" : "大里區公所",
      "pgp" : "0",
      "terminal" : "0",
      "latitude" : "24.09999",
      "inDis" : "50",
      "routeId" : "283",
      "seqNo" : "5"
   },
   {
      "GoBack" : "2",
      "longitude" : "120.67876",
      "outDis" : "50",
      "Id" : "4921",
      "oid" : "318971787",
      "districtId" : "1",
      "nameZh" : "東里國中路口",
      "pgp" : "0",
      "terminal" : "0",
      "latitude" : "24.09689",
      "inDis" : "50",
      "routeId" : "283",
      "seqNo" : "6"
   },
   {
      "GoBack" : "2",
      "longitude" : "120.6791",
      "outDis" : "50",
      "Id" : "4922",
      "oid" : "318971788",
      "districtId" : "1",
      "nameZh" : "市立大里高中",
      "pgp" : "0",
      "terminal" : "0",
      "latitude" : "24.09526",
      "inDis" : "50",
      "routeId" : "283",
      "seqNo" : "7"
   },
   {
      "GoBack" : "2",
      "longitude" : "120.6753",
      "outDis" : "50",
      "Id" : "0352",
      "oid" : "318971789",
      "districtId" : "1",
      "nameZh" : "國中路",
      "pgp" : "0",
      "terminal" : "0",
      "latitude" : "24.09192",
      "inDis" : "50",
      "routeId" : "283",
      "seqNo" : "8"
   },
   {
      "GoBack" : "2",
      "longitude" : "120.67074",
      "outDis" : "50",
      "Id" : "0349",
      "oid" : "318971790",
      "districtId" : "1",
      "nameZh" : "夏田社區",
      "pgp" : "0",
      "terminal" : "0",
      "latitude" : "24.08796",
      "inDis" : "50",
      "routeId" : "283",
      "seqNo" : "9"
   },
   {
      "GoBack" : "2",
      "longitude" : "120.66833",
      "outDis" : "50",
      "Id" : "0345",
      "oid" : "318971791",
      "districtId" : "1",
      "nameZh" : "夏田活動中心",
      "pgp" : "0",
      "terminal" : "0",
      "latitude" : "24.08613",
      "inDis" : "50",
      "routeId" : "283",
      "seqNo" : "10"
   },
   {
      "GoBack" : "2",
      "longitude" : "120.67047",
      "outDis" : "50",
      "Id" : "0344",
      "oid" : "318971792",
      "districtId" : "1",
      "nameZh" : "頂厝夏田路口",
      "pgp" : "0",
      "terminal" : "0",
      "latitude" : "24.08535",
      "inDis" : "50",
      "routeId" : "283",
      "seqNo" : "11"
   },
   {
      "GoBack" : "2",
      "longitude" : "120.67095",
      "outDis" : "50",
      "Id" : "0343",
      "oid" : "318971795",
      "districtId" : "1",
      "nameZh" : "新埔福德祠",
      "pgp" : "0",
      "terminal" : "0",
      "latitude" : "24.07995",
      "inDis" : "50",
      "routeId" : "283",
      "seqNo" : "12"
   },
   {
      "GoBack" : "2",
      "longitude" : "120.66715",
      "outDis" : "50",
      "Id" : "0339",
      "oid" : "318971796",
      "districtId" : "1",
      "nameZh" : "五福國小",
      "pgp" : "0",
      "terminal" : "0",
      "latitude" : "24.076",
      "inDis" : "50",
      "routeId" : "283",
      "seqNo" : "13"
   },
   {
      "GoBack" : "2",
      "longitude" : "120.66582",
      "outDis" : "50",
      "Id" : "0336",
      "oid" : "318972558",
      "districtId" : "1",
      "nameZh" : "五福活動中心",
      "pgp" : "0",
      "terminal" : "0",
      "latitude" : "24.07175",
      "inDis" : "50",
      "routeId" : "283",
      "seqNo" : "14"
   },
   {
      "GoBack" : "2",
      "longitude" : "120.66655",
      "outDis" : "50",
      "Id" : "0333",
      "oid" : "318972559",
      "districtId" : "1",
      "nameZh" : "四德北路85巷",
      "pgp" : "0",
      "terminal" : "0",
      "latitude" : "24.06993",
      "inDis" : "50",
      "routeId" : "283",
      "seqNo" : "15"
   },
   {
      "GoBack" : "2",
      "longitude" : "120.66504",
      "outDis" : "50",
      "Id" : "0332",
      "oid" : "318972560",
      "districtId" : "1",
      "nameZh" : "五福里1鄰",
      "pgp" : "0",
      "terminal" : "0",
      "latitude" : "24.06563",
      "inDis" : "50",
      "routeId" : "283",
      "seqNo" : "16"
   },
   {
      "GoBack" : "2",
      "longitude" : "120.66458",
      "outDis" : "50",
      "Id" : "0331",
      "oid" : "318972561",
      "districtId" : "1",
      "nameZh" : "四德厝",
      "pgp" : "0",
      "terminal" : "0",
      "latitude" : "24.06191",
      "inDis" : "50",
      "routeId" : "283",
      "seqNo" : "17"
   },
   {
      "GoBack" : "2",
      "longitude" : "120.66543",
      "outDis" : "50",
      "Id" : "5231",
      "oid" : "318972562",
      "districtId" : "1",
      "nameZh" : "四德國小",
      "pgp" : "0",
      "terminal" : "0",
      "latitude" : "24.06017",
      "inDis" : "50",
      "routeId" : "283",
      "seqNo" : "18"
   },
   {
      "GoBack" : "2",
      "longitude" : "120.67061",
      "outDis" : "50",
      "Id" : "5622",
      "oid" : "318972563",
      "districtId" : "1",
      "nameZh" : "水牛城",
      "pgp" : "0",
      "terminal" : "0",
      "latitude" : "24.06197",
      "inDis" : "50",
      "routeId" : "283",
      "seqNo" : "19"
   },
   {
      "GoBack" : "2",
      "longitude" : "120.6748",
      "outDis" : "50",
      "Id" : "3406",
      "oid" : "318972564",
      "districtId" : "1",
      "nameZh" : "新厝(四德路)",
      "pgp" : "0",
      "terminal" : "0",
      "latitude" : "24.06356",
      "inDis" : "50",
      "routeId" : "283",
      "seqNo" : "20"
   },
   {
      "GoBack" : "2",
      "longitude" : "120.67769",
      "outDis" : "50",
      "Id" : "1779",
      "oid" : "318972565",
      "districtId" : "1",
      "nameZh" : "北柳",
      "pgp" : "0",
      "terminal" : "0",
      "latitude" : "24.0645",
      "inDis" : "50",
      "routeId" : "283",
      "seqNo" : "21"
   },
   {
      "GoBack" : "2",
      "longitude" : "120.68091",
      "outDis" : "50",
      "Id" : "5267",
      "oid" : "318972566",
      "districtId" : "1",
      "nameZh" : "領鮮超市",
      "pgp" : "0",
      "terminal" : "0",
      "latitude" : "24.06516",
      "inDis" : "50",
      "routeId" : "283",
      "seqNo" : "22"
   },
   {
      "GoBack" : "2",
      "longitude" : "120.68489",
      "outDis" : "50",
      "Id" : "3105",
      "oid" : "318972567",
      "districtId" : "1",
      "nameZh" : "頂北柳",
      "pgp" : "0",
      "terminal" : "0",
      "latitude" : "24.06557",
      "inDis" : "50",
      "routeId" : "283",
      "seqNo" : "23"
   },
   {
      "GoBack" : "2",
      "longitude" : "120.68701",
      "outDis" : "50",
      "Id" : "2293",
      "oid" : "318972568",
      "districtId" : "1",
      "nameZh" : "佳興新村",
      "pgp" : "0",
      "terminal" : "0",
      "latitude" : "24.06577",
      "inDis" : "50",
      "routeId" : "283",
      "seqNo" : "24"
   },
   {
      "GoBack" : "2",
      "longitude" : "120.68926",
      "outDis" : "50",
      "Id" : "3977",
      "oid" : "318972569",
      "districtId" : "1",
      "nameZh" : "霧峰國中",
      "pgp" : "0",
      "terminal" : "0",
      "latitude" : "24.06594",
      "inDis" : "50",
      "routeId" : "283",
      "seqNo" : "25"
   },
   {
      "GoBack" : "2",
      "longitude" : "120.69403",
      "outDis" : "50",
      "Id" : "3512",
      "oid" : "318972571",
      "districtId" : "1",
      "nameZh" : "聖賢宮",
      "pgp" : "0",
      "terminal" : "0",
      "latitude" : "24.06605",
      "inDis" : "50",
      "routeId" : "283",
      "seqNo" : "26"
   },
   {
      "GoBack" : "2",
      "longitude" : "120.69649",
      "outDis" : "50",
      "Id" : "4930",
      "oid" : "318972573",
      "districtId" : "1",
      "nameZh" : "霧峰農會",
      "pgp" : "0",
      "terminal" : "0",
      "latitude" : "24.06535",
      "inDis" : "50",
      "routeId" : "283",
      "seqNo" : "27"
   },
   {
      "GoBack" : "2",
      "longitude" : "120.69851",
      "outDis" : "50",
      "Id" : "3972",
      "oid" : "318972574",
      "districtId" : "1",
      "nameZh" : "霧峰",
      "pgp" : "0",
      "terminal" : "0",
      "latitude" : "24.0645",
      "inDis" : "50",
      "routeId" : "283",
      "seqNo" : "28"
   },
   {
      "GoBack" : "2",
      "longitude" : "120.69847",
      "outDis" : "50",
      "Id" : "3978",
      "oid" : "10370",
      "districtId" : "1",
      "nameZh" : "霧峰郵局",
      "pgp" : "0",
      "terminal" : "0",
      "latitude" : "24.06252",
      "inDis" : "50",
      "routeId" : "283",
      "seqNo" : "29"
   },
   {
      "GoBack" : "2",
      "longitude" : "120.69819",
      "outDis" : "50",
      "Id" : "5546",
      "oid" : "318972575",
      "districtId" : "1",
      "nameZh" : "教育部國教署",
      "pgp" : "0",
      "terminal" : "0",
      "latitude" : "24.06073",
      "inDis" : "50",
      "routeId" : "283",
      "seqNo" : "30"
   },
   {
      "GoBack" : "2",
      "longitude" : "120.69794",
      "outDis" : "50",
      "Id" : "3976",
      "oid" : "318972576",
      "districtId" : "1",
      "nameZh" : "霧峰國小",
      "pgp" : "0",
      "terminal" : "0",
      "latitude" : "24.05882",
      "inDis" : "50",
      "routeId" : "283",
      "seqNo" : "31"
   },
   {
      "GoBack" : "2",
      "longitude" : "120.69751",
      "outDis" : "50",
      "Id" : "2692",
      "oid" : "318972577",
      "districtId" : "1",
      "nameZh" : "省議會",
      "pgp" : "0",
      "terminal" : "0",
      "latitude" : "24.05622",
      "inDis" : "50",
      "routeId" : "283",
      "seqNo" : "32"
   }
]
