[
   {
      "GoBack" : "1",
      "longitude" : "120.62525",
      "outDis" : "50",
      "Id" : "4067",
      "oid" : "2164",
      "districtId" : "1",
      "nameZh" : "大甲站",
      "pgp" : "0",
      "terminal" : "0",
      "latitude" : "24.34387",
      "inDis" : "50",
      "routeId" : "167",
      "seqNo" : "1"
   },
   {
      "GoBack" : "1",
      "longitude" : "120.62197",
      "outDis" : "50",
      "Id" : "2589",
      "oid" : "2165",
      "districtId" : "1",
      "nameZh" : "南門",
      "pgp" : "0",
      "terminal" : "0",
      "latitude" : "24.34371",
      "inDis" : "50",
      "routeId" : "167",
      "seqNo" : "2"
   },
   {
      "GoBack" : "1",
      "longitude" : "120.62034",
      "outDis" : "50",
      "Id" : "5361",
      "oid" : "311776166",
      "districtId" : "1",
      "nameZh" : "大甲高中(順天路)",
      "pgp" : "0",
      "terminal" : "0",
      "latitude" : "24.34218",
      "inDis" : "50",
      "routeId" : "167",
      "seqNo" : "3"
   },
   {
      "GoBack" : "1",
      "longitude" : "120.61874",
      "outDis" : "50",
      "Id" : "5693",
      "oid" : "319916595",
      "districtId" : "1",
      "nameZh" : "水尾橋 ",
      "pgp" : "0",
      "terminal" : "0",
      "latitude" : "24.33972",
      "inDis" : "50",
      "routeId" : "167",
      "seqNo" : "4"
   },
   {
      "GoBack" : "1",
      "longitude" : "120.61751",
      "outDis" : "50",
      "Id" : "1859",
      "oid" : "2167",
      "districtId" : "1",
      "nameZh" : "外水尾",
      "pgp" : "0",
      "terminal" : "0",
      "latitude" : "24.33744",
      "inDis" : "50",
      "routeId" : "167",
      "seqNo" : "5"
   },
   {
      "GoBack" : "1",
      "longitude" : "120.61307",
      "outDis" : "50",
      "Id" : "4133",
      "oid" : "312321236",
      "districtId" : "1",
      "nameZh" : "番子寮",
      "pgp" : "0",
      "terminal" : "0",
      "latitude" : "24.33204",
      "inDis" : "50",
      "routeId" : "167",
      "seqNo" : "6"
   },
   {
      "GoBack" : "1",
      "longitude" : "120.60827",
      "outDis" : "50",
      "Id" : "1705",
      "oid" : "2169",
      "districtId" : "1",
      "nameZh" : "水汴頭",
      "pgp" : "0",
      "terminal" : "0",
      "latitude" : "24.32677",
      "inDis" : "50",
      "routeId" : "167",
      "seqNo" : "7"
   },
   {
      "GoBack" : "1",
      "longitude" : "120.60346",
      "outDis" : "50",
      "Id" : "4071",
      "oid" : "2170",
      "districtId" : "1",
      "nameZh" : "大甲溪橋",
      "pgp" : "0",
      "terminal" : "0",
      "latitude" : "24.31061",
      "inDis" : "50",
      "routeId" : "167",
      "seqNo" : "8"
   },
   {
      "GoBack" : "1",
      "longitude" : "120.60117",
      "outDis" : "50",
      "Id" : "1993",
      "oid" : "2171",
      "districtId" : "1",
      "nameZh" : "甲南",
      "pgp" : "0",
      "terminal" : "0",
      "latitude" : "24.30478",
      "inDis" : "50",
      "routeId" : "167",
      "seqNo" : "9"
   },
   {
      "GoBack" : "1",
      "longitude" : "120.59601",
      "outDis" : "50",
      "Id" : "4134",
      "oid" : "2172",
      "districtId" : "1",
      "nameZh" : "菁埔里",
      "pgp" : "0",
      "terminal" : "0",
      "latitude" : "24.30116",
      "inDis" : "50",
      "routeId" : "167",
      "seqNo" : "10"
   },
   {
      "GoBack" : "1",
      "longitude" : "120.59262",
      "outDis" : "50",
      "Id" : "4144",
      "oid" : "2173",
      "districtId" : "1",
      "nameZh" : "震陽工廠",
      "pgp" : "0",
      "terminal" : "0",
      "latitude" : "24.29788",
      "inDis" : "50",
      "routeId" : "167",
      "seqNo" : "11"
   },
   {
      "GoBack" : "1",
      "longitude" : "120.59084",
      "outDis" : "50",
      "Id" : "4150",
      "oid" : "2174",
      "districtId" : "1",
      "nameZh" : "轉播站",
      "pgp" : "0",
      "terminal" : "0",
      "latitude" : "24.29572",
      "inDis" : "50",
      "routeId" : "167",
      "seqNo" : "12"
   },
   {
      "GoBack" : "1",
      "longitude" : "120.58861",
      "outDis" : "50",
      "Id" : "4127",
      "oid" : "2175",
      "districtId" : "1",
      "nameZh" : "頂湳子",
      "pgp" : "0",
      "terminal" : "0",
      "latitude" : "24.29345",
      "inDis" : "50",
      "routeId" : "167",
      "seqNo" : "13"
   },
   {
      "GoBack" : "1",
      "longitude" : "120.58706",
      "outDis" : "50",
      "Id" : "4139",
      "oid" : "2176",
      "districtId" : "1",
      "nameZh" : "福元批發",
      "pgp" : "0",
      "terminal" : "0",
      "latitude" : "24.29065",
      "inDis" : "50",
      "routeId" : "167",
      "seqNo" : "14"
   },
   {
      "GoBack" : "1",
      "longitude" : "120.58562",
      "outDis" : "50",
      "Id" : "4058",
      "oid" : "2177",
      "districtId" : "1",
      "nameZh" : "三田國小",
      "pgp" : "0",
      "terminal" : "0",
      "latitude" : "24.28813",
      "inDis" : "50",
      "routeId" : "167",
      "seqNo" : "15"
   },
   {
      "GoBack" : "1",
      "longitude" : "120.58327",
      "outDis" : "50",
      "Id" : "4063",
      "oid" : "2178",
      "districtId" : "1",
      "nameZh" : "下湳子",
      "pgp" : "0",
      "terminal" : "0",
      "latitude" : "24.28398",
      "inDis" : "50",
      "routeId" : "167",
      "seqNo" : "16"
   },
   {
      "GoBack" : "1",
      "longitude" : "120.58128",
      "outDis" : "50",
      "Id" : "4130",
      "oid" : "2179",
      "districtId" : "1",
      "nameZh" : "朝興宮",
      "pgp" : "0",
      "terminal" : "0",
      "latitude" : "24.28091",
      "inDis" : "50",
      "routeId" : "167",
      "seqNo" : "17"
   },
   {
      "GoBack" : "1",
      "longitude" : "120.57941",
      "outDis" : "50",
      "Id" : "4065",
      "oid" : "2180",
      "districtId" : "1",
      "nameZh" : "下湳加油站",
      "pgp" : "0",
      "terminal" : "0",
      "latitude" : "24.2787",
      "inDis" : "50",
      "routeId" : "167",
      "seqNo" : "18"
   },
   {
      "GoBack" : "1",
      "longitude" : "120.57725",
      "outDis" : "50",
      "Id" : "4442",
      "oid" : "312352563",
      "districtId" : "1",
      "nameZh" : "中山高美路口",
      "pgp" : "0",
      "terminal" : "0",
      "latitude" : "24.27461",
      "inDis" : "50",
      "routeId" : "167",
      "seqNo" : "19"
   },
   {
      "GoBack" : "1",
      "longitude" : "120.57687",
      "outDis" : "50",
      "Id" : "4521",
      "oid" : "305513525",
      "districtId" : "1",
      "nameZh" : "中山董公街口",
      "pgp" : "0",
      "terminal" : "0",
      "latitude" : "24.27284",
      "inDis" : "50",
      "routeId" : "167",
      "seqNo" : "20"
   },
   {
      "GoBack" : "1",
      "longitude" : "120.57594",
      "outDis" : "50",
      "Id" : "3013",
      "oid" : "10843",
      "districtId" : "1",
      "nameZh" : "清水",
      "pgp" : "0",
      "terminal" : "0",
      "latitude" : "24.2703",
      "inDis" : "50",
      "routeId" : "167",
      "seqNo" : "21"
   },
   {
      "GoBack" : "1",
      "longitude" : "120.57516",
      "outDis" : "50",
      "Id" : "5141",
      "oid" : "14057",
      "districtId" : "1",
      "nameZh" : "華南銀行(清水分行)",
      "pgp" : "0",
      "terminal" : "0",
      "latitude" : "24.2683",
      "inDis" : "50",
      "routeId" : "167",
      "seqNo" : "22"
   },
   {
      "GoBack" : "1",
      "longitude" : "120.57421",
      "outDis" : "50",
      "Id" : "4119",
      "oid" : "2185",
      "districtId" : "1",
      "nameZh" : "清水高中",
      "pgp" : "0",
      "terminal" : "0",
      "latitude" : "24.26615",
      "inDis" : "50",
      "routeId" : "167",
      "seqNo" : "23"
   },
   {
      "GoBack" : "1",
      "longitude" : "120.57262",
      "outDis" : "50",
      "Id" : "4121",
      "oid" : "2186",
      "districtId" : "1",
      "nameZh" : "清水電信局",
      "pgp" : "0",
      "terminal" : "0",
      "latitude" : "24.26214",
      "inDis" : "50",
      "routeId" : "167",
      "seqNo" : "24"
   },
   {
      "GoBack" : "1",
      "longitude" : "120.5714",
      "outDis" : "50",
      "Id" : "4441",
      "oid" : "307275658",
      "districtId" : "1",
      "nameZh" : "中山星河路口",
      "pgp" : "0",
      "terminal" : "0",
      "latitude" : "24.25997",
      "inDis" : "50",
      "routeId" : "167",
      "seqNo" : "25"
   },
   {
      "GoBack" : "1",
      "longitude" : "120.57075",
      "outDis" : "50",
      "Id" : "4129",
      "oid" : "2188",
      "districtId" : "1",
      "nameZh" : "鹿峰里",
      "pgp" : "0",
      "terminal" : "0",
      "latitude" : "24.25885",
      "inDis" : "50",
      "routeId" : "167",
      "seqNo" : "26"
   },
   {
      "GoBack" : "1",
      "longitude" : "120.56993",
      "outDis" : "50",
      "Id" : "4471",
      "oid" : "2189",
      "districtId" : "1",
      "nameZh" : "勞工育樂中心",
      "pgp" : "0",
      "terminal" : "0",
      "latitude" : "24.25755",
      "inDis" : "50",
      "routeId" : "167",
      "seqNo" : "27"
   },
   {
      "GoBack" : "1",
      "longitude" : "120.56873",
      "outDis" : "50",
      "Id" : "4045",
      "oid" : "10725",
      "districtId" : "1",
      "nameZh" : "中峰",
      "pgp" : "0",
      "terminal" : "0",
      "latitude" : "24.25538",
      "inDis" : "50",
      "routeId" : "167",
      "seqNo" : "28"
   },
   {
      "GoBack" : "1",
      "longitude" : "120.56786",
      "outDis" : "50",
      "Id" : "5392",
      "oid" : "312897794",
      "districtId" : "1",
      "nameZh" : "中山長春路口",
      "pgp" : "0",
      "terminal" : "0",
      "latitude" : "24.2537",
      "inDis" : "50",
      "routeId" : "167",
      "seqNo" : "29"
   },
   {
      "GoBack" : "1",
      "longitude" : "120.56664",
      "outDis" : "50",
      "Id" : "4044",
      "oid" : "2191",
      "districtId" : "1",
      "nameZh" : "鹿寮",
      "pgp" : "0",
      "terminal" : "0",
      "latitude" : "24.2515",
      "inDis" : "50",
      "routeId" : "167",
      "seqNo" : "30"
   },
   {
      "GoBack" : "1",
      "longitude" : "120.56484",
      "outDis" : "50",
      "Id" : "5138",
      "oid" : "14049",
      "districtId" : "1",
      "nameZh" : "鹿寮成衣商圈",
      "pgp" : "0",
      "terminal" : "0",
      "latitude" : "24.2489",
      "inDis" : "50",
      "routeId" : "167",
      "seqNo" : "31"
   },
   {
      "GoBack" : "1",
      "longitude" : "120.56257",
      "outDis" : "50",
      "Id" : "4110",
      "oid" : "2193",
      "districtId" : "1",
      "nameZh" : "家扶中心",
      "pgp" : "0",
      "terminal" : "0",
      "latitude" : "24.24659",
      "inDis" : "50",
      "routeId" : "167",
      "seqNo" : "32"
   },
   {
      "GoBack" : "1",
      "longitude" : "120.56214",
      "outDis" : "50",
      "Id" : "4042",
      "oid" : "2194",
      "districtId" : "1",
      "nameZh" : "文化莊",
      "pgp" : "0",
      "terminal" : "0",
      "latitude" : "24.24543",
      "inDis" : "50",
      "routeId" : "167",
      "seqNo" : "33"
   },
   {
      "GoBack" : "1",
      "longitude" : "120.56127",
      "outDis" : "50",
      "Id" : "5140",
      "oid" : "10581",
      "districtId" : "1",
      "nameZh" : "童綜合醫院(沙鹿院區)",
      "pgp" : "0",
      "terminal" : "0",
      "latitude" : "24.24245",
      "inDis" : "50",
      "routeId" : "167",
      "seqNo" : "34"
   },
   {
      "GoBack" : "1",
      "longitude" : "120.56",
      "outDis" : "50",
      "Id" : "5135",
      "oid" : "14046",
      "districtId" : "1",
      "nameZh" : "第一銀行(沙鹿分行)",
      "pgp" : "0",
      "terminal" : "0",
      "latitude" : "24.23932",
      "inDis" : "50",
      "routeId" : "167",
      "seqNo" : "35"
   },
   {
      "GoBack" : "1",
      "longitude" : "120.56103",
      "outDis" : "50",
      "Id" : "2248",
      "oid" : "7094",
      "districtId" : "1",
      "nameZh" : "沙鹿站",
      "pgp" : "0",
      "terminal" : "0",
      "latitude" : "24.23783",
      "inDis" : "50",
      "routeId" : "167",
      "seqNo" : "36"
   },
   {
      "GoBack" : "1",
      "longitude" : "120.56294",
      "outDis" : "50",
      "Id" : "2335",
      "oid" : "2198",
      "districtId" : "1",
      "nameZh" : "居仁里",
      "pgp" : "0",
      "terminal" : "0",
      "latitude" : "24.24004",
      "inDis" : "50",
      "routeId" : "167",
      "seqNo" : "37"
   },
   {
      "GoBack" : "1",
      "longitude" : "120.56527",
      "outDis" : "50",
      "Id" : "4390",
      "oid" : "320259194",
      "districtId" : "1",
      "nameZh" : "沙鹿高工(中山路)",
      "pgp" : "0",
      "terminal" : "0",
      "latitude" : "24.23937",
      "inDis" : "50",
      "routeId" : "167",
      "seqNo" : "38"
   },
   {
      "GoBack" : "1",
      "longitude" : "120.56765",
      "outDis" : "50",
      "Id" : "2147",
      "oid" : "2200",
      "districtId" : "1",
      "nameZh" : "竹林國小",
      "pgp" : "0",
      "terminal" : "0",
      "latitude" : "24.23829",
      "inDis" : "50",
      "routeId" : "167",
      "seqNo" : "39"
   },
   {
      "GoBack" : "1",
      "longitude" : "120.56994",
      "outDis" : "50",
      "Id" : "4389",
      "oid" : "2201",
      "districtId" : "1",
      "nameZh" : "竹林里",
      "pgp" : "0",
      "terminal" : "0",
      "latitude" : "24.23632",
      "inDis" : "50",
      "routeId" : "167",
      "seqNo" : "40"
   },
   {
      "GoBack" : "1",
      "longitude" : "120.57129",
      "outDis" : "50",
      "Id" : "4392",
      "oid" : "2202",
      "districtId" : "1",
      "nameZh" : "紅竹巷",
      "pgp" : "0",
      "terminal" : "0",
      "latitude" : "24.2342",
      "inDis" : "50",
      "routeId" : "167",
      "seqNo" : "41"
   },
   {
      "GoBack" : "1",
      "longitude" : "120.57331",
      "outDis" : "50",
      "Id" : "4086",
      "oid" : "2203",
      "districtId" : "1",
      "nameZh" : "臺灣大道北勢路口",
      "pgp" : "0",
      "terminal" : "0",
      "latitude" : "24.23102",
      "inDis" : "50",
      "routeId" : "167",
      "seqNo" : "42"
   },
   {
      "GoBack" : "1",
      "longitude" : "120.5771",
      "outDis" : "50",
      "Id" : "4147",
      "oid" : "17531",
      "districtId" : "1",
      "nameZh" : "靜宜大學",
      "pgp" : "0",
      "terminal" : "0",
      "latitude" : "24.22495",
      "inDis" : "50",
      "routeId" : "167",
      "seqNo" : "43"
   },
   {
      "GoBack" : "1",
      "longitude" : "120.57809",
      "outDis" : "50",
      "Id" : "4062",
      "oid" : "2205",
      "districtId" : "1",
      "nameZh" : "下晉江",
      "pgp" : "0",
      "terminal" : "0",
      "latitude" : "24.22357",
      "inDis" : "50",
      "routeId" : "167",
      "seqNo" : "44"
   },
   {
      "GoBack" : "1",
      "longitude" : "120.57949",
      "outDis" : "50",
      "Id" : "4111",
      "oid" : "2271",
      "districtId" : "1",
      "nameZh" : "晉江里",
      "pgp" : "0",
      "terminal" : "0",
      "latitude" : "24.22098",
      "inDis" : "50",
      "routeId" : "167",
      "seqNo" : "45"
   },
   {
      "GoBack" : "1",
      "longitude" : "120.58041",
      "outDis" : "50",
      "Id" : "4386",
      "oid" : "13475",
      "districtId" : "1",
      "nameZh" : "弘光科技大學",
      "pgp" : "0",
      "terminal" : "0",
      "latitude" : "24.21735",
      "inDis" : "50",
      "routeId" : "167",
      "seqNo" : "46"
   },
   {
      "GoBack" : "1",
      "longitude" : "120.58079",
      "outDis" : "50",
      "Id" : "4124",
      "oid" : "2208",
      "districtId" : "1",
      "nameZh" : "頂六路",
      "pgp" : "0",
      "terminal" : "0",
      "latitude" : "24.21365",
      "inDis" : "50",
      "routeId" : "167",
      "seqNo" : "47"
   },
   {
      "GoBack" : "1",
      "longitude" : "120.58123",
      "outDis" : "50",
      "Id" : "4136",
      "oid" : "17526",
      "districtId" : "1",
      "nameZh" : "祿清宮",
      "pgp" : "0",
      "terminal" : "0",
      "latitude" : "24.20914",
      "inDis" : "50",
      "routeId" : "167",
      "seqNo" : "48"
   },
   {
      "GoBack" : "1",
      "longitude" : "120.58048",
      "outDis" : "50",
      "Id" : "4388",
      "oid" : "2210",
      "districtId" : "1",
      "nameZh" : "后厝仔",
      "pgp" : "0",
      "terminal" : "0",
      "latitude" : "24.1992",
      "inDis" : "50",
      "routeId" : "167",
      "seqNo" : "49"
   },
   {
      "GoBack" : "1",
      "longitude" : "120.5829",
      "outDis" : "50",
      "Id" : "4061",
      "oid" : "2211",
      "districtId" : "1",
      "nameZh" : "下坪頂",
      "pgp" : "0",
      "terminal" : "0",
      "latitude" : "24.18717",
      "inDis" : "50",
      "routeId" : "167",
      "seqNo" : "50"
   },
   {
      "GoBack" : "1",
      "longitude" : "120.58613",
      "outDis" : "50",
      "Id" : "2325",
      "oid" : "17580",
      "districtId" : "1",
      "nameZh" : "坪頂",
      "pgp" : "0",
      "terminal" : "0",
      "latitude" : "24.1858",
      "inDis" : "50",
      "routeId" : "167",
      "seqNo" : "51"
   },
   {
      "GoBack" : "1",
      "longitude" : "120.58844",
      "outDis" : "50",
      "Id" : "5304",
      "oid" : "2213",
      "districtId" : "1",
      "nameZh" : "東海街口",
      "pgp" : "0",
      "terminal" : "0",
      "latitude" : "24.1848",
      "inDis" : "50",
      "routeId" : "167",
      "seqNo" : "52"
   },
   {
      "GoBack" : "1",
      "longitude" : "120.59128",
      "outDis" : "50",
      "Id" : "4383",
      "oid" : "13470",
      "districtId" : "1",
      "nameZh" : "臺糖公營學苑",
      "pgp" : "0",
      "terminal" : "0",
      "latitude" : "24.1838",
      "inDis" : "50",
      "routeId" : "167",
      "seqNo" : "53"
   },
   {
      "GoBack" : "1",
      "longitude" : "120.5944",
      "outDis" : "50",
      "Id" : "0240",
      "oid" : "6FD5154F91294ADB99F4EB4273B3DE03",
      "districtId" : "1",
      "nameZh" : "東海別墅",
      "pgp" : "0",
      "terminal" : "0",
      "latitude" : "24.1823",
      "inDis" : "50",
      "routeId" : "167",
      "seqNo" : "54"
   },
   {
      "GoBack" : "1",
      "longitude" : "120.59741",
      "outDis" : "50",
      "Id" : "0526",
      "oid" : "2216",
      "districtId" : "1",
      "nameZh" : "台中精機",
      "pgp" : "0",
      "terminal" : "0",
      "latitude" : "24.18183",
      "inDis" : "50",
      "routeId" : "167",
      "seqNo" : "55"
   },
   {
      "GoBack" : "1",
      "longitude" : "120.60491",
      "outDis" : "50",
      "Id" : "5386",
      "oid" : "315867754",
      "districtId" : "1",
      "nameZh" : "臺中榮總(臺灣大道)",
      "pgp" : "0",
      "terminal" : "0",
      "latitude" : "24.18349",
      "inDis" : "50",
      "routeId" : "167",
      "seqNo" : "56"
   },
   {
      "GoBack" : "1",
      "longitude" : "120.60648",
      "outDis" : "50",
      "Id" : "2378",
      "oid" : "2218",
      "districtId" : "1",
      "nameZh" : "東大附中",
      "pgp" : "0",
      "terminal" : "0",
      "latitude" : "24.18347",
      "inDis" : "50",
      "routeId" : "167",
      "seqNo" : "57"
   },
   {
      "GoBack" : "1",
      "longitude" : "120.60865",
      "outDis" : "50",
      "Id" : "0004",
      "oid" : "2219",
      "districtId" : "1",
      "nameZh" : "普濟寺",
      "pgp" : "0",
      "terminal" : "0",
      "latitude" : "24.18406",
      "inDis" : "50",
      "routeId" : "167",
      "seqNo" : "58"
   },
   {
      "GoBack" : "1",
      "longitude" : "120.6098",
      "outDis" : "50",
      "Id" : "5287",
      "oid" : "2220",
      "districtId" : "1",
      "nameZh" : "玉門臺灣大道口",
      "pgp" : "0",
      "terminal" : "0",
      "latitude" : "24.18503",
      "inDis" : "50",
      "routeId" : "167",
      "seqNo" : "59"
   },
   {
      "GoBack" : "1",
      "longitude" : "120.61034",
      "outDis" : "50",
      "Id" : "5234",
      "oid" : "2221",
      "districtId" : "1",
      "nameZh" : "玉門福科路口",
      "pgp" : "0",
      "terminal" : "0",
      "latitude" : "24.18838",
      "inDis" : "50",
      "routeId" : "167",
      "seqNo" : "60"
   },
   {
      "GoBack" : "1",
      "longitude" : "120.61072",
      "outDis" : "50",
      "Id" : "0885",
      "oid" : "2222",
      "districtId" : "1",
      "nameZh" : "榮總宿舍",
      "pgp" : "0",
      "terminal" : "0",
      "latitude" : "24.1898",
      "inDis" : "50",
      "routeId" : "167",
      "seqNo" : "61"
   },
   {
      "GoBack" : "1",
      "longitude" : "120.61191",
      "outDis" : "50",
      "Id" : "4683",
      "oid" : "2223",
      "districtId" : "1",
      "nameZh" : "西屯玉門路口",
      "pgp" : "0",
      "terminal" : "0",
      "latitude" : "24.19061",
      "inDis" : "50",
      "routeId" : "167",
      "seqNo" : "62"
   },
   {
      "GoBack" : "1",
      "longitude" : "120.61416",
      "outDis" : "50",
      "Id" : "4682",
      "oid" : "2224",
      "districtId" : "1",
      "nameZh" : "福科國中",
      "pgp" : "0",
      "terminal" : "0",
      "latitude" : "24.18968",
      "inDis" : "50",
      "routeId" : "167",
      "seqNo" : "63"
   },
   {
      "GoBack" : "1",
      "longitude" : "120.61595",
      "outDis" : "50",
      "Id" : "0959",
      "oid" : "2225",
      "districtId" : "1",
      "nameZh" : "麗景天地",
      "pgp" : "0",
      "terminal" : "0",
      "latitude" : "24.18904",
      "inDis" : "50",
      "routeId" : "167",
      "seqNo" : "64"
   },
   {
      "GoBack" : "1",
      "longitude" : "120.61796",
      "outDis" : "50",
      "Id" : "0620",
      "oid" : "2226",
      "districtId" : "1",
      "nameZh" : "宏台別墅",
      "pgp" : "0",
      "terminal" : "0",
      "latitude" : "24.18803",
      "inDis" : "50",
      "routeId" : "167",
      "seqNo" : "65"
   },
   {
      "GoBack" : "1",
      "longitude" : "120.62196",
      "outDis" : "50",
      "Id" : "4677",
      "oid" : "2227",
      "districtId" : "1",
      "nameZh" : "福安里(西屯路)",
      "pgp" : "0",
      "terminal" : "0",
      "latitude" : "24.18641",
      "inDis" : "50",
      "routeId" : "167",
      "seqNo" : "66"
   },
   {
      "GoBack" : "1",
      "longitude" : "120.62525",
      "outDis" : "50",
      "Id" : "1935",
      "oid" : "2228",
      "districtId" : "1",
      "nameZh" : "永安國小",
      "pgp" : "0",
      "terminal" : "0",
      "latitude" : "24.18474",
      "inDis" : "50",
      "routeId" : "167",
      "seqNo" : "67"
   },
   {
      "GoBack" : "1",
      "longitude" : "120.63198",
      "outDis" : "50",
      "Id" : "0579",
      "oid" : "2229",
      "districtId" : "1",
      "nameZh" : "甲八",
      "pgp" : "0",
      "terminal" : "0",
      "latitude" : "24.18302",
      "inDis" : "50",
      "routeId" : "167",
      "seqNo" : "68"
   },
   {
      "GoBack" : "1",
      "longitude" : "120.63704",
      "outDis" : "50",
      "Id" : "0489",
      "oid" : "2230",
      "districtId" : "1",
      "nameZh" : "火房",
      "pgp" : "0",
      "terminal" : "0",
      "latitude" : "24.18137",
      "inDis" : "50",
      "routeId" : "167",
      "seqNo" : "69"
   },
   {
      "GoBack" : "1",
      "longitude" : "120.63735",
      "outDis" : "50",
      "Id" : "0238",
      "oid" : "2231",
      "districtId" : "1",
      "nameZh" : "西屯郵局",
      "pgp" : "0",
      "terminal" : "0",
      "latitude" : "24.17686",
      "inDis" : "50",
      "routeId" : "167",
      "seqNo" : "70"
   },
   {
      "GoBack" : "1",
      "longitude" : "120.6385",
      "outDis" : "50",
      "Id" : "4616",
      "oid" : "2232",
      "districtId" : "1",
      "nameZh" : "青海光明路口",
      "pgp" : "0",
      "terminal" : "0",
      "latitude" : "24.175",
      "inDis" : "50",
      "routeId" : "167",
      "seqNo" : "71"
   },
   {
      "GoBack" : "1",
      "longitude" : "120.63996",
      "outDis" : "50",
      "Id" : "0236",
      "oid" : "2233",
      "districtId" : "1",
      "nameZh" : "至善國中",
      "pgp" : "0",
      "terminal" : "0",
      "latitude" : "24.1758",
      "inDis" : "50",
      "routeId" : "167",
      "seqNo" : "72"
   },
   {
      "GoBack" : "1",
      "longitude" : "120.64325",
      "outDis" : "50",
      "Id" : "4585",
      "oid" : "2234",
      "districtId" : "1",
      "nameZh" : "逢甲大學(逢甲路)",
      "pgp" : "0",
      "terminal" : "0",
      "latitude" : "24.17822",
      "inDis" : "50",
      "routeId" : "167",
      "seqNo" : "73"
   },
   {
      "GoBack" : "1",
      "longitude" : "120.64516",
      "outDis" : "50",
      "Id" : "4586",
      "oid" : "2235",
      "districtId" : "1",
      "nameZh" : "逢甲大學(福星路)",
      "pgp" : "0",
      "terminal" : "0",
      "latitude" : "24.17951",
      "inDis" : "50",
      "routeId" : "167",
      "seqNo" : "74"
   },
   {
      "GoBack" : "1",
      "longitude" : "120.64508",
      "outDis" : "50",
      "Id" : "4334",
      "oid" : "2236",
      "districtId" : "1",
      "nameZh" : "福星西安街口",
      "pgp" : "0",
      "terminal" : "0",
      "latitude" : "24.18152",
      "inDis" : "50",
      "routeId" : "167",
      "seqNo" : "75"
   },
   {
      "GoBack" : "1",
      "longitude" : "120.64472",
      "outDis" : "50",
      "Id" : "5658",
      "oid" : "313222695",
      "districtId" : "1",
      "nameZh" : "漢翔公司(星享道)",
      "pgp" : "0",
      "terminal" : "0",
      "latitude" : "24.18421",
      "inDis" : "50",
      "routeId" : "167",
      "seqNo" : "76"
   },
   {
      "GoBack" : "1",
      "longitude" : "120.64441",
      "outDis" : "50",
      "Id" : "4327",
      "oid" : "2238",
      "districtId" : "1",
      "nameZh" : "僑光科技大學",
      "pgp" : "0",
      "terminal" : "0",
      "latitude" : "24.18657",
      "inDis" : "50",
      "routeId" : "167",
      "seqNo" : "77"
   },
   {
      "GoBack" : "1",
      "longitude" : "120.6403",
      "outDis" : "50",
      "Id" : "2192",
      "oid" : "C64B649F9E384121A6AED87F781EDEC7",
      "districtId" : "1",
      "nameZh" : "西苑高中",
      "pgp" : "0",
      "terminal" : "0",
      "latitude" : "24.18621",
      "inDis" : "50",
      "routeId" : "167",
      "seqNo" : "78"
   },
   {
      "GoBack" : "1",
      "longitude" : "120.64166",
      "outDis" : "50",
      "Id" : "5409",
      "oid" : "313222698",
      "districtId" : "1",
      "nameZh" : "文修停車場",
      "pgp" : "0",
      "terminal" : "0",
      "latitude" : "24.18505",
      "inDis" : "50",
      "routeId" : "167",
      "seqNo" : "79"
   },
   {
      "GoBack" : "2",
      "longitude" : "120.64166",
      "outDis" : "50",
      "Id" : "5409",
      "oid" : "313222698",
      "districtId" : "1",
      "nameZh" : "文修停車場",
      "pgp" : "0",
      "terminal" : "0",
      "latitude" : "24.18505",
      "inDis" : "50",
      "routeId" : "167",
      "seqNo" : "1"
   },
   {
      "GoBack" : "2",
      "longitude" : "120.6403",
      "outDis" : "50",
      "Id" : "2192",
      "oid" : "C64B649F9E384121A6AED87F781EDEC7",
      "districtId" : "1",
      "nameZh" : "西苑高中",
      "pgp" : "0",
      "terminal" : "0",
      "latitude" : "24.18621",
      "inDis" : "50",
      "routeId" : "167",
      "seqNo" : "2"
   },
   {
      "GoBack" : "2",
      "longitude" : "120.64434",
      "outDis" : "50",
      "Id" : "4327",
      "oid" : "2239",
      "districtId" : "1",
      "nameZh" : "僑光科技大學",
      "pgp" : "0",
      "terminal" : "0",
      "latitude" : "24.1866",
      "inDis" : "50",
      "routeId" : "167",
      "seqNo" : "3"
   },
   {
      "GoBack" : "2",
      "longitude" : "120.64472",
      "outDis" : "50",
      "Id" : "5658",
      "oid" : "313222695",
      "districtId" : "1",
      "nameZh" : "漢翔公司(星享道)",
      "pgp" : "0",
      "terminal" : "0",
      "latitude" : "24.18421",
      "inDis" : "50",
      "routeId" : "167",
      "seqNo" : "4"
   },
   {
      "GoBack" : "2",
      "longitude" : "120.64491",
      "outDis" : "50",
      "Id" : "4334",
      "oid" : "2241",
      "districtId" : "1",
      "nameZh" : "福星西安街口",
      "pgp" : "0",
      "terminal" : "0",
      "latitude" : "24.18148",
      "inDis" : "50",
      "routeId" : "167",
      "seqNo" : "5"
   },
   {
      "GoBack" : "2",
      "longitude" : "120.64498",
      "outDis" : "50",
      "Id" : "4586",
      "oid" : "2242",
      "districtId" : "1",
      "nameZh" : "逢甲大學(福星路)",
      "pgp" : "0",
      "terminal" : "0",
      "latitude" : "24.17934",
      "inDis" : "50",
      "routeId" : "167",
      "seqNo" : "6"
   },
   {
      "GoBack" : "2",
      "longitude" : "120.64417",
      "outDis" : "50",
      "Id" : "4585",
      "oid" : "2243",
      "districtId" : "1",
      "nameZh" : "逢甲大學(逢甲路)",
      "pgp" : "0",
      "terminal" : "0",
      "latitude" : "24.17879",
      "inDis" : "50",
      "routeId" : "167",
      "seqNo" : "7"
   },
   {
      "GoBack" : "2",
      "longitude" : "120.64023",
      "outDis" : "50",
      "Id" : "0236",
      "oid" : "2244",
      "districtId" : "1",
      "nameZh" : "至善國中",
      "pgp" : "0",
      "terminal" : "0",
      "latitude" : "24.17554",
      "inDis" : "50",
      "routeId" : "167",
      "seqNo" : "8"
   },
   {
      "GoBack" : "2",
      "longitude" : "120.63883",
      "outDis" : "50",
      "Id" : "4616",
      "oid" : "2245",
      "districtId" : "1",
      "nameZh" : "青海光明路口",
      "pgp" : "0",
      "terminal" : "0",
      "latitude" : "24.17558",
      "inDis" : "50",
      "routeId" : "167",
      "seqNo" : "9"
   },
   {
      "GoBack" : "2",
      "longitude" : "120.63778",
      "outDis" : "50",
      "Id" : "0238",
      "oid" : "2246",
      "districtId" : "1",
      "nameZh" : "西屯郵局",
      "pgp" : "0",
      "terminal" : "0",
      "latitude" : "24.17646",
      "inDis" : "50",
      "routeId" : "167",
      "seqNo" : "10"
   },
   {
      "GoBack" : "2",
      "longitude" : "120.6375",
      "outDis" : "50",
      "Id" : "0489",
      "oid" : "2247",
      "districtId" : "1",
      "nameZh" : "火房",
      "pgp" : "0",
      "terminal" : "0",
      "latitude" : "24.18123",
      "inDis" : "50",
      "routeId" : "167",
      "seqNo" : "11"
   },
   {
      "GoBack" : "2",
      "longitude" : "120.63197",
      "outDis" : "50",
      "Id" : "0579",
      "oid" : "2248",
      "districtId" : "1",
      "nameZh" : "甲八",
      "pgp" : "0",
      "terminal" : "0",
      "latitude" : "24.18308",
      "inDis" : "50",
      "routeId" : "167",
      "seqNo" : "12"
   },
   {
      "GoBack" : "2",
      "longitude" : "120.62476",
      "outDis" : "50",
      "Id" : "1935",
      "oid" : "2249",
      "districtId" : "1",
      "nameZh" : "永安國小",
      "pgp" : "0",
      "terminal" : "0",
      "latitude" : "24.18551",
      "inDis" : "50",
      "routeId" : "167",
      "seqNo" : "13"
   },
   {
      "GoBack" : "2",
      "longitude" : "120.62178",
      "outDis" : "50",
      "Id" : "4677",
      "oid" : "2250",
      "districtId" : "1",
      "nameZh" : "福安里(西屯路)",
      "pgp" : "0",
      "terminal" : "0",
      "latitude" : "24.18664",
      "inDis" : "50",
      "routeId" : "167",
      "seqNo" : "14"
   },
   {
      "GoBack" : "2",
      "longitude" : "120.61791",
      "outDis" : "50",
      "Id" : "0620",
      "oid" : "2251",
      "districtId" : "1",
      "nameZh" : "宏台別墅",
      "pgp" : "0",
      "terminal" : "0",
      "latitude" : "24.18829",
      "inDis" : "50",
      "routeId" : "167",
      "seqNo" : "15"
   },
   {
      "GoBack" : "2",
      "longitude" : "120.61591",
      "outDis" : "50",
      "Id" : "0959",
      "oid" : "2252",
      "districtId" : "1",
      "nameZh" : "麗景天地",
      "pgp" : "0",
      "terminal" : "0",
      "latitude" : "24.18913",
      "inDis" : "50",
      "routeId" : "167",
      "seqNo" : "16"
   },
   {
      "GoBack" : "2",
      "longitude" : "120.61425",
      "outDis" : "50",
      "Id" : "4682",
      "oid" : "2253",
      "districtId" : "1",
      "nameZh" : "福科國中",
      "pgp" : "0",
      "terminal" : "0",
      "latitude" : "24.18993",
      "inDis" : "50",
      "routeId" : "167",
      "seqNo" : "17"
   },
   {
      "GoBack" : "2",
      "longitude" : "120.61181",
      "outDis" : "50",
      "Id" : "4683",
      "oid" : "2254",
      "districtId" : "1",
      "nameZh" : "西屯玉門路口",
      "pgp" : "0",
      "terminal" : "0",
      "latitude" : "24.19087",
      "inDis" : "50",
      "routeId" : "167",
      "seqNo" : "18"
   },
   {
      "GoBack" : "2",
      "longitude" : "120.61072",
      "outDis" : "50",
      "Id" : "0885",
      "oid" : "2222",
      "districtId" : "1",
      "nameZh" : "榮總宿舍",
      "pgp" : "0",
      "terminal" : "0",
      "latitude" : "24.1898",
      "inDis" : "50",
      "routeId" : "167",
      "seqNo" : "19"
   },
   {
      "GoBack" : "2",
      "longitude" : "120.61016",
      "outDis" : "50",
      "Id" : "5234",
      "oid" : "2256",
      "districtId" : "1",
      "nameZh" : "玉門福科路口",
      "pgp" : "0",
      "terminal" : "0",
      "latitude" : "24.18753",
      "inDis" : "50",
      "routeId" : "167",
      "seqNo" : "20"
   },
   {
      "GoBack" : "2",
      "longitude" : "120.60964",
      "outDis" : "50",
      "Id" : "5287",
      "oid" : "2257",
      "districtId" : "1",
      "nameZh" : "玉門臺灣大道口",
      "pgp" : "0",
      "terminal" : "0",
      "latitude" : "24.18516",
      "inDis" : "50",
      "routeId" : "167",
      "seqNo" : "21"
   },
   {
      "GoBack" : "2",
      "longitude" : "120.60836",
      "outDis" : "50",
      "Id" : "0004",
      "oid" : "2258",
      "districtId" : "1",
      "nameZh" : "普濟寺",
      "pgp" : "0",
      "terminal" : "0",
      "latitude" : "24.18436",
      "inDis" : "50",
      "routeId" : "167",
      "seqNo" : "22"
   },
   {
      "GoBack" : "2",
      "longitude" : "120.60644",
      "outDis" : "50",
      "Id" : "2378",
      "oid" : "2259",
      "districtId" : "1",
      "nameZh" : "東大附中",
      "pgp" : "0",
      "terminal" : "0",
      "latitude" : "24.18386",
      "inDis" : "50",
      "routeId" : "167",
      "seqNo" : "23"
   },
   {
      "GoBack" : "2",
      "longitude" : "120.60491",
      "outDis" : "50",
      "Id" : "5386",
      "oid" : "315867755",
      "districtId" : "1",
      "nameZh" : "臺中榮總(臺灣大道)",
      "pgp" : "0",
      "terminal" : "0",
      "latitude" : "24.18349",
      "inDis" : "50",
      "routeId" : "167",
      "seqNo" : "24"
   },
   {
      "GoBack" : "2",
      "longitude" : "120.59758",
      "outDis" : "50",
      "Id" : "0526",
      "oid" : "2261",
      "districtId" : "1",
      "nameZh" : "台中精機",
      "pgp" : "0",
      "terminal" : "0",
      "latitude" : "24.18211",
      "inDis" : "50",
      "routeId" : "167",
      "seqNo" : "25"
   },
   {
      "GoBack" : "2",
      "longitude" : "120.59358",
      "outDis" : "50",
      "Id" : "0240",
      "oid" : "2262",
      "districtId" : "1",
      "nameZh" : "東海別墅",
      "pgp" : "0",
      "terminal" : "0",
      "latitude" : "24.18267",
      "inDis" : "50",
      "routeId" : "167",
      "seqNo" : "26"
   },
   {
      "GoBack" : "2",
      "longitude" : "120.59128",
      "outDis" : "50",
      "Id" : "4383",
      "oid" : "13470",
      "districtId" : "1",
      "nameZh" : "臺糖公營學苑",
      "pgp" : "0",
      "terminal" : "0",
      "latitude" : "24.1838",
      "inDis" : "50",
      "routeId" : "167",
      "seqNo" : "27"
   },
   {
      "GoBack" : "2",
      "longitude" : "120.58798",
      "outDis" : "50",
      "Id" : "5304",
      "oid" : "2264",
      "districtId" : "1",
      "nameZh" : "東海街口",
      "pgp" : "0",
      "terminal" : "0",
      "latitude" : "24.18533",
      "inDis" : "50",
      "routeId" : "167",
      "seqNo" : "28"
   },
   {
      "GoBack" : "2",
      "longitude" : "120.58505",
      "outDis" : "50",
      "Id" : "2325",
      "oid" : "17523",
      "districtId" : "1",
      "nameZh" : "坪頂",
      "pgp" : "0",
      "terminal" : "0",
      "latitude" : "24.1866",
      "inDis" : "50",
      "routeId" : "167",
      "seqNo" : "29"
   },
   {
      "GoBack" : "2",
      "longitude" : "120.58312",
      "outDis" : "50",
      "Id" : "4061",
      "oid" : "2266",
      "districtId" : "1",
      "nameZh" : "下坪頂",
      "pgp" : "0",
      "terminal" : "0",
      "latitude" : "24.18752",
      "inDis" : "50",
      "routeId" : "167",
      "seqNo" : "30"
   },
   {
      "GoBack" : "2",
      "longitude" : "120.58074",
      "outDis" : "50",
      "Id" : "4388",
      "oid" : "2267",
      "districtId" : "1",
      "nameZh" : "后厝仔",
      "pgp" : "0",
      "terminal" : "0",
      "latitude" : "24.19892",
      "inDis" : "50",
      "routeId" : "167",
      "seqNo" : "31"
   },
   {
      "GoBack" : "2",
      "longitude" : "120.5815",
      "outDis" : "50",
      "Id" : "4136",
      "oid" : "14266",
      "districtId" : "1",
      "nameZh" : "祿清宮",
      "pgp" : "0",
      "terminal" : "0",
      "latitude" : "24.2102",
      "inDis" : "50",
      "routeId" : "167",
      "seqNo" : "32"
   },
   {
      "GoBack" : "2",
      "longitude" : "120.58114",
      "outDis" : "50",
      "Id" : "4124",
      "oid" : "2269",
      "districtId" : "1",
      "nameZh" : "頂六路",
      "pgp" : "0",
      "terminal" : "0",
      "latitude" : "24.21332",
      "inDis" : "50",
      "routeId" : "167",
      "seqNo" : "33"
   },
   {
      "GoBack" : "2",
      "longitude" : "120.58048",
      "outDis" : "50",
      "Id" : "4386",
      "oid" : "13476",
      "districtId" : "1",
      "nameZh" : "弘光科技大學",
      "pgp" : "0",
      "terminal" : "0",
      "latitude" : "24.21757",
      "inDis" : "50",
      "routeId" : "167",
      "seqNo" : "34"
   },
   {
      "GoBack" : "2",
      "longitude" : "120.5794",
      "outDis" : "50",
      "Id" : "4111",
      "oid" : "17529",
      "districtId" : "1",
      "nameZh" : "晉江里",
      "pgp" : "0",
      "terminal" : "0",
      "latitude" : "24.2219",
      "inDis" : "50",
      "routeId" : "167",
      "seqNo" : "35"
   },
   {
      "GoBack" : "2",
      "longitude" : "120.57859",
      "outDis" : "50",
      "Id" : "4062",
      "oid" : "2272",
      "districtId" : "1",
      "nameZh" : "下晉江",
      "pgp" : "0",
      "terminal" : "0",
      "latitude" : "24.22326",
      "inDis" : "50",
      "routeId" : "167",
      "seqNo" : "36"
   },
   {
      "GoBack" : "2",
      "longitude" : "120.57673",
      "outDis" : "50",
      "Id" : "4147",
      "oid" : "2273",
      "districtId" : "1",
      "nameZh" : "靜宜大學",
      "pgp" : "0",
      "terminal" : "0",
      "latitude" : "24.22623",
      "inDis" : "50",
      "routeId" : "167",
      "seqNo" : "37"
   },
   {
      "GoBack" : "2",
      "longitude" : "120.57331",
      "outDis" : "50",
      "Id" : "4086",
      "oid" : "2203",
      "districtId" : "1",
      "nameZh" : "臺灣大道北勢路口",
      "pgp" : "0",
      "terminal" : "0",
      "latitude" : "24.23102",
      "inDis" : "50",
      "routeId" : "167",
      "seqNo" : "38"
   },
   {
      "GoBack" : "2",
      "longitude" : "120.57242",
      "outDis" : "50",
      "Id" : "4392",
      "oid" : "2275",
      "districtId" : "1",
      "nameZh" : "紅竹巷",
      "pgp" : "0",
      "terminal" : "0",
      "latitude" : "24.23312",
      "inDis" : "50",
      "routeId" : "167",
      "seqNo" : "39"
   },
   {
      "GoBack" : "2",
      "longitude" : "120.56918",
      "outDis" : "50",
      "Id" : "5221",
      "oid" : "310787748",
      "districtId" : "1",
      "nameZh" : "中山臺灣大道口",
      "pgp" : "0",
      "terminal" : "0",
      "latitude" : "24.2371",
      "inDis" : "50",
      "routeId" : "167",
      "seqNo" : "40"
   },
   {
      "GoBack" : "2",
      "longitude" : "120.56704",
      "outDis" : "50",
      "Id" : "4770",
      "oid" : "2277",
      "districtId" : "1",
      "nameZh" : "托兒所",
      "pgp" : "0",
      "terminal" : "0",
      "latitude" : "24.23707",
      "inDis" : "50",
      "routeId" : "167",
      "seqNo" : "41"
   },
   {
      "GoBack" : "2",
      "longitude" : "120.5642",
      "outDis" : "50",
      "Id" : "4390",
      "oid" : "320259195",
      "districtId" : "1",
      "nameZh" : "沙鹿高工(中山路)",
      "pgp" : "0",
      "terminal" : "0",
      "latitude" : "24.23747",
      "inDis" : "50",
      "routeId" : "167",
      "seqNo" : "42"
   },
   {
      "GoBack" : "2",
      "longitude" : "120.56236",
      "outDis" : "50",
      "Id" : "2682",
      "oid" : "312574878",
      "districtId" : "1",
      "nameZh" : "洛泉里",
      "pgp" : "0",
      "terminal" : "0",
      "latitude" : "24.23768",
      "inDis" : "50",
      "routeId" : "167",
      "seqNo" : "43"
   },
   {
      "GoBack" : "2",
      "longitude" : "120.56106",
      "outDis" : "50",
      "Id" : "2248",
      "oid" : "10784",
      "districtId" : "1",
      "nameZh" : "沙鹿站",
      "pgp" : "0",
      "terminal" : "0",
      "latitude" : "24.23783",
      "inDis" : "50",
      "routeId" : "167",
      "seqNo" : "44"
   },
   {
      "GoBack" : "2",
      "longitude" : "120.56",
      "outDis" : "50",
      "Id" : "5135",
      "oid" : "14046",
      "districtId" : "1",
      "nameZh" : "第一銀行(沙鹿分行)",
      "pgp" : "0",
      "terminal" : "0",
      "latitude" : "24.23932",
      "inDis" : "50",
      "routeId" : "167",
      "seqNo" : "45"
   },
   {
      "GoBack" : "2",
      "longitude" : "120.56127",
      "outDis" : "50",
      "Id" : "5140",
      "oid" : "10581",
      "districtId" : "1",
      "nameZh" : "童綜合醫院(沙鹿院區)",
      "pgp" : "0",
      "terminal" : "0",
      "latitude" : "24.24245",
      "inDis" : "50",
      "routeId" : "167",
      "seqNo" : "46"
   },
   {
      "GoBack" : "2",
      "longitude" : "120.56227",
      "outDis" : "50",
      "Id" : "4042",
      "oid" : "2283",
      "districtId" : "1",
      "nameZh" : "文化莊",
      "pgp" : "0",
      "terminal" : "0",
      "latitude" : "24.24531",
      "inDis" : "50",
      "routeId" : "167",
      "seqNo" : "47"
   },
   {
      "GoBack" : "2",
      "longitude" : "120.56281",
      "outDis" : "50",
      "Id" : "4110",
      "oid" : "2284",
      "districtId" : "1",
      "nameZh" : "家扶中心",
      "pgp" : "0",
      "terminal" : "0",
      "latitude" : "24.2468",
      "inDis" : "50",
      "routeId" : "167",
      "seqNo" : "48"
   },
   {
      "GoBack" : "2",
      "longitude" : "120.56484",
      "outDis" : "50",
      "Id" : "5138",
      "oid" : "14049",
      "districtId" : "1",
      "nameZh" : "鹿寮成衣商圈",
      "pgp" : "0",
      "terminal" : "0",
      "latitude" : "24.2489",
      "inDis" : "50",
      "routeId" : "167",
      "seqNo" : "49"
   },
   {
      "GoBack" : "2",
      "longitude" : "120.56679",
      "outDis" : "50",
      "Id" : "4044",
      "oid" : "10584",
      "districtId" : "1",
      "nameZh" : "鹿寮",
      "pgp" : "0",
      "terminal" : "0",
      "latitude" : "24.25177",
      "inDis" : "50",
      "routeId" : "167",
      "seqNo" : "50"
   },
   {
      "GoBack" : "2",
      "longitude" : "120.56786",
      "outDis" : "50",
      "Id" : "5392",
      "oid" : "312897794",
      "districtId" : "1",
      "nameZh" : "中山長春路口",
      "pgp" : "0",
      "terminal" : "0",
      "latitude" : "24.2537",
      "inDis" : "50",
      "routeId" : "167",
      "seqNo" : "51"
   },
   {
      "GoBack" : "2",
      "longitude" : "120.56885",
      "outDis" : "50",
      "Id" : "4045",
      "oid" : "10585",
      "districtId" : "1",
      "nameZh" : "中峰",
      "pgp" : "0",
      "terminal" : "0",
      "latitude" : "24.25542",
      "inDis" : "50",
      "routeId" : "167",
      "seqNo" : "52"
   },
   {
      "GoBack" : "2",
      "longitude" : "120.57021",
      "outDis" : "50",
      "Id" : "4471",
      "oid" : "2288",
      "districtId" : "1",
      "nameZh" : "勞工育樂中心",
      "pgp" : "0",
      "terminal" : "0",
      "latitude" : "24.25775",
      "inDis" : "50",
      "routeId" : "167",
      "seqNo" : "53"
   },
   {
      "GoBack" : "2",
      "longitude" : "120.57075",
      "outDis" : "50",
      "Id" : "4129",
      "oid" : "10864",
      "districtId" : "1",
      "nameZh" : "鹿峰里",
      "pgp" : "0",
      "terminal" : "0",
      "latitude" : "24.25885",
      "inDis" : "50",
      "routeId" : "167",
      "seqNo" : "54"
   },
   {
      "GoBack" : "2",
      "longitude" : "120.5714",
      "outDis" : "50",
      "Id" : "4441",
      "oid" : "307275657",
      "districtId" : "1",
      "nameZh" : "中山星河路口",
      "pgp" : "0",
      "terminal" : "0",
      "latitude" : "24.25997",
      "inDis" : "50",
      "routeId" : "167",
      "seqNo" : "55"
   },
   {
      "GoBack" : "2",
      "longitude" : "120.57262",
      "outDis" : "50",
      "Id" : "4121",
      "oid" : "2291",
      "districtId" : "1",
      "nameZh" : "清水電信局",
      "pgp" : "0",
      "terminal" : "0",
      "latitude" : "24.26214",
      "inDis" : "50",
      "routeId" : "167",
      "seqNo" : "56"
   },
   {
      "GoBack" : "2",
      "longitude" : "120.5742",
      "outDis" : "50",
      "Id" : "4119",
      "oid" : "2292",
      "districtId" : "1",
      "nameZh" : "清水高中",
      "pgp" : "0",
      "terminal" : "0",
      "latitude" : "24.2658",
      "inDis" : "50",
      "routeId" : "167",
      "seqNo" : "57"
   },
   {
      "GoBack" : "2",
      "longitude" : "120.57516",
      "outDis" : "50",
      "Id" : "5141",
      "oid" : "14057",
      "districtId" : "1",
      "nameZh" : "華南銀行(清水分行)",
      "pgp" : "0",
      "terminal" : "0",
      "latitude" : "24.2683",
      "inDis" : "50",
      "routeId" : "167",
      "seqNo" : "58"
   },
   {
      "GoBack" : "2",
      "longitude" : "120.57594",
      "outDis" : "50",
      "Id" : "3013",
      "oid" : "10843",
      "districtId" : "1",
      "nameZh" : "清水",
      "pgp" : "0",
      "terminal" : "0",
      "latitude" : "24.2703",
      "inDis" : "50",
      "routeId" : "167",
      "seqNo" : "59"
   },
   {
      "GoBack" : "2",
      "longitude" : "120.57687",
      "outDis" : "50",
      "Id" : "4521",
      "oid" : "305513525",
      "districtId" : "1",
      "nameZh" : "中山董公街口",
      "pgp" : "0",
      "terminal" : "0",
      "latitude" : "24.27284",
      "inDis" : "50",
      "routeId" : "167",
      "seqNo" : "60"
   },
   {
      "GoBack" : "2",
      "longitude" : "120.57725",
      "outDis" : "50",
      "Id" : "4442",
      "oid" : "312352563",
      "districtId" : "1",
      "nameZh" : "中山高美路口",
      "pgp" : "0",
      "terminal" : "0",
      "latitude" : "24.27461",
      "inDis" : "50",
      "routeId" : "167",
      "seqNo" : "61"
   },
   {
      "GoBack" : "2",
      "longitude" : "120.57942",
      "outDis" : "50",
      "Id" : "4065",
      "oid" : "2297",
      "districtId" : "1",
      "nameZh" : "下湳加油站",
      "pgp" : "0",
      "terminal" : "0",
      "latitude" : "24.27858",
      "inDis" : "50",
      "routeId" : "167",
      "seqNo" : "62"
   },
   {
      "GoBack" : "2",
      "longitude" : "120.58119",
      "outDis" : "50",
      "Id" : "4130",
      "oid" : "2298",
      "districtId" : "1",
      "nameZh" : "朝興宮",
      "pgp" : "0",
      "terminal" : "0",
      "latitude" : "24.281",
      "inDis" : "50",
      "routeId" : "167",
      "seqNo" : "63"
   },
   {
      "GoBack" : "2",
      "longitude" : "120.58331",
      "outDis" : "50",
      "Id" : "4063",
      "oid" : "2299",
      "districtId" : "1",
      "nameZh" : "下湳子",
      "pgp" : "0",
      "terminal" : "0",
      "latitude" : "24.28369",
      "inDis" : "50",
      "routeId" : "167",
      "seqNo" : "64"
   },
   {
      "GoBack" : "2",
      "longitude" : "120.58578",
      "outDis" : "50",
      "Id" : "4058",
      "oid" : "2300",
      "districtId" : "1",
      "nameZh" : "三田國小",
      "pgp" : "0",
      "terminal" : "0",
      "latitude" : "24.28801",
      "inDis" : "50",
      "routeId" : "167",
      "seqNo" : "65"
   },
   {
      "GoBack" : "2",
      "longitude" : "120.58733",
      "outDis" : "50",
      "Id" : "4139",
      "oid" : "2301",
      "districtId" : "1",
      "nameZh" : "福元批發",
      "pgp" : "0",
      "terminal" : "0",
      "latitude" : "24.29059",
      "inDis" : "50",
      "routeId" : "167",
      "seqNo" : "66"
   },
   {
      "GoBack" : "2",
      "longitude" : "120.58824",
      "outDis" : "50",
      "Id" : "4127",
      "oid" : "2302",
      "districtId" : "1",
      "nameZh" : "頂湳子",
      "pgp" : "0",
      "terminal" : "0",
      "latitude" : "24.29229",
      "inDis" : "50",
      "routeId" : "167",
      "seqNo" : "67"
   },
   {
      "GoBack" : "2",
      "longitude" : "120.59094",
      "outDis" : "50",
      "Id" : "4150",
      "oid" : "2303",
      "districtId" : "1",
      "nameZh" : "轉播站",
      "pgp" : "0",
      "terminal" : "0",
      "latitude" : "24.29584",
      "inDis" : "50",
      "routeId" : "167",
      "seqNo" : "68"
   },
   {
      "GoBack" : "2",
      "longitude" : "120.59354",
      "outDis" : "50",
      "Id" : "4144",
      "oid" : "2304",
      "districtId" : "1",
      "nameZh" : "震陽工廠",
      "pgp" : "0",
      "terminal" : "0",
      "latitude" : "24.29821",
      "inDis" : "50",
      "routeId" : "167",
      "seqNo" : "69"
   },
   {
      "GoBack" : "2",
      "longitude" : "120.59579",
      "outDis" : "50",
      "Id" : "4134",
      "oid" : "2305",
      "districtId" : "1",
      "nameZh" : "菁埔里",
      "pgp" : "0",
      "terminal" : "0",
      "latitude" : "24.30093",
      "inDis" : "50",
      "routeId" : "167",
      "seqNo" : "70"
   },
   {
      "GoBack" : "2",
      "longitude" : "120.6012",
      "outDis" : "50",
      "Id" : "1993",
      "oid" : "2306",
      "districtId" : "1",
      "nameZh" : "甲南",
      "pgp" : "0",
      "terminal" : "0",
      "latitude" : "24.30457",
      "inDis" : "50",
      "routeId" : "167",
      "seqNo" : "71"
   },
   {
      "GoBack" : "2",
      "longitude" : "120.60347",
      "outDis" : "50",
      "Id" : "4071",
      "oid" : "2307",
      "districtId" : "1",
      "nameZh" : "大甲溪橋",
      "pgp" : "0",
      "terminal" : "0",
      "latitude" : "24.31061",
      "inDis" : "50",
      "routeId" : "167",
      "seqNo" : "72"
   },
   {
      "GoBack" : "2",
      "longitude" : "120.60852",
      "outDis" : "50",
      "Id" : "1705",
      "oid" : "2308",
      "districtId" : "1",
      "nameZh" : "水汴頭",
      "pgp" : "0",
      "terminal" : "0",
      "latitude" : "24.32661",
      "inDis" : "50",
      "routeId" : "167",
      "seqNo" : "73"
   },
   {
      "GoBack" : "2",
      "longitude" : "120.61307",
      "outDis" : "50",
      "Id" : "4133",
      "oid" : "312321236",
      "districtId" : "1",
      "nameZh" : "番子寮",
      "pgp" : "0",
      "terminal" : "0",
      "latitude" : "24.33204",
      "inDis" : "50",
      "routeId" : "167",
      "seqNo" : "74"
   },
   {
      "GoBack" : "2",
      "longitude" : "120.61723",
      "outDis" : "50",
      "Id" : "1859",
      "oid" : "5584",
      "districtId" : "1",
      "nameZh" : "外水尾",
      "pgp" : "0",
      "terminal" : "0",
      "latitude" : "24.33731",
      "inDis" : "50",
      "routeId" : "167",
      "seqNo" : "75"
   },
   {
      "GoBack" : "2",
      "longitude" : "120.61874",
      "outDis" : "50",
      "Id" : "5693",
      "oid" : "319916595",
      "districtId" : "1",
      "nameZh" : "水尾橋 ",
      "pgp" : "0",
      "terminal" : "0",
      "latitude" : "24.33972",
      "inDis" : "50",
      "routeId" : "167",
      "seqNo" : "76"
   },
   {
      "GoBack" : "2",
      "longitude" : "120.62143",
      "outDis" : "50",
      "Id" : "5048",
      "oid" : "309863798",
      "districtId" : "1",
      "nameZh" : "大甲高中(中山路)",
      "pgp" : "0",
      "terminal" : "0",
      "latitude" : "24.34212",
      "inDis" : "50",
      "routeId" : "167",
      "seqNo" : "77"
   },
   {
      "GoBack" : "2",
      "longitude" : "120.62431",
      "outDis" : "50",
      "Id" : "2609",
      "oid" : "2312",
      "districtId" : "1",
      "nameZh" : "南陽里",
      "pgp" : "0",
      "terminal" : "0",
      "latitude" : "24.34272",
      "inDis" : "50",
      "routeId" : "167",
      "seqNo" : "78"
   },
   {
      "GoBack" : "2",
      "longitude" : "120.62525",
      "outDis" : "50",
      "Id" : "4067",
      "oid" : "2313",
      "districtId" : "1",
      "nameZh" : "大甲站",
      "pgp" : "0",
      "terminal" : "0",
      "latitude" : "24.34387",
      "inDis" : "50",
      "routeId" : "167",
      "seqNo" : "79"
   }
]
