[
   {
      "GoBack" : "1",
      "longitude" : "120.5838",
      "outDis" : "50",
      "Id" : "0429",
      "oid" : "319025926",
      "districtId" : "1",
      "nameZh" : "工業28與42路口",
      "pgp" : "0",
      "terminal" : "0",
      "latitude" : "24.173",
      "inDis" : "50",
      "routeId" : "藍1",
      "seqNo" : "1"
   },
   {
      "GoBack" : "1",
      "longitude" : "120.5888",
      "outDis" : "50",
      "Id" : "0428",
      "oid" : "319025925",
      "districtId" : "1",
      "nameZh" : "協和社區",
      "pgp" : "0",
      "terminal" : "0",
      "latitude" : "24.1749",
      "inDis" : "50",
      "routeId" : "藍1",
      "seqNo" : "2"
   },
   {
      "GoBack" : "1",
      "longitude" : "120.5901",
      "outDis" : "50",
      "Id" : "0427",
      "oid" : "319025924",
      "districtId" : "1",
      "nameZh" : "工業28與37路口",
      "pgp" : "0",
      "terminal" : "0",
      "latitude" : "24.1727",
      "inDis" : "50",
      "routeId" : "藍1",
      "seqNo" : "3"
   },
   {
      "GoBack" : "1",
      "longitude" : "120.591",
      "outDis" : "50",
      "Id" : "0423",
      "oid" : "319025923",
      "districtId" : "1",
      "nameZh" : "工業28與35路口",
      "pgp" : "0",
      "terminal" : "0",
      "latitude" : "24.1702",
      "inDis" : "50",
      "routeId" : "藍1",
      "seqNo" : "4"
   },
   {
      "GoBack" : "1",
      "longitude" : "120.5947",
      "outDis" : "50",
      "Id" : "0420",
      "oid" : "319025922",
      "districtId" : "1",
      "nameZh" : "工業28與33路口",
      "pgp" : "0",
      "terminal" : "0",
      "latitude" : "24.1697",
      "inDis" : "50",
      "routeId" : "藍1",
      "seqNo" : "5"
   },
   {
      "GoBack" : "1",
      "longitude" : "120.5967",
      "outDis" : "50",
      "Id" : "0418",
      "oid" : "319025921",
      "districtId" : "1",
      "nameZh" : "工業28與32路口",
      "pgp" : "0",
      "terminal" : "0",
      "latitude" : "24.1684",
      "inDis" : "50",
      "routeId" : "藍1",
      "seqNo" : "6"
   },
   {
      "GoBack" : "1",
      "longitude" : "120.59769",
      "outDis" : "50",
      "Id" : "5663",
      "oid" : "318992244",
      "districtId" : "1",
      "nameZh" : "臺中酒廠(工業二十八路)",
      "pgp" : "0",
      "terminal" : "0",
      "latitude" : "24.1644",
      "inDis" : "50",
      "routeId" : "藍1",
      "seqNo" : "7"
   },
   {
      "GoBack" : "1",
      "longitude" : "120.59998",
      "outDis" : "50",
      "Id" : "0947",
      "oid" : "318992246",
      "districtId" : "1",
      "nameZh" : "環隆科技",
      "pgp" : "0",
      "terminal" : "0",
      "latitude" : "24.16291",
      "inDis" : "50",
      "routeId" : "藍1",
      "seqNo" : "8"
   },
   {
      "GoBack" : "1",
      "longitude" : "120.6015",
      "outDis" : "50",
      "Id" : "0416",
      "oid" : "319025920",
      "districtId" : "1",
      "nameZh" : "百容電子",
      "pgp" : "0",
      "terminal" : "0",
      "latitude" : "24.1618",
      "inDis" : "50",
      "routeId" : "藍1",
      "seqNo" : "9"
   },
   {
      "GoBack" : "1",
      "longitude" : "120.60486",
      "outDis" : "50",
      "Id" : "5531",
      "oid" : "318992248",
      "districtId" : "1",
      "nameZh" : "五權西工業23路口",
      "pgp" : "0",
      "terminal" : "0",
      "latitude" : "24.16099",
      "inDis" : "50",
      "routeId" : "藍1",
      "seqNo" : "10"
   },
   {
      "GoBack" : "1",
      "longitude" : "120.6076",
      "outDis" : "50",
      "Id" : "0415",
      "oid" : "319025919",
      "districtId" : "1",
      "nameZh" : "明通製藥",
      "pgp" : "0",
      "terminal" : "0",
      "latitude" : "24.1614",
      "inDis" : "50",
      "routeId" : "藍1",
      "seqNo" : "11"
   },
   {
      "GoBack" : "1",
      "longitude" : "120.6092",
      "outDis" : "50",
      "Id" : "0414",
      "oid" : "319025918",
      "districtId" : "1",
      "nameZh" : "統一企業",
      "pgp" : "0",
      "terminal" : "0",
      "latitude" : "24.1655",
      "inDis" : "50",
      "routeId" : "藍1",
      "seqNo" : "12"
   },
   {
      "GoBack" : "1",
      "longitude" : "120.6107",
      "outDis" : "50",
      "Id" : "5729",
      "oid" : "318992250",
      "districtId" : "1",
      "nameZh" : "發展署中彰投分署(工業三路)",
      "pgp" : "0",
      "terminal" : "0",
      "latitude" : "24.17022",
      "inDis" : "50",
      "routeId" : "藍1",
      "seqNo" : "13"
   },
   {
      "GoBack" : "1",
      "longitude" : "120.6135",
      "outDis" : "50",
      "Id" : "0413",
      "oid" : "319025917",
      "districtId" : "1",
      "nameZh" : "裕國冷凍",
      "pgp" : "0",
      "terminal" : "0",
      "latitude" : "24.17249",
      "inDis" : "50",
      "routeId" : "藍1",
      "seqNo" : "14"
   },
   {
      "GoBack" : "1",
      "longitude" : "120.61409",
      "outDis" : "50",
      "Id" : "0605",
      "oid" : "318992252",
      "districtId" : "1",
      "nameZh" : "安和國中",
      "pgp" : "0",
      "terminal" : "0",
      "latitude" : "24.17499",
      "inDis" : "50",
      "routeId" : "藍1",
      "seqNo" : "15"
   },
   {
      "GoBack" : "1",
      "longitude" : "120.61487",
      "outDis" : "50",
      "Id" : "0507",
      "oid" : "318992254",
      "districtId" : "1",
      "nameZh" : "臺中世貿中心",
      "pgp" : "0",
      "terminal" : "0",
      "latitude" : "24.18007",
      "inDis" : "50",
      "routeId" : "藍1",
      "seqNo" : "16"
   },
   {
      "GoBack" : "1",
      "longitude" : "120.61574",
      "outDis" : "50",
      "Id" : "0430",
      "oid" : "318992256",
      "districtId" : "1",
      "nameZh" : "中港澄清醫院",
      "pgp" : "0",
      "terminal" : "0",
      "latitude" : "24.18267",
      "inDis" : "50",
      "routeId" : "藍1",
      "seqNo" : "17"
   },
   {
      "GoBack" : "1",
      "longitude" : "120.62115",
      "outDis" : "50",
      "Id" : "3060",
      "oid" : "318992258",
      "districtId" : "1",
      "nameZh" : "統聯轉運站",
      "pgp" : "0",
      "terminal" : "0",
      "latitude" : "24.18",
      "inDis" : "50",
      "routeId" : "藍1",
      "seqNo" : "18"
   },
   {
      "GoBack" : "1",
      "longitude" : "120.62438",
      "outDis" : "50",
      "Id" : "1481",
      "oid" : "318992260",
      "districtId" : "1",
      "nameZh" : "安和臺灣大道口",
      "pgp" : "0",
      "terminal" : "0",
      "latitude" : "24.17838",
      "inDis" : "50",
      "routeId" : "藍1",
      "seqNo" : "19"
   },
   {
      "GoBack" : "2",
      "longitude" : "120.62115",
      "outDis" : "50",
      "Id" : "3060",
      "oid" : "318992258",
      "districtId" : "1",
      "nameZh" : "統聯轉運站",
      "pgp" : "0",
      "terminal" : "0",
      "latitude" : "24.18",
      "inDis" : "50",
      "routeId" : "藍1",
      "seqNo" : "2"
   },
   {
      "GoBack" : "2",
      "longitude" : "120.61516",
      "outDis" : "50",
      "Id" : "5431",
      "oid" : "318992262",
      "districtId" : "1",
      "nameZh" : "中港澄清醫院(工業一路)",
      "pgp" : "0",
      "terminal" : "0",
      "latitude" : "24.18257",
      "inDis" : "50",
      "routeId" : "藍1",
      "seqNo" : "3"
   },
   {
      "GoBack" : "2",
      "longitude" : "120.61471",
      "outDis" : "50",
      "Id" : "0507",
      "oid" : "319023824",
      "districtId" : "1",
      "nameZh" : "臺中世貿中心",
      "pgp" : "0",
      "terminal" : "0",
      "latitude" : "24.18017",
      "inDis" : "50",
      "routeId" : "藍1",
      "seqNo" : "4"
   },
   {
      "GoBack" : "2",
      "longitude" : "120.61429",
      "outDis" : "50",
      "Id" : "0605",
      "oid" : "319023826",
      "districtId" : "1",
      "nameZh" : "安和國中",
      "pgp" : "0",
      "terminal" : "0",
      "latitude" : "24.17534",
      "inDis" : "50",
      "routeId" : "藍1",
      "seqNo" : "5"
   },
   {
      "GoBack" : "2",
      "longitude" : "120.6135",
      "outDis" : "50",
      "Id" : "0413",
      "oid" : "319025917",
      "districtId" : "1",
      "nameZh" : "裕國冷凍",
      "pgp" : "0",
      "terminal" : "0",
      "latitude" : "24.17249",
      "inDis" : "50",
      "routeId" : "藍1",
      "seqNo" : "6"
   },
   {
      "GoBack" : "2",
      "longitude" : "120.6107",
      "outDis" : "50",
      "Id" : "5729",
      "oid" : "319023828",
      "districtId" : "1",
      "nameZh" : "發展署中彰投分署(工業三路)",
      "pgp" : "0",
      "terminal" : "0",
      "latitude" : "24.17022",
      "inDis" : "50",
      "routeId" : "藍1",
      "seqNo" : "7"
   },
   {
      "GoBack" : "2",
      "longitude" : "120.6092",
      "outDis" : "50",
      "Id" : "0414",
      "oid" : "319025918",
      "districtId" : "1",
      "nameZh" : "統一企業",
      "pgp" : "0",
      "terminal" : "0",
      "latitude" : "24.1655",
      "inDis" : "50",
      "routeId" : "藍1",
      "seqNo" : "8"
   },
   {
      "GoBack" : "2",
      "longitude" : "120.6076",
      "outDis" : "50",
      "Id" : "0415",
      "oid" : "319025919",
      "districtId" : "1",
      "nameZh" : "明通製藥",
      "pgp" : "0",
      "terminal" : "0",
      "latitude" : "24.1614",
      "inDis" : "50",
      "routeId" : "藍1",
      "seqNo" : "9"
   },
   {
      "GoBack" : "2",
      "longitude" : "120.60486",
      "outDis" : "50",
      "Id" : "5531",
      "oid" : "319023830",
      "districtId" : "1",
      "nameZh" : "五權西工業23路口",
      "pgp" : "0",
      "terminal" : "0",
      "latitude" : "24.16099",
      "inDis" : "50",
      "routeId" : "藍1",
      "seqNo" : "10"
   },
   {
      "GoBack" : "2",
      "longitude" : "120.6015",
      "outDis" : "50",
      "Id" : "0416",
      "oid" : "319025920",
      "districtId" : "1",
      "nameZh" : "百容電子",
      "pgp" : "0",
      "terminal" : "0",
      "latitude" : "24.1618",
      "inDis" : "50",
      "routeId" : "藍1",
      "seqNo" : "11"
   },
   {
      "GoBack" : "2",
      "longitude" : "120.59998",
      "outDis" : "50",
      "Id" : "0947",
      "oid" : "319023832",
      "districtId" : "1",
      "nameZh" : "環隆科技",
      "pgp" : "0",
      "terminal" : "0",
      "latitude" : "24.16291",
      "inDis" : "50",
      "routeId" : "藍1",
      "seqNo" : "12"
   },
   {
      "GoBack" : "2",
      "longitude" : "120.59769",
      "outDis" : "50",
      "Id" : "5663",
      "oid" : "319023834",
      "districtId" : "1",
      "nameZh" : "臺中酒廠(工業二十八路)",
      "pgp" : "0",
      "terminal" : "0",
      "latitude" : "24.1644",
      "inDis" : "50",
      "routeId" : "藍1",
      "seqNo" : "13"
   },
   {
      "GoBack" : "2",
      "longitude" : "120.5967",
      "outDis" : "50",
      "Id" : "0418",
      "oid" : "319025921",
      "districtId" : "1",
      "nameZh" : "工業28與32路口",
      "pgp" : "0",
      "terminal" : "0",
      "latitude" : "24.1684",
      "inDis" : "50",
      "routeId" : "藍1",
      "seqNo" : "14"
   },
   {
      "GoBack" : "2",
      "longitude" : "120.5947",
      "outDis" : "50",
      "Id" : "0420",
      "oid" : "319025922",
      "districtId" : "1",
      "nameZh" : "工業28與33路口",
      "pgp" : "0",
      "terminal" : "0",
      "latitude" : "24.1697",
      "inDis" : "50",
      "routeId" : "藍1",
      "seqNo" : "15"
   },
   {
      "GoBack" : "2",
      "longitude" : "120.591",
      "outDis" : "50",
      "Id" : "0423",
      "oid" : "319025923",
      "districtId" : "1",
      "nameZh" : "工業28與35路口",
      "pgp" : "0",
      "terminal" : "0",
      "latitude" : "24.1702",
      "inDis" : "50",
      "routeId" : "藍1",
      "seqNo" : "16"
   },
   {
      "GoBack" : "2",
      "longitude" : "120.5901",
      "outDis" : "50",
      "Id" : "0427",
      "oid" : "319025924",
      "districtId" : "1",
      "nameZh" : "工業28與37路口",
      "pgp" : "0",
      "terminal" : "0",
      "latitude" : "24.1727",
      "inDis" : "50",
      "routeId" : "藍1",
      "seqNo" : "17"
   },
   {
      "GoBack" : "2",
      "longitude" : "120.5888",
      "outDis" : "50",
      "Id" : "0428",
      "oid" : "319025925",
      "districtId" : "1",
      "nameZh" : "協和社區",
      "pgp" : "0",
      "terminal" : "0",
      "latitude" : "24.1749",
      "inDis" : "50",
      "routeId" : "藍1",
      "seqNo" : "18"
   },
   {
      "GoBack" : "2",
      "longitude" : "120.5838",
      "outDis" : "50",
      "Id" : "0429",
      "oid" : "319025926",
      "districtId" : "1",
      "nameZh" : "工業28與42路口",
      "pgp" : "0",
      "terminal" : "0",
      "latitude" : "24.173",
      "inDis" : "50",
      "routeId" : "藍1",
      "seqNo" : "19"
   }
]
