[
   {
      "GoBack" : "1",
      "longitude" : "120.8238",
      "outDis" : "50",
      "Id" : "2300",
      "oid" : "5825",
      "districtId" : "1",
      "nameZh" : "卓蘭",
      "pgp" : "0",
      "terminal" : "0",
      "latitude" : "24.3143",
      "inDis" : "50",
      "routeId" : "257",
      "seqNo" : "1"
   },
   {
      "GoBack" : "1",
      "longitude" : "120.82445",
      "outDis" : "50",
      "Id" : "3296",
      "oid" : "6378",
      "districtId" : "1",
      "nameZh" : "郵局前",
      "pgp" : "0",
      "terminal" : "0",
      "latitude" : "24.31332",
      "inDis" : "50",
      "routeId" : "257",
      "seqNo" : "2"
   },
   {
      "GoBack" : "1",
      "longitude" : "120.82533",
      "outDis" : "50",
      "Id" : "3917",
      "oid" : "6686",
      "districtId" : "1",
      "nameZh" : "舊站",
      "pgp" : "0",
      "terminal" : "0",
      "latitude" : "24.31227",
      "inDis" : "50",
      "routeId" : "257",
      "seqNo" : "3"
   },
   {
      "GoBack" : "1",
      "longitude" : "120.82557",
      "outDis" : "50",
      "Id" : "1488",
      "oid" : "5343",
      "districtId" : "1",
      "nameZh" : "中街",
      "pgp" : "0",
      "terminal" : "0",
      "latitude" : "24.3109",
      "inDis" : "50",
      "routeId" : "257",
      "seqNo" : "4"
   },
   {
      "GoBack" : "1",
      "longitude" : "120.8246",
      "outDis" : "50",
      "Id" : "3472",
      "oid" : "6484",
      "districtId" : "1",
      "nameZh" : "溪洲",
      "pgp" : "0",
      "terminal" : "0",
      "latitude" : "24.31046",
      "inDis" : "50",
      "routeId" : "257",
      "seqNo" : "5"
   },
   {
      "GoBack" : "1",
      "longitude" : "120.8222",
      "outDis" : "50",
      "Id" : "2123",
      "oid" : "5727",
      "districtId" : "1",
      "nameZh" : "收費站",
      "pgp" : "0",
      "terminal" : "0",
      "latitude" : "24.31026",
      "inDis" : "50",
      "routeId" : "257",
      "seqNo" : "6"
   },
   {
      "GoBack" : "1",
      "longitude" : "120.81133",
      "outDis" : "50",
      "Id" : "1290",
      "oid" : "5224",
      "districtId" : "1",
      "nameZh" : "大安溪",
      "pgp" : "0",
      "terminal" : "0",
      "latitude" : "24.30356",
      "inDis" : "50",
      "routeId" : "257",
      "seqNo" : "7"
   },
   {
      "GoBack" : "1",
      "longitude" : "120.80725",
      "outDis" : "50",
      "Id" : "1248",
      "oid" : "5189",
      "districtId" : "1",
      "nameZh" : "上圓屯",
      "pgp" : "0",
      "terminal" : "0",
      "latitude" : "24.30544",
      "inDis" : "50",
      "routeId" : "257",
      "seqNo" : "8"
   },
   {
      "GoBack" : "1",
      "longitude" : "120.7999",
      "outDis" : "50",
      "Id" : "3382",
      "oid" : "6420",
      "districtId" : "1",
      "nameZh" : "新田口",
      "pgp" : "0",
      "terminal" : "0",
      "latitude" : "24.30682",
      "inDis" : "50",
      "routeId" : "257",
      "seqNo" : "9"
   },
   {
      "GoBack" : "1",
      "longitude" : "120.79434",
      "outDis" : "50",
      "Id" : "1195",
      "oid" : "5148",
      "districtId" : "1",
      "nameZh" : "下圓屯",
      "pgp" : "0",
      "terminal" : "0",
      "latitude" : "24.30906",
      "inDis" : "50",
      "routeId" : "257",
      "seqNo" : "10"
   },
   {
      "GoBack" : "1",
      "longitude" : "120.79124",
      "outDis" : "50",
      "Id" : "2358",
      "oid" : "5866",
      "districtId" : "1",
      "nameZh" : "明正國小",
      "pgp" : "0",
      "terminal" : "0",
      "latitude" : "24.3102",
      "inDis" : "50",
      "routeId" : "257",
      "seqNo" : "11"
   },
   {
      "GoBack" : "1",
      "longitude" : "120.78571",
      "outDis" : "50",
      "Id" : "2359",
      "oid" : "5868",
      "districtId" : "1",
      "nameZh" : "明正里",
      "pgp" : "0",
      "terminal" : "0",
      "latitude" : "24.31174",
      "inDis" : "50",
      "routeId" : "257",
      "seqNo" : "12"
   },
   {
      "GoBack" : "2",
      "longitude" : "120.78571",
      "outDis" : "50",
      "Id" : "2359",
      "oid" : "5868",
      "districtId" : "1",
      "nameZh" : "明正里",
      "pgp" : "0",
      "terminal" : "0",
      "latitude" : "24.31174",
      "inDis" : "50",
      "routeId" : "257",
      "seqNo" : "1"
   },
   {
      "GoBack" : "2",
      "longitude" : "120.79124",
      "outDis" : "50",
      "Id" : "2358",
      "oid" : "5866",
      "districtId" : "1",
      "nameZh" : "明正國小",
      "pgp" : "0",
      "terminal" : "0",
      "latitude" : "24.3102",
      "inDis" : "50",
      "routeId" : "257",
      "seqNo" : "2"
   },
   {
      "GoBack" : "2",
      "longitude" : "120.79434",
      "outDis" : "50",
      "Id" : "1195",
      "oid" : "5148",
      "districtId" : "1",
      "nameZh" : "下圓屯",
      "pgp" : "0",
      "terminal" : "0",
      "latitude" : "24.30906",
      "inDis" : "50",
      "routeId" : "257",
      "seqNo" : "3"
   },
   {
      "GoBack" : "2",
      "longitude" : "120.7999",
      "outDis" : "50",
      "Id" : "3382",
      "oid" : "6420",
      "districtId" : "1",
      "nameZh" : "新田口",
      "pgp" : "0",
      "terminal" : "0",
      "latitude" : "24.30682",
      "inDis" : "50",
      "routeId" : "257",
      "seqNo" : "4"
   },
   {
      "GoBack" : "2",
      "longitude" : "120.80725",
      "outDis" : "50",
      "Id" : "1248",
      "oid" : "5189",
      "districtId" : "1",
      "nameZh" : "上圓屯",
      "pgp" : "0",
      "terminal" : "0",
      "latitude" : "24.30544",
      "inDis" : "50",
      "routeId" : "257",
      "seqNo" : "5"
   },
   {
      "GoBack" : "2",
      "longitude" : "120.81133",
      "outDis" : "50",
      "Id" : "1290",
      "oid" : "5224",
      "districtId" : "1",
      "nameZh" : "大安溪",
      "pgp" : "0",
      "terminal" : "0",
      "latitude" : "24.30356",
      "inDis" : "50",
      "routeId" : "257",
      "seqNo" : "6"
   },
   {
      "GoBack" : "2",
      "longitude" : "120.8222",
      "outDis" : "50",
      "Id" : "2123",
      "oid" : "5727",
      "districtId" : "1",
      "nameZh" : "收費站",
      "pgp" : "0",
      "terminal" : "0",
      "latitude" : "24.31026",
      "inDis" : "50",
      "routeId" : "257",
      "seqNo" : "7"
   },
   {
      "GoBack" : "2",
      "longitude" : "120.8246",
      "outDis" : "50",
      "Id" : "3472",
      "oid" : "6484",
      "districtId" : "1",
      "nameZh" : "溪洲",
      "pgp" : "0",
      "terminal" : "0",
      "latitude" : "24.31046",
      "inDis" : "50",
      "routeId" : "257",
      "seqNo" : "8"
   },
   {
      "GoBack" : "2",
      "longitude" : "120.82557",
      "outDis" : "50",
      "Id" : "1488",
      "oid" : "5343",
      "districtId" : "1",
      "nameZh" : "中街",
      "pgp" : "0",
      "terminal" : "0",
      "latitude" : "24.3109",
      "inDis" : "50",
      "routeId" : "257",
      "seqNo" : "9"
   },
   {
      "GoBack" : "2",
      "longitude" : "120.82533",
      "outDis" : "50",
      "Id" : "3917",
      "oid" : "6686",
      "districtId" : "1",
      "nameZh" : "舊站",
      "pgp" : "0",
      "terminal" : "0",
      "latitude" : "24.31227",
      "inDis" : "50",
      "routeId" : "257",
      "seqNo" : "10"
   },
   {
      "GoBack" : "2",
      "longitude" : "120.82445",
      "outDis" : "50",
      "Id" : "3296",
      "oid" : "6378",
      "districtId" : "1",
      "nameZh" : "郵局前",
      "pgp" : "0",
      "terminal" : "0",
      "latitude" : "24.31332",
      "inDis" : "50",
      "routeId" : "257",
      "seqNo" : "11"
   },
   {
      "GoBack" : "2",
      "longitude" : "120.8238",
      "outDis" : "50",
      "Id" : "2300",
      "oid" : "5825",
      "districtId" : "1",
      "nameZh" : "卓蘭",
      "pgp" : "0",
      "terminal" : "0",
      "latitude" : "24.3143",
      "inDis" : "50",
      "routeId" : "257",
      "seqNo" : "12"
   }
]
