[
   {
      "GoBack" : "1",
      "longitude" : "120.82862",
      "outDis" : "50",
      "Id" : "2428",
      "oid" : "5900",
      "districtId" : "1",
      "nameZh" : "東勢",
      "pgp" : "0",
      "terminal" : "0",
      "latitude" : "24.25742",
      "inDis" : "50",
      "routeId" : "277",
      "seqNo" : "1"
   },
   {
      "GoBack" : "1",
      "longitude" : "120.82704",
      "outDis" : "50",
      "Id" : "4500",
      "oid" : "5746",
      "districtId" : "1",
      "nameZh" : "東勢老人會館",
      "pgp" : "0",
      "terminal" : "0",
      "latitude" : "24.26085",
      "inDis" : "50",
      "routeId" : "277",
      "seqNo" : "2"
   },
   {
      "GoBack" : "1",
      "longitude" : "120.82666",
      "outDis" : "50",
      "Id" : "2434",
      "oid" : "5906",
      "districtId" : "1",
      "nameZh" : "東新國中",
      "pgp" : "0",
      "terminal" : "0",
      "latitude" : "24.26268",
      "inDis" : "50",
      "routeId" : "277",
      "seqNo" : "3"
   },
   {
      "GoBack" : "1",
      "longitude" : "120.82479",
      "outDis" : "50",
      "Id" : "4494",
      "oid" : "6463",
      "districtId" : "1",
      "nameZh" : "新豐新寧街口",
      "pgp" : "0",
      "terminal" : "0",
      "latitude" : "24.26287",
      "inDis" : "50",
      "routeId" : "277",
      "seqNo" : "4"
   },
   {
      "GoBack" : "1",
      "longitude" : "120.81565",
      "outDis" : "50",
      "Id" : "4650",
      "oid" : "5197",
      "districtId" : "1",
      "nameZh" : "土牛(和盛街)",
      "pgp" : "0",
      "terminal" : "0",
      "latitude" : "24.25913",
      "inDis" : "50",
      "routeId" : "277",
      "seqNo" : "5"
   },
   {
      "GoBack" : "1",
      "longitude" : "120.81402",
      "outDis" : "50",
      "Id" : "2593",
      "oid" : "6000",
      "districtId" : "1",
      "nameZh" : "南眉",
      "pgp" : "0",
      "terminal" : "0",
      "latitude" : "24.25639",
      "inDis" : "50",
      "routeId" : "277",
      "seqNo" : "6"
   },
   {
      "GoBack" : "1",
      "longitude" : "120.8076",
      "outDis" : "50",
      "Id" : "2446",
      "oid" : "5913",
      "districtId" : "1",
      "nameZh" : "果菜市場",
      "pgp" : "0",
      "terminal" : "0",
      "latitude" : "24.257",
      "inDis" : "50",
      "routeId" : "277",
      "seqNo" : "9"
   },
   {
      "GoBack" : "1",
      "longitude" : "120.80707",
      "outDis" : "50",
      "Id" : "1394",
      "oid" : "5288",
      "districtId" : "1",
      "nameZh" : "山頂",
      "pgp" : "0",
      "terminal" : "0",
      "latitude" : "24.25523",
      "inDis" : "50",
      "routeId" : "277",
      "seqNo" : "10"
   },
   {
      "GoBack" : "1",
      "longitude" : "120.80775",
      "outDis" : "50",
      "Id" : "3557",
      "oid" : "6515",
      "districtId" : "1",
      "nameZh" : "電信局前",
      "pgp" : "0",
      "terminal" : "0",
      "latitude" : "24.25339",
      "inDis" : "50",
      "routeId" : "277",
      "seqNo" : "11"
   },
   {
      "GoBack" : "1",
      "longitude" : "120.80877",
      "outDis" : "50",
      "Id" : "1438",
      "oid" : "5317",
      "districtId" : "1",
      "nameZh" : "中正里",
      "pgp" : "0",
      "terminal" : "0",
      "latitude" : "24.25055",
      "inDis" : "50",
      "routeId" : "277",
      "seqNo" : "12"
   },
   {
      "GoBack" : "1",
      "longitude" : "120.80873",
      "outDis" : "50",
      "Id" : "0011",
      "oid" : "6373",
      "districtId" : "1",
      "nameZh" : "郵局",
      "pgp" : "0",
      "terminal" : "0",
      "latitude" : "24.24805",
      "inDis" : "50",
      "routeId" : "277",
      "seqNo" : "13"
   },
   {
      "GoBack" : "1",
      "longitude" : "120.80832",
      "outDis" : "50",
      "Id" : "1199",
      "oid" : "5152",
      "districtId" : "1",
      "nameZh" : "下新社",
      "pgp" : "0",
      "terminal" : "0",
      "latitude" : "24.24637",
      "inDis" : "50",
      "routeId" : "277",
      "seqNo" : "14"
   },
   {
      "GoBack" : "1",
      "longitude" : "120.80832",
      "outDis" : "50",
      "Id" : "3398",
      "oid" : "6432",
      "districtId" : "1",
      "nameZh" : "新社",
      "pgp" : "0",
      "terminal" : "0",
      "latitude" : "24.24458",
      "inDis" : "50",
      "routeId" : "277",
      "seqNo" : "15"
   },
   {
      "GoBack" : "1",
      "longitude" : "120.80832",
      "outDis" : "50",
      "Id" : "1887",
      "oid" : "304632364",
      "districtId" : "1",
      "nameZh" : "市場前",
      "pgp" : "0",
      "terminal" : "0",
      "latitude" : "24.24234",
      "inDis" : "50",
      "routeId" : "277",
      "seqNo" : "16"
   },
   {
      "GoBack" : "1",
      "longitude" : "120.80926",
      "outDis" : "50",
      "Id" : "1264",
      "oid" : "304632362",
      "districtId" : "1",
      "nameZh" : "土城",
      "pgp" : "0",
      "terminal" : "0",
      "latitude" : "24.23992",
      "inDis" : "50",
      "routeId" : "277",
      "seqNo" : "17"
   },
   {
      "GoBack" : "1",
      "longitude" : "120.8097",
      "outDis" : "50",
      "Id" : "4417",
      "oid" : "304632366",
      "districtId" : "1",
      "nameZh" : "慈光新村",
      "pgp" : "0",
      "terminal" : "0",
      "latitude" : "24.23562",
      "inDis" : "50",
      "routeId" : "277",
      "seqNo" : "18"
   },
   {
      "GoBack" : "1",
      "longitude" : "120.81223",
      "outDis" : "50",
      "Id" : "2675",
      "oid" : "304641734",
      "districtId" : "1",
      "nameZh" : "活動中心",
      "pgp" : "0",
      "terminal" : "0",
      "latitude" : "24.22889",
      "inDis" : "50",
      "routeId" : "277",
      "seqNo" : "19"
   },
   {
      "GoBack" : "1",
      "longitude" : "120.80511",
      "outDis" : "50",
      "Id" : "1320",
      "oid" : "5241",
      "districtId" : "1",
      "nameZh" : "大南國小",
      "pgp" : "0",
      "terminal" : "0",
      "latitude" : "24.22658",
      "inDis" : "50",
      "routeId" : "277",
      "seqNo" : "20"
   },
   {
      "GoBack" : "1",
      "longitude" : "120.80701",
      "outDis" : "50",
      "Id" : "3364",
      "oid" : "6411",
      "districtId" : "1",
      "nameZh" : "新三村",
      "pgp" : "0",
      "terminal" : "0",
      "latitude" : "24.22158",
      "inDis" : "50",
      "routeId" : "277",
      "seqNo" : "21"
   },
   {
      "GoBack" : "1",
      "longitude" : "120.80691",
      "outDis" : "50",
      "Id" : "3808",
      "oid" : "6631",
      "districtId" : "1",
      "nameZh" : "興中山莊",
      "pgp" : "0",
      "terminal" : "0",
      "latitude" : "24.21167",
      "inDis" : "50",
      "routeId" : "277",
      "seqNo" : "23"
   },
   {
      "GoBack" : "1",
      "longitude" : "120.80294",
      "outDis" : "50",
      "Id" : "1701",
      "oid" : "5478",
      "districtId" : "1",
      "nameZh" : "水利會",
      "pgp" : "0",
      "terminal" : "0",
      "latitude" : "24.21937",
      "inDis" : "50",
      "routeId" : "277",
      "seqNo" : "25"
   },
   {
      "GoBack" : "1",
      "longitude" : "120.79592",
      "outDis" : "50",
      "Id" : "3363",
      "oid" : "6409",
      "districtId" : "1",
      "nameZh" : "新二村",
      "pgp" : "0",
      "terminal" : "0",
      "latitude" : "24.21843",
      "inDis" : "50",
      "routeId" : "277",
      "seqNo" : "26"
   },
   {
      "GoBack" : "1",
      "longitude" : "120.79589",
      "outDis" : "50",
      "Id" : "3082",
      "oid" : "6273",
      "districtId" : "1",
      "nameZh" : "陳厝",
      "pgp" : "0",
      "terminal" : "0",
      "latitude" : "24.21432",
      "inDis" : "50",
      "routeId" : "277",
      "seqNo" : "27"
   },
   {
      "GoBack" : "1",
      "longitude" : "120.79585",
      "outDis" : "50",
      "Id" : "1123",
      "oid" : "5108",
      "districtId" : "1",
      "nameZh" : "下中興嶺",
      "pgp" : "0",
      "terminal" : "0",
      "latitude" : "24.21135",
      "inDis" : "50",
      "routeId" : "277",
      "seqNo" : "28"
   },
   {
      "GoBack" : "1",
      "longitude" : "120.79448",
      "outDis" : "50",
      "Id" : "3885",
      "oid" : "6668",
      "districtId" : "1",
      "nameZh" : "營區前",
      "pgp" : "0",
      "terminal" : "0",
      "latitude" : "24.20752",
      "inDis" : "50",
      "routeId" : "277",
      "seqNo" : "29"
   },
   {
      "GoBack" : "1",
      "longitude" : "120.79406",
      "outDis" : "50",
      "Id" : "0437",
      "oid" : "5362",
      "districtId" : "1",
      "nameZh" : "中興嶺",
      "pgp" : "0",
      "terminal" : "0",
      "latitude" : "24.20579",
      "inDis" : "50",
      "routeId" : "277",
      "seqNo" : "30"
   },
   {
      "GoBack" : "1",
      "longitude" : "120.79244",
      "outDis" : "50",
      "Id" : "0453",
      "oid" : "7B407465FCC74FFCA4D0870463D01A8B",
      "districtId" : "1",
      "nameZh" : "內湖",
      "pgp" : "0",
      "terminal" : "0",
      "latitude" : "24.2051",
      "inDis" : "50",
      "routeId" : "277",
      "seqNo" : "31"
   },
   {
      "GoBack" : "1",
      "longitude" : "120.7898",
      "outDis" : "50",
      "Id" : "5615",
      "oid" : "5944F41AB0C34A9BB41D59973E7726AE",
      "districtId" : "1",
      "nameZh" : "單冬",
      "pgp" : "0",
      "terminal" : "0",
      "latitude" : "24.20519",
      "inDis" : "50",
      "routeId" : "277",
      "seqNo" : "32"
   },
   {
      "GoBack" : "1",
      "longitude" : "120.7875",
      "outDis" : "50",
      "Id" : "0359",
      "oid" : "5250",
      "districtId" : "1",
      "nameZh" : "大崎下",
      "pgp" : "0",
      "terminal" : "0",
      "latitude" : "24.20663",
      "inDis" : "50",
      "routeId" : "277",
      "seqNo" : "33"
   },
   {
      "GoBack" : "1",
      "longitude" : "120.78239",
      "outDis" : "50",
      "Id" : "0578",
      "oid" : "5643",
      "districtId" : "1",
      "nameZh" : "田螺湖",
      "pgp" : "0",
      "terminal" : "0",
      "latitude" : "24.20313",
      "inDis" : "50",
      "routeId" : "277",
      "seqNo" : "35"
   },
   {
      "GoBack" : "1",
      "longitude" : "120.77903",
      "outDis" : "50",
      "Id" : "5614",
      "oid" : "5075",
      "districtId" : "1",
      "nameZh" : "雙連坪",
      "pgp" : "0",
      "terminal" : "0",
      "latitude" : "24.19965",
      "inDis" : "50",
      "routeId" : "277",
      "seqNo" : "36"
   },
   {
      "GoBack" : "1",
      "longitude" : "120.77618",
      "outDis" : "50",
      "Id" : "0560",
      "oid" : "5610",
      "districtId" : "1",
      "nameZh" : "民德橋",
      "pgp" : "0",
      "terminal" : "0",
      "latitude" : "24.19876",
      "inDis" : "50",
      "routeId" : "277",
      "seqNo" : "37"
   },
   {
      "GoBack" : "1",
      "longitude" : "120.77346",
      "outDis" : "50",
      "Id" : "4525",
      "oid" : "305530998",
      "districtId" : "1",
      "nameZh" : "昌龍橋",
      "pgp" : "0",
      "terminal" : "0",
      "latitude" : "24.19736",
      "inDis" : "50",
      "routeId" : "277",
      "seqNo" : "38"
   },
   {
      "GoBack" : "1",
      "longitude" : "120.76657",
      "outDis" : "50",
      "Id" : "0323",
      "oid" : "6339",
      "districtId" : "1",
      "nameZh" : "三角埔",
      "pgp" : "0",
      "terminal" : "0",
      "latitude" : "24.19858",
      "inDis" : "50",
      "routeId" : "277",
      "seqNo" : "39"
   },
   {
      "GoBack" : "1",
      "longitude" : "120.76602",
      "outDis" : "50",
      "Id" : "5510",
      "oid" : "4A03173F918D4A9FB054C8A776712B28",
      "districtId" : "1",
      "nameZh" : "復興橋",
      "pgp" : "0",
      "terminal" : "0",
      "latitude" : "24.19861",
      "inDis" : "50",
      "routeId" : "277",
      "seqNo" : "40"
   },
   {
      "GoBack" : "1",
      "longitude" : "120.76311",
      "outDis" : "50",
      "Id" : "0651",
      "oid" : "F4CAF839A6DA4433820670133D484A18",
      "districtId" : "1",
      "nameZh" : "東山樂園",
      "pgp" : "0",
      "terminal" : "0",
      "latitude" : "24.19928",
      "inDis" : "50",
      "routeId" : "277",
      "seqNo" : "41"
   },
   {
      "GoBack" : "1",
      "longitude" : "120.76057",
      "outDis" : "75",
      "Id" : "2849",
      "oid" : "1F77D0984F144A32AFB0DCEEFBBB4BE8",
      "districtId" : "1",
      "nameZh" : "荔園",
      "pgp" : "0",
      "terminal" : "0",
      "latitude" : "24.19995",
      "inDis" : "60",
      "routeId" : "277",
      "seqNo" : "42"
   },
   {
      "GoBack" : "1",
      "longitude" : "120.75624",
      "outDis" : "50",
      "Id" : "0897",
      "oid" : "41C8C39A45FE456AB9090F8DEC205C1E",
      "districtId" : "1",
      "nameZh" : "福慧寺",
      "pgp" : "0",
      "terminal" : "0",
      "latitude" : "24.19986",
      "inDis" : "50",
      "routeId" : "277",
      "seqNo" : "43"
   },
   {
      "GoBack" : "1",
      "longitude" : "120.75299",
      "outDis" : "50",
      "Id" : "5164",
      "oid" : "6741",
      "districtId" : "1",
      "nameZh" : "觀光果園",
      "pgp" : "0",
      "terminal" : "0",
      "latitude" : "24.19924",
      "inDis" : "50",
      "routeId" : "277",
      "seqNo" : "44"
   },
   {
      "GoBack" : "1",
      "longitude" : "120.75035",
      "outDis" : "50",
      "Id" : "4526",
      "oid" : "305531050",
      "districtId" : "1",
      "nameZh" : "普陀精舍",
      "pgp" : "0",
      "terminal" : "0",
      "latitude" : "24.19831",
      "inDis" : "50",
      "routeId" : "277",
      "seqNo" : "45"
   },
   {
      "GoBack" : "1",
      "longitude" : "120.74754",
      "outDis" : "50",
      "Id" : "5085",
      "oid" : "5678",
      "districtId" : "1",
      "nameZh" : "大坑國小",
      "pgp" : "0",
      "terminal" : "0",
      "latitude" : "24.19584",
      "inDis" : "50",
      "routeId" : "277",
      "seqNo" : "46"
   },
   {
      "GoBack" : "1",
      "longitude" : "120.74753",
      "outDis" : "50",
      "Id" : "0839",
      "oid" : "285C915CFDA44CECBB68F1E6C4C0364D",
      "districtId" : "1",
      "nameZh" : "貴城山莊",
      "pgp" : "0",
      "terminal" : "0",
      "latitude" : "24.19385",
      "inDis" : "50",
      "routeId" : "277",
      "seqNo" : "47"
   },
   {
      "GoBack" : "1",
      "longitude" : "120.74724",
      "outDis" : "50",
      "Id" : "0501",
      "oid" : "B2F7095DAC964859B0A47E010EA3D7C2",
      "districtId" : "1",
      "nameZh" : "天星大飯店",
      "pgp" : "0",
      "terminal" : "0",
      "latitude" : "24.1929",
      "inDis" : "50",
      "routeId" : "277",
      "seqNo" : "48"
   },
   {
      "GoBack" : "1",
      "longitude" : "120.74628",
      "outDis" : "50",
      "Id" : "0939",
      "oid" : "5155B8871C7B4FEEBDC159D6ABDC824A",
      "districtId" : "1",
      "nameZh" : "龜山農場",
      "pgp" : "0",
      "terminal" : "0",
      "latitude" : "24.18979",
      "inDis" : "50",
      "routeId" : "277",
      "seqNo" : "49"
   },
   {
      "GoBack" : "1",
      "longitude" : "120.74489",
      "outDis" : "50",
      "Id" : "0688",
      "oid" : "313421900",
      "districtId" : "1",
      "nameZh" : "青山社區",
      "pgp" : "0",
      "terminal" : "0",
      "latitude" : "24.1879",
      "inDis" : "50",
      "routeId" : "277",
      "seqNo" : "50"
   },
   {
      "GoBack" : "1",
      "longitude" : "120.7442",
      "outDis" : "50",
      "Id" : "0770",
      "oid" : "6226",
      "districtId" : "1",
      "nameZh" : "清水橋",
      "pgp" : "0",
      "terminal" : "0",
      "latitude" : "24.18672",
      "inDis" : "50",
      "routeId" : "277",
      "seqNo" : "51"
   },
   {
      "GoBack" : "1",
      "longitude" : "120.74386",
      "outDis" : "50",
      "Id" : "0871",
      "oid" : "BAC83102064042539EF093DC041CD1BA",
      "districtId" : "1",
      "nameZh" : "聖壽宮",
      "pgp" : "0",
      "terminal" : "0",
      "latitude" : "24.18351",
      "inDis" : "50",
      "routeId" : "277",
      "seqNo" : "52"
   },
   {
      "GoBack" : "1",
      "longitude" : "120.74022",
      "outDis" : "50",
      "Id" : "0350",
      "oid" : "D7BB8235142546DAA450E82AAA9D9201",
      "districtId" : "1",
      "nameZh" : "大坑圓環",
      "pgp" : "0",
      "terminal" : "0",
      "latitude" : "24.17913",
      "inDis" : "50",
      "routeId" : "277",
      "seqNo" : "53"
   },
   {
      "GoBack" : "1",
      "longitude" : "120.73719",
      "outDis" : "50",
      "Id" : "0784",
      "oid" : "CA8724A145ED475BBBAAE261BF396EC5",
      "districtId" : "1",
      "nameZh" : "逢甲橋",
      "pgp" : "0",
      "terminal" : "0",
      "latitude" : "24.1784",
      "inDis" : "50",
      "routeId" : "277",
      "seqNo" : "54"
   },
   {
      "GoBack" : "1",
      "longitude" : "120.73561",
      "outDis" : "50",
      "Id" : "0768",
      "oid" : "E574F502E24D4A7C90C5F8A20B48648D",
      "districtId" : "1",
      "nameZh" : "梨仔園",
      "pgp" : "0",
      "terminal" : "0",
      "latitude" : "24.17762",
      "inDis" : "50",
      "routeId" : "277",
      "seqNo" : "55"
   },
   {
      "GoBack" : "1",
      "longitude" : "120.73464",
      "outDis" : "50",
      "Id" : "0534",
      "oid" : "5D4D302C932648E181F496617EA83F9A",
      "districtId" : "1",
      "nameZh" : "台電東山所",
      "pgp" : "0",
      "terminal" : "0",
      "latitude" : "24.17712",
      "inDis" : "50",
      "routeId" : "277",
      "seqNo" : "56"
   },
   {
      "GoBack" : "1",
      "longitude" : "120.73186",
      "outDis" : "50",
      "Id" : "0854",
      "oid" : "FD55E5863A334BA9AF6F9FCF5D358A3F",
      "districtId" : "1",
      "nameZh" : "圓山新村",
      "pgp" : "0",
      "terminal" : "0",
      "latitude" : "24.17701",
      "inDis" : "50",
      "routeId" : "277",
      "seqNo" : "57"
   },
   {
      "GoBack" : "1",
      "longitude" : "120.72747",
      "outDis" : "50",
      "Id" : "0555",
      "oid" : "5607",
      "districtId" : "1",
      "nameZh" : "正覺寺",
      "pgp" : "0",
      "terminal" : "0",
      "latitude" : "24.17666",
      "inDis" : "50",
      "routeId" : "277",
      "seqNo" : "58"
   },
   {
      "GoBack" : "1",
      "longitude" : "120.72445",
      "outDis" : "75",
      "Id" : "0687",
      "oid" : "145725682",
      "districtId" : "1",
      "nameZh" : "長興塑膠",
      "pgp" : "0",
      "terminal" : "0",
      "latitude" : "24.1762",
      "inDis" : "75",
      "routeId" : "277",
      "seqNo" : "59"
   },
   {
      "GoBack" : "1",
      "longitude" : "120.72211",
      "outDis" : "50",
      "Id" : "4592",
      "oid" : "5832",
      "districtId" : "1",
      "nameZh" : "和平里(東山路)",
      "pgp" : "0",
      "terminal" : "0",
      "latitude" : "24.17608",
      "inDis" : "50",
      "routeId" : "277",
      "seqNo" : "60"
   },
   {
      "GoBack" : "1",
      "longitude" : "120.71973",
      "outDis" : "50",
      "Id" : "0727",
      "oid" : "6076",
      "districtId" : "1",
      "nameZh" : "軍功里",
      "pgp" : "0",
      "terminal" : "0",
      "latitude" : "24.17592",
      "inDis" : "50",
      "routeId" : "277",
      "seqNo" : "61"
   },
   {
      "GoBack" : "1",
      "longitude" : "120.71743",
      "outDis" : "50",
      "Id" : "0703",
      "oid" : "6018",
      "districtId" : "1",
      "nameZh" : "建功國小",
      "pgp" : "0",
      "terminal" : "0",
      "latitude" : "24.17541",
      "inDis" : "50",
      "routeId" : "277",
      "seqNo" : "62"
   },
   {
      "GoBack" : "1",
      "longitude" : "120.71467",
      "outDis" : "50",
      "Id" : "0365",
      "oid" : "5262",
      "districtId" : "1",
      "nameZh" : "大華新村",
      "pgp" : "0",
      "terminal" : "0",
      "latitude" : "24.174",
      "inDis" : "50",
      "routeId" : "277",
      "seqNo" : "63"
   },
   {
      "GoBack" : "1",
      "longitude" : "120.7117",
      "outDis" : "50",
      "Id" : "0485",
      "oid" : "5486",
      "districtId" : "1",
      "nameZh" : "水景頭",
      "pgp" : "0",
      "terminal" : "0",
      "latitude" : "24.17236",
      "inDis" : "50",
      "routeId" : "277",
      "seqNo" : "64"
   },
   {
      "GoBack" : "1",
      "longitude" : "120.70955",
      "outDis" : "50",
      "Id" : "0325",
      "oid" : "8427BD5659D44F8BA99FBE078460F0EF",
      "districtId" : "1",
      "nameZh" : "三和社區",
      "pgp" : "0",
      "terminal" : "0",
      "latitude" : "24.17121",
      "inDis" : "50",
      "routeId" : "277",
      "seqNo" : "65"
   },
   {
      "GoBack" : "1",
      "longitude" : "120.70846",
      "outDis" : "50",
      "Id" : "0484",
      "oid" : "5485",
      "districtId" : "1",
      "nameZh" : "水景里",
      "pgp" : "0",
      "terminal" : "0",
      "latitude" : "24.17051",
      "inDis" : "50",
      "routeId" : "277",
      "seqNo" : "66"
   },
   {
      "GoBack" : "1",
      "longitude" : "120.70691",
      "outDis" : "50",
      "Id" : "0679",
      "oid" : "47EBF16363AE4288AF92CDBD34B3DDC3",
      "districtId" : "1",
      "nameZh" : "玫瑰新村",
      "pgp" : "0",
      "terminal" : "0",
      "latitude" : "24.16965",
      "inDis" : "50",
      "routeId" : "277",
      "seqNo" : "67"
   },
   {
      "GoBack" : "1",
      "longitude" : "120.70446",
      "outDis" : "50",
      "Id" : "5712",
      "oid" : "13064",
      "districtId" : "1",
      "nameZh" : "三和/東光里",
      "pgp" : "0",
      "terminal" : "0",
      "latitude" : "24.16955",
      "inDis" : "50",
      "routeId" : "277",
      "seqNo" : "68"
   },
   {
      "GoBack" : "1",
      "longitude" : "120.70257",
      "outDis" : "50",
      "Id" : "4312",
      "oid" : "D2193428EB344A1496823BE2E44B6348",
      "districtId" : "1",
      "nameZh" : "東光國小",
      "pgp" : "0",
      "terminal" : "0",
      "latitude" : "24.16981",
      "inDis" : "50",
      "routeId" : "277",
      "seqNo" : "69"
   },
   {
      "GoBack" : "1",
      "longitude" : "120.69892",
      "outDis" : "50",
      "Id" : "0222",
      "oid" : "10972C6456D7404983AAC754FC5BCD90",
      "districtId" : "1",
      "nameZh" : "聯安醫院",
      "pgp" : "0",
      "terminal" : "0",
      "latitude" : "24.17031",
      "inDis" : "50",
      "routeId" : "277",
      "seqNo" : "70"
   },
   {
      "GoBack" : "1",
      "longitude" : "120.69716",
      "outDis" : "50",
      "Id" : "0103",
      "oid" : "5227",
      "districtId" : "1",
      "nameZh" : "大坑口",
      "pgp" : "0",
      "terminal" : "0",
      "latitude" : "24.16973",
      "inDis" : "50",
      "routeId" : "277",
      "seqNo" : "71"
   },
   {
      "GoBack" : "1",
      "longitude" : "120.69592",
      "outDis" : "50",
      "Id" : "5511",
      "oid" : "BA3B1CACF37C4F149A7FA88E511BD80E",
      "districtId" : "1",
      "nameZh" : "三光國中",
      "pgp" : "0",
      "terminal" : "0",
      "latitude" : "24.1677",
      "inDis" : "50",
      "routeId" : "277",
      "seqNo" : "72"
   },
   {
      "GoBack" : "1",
      "longitude" : "120.69418",
      "outDis" : "50",
      "Id" : "0492",
      "oid" : "5516",
      "districtId" : "1",
      "nameZh" : "北屯",
      "pgp" : "0",
      "terminal" : "0",
      "latitude" : "24.16504",
      "inDis" : "50",
      "routeId" : "277",
      "seqNo" : "73"
   },
   {
      "GoBack" : "1",
      "longitude" : "120.69303",
      "outDis" : "50",
      "Id" : "5405",
      "oid" : "7C30AF2FFA0C4D6CA56D52C6CFBE8AA8",
      "districtId" : "1",
      "nameZh" : "北屯國小(北屯路)",
      "pgp" : "0",
      "terminal" : "0",
      "latitude" : "24.16306",
      "inDis" : "50",
      "routeId" : "277",
      "seqNo" : "74"
   },
   {
      "GoBack" : "1",
      "longitude" : "120.69209",
      "outDis" : "50",
      "Id" : "0892",
      "oid" : "6537",
      "districtId" : "1",
      "nameZh" : "監理站",
      "pgp" : "0",
      "terminal" : "0",
      "latitude" : "24.16106",
      "inDis" : "50",
      "routeId" : "277",
      "seqNo" : "75"
   },
   {
      "GoBack" : "1",
      "longitude" : "120.68992",
      "outDis" : "50",
      "Id" : "0960",
      "oid" : "6730",
      "districtId" : "1",
      "nameZh" : "寶覺寺",
      "pgp" : "0",
      "terminal" : "0",
      "latitude" : "24.15803",
      "inDis" : "50",
      "routeId" : "277",
      "seqNo" : "76"
   },
   {
      "GoBack" : "1",
      "longitude" : "120.6885",
      "outDis" : "50",
      "Id" : "4399",
      "oid" : "6417",
      "districtId" : "1",
      "nameZh" : "新民高中(三民路)",
      "pgp" : "0",
      "terminal" : "0",
      "latitude" : "24.1568",
      "inDis" : "50",
      "routeId" : "277",
      "seqNo" : "77"
   },
   {
      "GoBack" : "1",
      "longitude" : "120.68806",
      "outDis" : "50",
      "Id" : "0048",
      "oid" : "6260",
      "districtId" : "1",
      "nameZh" : "莒光新城",
      "pgp" : "0",
      "terminal" : "0",
      "latitude" : "24.15396",
      "inDis" : "50",
      "routeId" : "277",
      "seqNo" : "78"
   },
   {
      "GoBack" : "1",
      "longitude" : "120.6889",
      "outDis" : "50",
      "Id" : "4694",
      "oid" : "6738",
      "districtId" : "1",
      "nameZh" : "臺灣體大體育場",
      "pgp" : "0",
      "terminal" : "0",
      "latitude" : "24.15262",
      "inDis" : "50",
      "routeId" : "277",
      "seqNo" : "79"
   },
   {
      "GoBack" : "1",
      "longitude" : "120.6875",
      "outDis" : "50",
      "Id" : "0149",
      "oid" : "5548",
      "districtId" : "1",
      "nameZh" : "臺中一中",
      "pgp" : "0",
      "terminal" : "0",
      "latitude" : "24.14956",
      "inDis" : "50",
      "routeId" : "277",
      "seqNo" : "80"
   },
   {
      "GoBack" : "1",
      "longitude" : "120.68642",
      "outDis" : "50",
      "Id" : "4695",
      "oid" : "6352",
      "districtId" : "1",
      "nameZh" : "臺灣體大游泳池",
      "pgp" : "0",
      "terminal" : "0",
      "latitude" : "24.14708",
      "inDis" : "50",
      "routeId" : "277",
      "seqNo" : "81"
   },
   {
      "GoBack" : "1",
      "longitude" : "120.68597",
      "outDis" : "50",
      "Id" : "4544",
      "oid" : "5554",
      "districtId" : "1",
      "nameZh" : "臺中公園(雙十路)",
      "pgp" : "0",
      "terminal" : "0",
      "latitude" : "24.14419",
      "inDis" : "50",
      "routeId" : "277",
      "seqNo" : "82"
   },
   {
      "GoBack" : "1",
      "longitude" : "120.68522",
      "outDis" : "50",
      "Id" : "0402",
      "oid" : "320612813",
      "districtId" : "1",
      "nameZh" : "干城站",
      "pgp" : "0",
      "terminal" : "0",
      "latitude" : "24.14287",
      "inDis" : "50",
      "routeId" : "277",
      "seqNo" : "83"
   },
   {
      "GoBack" : "1",
      "longitude" : "120.68397",
      "outDis" : "50",
      "Id" : "1824",
      "oid" : "320612812",
      "districtId" : "1",
      "nameZh" : "臺中火車站",
      "pgp" : "0",
      "terminal" : "0",
      "latitude" : "24.13672",
      "inDis" : "50",
      "routeId" : "277",
      "seqNo" : "84"
   },
   {
      "GoBack" : "1",
      "longitude" : "120.68111",
      "outDis" : "50",
      "Id" : "4284",
      "oid" : "13343",
      "districtId" : "1",
      "nameZh" : "民權繼光街口",
      "pgp" : "0",
      "terminal" : "0",
      "latitude" : "24.1366",
      "inDis" : "50",
      "routeId" : "277",
      "seqNo" : "85"
   },
   {
      "GoBack" : "1",
      "longitude" : "120.67803",
      "outDis" : "50",
      "Id" : "0071",
      "oid" : "12345",
      "districtId" : "1",
      "nameZh" : "臺中女中",
      "pgp" : "0",
      "terminal" : "0",
      "latitude" : "24.13596",
      "inDis" : "50",
      "routeId" : "277",
      "seqNo" : "86"
   },
   {
      "GoBack" : "1",
      "longitude" : "120.67607",
      "outDis" : "50",
      "Id" : "0070",
      "oid" : "13306",
      "districtId" : "1",
      "nameZh" : "地方法院",
      "pgp" : "0",
      "terminal" : "0",
      "latitude" : "24.13406",
      "inDis" : "50",
      "routeId" : "277",
      "seqNo" : "87"
   },
   {
      "GoBack" : "1",
      "longitude" : "120.66997",
      "outDis" : "50",
      "Id" : "5778",
      "oid" : "320612811",
      "districtId" : "1",
      "nameZh" : "公館公園(自由路)",
      "pgp" : "0",
      "terminal" : "0",
      "latitude" : "24.13199",
      "inDis" : "50",
      "routeId" : "277",
      "seqNo" : "88"
   },
   {
      "GoBack" : "1",
      "longitude" : "120.66682",
      "outDis" : "50",
      "Id" : "5763",
      "oid" : "320612809",
      "districtId" : "1",
      "nameZh" : "奉順宮",
      "pgp" : "0",
      "terminal" : "0",
      "latitude" : "24.13142",
      "inDis" : "50",
      "routeId" : "277",
      "seqNo" : "89"
   },
   {
      "GoBack" : "1",
      "longitude" : "120.66317",
      "outDis" : "50",
      "Id" : "5764",
      "oid" : "320612808",
      "districtId" : "1",
      "nameZh" : "三民西民興街口",
      "pgp" : "0",
      "terminal" : "0",
      "latitude" : "24.13014",
      "inDis" : "50",
      "routeId" : "277",
      "seqNo" : "90"
   },
   {
      "GoBack" : "1",
      "longitude" : "120.66008",
      "outDis" : "50",
      "Id" : "5765",
      "oid" : "320612807",
      "districtId" : "1",
      "nameZh" : "三民西柳川東路口",
      "pgp" : "0",
      "terminal" : "0",
      "latitude" : "24.13012",
      "inDis" : "50",
      "routeId" : "277",
      "seqNo" : "91"
   },
   {
      "GoBack" : "1",
      "longitude" : "120.65581",
      "outDis" : "50",
      "Id" : "5766",
      "oid" : "320612806",
      "districtId" : "1",
      "nameZh" : "豐富公園",
      "pgp" : "0",
      "terminal" : "0",
      "latitude" : "24.12975",
      "inDis" : "50",
      "routeId" : "277",
      "seqNo" : "92"
   },
   {
      "GoBack" : "2",
      "longitude" : "120.65581",
      "outDis" : "50",
      "Id" : "5766",
      "oid" : "320612806",
      "districtId" : "1",
      "nameZh" : "豐富公園",
      "pgp" : "0",
      "terminal" : "0",
      "latitude" : "24.12975",
      "inDis" : "50",
      "routeId" : "277",
      "seqNo" : "1"
   },
   {
      "GoBack" : "2",
      "longitude" : "120.66008",
      "outDis" : "50",
      "Id" : "5765",
      "oid" : "320612807",
      "districtId" : "1",
      "nameZh" : "三民西柳川東路口",
      "pgp" : "0",
      "terminal" : "0",
      "latitude" : "24.13012",
      "inDis" : "50",
      "routeId" : "277",
      "seqNo" : "2"
   },
   {
      "GoBack" : "2",
      "longitude" : "120.66317",
      "outDis" : "50",
      "Id" : "5764",
      "oid" : "320612808",
      "districtId" : "1",
      "nameZh" : "三民西民興街口",
      "pgp" : "0",
      "terminal" : "0",
      "latitude" : "24.13014",
      "inDis" : "50",
      "routeId" : "277",
      "seqNo" : "3"
   },
   {
      "GoBack" : "2",
      "longitude" : "120.66682",
      "outDis" : "50",
      "Id" : "5763",
      "oid" : "320612809",
      "districtId" : "1",
      "nameZh" : "奉順宮",
      "pgp" : "0",
      "terminal" : "0",
      "latitude" : "24.13142",
      "inDis" : "50",
      "routeId" : "277",
      "seqNo" : "4"
   },
   {
      "GoBack" : "2",
      "longitude" : "120.66997",
      "outDis" : "50",
      "Id" : "5778",
      "oid" : "320612811",
      "districtId" : "1",
      "nameZh" : "公館公園(自由路)",
      "pgp" : "0",
      "terminal" : "0",
      "latitude" : "24.13199",
      "inDis" : "50",
      "routeId" : "277",
      "seqNo" : "5"
   },
   {
      "GoBack" : "2",
      "longitude" : "120.67607",
      "outDis" : "50",
      "Id" : "0070",
      "oid" : "13306",
      "districtId" : "1",
      "nameZh" : "地方法院",
      "pgp" : "0",
      "terminal" : "0",
      "latitude" : "24.13406",
      "inDis" : "50",
      "routeId" : "277",
      "seqNo" : "6"
   },
   {
      "GoBack" : "2",
      "longitude" : "120.67803",
      "outDis" : "50",
      "Id" : "0071",
      "oid" : "12345",
      "districtId" : "1",
      "nameZh" : "臺中女中",
      "pgp" : "0",
      "terminal" : "0",
      "latitude" : "24.13596",
      "inDis" : "50",
      "routeId" : "277",
      "seqNo" : "7"
   },
   {
      "GoBack" : "2",
      "longitude" : "120.68111",
      "outDis" : "50",
      "Id" : "4284",
      "oid" : "13343",
      "districtId" : "1",
      "nameZh" : "民權繼光街口",
      "pgp" : "0",
      "terminal" : "0",
      "latitude" : "24.1366",
      "inDis" : "50",
      "routeId" : "277",
      "seqNo" : "8"
   },
   {
      "GoBack" : "2",
      "longitude" : "120.68397",
      "outDis" : "50",
      "Id" : "1824",
      "oid" : "320612812",
      "districtId" : "1",
      "nameZh" : "臺中火車站",
      "pgp" : "0",
      "terminal" : "0",
      "latitude" : "24.13672",
      "inDis" : "50",
      "routeId" : "277",
      "seqNo" : "9"
   },
   {
      "GoBack" : "2",
      "longitude" : "120.68597",
      "outDis" : "50",
      "Id" : "4544",
      "oid" : "5554",
      "districtId" : "1",
      "nameZh" : "臺中公園(雙十路)",
      "pgp" : "0",
      "terminal" : "0",
      "latitude" : "24.14419",
      "inDis" : "50",
      "routeId" : "277",
      "seqNo" : "11"
   },
   {
      "GoBack" : "2",
      "longitude" : "120.68642",
      "outDis" : "50",
      "Id" : "4695",
      "oid" : "6352",
      "districtId" : "1",
      "nameZh" : "臺灣體大游泳池",
      "pgp" : "0",
      "terminal" : "0",
      "latitude" : "24.14708",
      "inDis" : "50",
      "routeId" : "277",
      "seqNo" : "12"
   },
   {
      "GoBack" : "2",
      "longitude" : "120.6875",
      "outDis" : "50",
      "Id" : "0149",
      "oid" : "5548",
      "districtId" : "1",
      "nameZh" : "臺中一中",
      "pgp" : "0",
      "terminal" : "0",
      "latitude" : "24.14956",
      "inDis" : "50",
      "routeId" : "277",
      "seqNo" : "13"
   },
   {
      "GoBack" : "2",
      "longitude" : "120.6889",
      "outDis" : "50",
      "Id" : "4694",
      "oid" : "6738",
      "districtId" : "1",
      "nameZh" : "臺灣體大體育場",
      "pgp" : "0",
      "terminal" : "0",
      "latitude" : "24.15262",
      "inDis" : "50",
      "routeId" : "277",
      "seqNo" : "14"
   },
   {
      "GoBack" : "2",
      "longitude" : "120.68806",
      "outDis" : "50",
      "Id" : "0048",
      "oid" : "6260",
      "districtId" : "1",
      "nameZh" : "莒光新城",
      "pgp" : "0",
      "terminal" : "0",
      "latitude" : "24.15396",
      "inDis" : "50",
      "routeId" : "277",
      "seqNo" : "15"
   },
   {
      "GoBack" : "2",
      "longitude" : "120.6885",
      "outDis" : "50",
      "Id" : "4399",
      "oid" : "6417",
      "districtId" : "1",
      "nameZh" : "新民高中(三民路)",
      "pgp" : "0",
      "terminal" : "0",
      "latitude" : "24.1568",
      "inDis" : "50",
      "routeId" : "277",
      "seqNo" : "16"
   },
   {
      "GoBack" : "2",
      "longitude" : "120.68992",
      "outDis" : "50",
      "Id" : "0960",
      "oid" : "6730",
      "districtId" : "1",
      "nameZh" : "寶覺寺",
      "pgp" : "0",
      "terminal" : "0",
      "latitude" : "24.15803",
      "inDis" : "50",
      "routeId" : "277",
      "seqNo" : "17"
   },
   {
      "GoBack" : "2",
      "longitude" : "120.69209",
      "outDis" : "50",
      "Id" : "0892",
      "oid" : "6537",
      "districtId" : "1",
      "nameZh" : "監理站",
      "pgp" : "0",
      "terminal" : "0",
      "latitude" : "24.16106",
      "inDis" : "50",
      "routeId" : "277",
      "seqNo" : "18"
   },
   {
      "GoBack" : "2",
      "longitude" : "120.69324",
      "outDis" : "50",
      "Id" : "5405",
      "oid" : "03BE6E2B834C41FF90A9CBA55FFCFD1D",
      "districtId" : "1",
      "nameZh" : "北屯國小(北屯路)",
      "pgp" : "0",
      "terminal" : "0",
      "latitude" : "24.16309",
      "inDis" : "50",
      "routeId" : "277",
      "seqNo" : "19"
   },
   {
      "GoBack" : "2",
      "longitude" : "120.69418",
      "outDis" : "50",
      "Id" : "0492",
      "oid" : "5516",
      "districtId" : "1",
      "nameZh" : "北屯",
      "pgp" : "0",
      "terminal" : "0",
      "latitude" : "24.16504",
      "inDis" : "50",
      "routeId" : "277",
      "seqNo" : "20"
   },
   {
      "GoBack" : "2",
      "longitude" : "120.69624",
      "outDis" : "50",
      "Id" : "5511",
      "oid" : "0D4EA7B7ACEA468EB6F381A51F695051",
      "districtId" : "1",
      "nameZh" : "三光國中",
      "pgp" : "0",
      "terminal" : "0",
      "latitude" : "24.16807",
      "inDis" : "50",
      "routeId" : "277",
      "seqNo" : "21"
   },
   {
      "GoBack" : "2",
      "longitude" : "120.69716",
      "outDis" : "50",
      "Id" : "0103",
      "oid" : "5227",
      "districtId" : "1",
      "nameZh" : "大坑口",
      "pgp" : "0",
      "terminal" : "0",
      "latitude" : "24.16973",
      "inDis" : "50",
      "routeId" : "277",
      "seqNo" : "22"
   },
   {
      "GoBack" : "2",
      "longitude" : "120.69869",
      "outDis" : "50",
      "Id" : "0222",
      "oid" : "607318A9FD2C450CA990DD0AFFB48596",
      "districtId" : "1",
      "nameZh" : "聯安醫院",
      "pgp" : "0",
      "terminal" : "0",
      "latitude" : "24.17028",
      "inDis" : "50",
      "routeId" : "277",
      "seqNo" : "23"
   },
   {
      "GoBack" : "2",
      "longitude" : "120.70282",
      "outDis" : "50",
      "Id" : "4312",
      "oid" : "13620D5934354C52B61BFFEA933B7C44",
      "districtId" : "1",
      "nameZh" : "東光國小",
      "pgp" : "0",
      "terminal" : "0",
      "latitude" : "24.1697",
      "inDis" : "50",
      "routeId" : "277",
      "seqNo" : "24"
   },
   {
      "GoBack" : "2",
      "longitude" : "120.7048",
      "outDis" : "50",
      "Id" : "5712",
      "oid" : "12466",
      "districtId" : "1",
      "nameZh" : "三和/東光里",
      "pgp" : "0",
      "terminal" : "0",
      "latitude" : "24.16954",
      "inDis" : "50",
      "routeId" : "277",
      "seqNo" : "25"
   },
   {
      "GoBack" : "2",
      "longitude" : "120.70674",
      "outDis" : "50",
      "Id" : "0679",
      "oid" : "B41B71C0023F45B3A5335FCCA4C0FFE3",
      "districtId" : "1",
      "nameZh" : "玫瑰新村",
      "pgp" : "0",
      "terminal" : "0",
      "latitude" : "24.16958",
      "inDis" : "50",
      "routeId" : "277",
      "seqNo" : "26"
   },
   {
      "GoBack" : "2",
      "longitude" : "120.70846",
      "outDis" : "50",
      "Id" : "0484",
      "oid" : "5485",
      "districtId" : "1",
      "nameZh" : "水景里",
      "pgp" : "0",
      "terminal" : "0",
      "latitude" : "24.17051",
      "inDis" : "50",
      "routeId" : "277",
      "seqNo" : "27"
   },
   {
      "GoBack" : "2",
      "longitude" : "120.70955",
      "outDis" : "50",
      "Id" : "0325",
      "oid" : "214E508A51A54D708BA6CBD70F22A821",
      "districtId" : "1",
      "nameZh" : "三和社區",
      "pgp" : "0",
      "terminal" : "0",
      "latitude" : "24.17121",
      "inDis" : "50",
      "routeId" : "277",
      "seqNo" : "28"
   },
   {
      "GoBack" : "2",
      "longitude" : "120.7117",
      "outDis" : "50",
      "Id" : "0485",
      "oid" : "5486",
      "districtId" : "1",
      "nameZh" : "水景頭",
      "pgp" : "0",
      "terminal" : "0",
      "latitude" : "24.17236",
      "inDis" : "50",
      "routeId" : "277",
      "seqNo" : "29"
   },
   {
      "GoBack" : "2",
      "longitude" : "120.71467",
      "outDis" : "50",
      "Id" : "0365",
      "oid" : "5262",
      "districtId" : "1",
      "nameZh" : "大華新村",
      "pgp" : "0",
      "terminal" : "0",
      "latitude" : "24.174",
      "inDis" : "50",
      "routeId" : "277",
      "seqNo" : "30"
   },
   {
      "GoBack" : "2",
      "longitude" : "120.71743",
      "outDis" : "50",
      "Id" : "0703",
      "oid" : "6018",
      "districtId" : "1",
      "nameZh" : "建功國小",
      "pgp" : "0",
      "terminal" : "0",
      "latitude" : "24.17541",
      "inDis" : "50",
      "routeId" : "277",
      "seqNo" : "31"
   },
   {
      "GoBack" : "2",
      "longitude" : "120.71973",
      "outDis" : "50",
      "Id" : "0727",
      "oid" : "6076",
      "districtId" : "1",
      "nameZh" : "軍功里",
      "pgp" : "0",
      "terminal" : "0",
      "latitude" : "24.17592",
      "inDis" : "50",
      "routeId" : "277",
      "seqNo" : "32"
   },
   {
      "GoBack" : "2",
      "longitude" : "120.72211",
      "outDis" : "50",
      "Id" : "4592",
      "oid" : "5832",
      "districtId" : "1",
      "nameZh" : "和平里(東山路)",
      "pgp" : "0",
      "terminal" : "0",
      "latitude" : "24.17608",
      "inDis" : "50",
      "routeId" : "277",
      "seqNo" : "33"
   },
   {
      "GoBack" : "2",
      "longitude" : "120.72448",
      "outDis" : "75",
      "Id" : "0687",
      "oid" : "145725684",
      "districtId" : "1",
      "nameZh" : "長興塑膠",
      "pgp" : "0",
      "terminal" : "0",
      "latitude" : "24.17609",
      "inDis" : "75",
      "routeId" : "277",
      "seqNo" : "34"
   },
   {
      "GoBack" : "2",
      "longitude" : "120.72747",
      "outDis" : "50",
      "Id" : "0555",
      "oid" : "5607",
      "districtId" : "1",
      "nameZh" : "正覺寺",
      "pgp" : "0",
      "terminal" : "0",
      "latitude" : "24.17666",
      "inDis" : "50",
      "routeId" : "277",
      "seqNo" : "35"
   },
   {
      "GoBack" : "2",
      "longitude" : "120.73186",
      "outDis" : "50",
      "Id" : "0854",
      "oid" : "8219DBF3DEEC4906B5D531CF4D2365C2",
      "districtId" : "1",
      "nameZh" : "圓山新村",
      "pgp" : "0",
      "terminal" : "0",
      "latitude" : "24.17701",
      "inDis" : "50",
      "routeId" : "277",
      "seqNo" : "36"
   },
   {
      "GoBack" : "2",
      "longitude" : "120.73464",
      "outDis" : "50",
      "Id" : "0534",
      "oid" : "00D184CCAB01479CA815007F8A9A51EE",
      "districtId" : "1",
      "nameZh" : "台電東山所",
      "pgp" : "0",
      "terminal" : "0",
      "latitude" : "24.17712",
      "inDis" : "50",
      "routeId" : "277",
      "seqNo" : "37"
   },
   {
      "GoBack" : "2",
      "longitude" : "120.73565",
      "outDis" : "50",
      "Id" : "0768",
      "oid" : "6FE9CAEAB9054B838A8EBEA783AC5D07",
      "districtId" : "1",
      "nameZh" : "梨仔園",
      "pgp" : "0",
      "terminal" : "0",
      "latitude" : "24.17767",
      "inDis" : "50",
      "routeId" : "277",
      "seqNo" : "38"
   },
   {
      "GoBack" : "2",
      "longitude" : "120.73719",
      "outDis" : "50",
      "Id" : "0784",
      "oid" : "CA8724A145ED475BBBAAE261BF396EC5",
      "districtId" : "1",
      "nameZh" : "逢甲橋",
      "pgp" : "0",
      "terminal" : "0",
      "latitude" : "24.1784",
      "inDis" : "50",
      "routeId" : "277",
      "seqNo" : "39"
   },
   {
      "GoBack" : "2",
      "longitude" : "120.74022",
      "outDis" : "50",
      "Id" : "0350",
      "oid" : "9B1886D2D35E4AD8AE09CA4A21034B7C",
      "districtId" : "1",
      "nameZh" : "大坑圓環",
      "pgp" : "0",
      "terminal" : "0",
      "latitude" : "24.17913",
      "inDis" : "50",
      "routeId" : "277",
      "seqNo" : "40"
   },
   {
      "GoBack" : "2",
      "longitude" : "120.74386",
      "outDis" : "50",
      "Id" : "0871",
      "oid" : "BAC83102064042539EF093DC041CD1BA",
      "districtId" : "1",
      "nameZh" : "聖壽宮",
      "pgp" : "0",
      "terminal" : "0",
      "latitude" : "24.18351",
      "inDis" : "50",
      "routeId" : "277",
      "seqNo" : "41"
   },
   {
      "GoBack" : "2",
      "longitude" : "120.7442",
      "outDis" : "50",
      "Id" : "0770",
      "oid" : "6226",
      "districtId" : "1",
      "nameZh" : "清水橋",
      "pgp" : "0",
      "terminal" : "0",
      "latitude" : "24.18672",
      "inDis" : "50",
      "routeId" : "277",
      "seqNo" : "42"
   },
   {
      "GoBack" : "2",
      "longitude" : "120.74522",
      "outDis" : "50",
      "Id" : "0688",
      "oid" : "313421899",
      "districtId" : "1",
      "nameZh" : "青山社區",
      "pgp" : "0",
      "terminal" : "0",
      "latitude" : "24.18815",
      "inDis" : "50",
      "routeId" : "277",
      "seqNo" : "43"
   },
   {
      "GoBack" : "2",
      "longitude" : "120.74628",
      "outDis" : "50",
      "Id" : "0939",
      "oid" : "5155B8871C7B4FEEBDC159D6ABDC824A",
      "districtId" : "1",
      "nameZh" : "龜山農場",
      "pgp" : "0",
      "terminal" : "0",
      "latitude" : "24.18979",
      "inDis" : "50",
      "routeId" : "277",
      "seqNo" : "44"
   },
   {
      "GoBack" : "2",
      "longitude" : "120.74724",
      "outDis" : "50",
      "Id" : "0501",
      "oid" : "B2F7095DAC964859B0A47E010EA3D7C2",
      "districtId" : "1",
      "nameZh" : "天星大飯店",
      "pgp" : "0",
      "terminal" : "0",
      "latitude" : "24.1929",
      "inDis" : "50",
      "routeId" : "277",
      "seqNo" : "45"
   },
   {
      "GoBack" : "2",
      "longitude" : "120.74755",
      "outDis" : "70",
      "Id" : "0839",
      "oid" : "81E637F39A374D4797D3DB5F987FADE4",
      "districtId" : "1",
      "nameZh" : "貴城山莊",
      "pgp" : "0",
      "terminal" : "0",
      "latitude" : "24.19392",
      "inDis" : "60",
      "routeId" : "277",
      "seqNo" : "46"
   },
   {
      "GoBack" : "2",
      "longitude" : "120.74754",
      "outDis" : "50",
      "Id" : "5085",
      "oid" : "5678",
      "districtId" : "1",
      "nameZh" : "大坑國小",
      "pgp" : "0",
      "terminal" : "0",
      "latitude" : "24.19584",
      "inDis" : "50",
      "routeId" : "277",
      "seqNo" : "47"
   },
   {
      "GoBack" : "2",
      "longitude" : "120.75113",
      "outDis" : "50",
      "Id" : "4526",
      "oid" : "305532001",
      "districtId" : "1",
      "nameZh" : "普陀精舍",
      "pgp" : "0",
      "terminal" : "0",
      "latitude" : "24.19857",
      "inDis" : "50",
      "routeId" : "277",
      "seqNo" : "48"
   },
   {
      "GoBack" : "2",
      "longitude" : "120.75299",
      "outDis" : "50",
      "Id" : "5164",
      "oid" : "6741",
      "districtId" : "1",
      "nameZh" : "觀光果園",
      "pgp" : "0",
      "terminal" : "0",
      "latitude" : "24.19924",
      "inDis" : "50",
      "routeId" : "277",
      "seqNo" : "49"
   },
   {
      "GoBack" : "2",
      "longitude" : "120.75624",
      "outDis" : "50",
      "Id" : "0897",
      "oid" : "41C8C39A45FE456AB9090F8DEC205C1E",
      "districtId" : "1",
      "nameZh" : "福慧寺",
      "pgp" : "0",
      "terminal" : "0",
      "latitude" : "24.19986",
      "inDis" : "50",
      "routeId" : "277",
      "seqNo" : "50"
   },
   {
      "GoBack" : "2",
      "longitude" : "120.76057",
      "outDis" : "75",
      "Id" : "2849",
      "oid" : "1F77D0984F144A32AFB0DCEEFBBB4BE8",
      "districtId" : "1",
      "nameZh" : "荔園",
      "pgp" : "0",
      "terminal" : "0",
      "latitude" : "24.19995",
      "inDis" : "60",
      "routeId" : "277",
      "seqNo" : "51"
   },
   {
      "GoBack" : "2",
      "longitude" : "120.76311",
      "outDis" : "50",
      "Id" : "0651",
      "oid" : "F4CAF839A6DA4433820670133D484A18",
      "districtId" : "1",
      "nameZh" : "東山樂園",
      "pgp" : "0",
      "terminal" : "0",
      "latitude" : "24.19928",
      "inDis" : "50",
      "routeId" : "277",
      "seqNo" : "52"
   },
   {
      "GoBack" : "2",
      "longitude" : "120.76677",
      "outDis" : "50",
      "Id" : "5510",
      "oid" : "35289C8EC55E4B88A84E0DE08C0C680C",
      "districtId" : "1",
      "nameZh" : "復興橋",
      "pgp" : "0",
      "terminal" : "0",
      "latitude" : "24.19851",
      "inDis" : "50",
      "routeId" : "277",
      "seqNo" : "53"
   },
   {
      "GoBack" : "2",
      "longitude" : "120.76657",
      "outDis" : "50",
      "Id" : "0323",
      "oid" : "6339",
      "districtId" : "1",
      "nameZh" : "三角埔",
      "pgp" : "0",
      "terminal" : "0",
      "latitude" : "24.19858",
      "inDis" : "50",
      "routeId" : "277",
      "seqNo" : "54"
   },
   {
      "GoBack" : "2",
      "longitude" : "120.77328",
      "outDis" : "50",
      "Id" : "4525",
      "oid" : "305531001",
      "districtId" : "1",
      "nameZh" : "昌龍橋",
      "pgp" : "0",
      "terminal" : "0",
      "latitude" : "24.19773",
      "inDis" : "50",
      "routeId" : "277",
      "seqNo" : "55"
   },
   {
      "GoBack" : "2",
      "longitude" : "120.77618",
      "outDis" : "50",
      "Id" : "0560",
      "oid" : "5610",
      "districtId" : "1",
      "nameZh" : "民德橋",
      "pgp" : "0",
      "terminal" : "0",
      "latitude" : "24.19876",
      "inDis" : "50",
      "routeId" : "277",
      "seqNo" : "56"
   },
   {
      "GoBack" : "2",
      "longitude" : "120.77903",
      "outDis" : "50",
      "Id" : "5614",
      "oid" : "5075",
      "districtId" : "1",
      "nameZh" : "雙連坪",
      "pgp" : "0",
      "terminal" : "0",
      "latitude" : "24.19965",
      "inDis" : "50",
      "routeId" : "277",
      "seqNo" : "57"
   },
   {
      "GoBack" : "2",
      "longitude" : "120.78239",
      "outDis" : "50",
      "Id" : "0578",
      "oid" : "5643",
      "districtId" : "1",
      "nameZh" : "田螺湖",
      "pgp" : "0",
      "terminal" : "0",
      "latitude" : "24.20313",
      "inDis" : "50",
      "routeId" : "277",
      "seqNo" : "58"
   },
   {
      "GoBack" : "2",
      "longitude" : "120.7875",
      "outDis" : "50",
      "Id" : "0359",
      "oid" : "5250",
      "districtId" : "1",
      "nameZh" : "大崎下",
      "pgp" : "0",
      "terminal" : "0",
      "latitude" : "24.20663",
      "inDis" : "50",
      "routeId" : "277",
      "seqNo" : "60"
   },
   {
      "GoBack" : "2",
      "longitude" : "120.7898",
      "outDis" : "50",
      "Id" : "5615",
      "oid" : "5944F41AB0C34A9BB41D59973E7726AE",
      "districtId" : "1",
      "nameZh" : "單冬",
      "pgp" : "0",
      "terminal" : "0",
      "latitude" : "24.20519",
      "inDis" : "50",
      "routeId" : "277",
      "seqNo" : "61"
   },
   {
      "GoBack" : "2",
      "longitude" : "120.79244",
      "outDis" : "50",
      "Id" : "0453",
      "oid" : "7B407465FCC74FFCA4D0870463D01A8B",
      "districtId" : "1",
      "nameZh" : "內湖",
      "pgp" : "0",
      "terminal" : "0",
      "latitude" : "24.2051",
      "inDis" : "50",
      "routeId" : "277",
      "seqNo" : "62"
   },
   {
      "GoBack" : "2",
      "longitude" : "120.79406",
      "outDis" : "50",
      "Id" : "0437",
      "oid" : "5362",
      "districtId" : "1",
      "nameZh" : "中興嶺",
      "pgp" : "0",
      "terminal" : "0",
      "latitude" : "24.20579",
      "inDis" : "50",
      "routeId" : "277",
      "seqNo" : "63"
   },
   {
      "GoBack" : "2",
      "longitude" : "120.79448",
      "outDis" : "50",
      "Id" : "3885",
      "oid" : "6668",
      "districtId" : "1",
      "nameZh" : "營區前",
      "pgp" : "0",
      "terminal" : "0",
      "latitude" : "24.20752",
      "inDis" : "50",
      "routeId" : "277",
      "seqNo" : "64"
   },
   {
      "GoBack" : "2",
      "longitude" : "120.79585",
      "outDis" : "50",
      "Id" : "1123",
      "oid" : "5108",
      "districtId" : "1",
      "nameZh" : "下中興嶺",
      "pgp" : "0",
      "terminal" : "0",
      "latitude" : "24.21135",
      "inDis" : "50",
      "routeId" : "277",
      "seqNo" : "65"
   },
   {
      "GoBack" : "2",
      "longitude" : "120.79589",
      "outDis" : "50",
      "Id" : "3082",
      "oid" : "6273",
      "districtId" : "1",
      "nameZh" : "陳厝",
      "pgp" : "0",
      "terminal" : "0",
      "latitude" : "24.21432",
      "inDis" : "50",
      "routeId" : "277",
      "seqNo" : "66"
   },
   {
      "GoBack" : "2",
      "longitude" : "120.79592",
      "outDis" : "50",
      "Id" : "3363",
      "oid" : "6409",
      "districtId" : "1",
      "nameZh" : "新二村",
      "pgp" : "0",
      "terminal" : "0",
      "latitude" : "24.21843",
      "inDis" : "50",
      "routeId" : "277",
      "seqNo" : "67"
   },
   {
      "GoBack" : "2",
      "longitude" : "120.80294",
      "outDis" : "50",
      "Id" : "1701",
      "oid" : "5478",
      "districtId" : "1",
      "nameZh" : "水利會",
      "pgp" : "0",
      "terminal" : "0",
      "latitude" : "24.21937",
      "inDis" : "50",
      "routeId" : "277",
      "seqNo" : "68"
   },
   {
      "GoBack" : "2",
      "longitude" : "120.80691",
      "outDis" : "50",
      "Id" : "3808",
      "oid" : "6631",
      "districtId" : "1",
      "nameZh" : "興中山莊",
      "pgp" : "0",
      "terminal" : "0",
      "latitude" : "24.21167",
      "inDis" : "50",
      "routeId" : "277",
      "seqNo" : "70"
   },
   {
      "GoBack" : "2",
      "longitude" : "120.80701",
      "outDis" : "50",
      "Id" : "3364",
      "oid" : "6411",
      "districtId" : "1",
      "nameZh" : "新三村",
      "pgp" : "0",
      "terminal" : "0",
      "latitude" : "24.22158",
      "inDis" : "50",
      "routeId" : "277",
      "seqNo" : "72"
   },
   {
      "GoBack" : "2",
      "longitude" : "120.80511",
      "outDis" : "50",
      "Id" : "1320",
      "oid" : "5241",
      "districtId" : "1",
      "nameZh" : "大南國小",
      "pgp" : "0",
      "terminal" : "0",
      "latitude" : "24.22658",
      "inDis" : "50",
      "routeId" : "277",
      "seqNo" : "73"
   },
   {
      "GoBack" : "2",
      "longitude" : "120.8121",
      "outDis" : "50",
      "Id" : "2675",
      "oid" : "304641735",
      "districtId" : "1",
      "nameZh" : "活動中心",
      "pgp" : "0",
      "terminal" : "0",
      "latitude" : "24.22877",
      "inDis" : "50",
      "routeId" : "277",
      "seqNo" : "74"
   },
   {
      "GoBack" : "2",
      "longitude" : "120.8097",
      "outDis" : "50",
      "Id" : "4417",
      "oid" : "304632367",
      "districtId" : "1",
      "nameZh" : "慈光新村",
      "pgp" : "0",
      "terminal" : "0",
      "latitude" : "24.23555",
      "inDis" : "50",
      "routeId" : "277",
      "seqNo" : "75"
   },
   {
      "GoBack" : "2",
      "longitude" : "120.80926",
      "outDis" : "50",
      "Id" : "1264",
      "oid" : "304632363",
      "districtId" : "1",
      "nameZh" : "土城",
      "pgp" : "0",
      "terminal" : "0",
      "latitude" : "24.23992",
      "inDis" : "50",
      "routeId" : "277",
      "seqNo" : "76"
   },
   {
      "GoBack" : "2",
      "longitude" : "120.80832",
      "outDis" : "50",
      "Id" : "1887",
      "oid" : "304632365",
      "districtId" : "1",
      "nameZh" : "市場前",
      "pgp" : "0",
      "terminal" : "0",
      "latitude" : "24.24234",
      "inDis" : "50",
      "routeId" : "277",
      "seqNo" : "77"
   },
   {
      "GoBack" : "2",
      "longitude" : "120.80832",
      "outDis" : "50",
      "Id" : "3398",
      "oid" : "6432",
      "districtId" : "1",
      "nameZh" : "新社",
      "pgp" : "0",
      "terminal" : "0",
      "latitude" : "24.24458",
      "inDis" : "50",
      "routeId" : "277",
      "seqNo" : "78"
   },
   {
      "GoBack" : "2",
      "longitude" : "120.80832",
      "outDis" : "50",
      "Id" : "1199",
      "oid" : "5152",
      "districtId" : "1",
      "nameZh" : "下新社",
      "pgp" : "0",
      "terminal" : "0",
      "latitude" : "24.24637",
      "inDis" : "50",
      "routeId" : "277",
      "seqNo" : "79"
   },
   {
      "GoBack" : "2",
      "longitude" : "120.80873",
      "outDis" : "50",
      "Id" : "0011",
      "oid" : "6373",
      "districtId" : "1",
      "nameZh" : "郵局",
      "pgp" : "0",
      "terminal" : "0",
      "latitude" : "24.24805",
      "inDis" : "50",
      "routeId" : "277",
      "seqNo" : "80"
   },
   {
      "GoBack" : "2",
      "longitude" : "120.80877",
      "outDis" : "50",
      "Id" : "1438",
      "oid" : "5317",
      "districtId" : "1",
      "nameZh" : "中正里",
      "pgp" : "0",
      "terminal" : "0",
      "latitude" : "24.25055",
      "inDis" : "50",
      "routeId" : "277",
      "seqNo" : "81"
   },
   {
      "GoBack" : "2",
      "longitude" : "120.80775",
      "outDis" : "50",
      "Id" : "3557",
      "oid" : "6515",
      "districtId" : "1",
      "nameZh" : "電信局前",
      "pgp" : "0",
      "terminal" : "0",
      "latitude" : "24.25339",
      "inDis" : "50",
      "routeId" : "277",
      "seqNo" : "82"
   },
   {
      "GoBack" : "2",
      "longitude" : "120.80707",
      "outDis" : "50",
      "Id" : "1394",
      "oid" : "5288",
      "districtId" : "1",
      "nameZh" : "山頂",
      "pgp" : "0",
      "terminal" : "0",
      "latitude" : "24.25523",
      "inDis" : "50",
      "routeId" : "277",
      "seqNo" : "83"
   },
   {
      "GoBack" : "2",
      "longitude" : "120.8076",
      "outDis" : "50",
      "Id" : "2446",
      "oid" : "5913",
      "districtId" : "1",
      "nameZh" : "果菜市場",
      "pgp" : "0",
      "terminal" : "0",
      "latitude" : "24.257",
      "inDis" : "50",
      "routeId" : "277",
      "seqNo" : "84"
   },
   {
      "GoBack" : "2",
      "longitude" : "120.81402",
      "outDis" : "50",
      "Id" : "2593",
      "oid" : "6000",
      "districtId" : "1",
      "nameZh" : "南眉",
      "pgp" : "0",
      "terminal" : "0",
      "latitude" : "24.25639",
      "inDis" : "50",
      "routeId" : "277",
      "seqNo" : "87"
   },
   {
      "GoBack" : "2",
      "longitude" : "120.81565",
      "outDis" : "50",
      "Id" : "4650",
      "oid" : "5197",
      "districtId" : "1",
      "nameZh" : "土牛(和盛街)",
      "pgp" : "0",
      "terminal" : "0",
      "latitude" : "24.25913",
      "inDis" : "50",
      "routeId" : "277",
      "seqNo" : "88"
   },
   {
      "GoBack" : "2",
      "longitude" : "120.82456",
      "outDis" : "50",
      "Id" : "4415",
      "oid" : "304371955",
      "districtId" : "1",
      "nameZh" : "東勢游泳池",
      "pgp" : "0",
      "terminal" : "0",
      "latitude" : "24.26119",
      "inDis" : "50",
      "routeId" : "277",
      "seqNo" : "89"
   },
   {
      "GoBack" : "2",
      "longitude" : "120.82862",
      "outDis" : "50",
      "Id" : "2428",
      "oid" : "5900",
      "districtId" : "1",
      "nameZh" : "東勢",
      "pgp" : "0",
      "terminal" : "0",
      "latitude" : "24.25742",
      "inDis" : "50",
      "routeId" : "277",
      "seqNo" : "90"
   }
]
