[
   {
      "GoBack" : "1",
      "longitude" : "120.68742",
      "outDis" : "50",
      "Id" : "5529",
      "oid" : "319462381",
      "districtId" : "1",
      "nameZh" : "亞洲大學安藤館",
      "pgp" : "0",
      "terminal" : "0",
      "latitude" : "24.04587",
      "inDis" : "50",
      "routeId" : "282",
      "seqNo" : "1"
   },
   {
      "GoBack" : "1",
      "longitude" : "120.68828",
      "outDis" : "50",
      "Id" : "4413",
      "oid" : "319462380",
      "districtId" : "1",
      "nameZh" : "王厝",
      "pgp" : "0",
      "terminal" : "0",
      "latitude" : "24.04473",
      "inDis" : "50",
      "routeId" : "282",
      "seqNo" : "2"
   },
   {
      "GoBack" : "1",
      "longitude" : "120.68992",
      "outDis" : "50",
      "Id" : "4629",
      "oid" : "319462379",
      "districtId" : "1",
      "nameZh" : "光復國中小(柳豐路)",
      "pgp" : "0",
      "terminal" : "0",
      "latitude" : "24.04306",
      "inDis" : "50",
      "routeId" : "282",
      "seqNo" : "3"
   },
   {
      "GoBack" : "1",
      "longitude" : "120.6917",
      "outDis" : "50",
      "Id" : "1588",
      "oid" : "319462378",
      "districtId" : "1",
      "nameZh" : "六股",
      "pgp" : "0",
      "terminal" : "0",
      "latitude" : "24.0416",
      "inDis" : "50",
      "routeId" : "282",
      "seqNo" : "4"
   },
   {
      "GoBack" : "1",
      "longitude" : "120.693",
      "outDis" : "50",
      "Id" : "1400",
      "oid" : "319462377",
      "districtId" : "1",
      "nameZh" : "山腳巷",
      "pgp" : "0",
      "terminal" : "0",
      "latitude" : "24.0383",
      "inDis" : "50",
      "routeId" : "282",
      "seqNo" : "5"
   },
   {
      "GoBack" : "1",
      "longitude" : "120.6907",
      "outDis" : "50",
      "Id" : "0448",
      "oid" : "319462376",
      "districtId" : "1",
      "nameZh" : "六股庄",
      "pgp" : "0",
      "terminal" : "0",
      "latitude" : "24.0378",
      "inDis" : "50",
      "routeId" : "282",
      "seqNo" : "6"
   },
   {
      "GoBack" : "1",
      "longitude" : "120.688",
      "outDis" : "50",
      "Id" : "0449",
      "oid" : "319462375",
      "districtId" : "1",
      "nameZh" : "六股庄福德祠",
      "pgp" : "0",
      "terminal" : "0",
      "latitude" : "24.0381",
      "inDis" : "50",
      "routeId" : "282",
      "seqNo" : "7"
   },
   {
      "GoBack" : "1",
      "longitude" : "120.6844",
      "outDis" : "50",
      "Id" : "0450",
      "oid" : "319462374",
      "districtId" : "1",
      "nameZh" : "板橋中投東路口",
      "pgp" : "0",
      "terminal" : "0",
      "latitude" : "24.0342",
      "inDis" : "50",
      "routeId" : "282",
      "seqNo" : "8"
   },
   {
      "GoBack" : "1",
      "longitude" : "120.6844",
      "outDis" : "50",
      "Id" : "0451",
      "oid" : "319462373",
      "districtId" : "1",
      "nameZh" : "豐正中投東路口",
      "pgp" : "0",
      "terminal" : "0",
      "latitude" : "24.0297",
      "inDis" : "50",
      "routeId" : "282",
      "seqNo" : "9"
   },
   {
      "GoBack" : "1",
      "longitude" : "120.68227",
      "outDis" : "50",
      "Id" : "5768",
      "oid" : "320738728",
      "districtId" : "1",
      "nameZh" : "船板橋",
      "pgp" : "0",
      "terminal" : "0",
      "latitude" : "24.03016",
      "inDis" : "50",
      "routeId" : "282",
      "seqNo" : "10"
   },
   {
      "GoBack" : "1",
      "longitude" : "120.67909",
      "outDis" : "50",
      "Id" : "5769",
      "oid" : "320738729",
      "districtId" : "1",
      "nameZh" : "煙間",
      "pgp" : "0",
      "terminal" : "0",
      "latitude" : "24.03126",
      "inDis" : "50",
      "routeId" : "282",
      "seqNo" : "11"
   },
   {
      "GoBack" : "1",
      "longitude" : "120.67505",
      "outDis" : "50",
      "Id" : "2611",
      "oid" : "6012",
      "districtId" : "1",
      "nameZh" : "南勢(豐正路)",
      "pgp" : "0",
      "terminal" : "0",
      "latitude" : "24.03264",
      "inDis" : "50",
      "routeId" : "282",
      "seqNo" : "12"
   },
   {
      "GoBack" : "1",
      "longitude" : "120.67198",
      "outDis" : "50",
      "Id" : "2287",
      "oid" : "5816",
      "districtId" : "1",
      "nameZh" : "邑興社區",
      "pgp" : "0",
      "terminal" : "0",
      "latitude" : "24.03448",
      "inDis" : "50",
      "routeId" : "282",
      "seqNo" : "13"
   },
   {
      "GoBack" : "1",
      "longitude" : "120.66772",
      "outDis" : "50",
      "Id" : "0585",
      "oid" : "5677",
      "districtId" : "1",
      "nameZh" : "光正國小",
      "pgp" : "0",
      "terminal" : "0",
      "latitude" : "24.03632",
      "inDis" : "50",
      "routeId" : "282",
      "seqNo" : "14"
   },
   {
      "GoBack" : "1",
      "longitude" : "120.66617",
      "outDis" : "50",
      "Id" : "1792",
      "oid" : "313679745",
      "districtId" : "1",
      "nameZh" : "北勢里",
      "pgp" : "0",
      "terminal" : "0",
      "latitude" : "24.03739",
      "inDis" : "50",
      "routeId" : "282",
      "seqNo" : "15"
   },
   {
      "GoBack" : "1",
      "longitude" : "120.66851",
      "outDis" : "50",
      "Id" : "2085",
      "oid" : "5704",
      "districtId" : "1",
      "nameZh" : "合作農場",
      "pgp" : "0",
      "terminal" : "0",
      "latitude" : "24.04",
      "inDis" : "50",
      "routeId" : "282",
      "seqNo" : "16"
   },
   {
      "GoBack" : "1",
      "longitude" : "120.6697",
      "outDis" : "50",
      "Id" : "5713",
      "oid" : "320042228",
      "districtId" : "1",
      "nameZh" : "北勢社區",
      "pgp" : "0",
      "terminal" : "0",
      "latitude" : "24.04133",
      "inDis" : "50",
      "routeId" : "282",
      "seqNo" : "17"
   },
   {
      "GoBack" : "1",
      "longitude" : "120.67293",
      "outDis" : "50",
      "Id" : "5205",
      "oid" : "310787716",
      "districtId" : "1",
      "nameZh" : "下丁台",
      "pgp" : "0",
      "terminal" : "0",
      "latitude" : "24.04507",
      "inDis" : "50",
      "routeId" : "282",
      "seqNo" : "18"
   },
   {
      "GoBack" : "1",
      "longitude" : "120.67527",
      "outDis" : "50",
      "Id" : "0983",
      "oid" : "5017",
      "districtId" : "1",
      "nameZh" : "丁台",
      "pgp" : "0",
      "terminal" : "0",
      "latitude" : "24.04872",
      "inDis" : "50",
      "routeId" : "282",
      "seqNo" : "19"
   },
   {
      "GoBack" : "1",
      "longitude" : "120.67495",
      "outDis" : "50",
      "Id" : "1011",
      "oid" : "5035",
      "districtId" : "1",
      "nameZh" : "二媽廟前",
      "pgp" : "0",
      "terminal" : "0",
      "latitude" : "24.05213",
      "inDis" : "50",
      "routeId" : "282",
      "seqNo" : "20"
   },
   {
      "GoBack" : "1",
      "longitude" : "120.6749",
      "outDis" : "50",
      "Id" : "1003",
      "oid" : "319462372",
      "districtId" : "1",
      "nameZh" : "二林",
      "pgp" : "0",
      "terminal" : "0",
      "latitude" : "24.0528",
      "inDis" : "50",
      "routeId" : "282",
      "seqNo" : "21"
   },
   {
      "GoBack" : "1",
      "longitude" : "120.67481",
      "outDis" : "50",
      "Id" : "3243",
      "oid" : "6343",
      "districtId" : "1",
      "nameZh" : "曾厝",
      "pgp" : "0",
      "terminal" : "0",
      "latitude" : "24.05549",
      "inDis" : "50",
      "routeId" : "282",
      "seqNo" : "22"
   },
   {
      "GoBack" : "1",
      "longitude" : "120.6768",
      "outDis" : "50",
      "Id" : "0454",
      "oid" : "319462371",
      "districtId" : "1",
      "nameZh" : "丁台霧工五路口",
      "pgp" : "0",
      "terminal" : "0",
      "latitude" : "24.0618",
      "inDis" : "50",
      "routeId" : "282",
      "seqNo" : "23"
   },
   {
      "GoBack" : "1",
      "longitude" : "120.6767",
      "outDis" : "50",
      "Id" : "0535",
      "oid" : "319462370",
      "districtId" : "1",
      "nameZh" : "新厝",
      "pgp" : "0",
      "terminal" : "0",
      "latitude" : "24.0642",
      "inDis" : "50",
      "routeId" : "282",
      "seqNo" : "24"
   },
   {
      "GoBack" : "1",
      "longitude" : "120.6797",
      "outDis" : "50",
      "Id" : "1779",
      "oid" : "5521",
      "districtId" : "1",
      "nameZh" : "北柳",
      "pgp" : "0",
      "terminal" : "0",
      "latitude" : "24.06502",
      "inDis" : "50",
      "routeId" : "282",
      "seqNo" : "25"
   },
   {
      "GoBack" : "1",
      "longitude" : "120.68287",
      "outDis" : "50",
      "Id" : "5267",
      "oid" : "310787842",
      "districtId" : "1",
      "nameZh" : "領鮮超市",
      "pgp" : "0",
      "terminal" : "0",
      "latitude" : "24.06538",
      "inDis" : "50",
      "routeId" : "282",
      "seqNo" : "26"
   },
   {
      "GoBack" : "1",
      "longitude" : "120.68643",
      "outDis" : "50",
      "Id" : "3105",
      "oid" : "6288",
      "districtId" : "1",
      "nameZh" : "頂北柳",
      "pgp" : "0",
      "terminal" : "0",
      "latitude" : "24.06576",
      "inDis" : "50",
      "routeId" : "282",
      "seqNo" : "27"
   },
   {
      "GoBack" : "1",
      "longitude" : "120.68809",
      "outDis" : "50",
      "Id" : "2293",
      "oid" : "5821",
      "districtId" : "1",
      "nameZh" : "佳興新村",
      "pgp" : "0",
      "terminal" : "0",
      "latitude" : "24.0659",
      "inDis" : "50",
      "routeId" : "282",
      "seqNo" : "28"
   },
   {
      "GoBack" : "1",
      "longitude" : "120.69175",
      "outDis" : "50",
      "Id" : "3977",
      "oid" : "6723",
      "districtId" : "1",
      "nameZh" : "霧峰國中",
      "pgp" : "0",
      "terminal" : "0",
      "latitude" : "24.06612",
      "inDis" : "50",
      "routeId" : "282",
      "seqNo" : "29"
   },
   {
      "GoBack" : "1",
      "longitude" : "120.6958",
      "outDis" : "50",
      "Id" : "3512",
      "oid" : "6496",
      "districtId" : "1",
      "nameZh" : "聖賢宮",
      "pgp" : "0",
      "terminal" : "0",
      "latitude" : "24.06585",
      "inDis" : "50",
      "routeId" : "282",
      "seqNo" : "30"
   },
   {
      "GoBack" : "1",
      "longitude" : "120.697",
      "outDis" : "50",
      "Id" : "5439",
      "oid" : "313609511",
      "districtId" : "1",
      "nameZh" : "樹仁育仁路口",
      "pgp" : "0",
      "terminal" : "0",
      "latitude" : "24.0639",
      "inDis" : "50",
      "routeId" : "282",
      "seqNo" : "31"
   },
   {
      "GoBack" : "1",
      "longitude" : "120.69643",
      "outDis" : "50",
      "Id" : "5444",
      "oid" : "313653113",
      "districtId" : "1",
      "nameZh" : "福德宮",
      "pgp" : "0",
      "terminal" : "0",
      "latitude" : "24.06007",
      "inDis" : "50",
      "routeId" : "282",
      "seqNo" : "32"
   },
   {
      "GoBack" : "1",
      "longitude" : "120.69772",
      "outDis" : "50",
      "Id" : "3976",
      "oid" : "6722",
      "districtId" : "1",
      "nameZh" : "霧峰國小",
      "pgp" : "0",
      "terminal" : "0",
      "latitude" : "24.05731",
      "inDis" : "50",
      "routeId" : "282",
      "seqNo" : "33"
   },
   {
      "GoBack" : "1",
      "longitude" : "120.69799",
      "outDis" : "50",
      "Id" : "5546",
      "oid" : "316462697",
      "districtId" : "1",
      "nameZh" : "教育部國教署",
      "pgp" : "0",
      "terminal" : "0",
      "latitude" : "24.05932",
      "inDis" : "50",
      "routeId" : "282",
      "seqNo" : "34"
   },
   {
      "GoBack" : "1",
      "longitude" : "120.69829",
      "outDis" : "50",
      "Id" : "3978",
      "oid" : "6724",
      "districtId" : "1",
      "nameZh" : "霧峰郵局",
      "pgp" : "0",
      "terminal" : "0",
      "latitude" : "24.06197",
      "inDis" : "50",
      "routeId" : "282",
      "seqNo" : "35"
   },
   {
      "GoBack" : "1",
      "longitude" : "120.69858",
      "outDis" : "50",
      "Id" : "3972",
      "oid" : "6720",
      "districtId" : "1",
      "nameZh" : "霧峰",
      "pgp" : "0",
      "terminal" : "0",
      "latitude" : "24.06376",
      "inDis" : "50",
      "routeId" : "282",
      "seqNo" : "36"
   },
   {
      "GoBack" : "1",
      "longitude" : "120.69909",
      "outDis" : "50",
      "Id" : "5461",
      "oid" : "313679744",
      "districtId" : "1",
      "nameZh" : "市場口",
      "pgp" : "0",
      "terminal" : "0",
      "latitude" : "24.06741",
      "inDis" : "50",
      "routeId" : "282",
      "seqNo" : "37"
   },
   {
      "GoBack" : "1",
      "longitude" : "120.70128",
      "outDis" : "50",
      "Id" : "5460",
      "oid" : "313679743",
      "districtId" : "1",
      "nameZh" : "甲寅里(民生路)",
      "pgp" : "0",
      "terminal" : "0",
      "latitude" : "24.06716",
      "inDis" : "50",
      "routeId" : "282",
      "seqNo" : "38"
   },
   {
      "GoBack" : "1",
      "longitude" : "120.70294",
      "outDis" : "50",
      "Id" : "3571",
      "oid" : "6525",
      "districtId" : "1",
      "nameZh" : "僑榮國小",
      "pgp" : "0",
      "terminal" : "0",
      "latitude" : "24.07051",
      "inDis" : "50",
      "routeId" : "282",
      "seqNo" : "39"
   },
   {
      "GoBack" : "1",
      "longitude" : "120.70534",
      "outDis" : "50",
      "Id" : "0292",
      "oid" : "319462369",
      "districtId" : "1",
      "nameZh" : "民生自強路口",
      "pgp" : "0",
      "terminal" : "0",
      "latitude" : "24.07281",
      "inDis" : "50",
      "routeId" : "282",
      "seqNo" : "40"
   },
   {
      "GoBack" : "1",
      "longitude" : "120.70705",
      "outDis" : "50",
      "Id" : "1509",
      "oid" : "5355",
      "districtId" : "1",
      "nameZh" : "中興社區",
      "pgp" : "0",
      "terminal" : "0",
      "latitude" : "24.07381",
      "inDis" : "50",
      "routeId" : "282",
      "seqNo" : "41"
   },
   {
      "GoBack" : "1",
      "longitude" : "120.71036",
      "outDis" : "50",
      "Id" : "1914",
      "oid" : "5606",
      "districtId" : "1",
      "nameZh" : "正豐農藥廠",
      "pgp" : "0",
      "terminal" : "0",
      "latitude" : "24.07434",
      "inDis" : "50",
      "routeId" : "282",
      "seqNo" : "42"
   },
   {
      "GoBack" : "1",
      "longitude" : "120.71464",
      "outDis" : "50",
      "Id" : "2059",
      "oid" : "5696",
      "districtId" : "1",
      "nameZh" : "吉峰里",
      "pgp" : "0",
      "terminal" : "0",
      "latitude" : "24.07595",
      "inDis" : "50",
      "routeId" : "282",
      "seqNo" : "43"
   },
   {
      "GoBack" : "1",
      "longitude" : "120.71704",
      "outDis" : "50",
      "Id" : "4725",
      "oid" : "306640245",
      "districtId" : "1",
      "nameZh" : "桐林里",
      "pgp" : "0",
      "terminal" : "0",
      "latitude" : "24.07764",
      "inDis" : "50",
      "routeId" : "282",
      "seqNo" : "44"
   },
   {
      "GoBack" : "1",
      "longitude" : "120.71951",
      "outDis" : "50",
      "Id" : "5459",
      "oid" : "313679742",
      "districtId" : "1",
      "nameZh" : "交叉路",
      "pgp" : "0",
      "terminal" : "0",
      "latitude" : "24.07834",
      "inDis" : "50",
      "routeId" : "282",
      "seqNo" : "45"
   },
   {
      "GoBack" : "1",
      "longitude" : "120.72394",
      "outDis" : "50",
      "Id" : "2076",
      "oid" : "5700",
      "districtId" : "1",
      "nameZh" : "吊橋頭",
      "pgp" : "0",
      "terminal" : "0",
      "latitude" : "24.07693",
      "inDis" : "50",
      "routeId" : "282",
      "seqNo" : "46"
   },
   {
      "GoBack" : "1",
      "longitude" : "120.72571",
      "outDis" : "50",
      "Id" : "3720",
      "oid" : "6592",
      "districtId" : "1",
      "nameZh" : "廣興社區",
      "pgp" : "0",
      "terminal" : "0",
      "latitude" : "24.07535",
      "inDis" : "50",
      "routeId" : "282",
      "seqNo" : "47"
   },
   {
      "GoBack" : "1",
      "longitude" : "120.73027",
      "outDis" : "50",
      "Id" : "0347",
      "oid" : "311033710",
      "districtId" : "1",
      "nameZh" : "土地公廟",
      "pgp" : "0",
      "terminal" : "0",
      "latitude" : "24.07223",
      "inDis" : "50",
      "routeId" : "282",
      "seqNo" : "48"
   },
   {
      "GoBack" : "1",
      "longitude" : "120.73246",
      "outDis" : "50",
      "Id" : "3445",
      "oid" : "6465",
      "districtId" : "1",
      "nameZh" : "暗坑",
      "pgp" : "0",
      "terminal" : "0",
      "latitude" : "24.07132",
      "inDis" : "50",
      "routeId" : "282",
      "seqNo" : "49"
   },
   {
      "GoBack" : "1",
      "longitude" : "120.73364",
      "outDis" : "50",
      "Id" : "5255",
      "oid" : "310787818",
      "districtId" : "1",
      "nameZh" : "番石榴園",
      "pgp" : "0",
      "terminal" : "0",
      "latitude" : "24.06897",
      "inDis" : "50",
      "routeId" : "282",
      "seqNo" : "50"
   },
   {
      "GoBack" : "1",
      "longitude" : "120.73541",
      "outDis" : "50",
      "Id" : "2790",
      "oid" : "6109",
      "districtId" : "1",
      "nameZh" : "桐林國小",
      "pgp" : "0",
      "terminal" : "0",
      "latitude" : "24.06611",
      "inDis" : "50",
      "routeId" : "282",
      "seqNo" : "51"
   },
   {
      "GoBack" : "1",
      "longitude" : "120.73703",
      "outDis" : "50",
      "Id" : "5209",
      "oid" : "310787724",
      "districtId" : "1",
      "nameZh" : "下桐林",
      "pgp" : "0",
      "terminal" : "0",
      "latitude" : "24.06414",
      "inDis" : "50",
      "routeId" : "282",
      "seqNo" : "52"
   },
   {
      "GoBack" : "1",
      "longitude" : "120.73864",
      "outDis" : "50",
      "Id" : "2789",
      "oid" : "6108",
      "districtId" : "1",
      "nameZh" : "桐林",
      "pgp" : "0",
      "terminal" : "0",
      "latitude" : "24.06192",
      "inDis" : "50",
      "routeId" : "282",
      "seqNo" : "53"
   },
   {
      "GoBack" : "2",
      "longitude" : "120.73864",
      "outDis" : "50",
      "Id" : "2789",
      "oid" : "6108",
      "districtId" : "1",
      "nameZh" : "桐林",
      "pgp" : "0",
      "terminal" : "0",
      "latitude" : "24.06192",
      "inDis" : "50",
      "routeId" : "282",
      "seqNo" : "1"
   },
   {
      "GoBack" : "2",
      "longitude" : "120.73703",
      "outDis" : "50",
      "Id" : "5209",
      "oid" : "310787725",
      "districtId" : "1",
      "nameZh" : "下桐林",
      "pgp" : "0",
      "terminal" : "0",
      "latitude" : "24.06414",
      "inDis" : "50",
      "routeId" : "282",
      "seqNo" : "2"
   },
   {
      "GoBack" : "2",
      "longitude" : "120.73541",
      "outDis" : "50",
      "Id" : "2790",
      "oid" : "6109",
      "districtId" : "1",
      "nameZh" : "桐林國小",
      "pgp" : "0",
      "terminal" : "0",
      "latitude" : "24.06611",
      "inDis" : "50",
      "routeId" : "282",
      "seqNo" : "3"
   },
   {
      "GoBack" : "2",
      "longitude" : "120.73364",
      "outDis" : "50",
      "Id" : "5255",
      "oid" : "310787819",
      "districtId" : "1",
      "nameZh" : "番石榴園",
      "pgp" : "0",
      "terminal" : "0",
      "latitude" : "24.06897",
      "inDis" : "50",
      "routeId" : "282",
      "seqNo" : "4"
   },
   {
      "GoBack" : "2",
      "longitude" : "120.73246",
      "outDis" : "50",
      "Id" : "3445",
      "oid" : "6465",
      "districtId" : "1",
      "nameZh" : "暗坑",
      "pgp" : "0",
      "terminal" : "0",
      "latitude" : "24.07132",
      "inDis" : "50",
      "routeId" : "282",
      "seqNo" : "5"
   },
   {
      "GoBack" : "2",
      "longitude" : "120.73027",
      "outDis" : "50",
      "Id" : "0347",
      "oid" : "311033710",
      "districtId" : "1",
      "nameZh" : "土地公廟",
      "pgp" : "0",
      "terminal" : "0",
      "latitude" : "24.07223",
      "inDis" : "50",
      "routeId" : "282",
      "seqNo" : "6"
   },
   {
      "GoBack" : "2",
      "longitude" : "120.72571",
      "outDis" : "50",
      "Id" : "3720",
      "oid" : "6592",
      "districtId" : "1",
      "nameZh" : "廣興社區",
      "pgp" : "0",
      "terminal" : "0",
      "latitude" : "24.07535",
      "inDis" : "50",
      "routeId" : "282",
      "seqNo" : "7"
   },
   {
      "GoBack" : "2",
      "longitude" : "120.72394",
      "outDis" : "50",
      "Id" : "2076",
      "oid" : "5700",
      "districtId" : "1",
      "nameZh" : "吊橋頭",
      "pgp" : "0",
      "terminal" : "0",
      "latitude" : "24.07693",
      "inDis" : "50",
      "routeId" : "282",
      "seqNo" : "8"
   },
   {
      "GoBack" : "2",
      "longitude" : "120.71951",
      "outDis" : "50",
      "Id" : "5459",
      "oid" : "313679742",
      "districtId" : "1",
      "nameZh" : "交叉路",
      "pgp" : "0",
      "terminal" : "0",
      "latitude" : "24.07834",
      "inDis" : "50",
      "routeId" : "282",
      "seqNo" : "9"
   },
   {
      "GoBack" : "2",
      "longitude" : "120.71704",
      "outDis" : "50",
      "Id" : "4725",
      "oid" : "306640245",
      "districtId" : "1",
      "nameZh" : "桐林里",
      "pgp" : "0",
      "terminal" : "0",
      "latitude" : "24.07764",
      "inDis" : "50",
      "routeId" : "282",
      "seqNo" : "10"
   },
   {
      "GoBack" : "2",
      "longitude" : "120.71464",
      "outDis" : "50",
      "Id" : "2059",
      "oid" : "5696",
      "districtId" : "1",
      "nameZh" : "吉峰里",
      "pgp" : "0",
      "terminal" : "0",
      "latitude" : "24.07595",
      "inDis" : "50",
      "routeId" : "282",
      "seqNo" : "11"
   },
   {
      "GoBack" : "2",
      "longitude" : "120.71036",
      "outDis" : "50",
      "Id" : "1914",
      "oid" : "5606",
      "districtId" : "1",
      "nameZh" : "正豐農藥廠",
      "pgp" : "0",
      "terminal" : "0",
      "latitude" : "24.07434",
      "inDis" : "50",
      "routeId" : "282",
      "seqNo" : "12"
   },
   {
      "GoBack" : "2",
      "longitude" : "120.70705",
      "outDis" : "50",
      "Id" : "1509",
      "oid" : "5355",
      "districtId" : "1",
      "nameZh" : "中興社區",
      "pgp" : "0",
      "terminal" : "0",
      "latitude" : "24.07381",
      "inDis" : "50",
      "routeId" : "282",
      "seqNo" : "13"
   },
   {
      "GoBack" : "2",
      "longitude" : "120.70534",
      "outDis" : "50",
      "Id" : "0292",
      "oid" : "319462369",
      "districtId" : "1",
      "nameZh" : "民生自強路口",
      "pgp" : "0",
      "terminal" : "0",
      "latitude" : "24.07281",
      "inDis" : "50",
      "routeId" : "282",
      "seqNo" : "14"
   },
   {
      "GoBack" : "2",
      "longitude" : "120.70294",
      "outDis" : "50",
      "Id" : "3571",
      "oid" : "6525",
      "districtId" : "1",
      "nameZh" : "僑榮國小",
      "pgp" : "0",
      "terminal" : "0",
      "latitude" : "24.07051",
      "inDis" : "50",
      "routeId" : "282",
      "seqNo" : "15"
   },
   {
      "GoBack" : "2",
      "longitude" : "120.70128",
      "outDis" : "50",
      "Id" : "5460",
      "oid" : "313679743",
      "districtId" : "1",
      "nameZh" : "甲寅里(民生路)",
      "pgp" : "0",
      "terminal" : "0",
      "latitude" : "24.06716",
      "inDis" : "50",
      "routeId" : "282",
      "seqNo" : "16"
   },
   {
      "GoBack" : "2",
      "longitude" : "120.69909",
      "outDis" : "50",
      "Id" : "5461",
      "oid" : "313679744",
      "districtId" : "1",
      "nameZh" : "市場口",
      "pgp" : "0",
      "terminal" : "0",
      "latitude" : "24.06741",
      "inDis" : "50",
      "routeId" : "282",
      "seqNo" : "17"
   },
   {
      "GoBack" : "2",
      "longitude" : "120.69858",
      "outDis" : "50",
      "Id" : "3972",
      "oid" : "6720",
      "districtId" : "1",
      "nameZh" : "霧峰",
      "pgp" : "0",
      "terminal" : "0",
      "latitude" : "24.06376",
      "inDis" : "50",
      "routeId" : "282",
      "seqNo" : "18"
   },
   {
      "GoBack" : "2",
      "longitude" : "120.69829",
      "outDis" : "50",
      "Id" : "3978",
      "oid" : "6724",
      "districtId" : "1",
      "nameZh" : "霧峰郵局",
      "pgp" : "0",
      "terminal" : "0",
      "latitude" : "24.06197",
      "inDis" : "50",
      "routeId" : "282",
      "seqNo" : "19"
   },
   {
      "GoBack" : "2",
      "longitude" : "120.69799",
      "outDis" : "50",
      "Id" : "5546",
      "oid" : "316462697",
      "districtId" : "1",
      "nameZh" : "教育部國教署",
      "pgp" : "0",
      "terminal" : "0",
      "latitude" : "24.05932",
      "inDis" : "50",
      "routeId" : "282",
      "seqNo" : "20"
   },
   {
      "GoBack" : "2",
      "longitude" : "120.69772",
      "outDis" : "50",
      "Id" : "3976",
      "oid" : "6722",
      "districtId" : "1",
      "nameZh" : "霧峰國小",
      "pgp" : "0",
      "terminal" : "0",
      "latitude" : "24.05731",
      "inDis" : "50",
      "routeId" : "282",
      "seqNo" : "21"
   },
   {
      "GoBack" : "2",
      "longitude" : "120.69643",
      "outDis" : "50",
      "Id" : "5444",
      "oid" : "313653113",
      "districtId" : "1",
      "nameZh" : "福德宮",
      "pgp" : "0",
      "terminal" : "0",
      "latitude" : "24.06007",
      "inDis" : "50",
      "routeId" : "282",
      "seqNo" : "22"
   },
   {
      "GoBack" : "2",
      "longitude" : "120.697",
      "outDis" : "50",
      "Id" : "5439",
      "oid" : "313609511",
      "districtId" : "1",
      "nameZh" : "樹仁育仁路口",
      "pgp" : "0",
      "terminal" : "0",
      "latitude" : "24.0639",
      "inDis" : "50",
      "routeId" : "282",
      "seqNo" : "23"
   },
   {
      "GoBack" : "2",
      "longitude" : "120.6958",
      "outDis" : "50",
      "Id" : "3512",
      "oid" : "6496",
      "districtId" : "1",
      "nameZh" : "聖賢宮",
      "pgp" : "0",
      "terminal" : "0",
      "latitude" : "24.06585",
      "inDis" : "50",
      "routeId" : "282",
      "seqNo" : "24"
   },
   {
      "GoBack" : "2",
      "longitude" : "120.69175",
      "outDis" : "50",
      "Id" : "3977",
      "oid" : "6723",
      "districtId" : "1",
      "nameZh" : "霧峰國中",
      "pgp" : "0",
      "terminal" : "0",
      "latitude" : "24.06612",
      "inDis" : "50",
      "routeId" : "282",
      "seqNo" : "25"
   },
   {
      "GoBack" : "2",
      "longitude" : "120.68809",
      "outDis" : "50",
      "Id" : "2293",
      "oid" : "5821",
      "districtId" : "1",
      "nameZh" : "佳興新村",
      "pgp" : "0",
      "terminal" : "0",
      "latitude" : "24.0659",
      "inDis" : "50",
      "routeId" : "282",
      "seqNo" : "26"
   },
   {
      "GoBack" : "2",
      "longitude" : "120.68643",
      "outDis" : "50",
      "Id" : "3105",
      "oid" : "6288",
      "districtId" : "1",
      "nameZh" : "頂北柳",
      "pgp" : "0",
      "terminal" : "0",
      "latitude" : "24.06576",
      "inDis" : "50",
      "routeId" : "282",
      "seqNo" : "27"
   },
   {
      "GoBack" : "2",
      "longitude" : "120.68287",
      "outDis" : "50",
      "Id" : "5267",
      "oid" : "310787842",
      "districtId" : "1",
      "nameZh" : "領鮮超市",
      "pgp" : "0",
      "terminal" : "0",
      "latitude" : "24.06538",
      "inDis" : "50",
      "routeId" : "282",
      "seqNo" : "28"
   },
   {
      "GoBack" : "2",
      "longitude" : "120.6797",
      "outDis" : "50",
      "Id" : "1779",
      "oid" : "5521",
      "districtId" : "1",
      "nameZh" : "北柳",
      "pgp" : "0",
      "terminal" : "0",
      "latitude" : "24.06502",
      "inDis" : "50",
      "routeId" : "282",
      "seqNo" : "29"
   },
   {
      "GoBack" : "2",
      "longitude" : "120.6767",
      "outDis" : "50",
      "Id" : "0535",
      "oid" : "319462370",
      "districtId" : "1",
      "nameZh" : "新厝",
      "pgp" : "0",
      "terminal" : "0",
      "latitude" : "24.0642",
      "inDis" : "50",
      "routeId" : "282",
      "seqNo" : "30"
   },
   {
      "GoBack" : "2",
      "longitude" : "120.6768",
      "outDis" : "50",
      "Id" : "0454",
      "oid" : "319462371",
      "districtId" : "1",
      "nameZh" : "丁台霧工五路口",
      "pgp" : "0",
      "terminal" : "0",
      "latitude" : "24.0618",
      "inDis" : "50",
      "routeId" : "282",
      "seqNo" : "31"
   },
   {
      "GoBack" : "2",
      "longitude" : "120.67481",
      "outDis" : "50",
      "Id" : "3243",
      "oid" : "6343",
      "districtId" : "1",
      "nameZh" : "曾厝",
      "pgp" : "0",
      "terminal" : "0",
      "latitude" : "24.05549",
      "inDis" : "50",
      "routeId" : "282",
      "seqNo" : "32"
   },
   {
      "GoBack" : "2",
      "longitude" : "120.6749",
      "outDis" : "50",
      "Id" : "1003",
      "oid" : "319462372",
      "districtId" : "1",
      "nameZh" : "二林",
      "pgp" : "0",
      "terminal" : "0",
      "latitude" : "24.0528",
      "inDis" : "50",
      "routeId" : "282",
      "seqNo" : "33"
   },
   {
      "GoBack" : "2",
      "longitude" : "120.67495",
      "outDis" : "50",
      "Id" : "1011",
      "oid" : "5035",
      "districtId" : "1",
      "nameZh" : "二媽廟前",
      "pgp" : "0",
      "terminal" : "0",
      "latitude" : "24.05213",
      "inDis" : "50",
      "routeId" : "282",
      "seqNo" : "34"
   },
   {
      "GoBack" : "2",
      "longitude" : "120.67527",
      "outDis" : "50",
      "Id" : "0983",
      "oid" : "5017",
      "districtId" : "1",
      "nameZh" : "丁台",
      "pgp" : "0",
      "terminal" : "0",
      "latitude" : "24.04872",
      "inDis" : "50",
      "routeId" : "282",
      "seqNo" : "35"
   },
   {
      "GoBack" : "2",
      "longitude" : "120.67293",
      "outDis" : "50",
      "Id" : "5205",
      "oid" : "310787716",
      "districtId" : "1",
      "nameZh" : "下丁台",
      "pgp" : "0",
      "terminal" : "0",
      "latitude" : "24.04507",
      "inDis" : "50",
      "routeId" : "282",
      "seqNo" : "36"
   },
   {
      "GoBack" : "2",
      "longitude" : "120.66957",
      "outDis" : "50",
      "Id" : "5713",
      "oid" : "320042227",
      "districtId" : "1",
      "nameZh" : "北勢社區",
      "pgp" : "0",
      "terminal" : "0",
      "latitude" : "24.04136",
      "inDis" : "50",
      "routeId" : "282",
      "seqNo" : "37"
   },
   {
      "GoBack" : "2",
      "longitude" : "120.66851",
      "outDis" : "50",
      "Id" : "2085",
      "oid" : "5704",
      "districtId" : "1",
      "nameZh" : "合作農場",
      "pgp" : "0",
      "terminal" : "0",
      "latitude" : "24.04",
      "inDis" : "50",
      "routeId" : "282",
      "seqNo" : "38"
   },
   {
      "GoBack" : "2",
      "longitude" : "120.66617",
      "outDis" : "50",
      "Id" : "1792",
      "oid" : "313679745",
      "districtId" : "1",
      "nameZh" : "北勢里",
      "pgp" : "0",
      "terminal" : "0",
      "latitude" : "24.03739",
      "inDis" : "50",
      "routeId" : "282",
      "seqNo" : "39"
   },
   {
      "GoBack" : "2",
      "longitude" : "120.66772",
      "outDis" : "50",
      "Id" : "0585",
      "oid" : "5677",
      "districtId" : "1",
      "nameZh" : "光正國小",
      "pgp" : "0",
      "terminal" : "0",
      "latitude" : "24.03632",
      "inDis" : "50",
      "routeId" : "282",
      "seqNo" : "40"
   },
   {
      "GoBack" : "2",
      "longitude" : "120.67198",
      "outDis" : "50",
      "Id" : "2287",
      "oid" : "5816",
      "districtId" : "1",
      "nameZh" : "邑興社區",
      "pgp" : "0",
      "terminal" : "0",
      "latitude" : "24.03448",
      "inDis" : "50",
      "routeId" : "282",
      "seqNo" : "41"
   },
   {
      "GoBack" : "2",
      "longitude" : "120.67505",
      "outDis" : "50",
      "Id" : "2611",
      "oid" : "6012",
      "districtId" : "1",
      "nameZh" : "南勢(豐正路)",
      "pgp" : "0",
      "terminal" : "0",
      "latitude" : "24.03264",
      "inDis" : "50",
      "routeId" : "282",
      "seqNo" : "42"
   },
   {
      "GoBack" : "2",
      "longitude" : "120.67909",
      "outDis" : "50",
      "Id" : "5769",
      "oid" : "320738729",
      "districtId" : "1",
      "nameZh" : "煙間",
      "pgp" : "0",
      "terminal" : "0",
      "latitude" : "24.03126",
      "inDis" : "50",
      "routeId" : "282",
      "seqNo" : "43"
   },
   {
      "GoBack" : "2",
      "longitude" : "120.68227",
      "outDis" : "50",
      "Id" : "5768",
      "oid" : "320738728",
      "districtId" : "1",
      "nameZh" : "船板橋",
      "pgp" : "0",
      "terminal" : "0",
      "latitude" : "24.03016",
      "inDis" : "50",
      "routeId" : "282",
      "seqNo" : "44"
   },
   {
      "GoBack" : "2",
      "longitude" : "120.6844",
      "outDis" : "50",
      "Id" : "0451",
      "oid" : "319462373",
      "districtId" : "1",
      "nameZh" : "豐正中投東路口",
      "pgp" : "0",
      "terminal" : "0",
      "latitude" : "24.0297",
      "inDis" : "50",
      "routeId" : "282",
      "seqNo" : "45"
   },
   {
      "GoBack" : "2",
      "longitude" : "120.6844",
      "outDis" : "50",
      "Id" : "0450",
      "oid" : "319462374",
      "districtId" : "1",
      "nameZh" : "板橋中投東路口",
      "pgp" : "0",
      "terminal" : "0",
      "latitude" : "24.0342",
      "inDis" : "50",
      "routeId" : "282",
      "seqNo" : "46"
   },
   {
      "GoBack" : "2",
      "longitude" : "120.688",
      "outDis" : "50",
      "Id" : "0449",
      "oid" : "319462375",
      "districtId" : "1",
      "nameZh" : "六股庄福德祠",
      "pgp" : "0",
      "terminal" : "0",
      "latitude" : "24.0381",
      "inDis" : "50",
      "routeId" : "282",
      "seqNo" : "47"
   },
   {
      "GoBack" : "2",
      "longitude" : "120.6907",
      "outDis" : "50",
      "Id" : "0448",
      "oid" : "319462376",
      "districtId" : "1",
      "nameZh" : "六股庄",
      "pgp" : "0",
      "terminal" : "0",
      "latitude" : "24.0378",
      "inDis" : "50",
      "routeId" : "282",
      "seqNo" : "48"
   },
   {
      "GoBack" : "2",
      "longitude" : "120.693",
      "outDis" : "50",
      "Id" : "1400",
      "oid" : "319462377",
      "districtId" : "1",
      "nameZh" : "山腳巷",
      "pgp" : "0",
      "terminal" : "0",
      "latitude" : "24.0383",
      "inDis" : "50",
      "routeId" : "282",
      "seqNo" : "49"
   },
   {
      "GoBack" : "2",
      "longitude" : "120.6917",
      "outDis" : "50",
      "Id" : "1588",
      "oid" : "319462378",
      "districtId" : "1",
      "nameZh" : "六股",
      "pgp" : "0",
      "terminal" : "0",
      "latitude" : "24.0416",
      "inDis" : "50",
      "routeId" : "282",
      "seqNo" : "50"
   },
   {
      "GoBack" : "2",
      "longitude" : "120.68992",
      "outDis" : "50",
      "Id" : "4629",
      "oid" : "319462379",
      "districtId" : "1",
      "nameZh" : "光復國中小(柳豐路)",
      "pgp" : "0",
      "terminal" : "0",
      "latitude" : "24.04306",
      "inDis" : "50",
      "routeId" : "282",
      "seqNo" : "51"
   },
   {
      "GoBack" : "2",
      "longitude" : "120.68828",
      "outDis" : "50",
      "Id" : "4413",
      "oid" : "319462380",
      "districtId" : "1",
      "nameZh" : "王厝",
      "pgp" : "0",
      "terminal" : "0",
      "latitude" : "24.04473",
      "inDis" : "50",
      "routeId" : "282",
      "seqNo" : "52"
   },
   {
      "GoBack" : "2",
      "longitude" : "120.68742",
      "outDis" : "50",
      "Id" : "5529",
      "oid" : "319462381",
      "districtId" : "1",
      "nameZh" : "亞洲大學安藤館",
      "pgp" : "0",
      "terminal" : "0",
      "latitude" : "24.04587",
      "inDis" : "50",
      "routeId" : "282",
      "seqNo" : "53"
   }
]
