[
   {
      "GoBack" : "1",
      "longitude" : "120.68611",
      "outDis" : "50",
      "Id" : "0194",
      "oid" : "65B6CDF2371C4D37973B93467FC23177",
      "districtId" : "1",
      "nameZh" : "北屯區行政大樓",
      "pgp" : "0",
      "terminal" : "0",
      "latitude" : "24.1826",
      "inDis" : "50",
      "routeId" : "132",
      "seqNo" : "1"
   },
   {
      "GoBack" : "1",
      "longitude" : "120.68608",
      "outDis" : "50",
      "Id" : "5387",
      "oid" : "313288983",
      "districtId" : "1",
      "nameZh" : "崇德六路口",
      "pgp" : "0",
      "terminal" : "0",
      "latitude" : "24.18086",
      "inDis" : "50",
      "routeId" : "132",
      "seqNo" : "2"
   },
   {
      "GoBack" : "1",
      "longitude" : "120.68589",
      "outDis" : "30",
      "Id" : "0195",
      "oid" : "7803",
      "districtId" : "1",
      "nameZh" : "崇德五路口",
      "pgp" : "0",
      "terminal" : "0",
      "latitude" : "24.17913",
      "inDis" : "50",
      "routeId" : "132",
      "seqNo" : "3"
   },
   {
      "GoBack" : "1",
      "longitude" : "120.68577",
      "outDis" : "50",
      "Id" : "0196",
      "oid" : "7663",
      "districtId" : "1",
      "nameZh" : "崇德一路口",
      "pgp" : "0",
      "terminal" : "0",
      "latitude" : "24.17723",
      "inDis" : "50",
      "routeId" : "132",
      "seqNo" : "4"
   },
   {
      "GoBack" : "1",
      "longitude" : "120.6856",
      "outDis" : "50",
      "Id" : "5131",
      "oid" : "306661878",
      "districtId" : "1",
      "nameZh" : "崇德國中(民俗公園)",
      "pgp" : "0",
      "terminal" : "0",
      "latitude" : "24.17523",
      "inDis" : "50",
      "routeId" : "132",
      "seqNo" : "5"
   },
   {
      "GoBack" : "1",
      "longitude" : "120.68548",
      "outDis" : "50",
      "Id" : "0199",
      "oid" : "7403",
      "districtId" : "1",
      "nameZh" : "崇德瀋陽路口",
      "pgp" : "0",
      "terminal" : "0",
      "latitude" : "24.17314",
      "inDis" : "50",
      "routeId" : "132",
      "seqNo" : "6"
   },
   {
      "GoBack" : "1",
      "longitude" : "120.68544",
      "outDis" : "50",
      "Id" : "4339",
      "oid" : "7325",
      "districtId" : "1",
      "nameZh" : "崇德文心路口",
      "pgp" : "0",
      "terminal" : "0",
      "latitude" : "24.17195",
      "inDis" : "50",
      "routeId" : "132",
      "seqNo" : "7"
   },
   {
      "GoBack" : "1",
      "longitude" : "120.68541",
      "outDis" : "50",
      "Id" : "1768",
      "oid" : "7344",
      "districtId" : "1",
      "nameZh" : "崇德北平路口",
      "pgp" : "0",
      "terminal" : "0",
      "latitude" : "24.1708",
      "inDis" : "50",
      "routeId" : "132",
      "seqNo" : "8"
   },
   {
      "GoBack" : "1",
      "longitude" : "120.68525",
      "outDis" : "50",
      "Id" : "3511",
      "oid" : "7538",
      "districtId" : "1",
      "nameZh" : "聖德禪寺",
      "pgp" : "0",
      "terminal" : "0",
      "latitude" : "24.16863",
      "inDis" : "50",
      "routeId" : "132",
      "seqNo" : "9"
   },
   {
      "GoBack" : "1",
      "longitude" : "120.68519",
      "outDis" : "50",
      "Id" : "0098",
      "oid" : "7406",
      "districtId" : "1",
      "nameZh" : "崇德橋",
      "pgp" : "0",
      "terminal" : "0",
      "latitude" : "24.16613",
      "inDis" : "50",
      "routeId" : "132",
      "seqNo" : "10"
   },
   {
      "GoBack" : "1",
      "longitude" : "120.68631",
      "outDis" : "50",
      "Id" : "0800",
      "oid" : "12724",
      "districtId" : "1",
      "nameZh" : "頂厝里",
      "pgp" : "0",
      "terminal" : "0",
      "latitude" : "24.16313",
      "inDis" : "50",
      "routeId" : "132",
      "seqNo" : "11"
   },
   {
      "GoBack" : "1",
      "longitude" : "120.68773",
      "outDis" : "50",
      "Id" : "0830",
      "oid" : "7488",
      "districtId" : "1",
      "nameZh" : "稅務新村",
      "pgp" : "0",
      "terminal" : "0",
      "latitude" : "24.16303",
      "inDis" : "50",
      "routeId" : "132",
      "seqNo" : "12"
   },
   {
      "GoBack" : "1",
      "longitude" : "120.68986",
      "outDis" : "50",
      "Id" : "0493",
      "oid" : "12684",
      "districtId" : "1",
      "nameZh" : "北屯市場",
      "pgp" : "0",
      "terminal" : "0",
      "latitude" : "24.16306",
      "inDis" : "50",
      "routeId" : "132",
      "seqNo" : "13"
   },
   {
      "GoBack" : "1",
      "longitude" : "120.69207",
      "outDis" : "50",
      "Id" : "0892",
      "oid" : "7557",
      "districtId" : "1",
      "nameZh" : "監理站",
      "pgp" : "0",
      "terminal" : "0",
      "latitude" : "24.16101",
      "inDis" : "50",
      "routeId" : "132",
      "seqNo" : "14"
   },
   {
      "GoBack" : "1",
      "longitude" : "120.68973",
      "outDis" : "50",
      "Id" : "0960",
      "oid" : "7633",
      "districtId" : "1",
      "nameZh" : "寶覺寺",
      "pgp" : "0",
      "terminal" : "0",
      "latitude" : "24.15774",
      "inDis" : "50",
      "routeId" : "132",
      "seqNo" : "15"
   },
   {
      "GoBack" : "1",
      "longitude" : "120.68794",
      "outDis" : "50",
      "Id" : "4399",
      "oid" : "7509",
      "districtId" : "1",
      "nameZh" : "新民高中(三民路)",
      "pgp" : "0",
      "terminal" : "0",
      "latitude" : "24.15622",
      "inDis" : "50",
      "routeId" : "132",
      "seqNo" : "16"
   },
   {
      "GoBack" : "1",
      "longitude" : "120.68695",
      "outDis" : "50",
      "Id" : "0934",
      "oid" : "0D7AF382298E449C9856AF45F92F27F9",
      "districtId" : "1",
      "nameZh" : "三民錦中街口",
      "pgp" : "0",
      "terminal" : "0",
      "latitude" : "24.15528",
      "inDis" : "50",
      "routeId" : "132",
      "seqNo" : "17"
   },
   {
      "GoBack" : "1",
      "longitude" : "120.68578",
      "outDis" : "50",
      "Id" : "0047",
      "oid" : "7185",
      "districtId" : "1",
      "nameZh" : "一心市場",
      "pgp" : "0",
      "terminal" : "0",
      "latitude" : "24.1541",
      "inDis" : "50",
      "routeId" : "132",
      "seqNo" : "18"
   },
   {
      "GoBack" : "1",
      "longitude" : "120.68501",
      "outDis" : "50",
      "Id" : "0046",
      "oid" : "7251",
      "districtId" : "1",
      "nameZh" : "中友百貨",
      "pgp" : "0",
      "terminal" : "0",
      "latitude" : "24.15217",
      "inDis" : "50",
      "routeId" : "132",
      "seqNo" : "19"
   },
   {
      "GoBack" : "1",
      "longitude" : "120.68372",
      "outDis" : "50",
      "Id" : "0045",
      "oid" : "7354",
      "districtId" : "1",
      "nameZh" : "國立臺中科技大學",
      "pgp" : "0",
      "terminal" : "0",
      "latitude" : "24.14893",
      "inDis" : "50",
      "routeId" : "132",
      "seqNo" : "20"
   },
   {
      "GoBack" : "1",
      "longitude" : "120.68212",
      "outDis" : "50",
      "Id" : "4543",
      "oid" : "7313",
      "districtId" : "1",
      "nameZh" : "臺中公園(三民路)",
      "pgp" : "0",
      "terminal" : "0",
      "latitude" : "24.14507",
      "inDis" : "50",
      "routeId" : "132",
      "seqNo" : "21"
   },
   {
      "GoBack" : "1",
      "longitude" : "120.68111",
      "outDis" : "50",
      "Id" : "5506",
      "oid" : "7056",
      "districtId" : "1",
      "nameZh" : "光復國小(三民路)",
      "pgp" : "0",
      "terminal" : "0",
      "latitude" : "24.14397",
      "inDis" : "50",
      "routeId" : "132",
      "seqNo" : "22"
   },
   {
      "GoBack" : "1",
      "longitude" : "120.67977",
      "outDis" : "50",
      "Id" : "4609",
      "oid" : "3706",
      "districtId" : "1",
      "nameZh" : "第二市場(三民路)",
      "pgp" : "0",
      "terminal" : "0",
      "latitude" : "24.14267",
      "inDis" : "50",
      "routeId" : "132",
      "seqNo" : "23"
   },
   {
      "GoBack" : "1",
      "longitude" : "120.67838",
      "outDis" : "50",
      "Id" : "5026",
      "oid" : "309504377",
      "districtId" : "1",
      "nameZh" : "美榮藥局",
      "pgp" : "0",
      "terminal" : "0",
      "latitude" : "24.14131",
      "inDis" : "50",
      "routeId" : "132",
      "seqNo" : "24"
   },
   {
      "GoBack" : "1",
      "longitude" : "120.67848",
      "outDis" : "50",
      "Id" : "4416",
      "oid" : "6DA05825CE704FBB9B2BF69FECA70245",
      "districtId" : "1",
      "nameZh" : "臺中州廳",
      "pgp" : "0",
      "terminal" : "0",
      "latitude" : "24.1391",
      "inDis" : "50",
      "routeId" : "132",
      "seqNo" : "25"
   },
   {
      "GoBack" : "1",
      "longitude" : "120.68043",
      "outDis" : "50",
      "Id" : "0215",
      "oid" : "8159",
      "districtId" : "1",
      "nameZh" : "合作金庫",
      "pgp" : "0",
      "terminal" : "0",
      "latitude" : "24.13835",
      "inDis" : "50",
      "routeId" : "132",
      "seqNo" : "26"
   },
   {
      "GoBack" : "1",
      "longitude" : "120.68183",
      "outDis" : "50",
      "Id" : "0216",
      "oid" : "7548",
      "districtId" : "1",
      "nameZh" : "彰化銀行(自由路)",
      "pgp" : "0",
      "terminal" : "0",
      "latitude" : "24.13972",
      "inDis" : "50",
      "routeId" : "132",
      "seqNo" : "27"
   },
   {
      "GoBack" : "1",
      "longitude" : "120.6846",
      "outDis" : "50",
      "Id" : "1824",
      "oid" : "7358",
      "districtId" : "1",
      "nameZh" : "臺中火車站",
      "pgp" : "0",
      "terminal" : "0",
      "latitude" : "24.13726",
      "inDis" : "50",
      "routeId" : "132",
      "seqNo" : "28"
   },
   {
      "GoBack" : "1",
      "longitude" : "120.68392",
      "outDis" : "50",
      "Id" : "0049",
      "oid" : "7448",
      "districtId" : "1",
      "nameZh" : "第三市場(臺中家商)",
      "pgp" : "0",
      "terminal" : "0",
      "latitude" : "24.13256",
      "inDis" : "50",
      "routeId" : "132",
      "seqNo" : "29"
   },
   {
      "GoBack" : "1",
      "longitude" : "120.68502",
      "outDis" : "50",
      "Id" : "0257",
      "oid" : "7005",
      "districtId" : "1",
      "nameZh" : "臺中國小",
      "pgp" : "0",
      "terminal" : "0",
      "latitude" : "24.13026",
      "inDis" : "50",
      "routeId" : "132",
      "seqNo" : "30"
   },
   {
      "GoBack" : "1",
      "longitude" : "120.68465",
      "outDis" : "50",
      "Id" : "5607",
      "oid" : "7004",
      "districtId" : "1",
      "nameZh" : "興大附農(臺中路)",
      "pgp" : "0",
      "terminal" : "0",
      "latitude" : "24.12803",
      "inDis" : "50",
      "routeId" : "132",
      "seqNo" : "31"
   },
   {
      "GoBack" : "1",
      "longitude" : "120.68404",
      "outDis" : "50",
      "Id" : "0255",
      "oid" : "7153",
      "districtId" : "1",
      "nameZh" : "南門仔",
      "pgp" : "0",
      "terminal" : "0",
      "latitude" : "24.12545",
      "inDis" : "50",
      "routeId" : "132",
      "seqNo" : "32"
   },
   {
      "GoBack" : "1",
      "longitude" : "120.6843",
      "outDis" : "50",
      "Id" : "5112",
      "oid" : "7118",
      "districtId" : "1",
      "nameZh" : "明德高中(臺中路)",
      "pgp" : "0",
      "terminal" : "0",
      "latitude" : "24.12292",
      "inDis" : "50",
      "routeId" : "132",
      "seqNo" : "33"
   },
   {
      "GoBack" : "1",
      "longitude" : "120.68664",
      "outDis" : "50",
      "Id" : "2591",
      "oid" : "7156",
      "districtId" : "1",
      "nameZh" : "南門橋頭",
      "pgp" : "0",
      "terminal" : "0",
      "latitude" : "24.1212",
      "inDis" : "50",
      "routeId" : "132",
      "seqNo" : "34"
   },
   {
      "GoBack" : "1",
      "longitude" : "120.68957",
      "outDis" : "50",
      "Id" : "3281",
      "oid" : "7493",
      "districtId" : "1",
      "nameZh" : "菸葉廠",
      "pgp" : "0",
      "terminal" : "0",
      "latitude" : "24.11794",
      "inDis" : "50",
      "routeId" : "132",
      "seqNo" : "35"
   },
   {
      "GoBack" : "1",
      "longitude" : "120.68958",
      "outDis" : "50",
      "Id" : "3280",
      "oid" : "7490",
      "districtId" : "1",
      "nameZh" : "菩提醫院",
      "pgp" : "0",
      "terminal" : "0",
      "latitude" : "24.11508",
      "inDis" : "50",
      "routeId" : "132",
      "seqNo" : "36"
   },
   {
      "GoBack" : "1",
      "longitude" : "120.68974",
      "outDis" : "50",
      "Id" : "5485",
      "oid" : "314655296",
      "districtId" : "1",
      "nameZh" : "中興內新街口",
      "pgp" : "0",
      "terminal" : "0",
      "latitude" : "24.11408",
      "inDis" : "50",
      "routeId" : "132",
      "seqNo" : "37"
   },
   {
      "GoBack" : "1",
      "longitude" : "120.68986",
      "outDis" : "50",
      "Id" : "2691",
      "oid" : "7173",
      "districtId" : "1",
      "nameZh" : "省農會",
      "pgp" : "0",
      "terminal" : "0",
      "latitude" : "24.1125",
      "inDis" : "50",
      "routeId" : "132",
      "seqNo" : "38"
   },
   {
      "GoBack" : "1",
      "longitude" : "120.68993",
      "outDis" : "50",
      "Id" : "1576",
      "oid" : "7298",
      "districtId" : "1",
      "nameZh" : "內新市場",
      "pgp" : "0",
      "terminal" : "0",
      "latitude" : "24.11107",
      "inDis" : "50",
      "routeId" : "132",
      "seqNo" : "39"
   },
   {
      "GoBack" : "1",
      "longitude" : "120.69003",
      "outDis" : "50",
      "Id" : "1363",
      "oid" : "7237",
      "districtId" : "1",
      "nameZh" : "中興大里路口",
      "pgp" : "0",
      "terminal" : "0",
      "latitude" : "24.10863",
      "inDis" : "50",
      "routeId" : "132",
      "seqNo" : "40"
   },
   {
      "GoBack" : "1",
      "longitude" : "120.68941",
      "outDis" : "50",
      "Id" : "2026",
      "oid" : "7054",
      "districtId" : "1",
      "nameZh" : "立人高中",
      "pgp" : "0",
      "terminal" : "0",
      "latitude" : "24.10584",
      "inDis" : "50",
      "routeId" : "132",
      "seqNo" : "41"
   },
   {
      "GoBack" : "1",
      "longitude" : "120.68864",
      "outDis" : "50",
      "Id" : "1126",
      "oid" : "7202",
      "districtId" : "1",
      "nameZh" : "下內新",
      "pgp" : "0",
      "terminal" : "0",
      "latitude" : "24.10257",
      "inDis" : "50",
      "routeId" : "132",
      "seqNo" : "42"
   },
   {
      "GoBack" : "1",
      "longitude" : "120.68782",
      "outDis" : "50",
      "Id" : "5616",
      "oid" : "317119909",
      "districtId" : "1",
      "nameZh" : "兒童藝術館(勝利二路)",
      "pgp" : "0",
      "terminal" : "0",
      "latitude" : "24.1003",
      "inDis" : "50",
      "routeId" : "132",
      "seqNo" : "43"
   },
   {
      "GoBack" : "1",
      "longitude" : "120.68301",
      "outDis" : "50",
      "Id" : "4823",
      "oid" : "310655195",
      "districtId" : "1",
      "nameZh" : "大里國光路口",
      "pgp" : "0",
      "terminal" : "0",
      "latitude" : "24.10057",
      "inDis" : "50",
      "routeId" : "132",
      "seqNo" : "44"
   },
   {
      "GoBack" : "1",
      "longitude" : "120.67943",
      "outDis" : "50",
      "Id" : "4920",
      "oid" : "309153573",
      "districtId" : "1",
      "nameZh" : "大里區公所",
      "pgp" : "0",
      "terminal" : "0",
      "latitude" : "24.09934",
      "inDis" : "50",
      "routeId" : "132",
      "seqNo" : "45"
   },
   {
      "GoBack" : "1",
      "longitude" : "120.6792",
      "outDis" : "50",
      "Id" : "4921",
      "oid" : "308835167",
      "districtId" : "1",
      "nameZh" : "東里國中路口",
      "pgp" : "0",
      "terminal" : "0",
      "latitude" : "24.09567",
      "inDis" : "50",
      "routeId" : "132",
      "seqNo" : "46"
   },
   {
      "GoBack" : "1",
      "longitude" : "120.68046",
      "outDis" : "50",
      "Id" : "4922",
      "oid" : "309153575",
      "districtId" : "1",
      "nameZh" : "市立大里高中",
      "pgp" : "0",
      "terminal" : "0",
      "latitude" : "24.09573",
      "inDis" : "50",
      "routeId" : "132",
      "seqNo" : "47"
   },
   {
      "GoBack" : "1",
      "longitude" : "120.68171",
      "outDis" : "50",
      "Id" : "4923",
      "oid" : "309153576",
      "districtId" : "1",
      "nameZh" : "台電大里服務所",
      "pgp" : "0",
      "terminal" : "0",
      "latitude" : "24.09608",
      "inDis" : "50",
      "routeId" : "132",
      "seqNo" : "48"
   },
   {
      "GoBack" : "1",
      "longitude" : "120.68529",
      "outDis" : "50",
      "Id" : "5087",
      "oid" : "7225",
      "districtId" : "1",
      "nameZh" : "大突寮(國中路)",
      "pgp" : "0",
      "terminal" : "0",
      "latitude" : "24.09539",
      "inDis" : "50",
      "routeId" : "132",
      "seqNo" : "49"
   },
   {
      "GoBack" : "1",
      "longitude" : "120.69146",
      "outDis" : "50",
      "Id" : "4661",
      "oid" : "7291",
      "districtId" : "1",
      "nameZh" : "中興仁化路口",
      "pgp" : "0",
      "terminal" : "0",
      "latitude" : "24.09192",
      "inDis" : "50",
      "routeId" : "132",
      "seqNo" : "50"
   },
   {
      "GoBack" : "1",
      "longitude" : "120.69371",
      "outDis" : "50",
      "Id" : "4286",
      "oid" : "7143",
      "districtId" : "1",
      "nameZh" : "青年高中",
      "pgp" : "0",
      "terminal" : "0",
      "latitude" : "24.08994",
      "inDis" : "50",
      "routeId" : "132",
      "seqNo" : "51"
   },
   {
      "GoBack" : "1",
      "longitude" : "120.69597",
      "outDis" : "50",
      "Id" : "4253",
      "oid" : "7170",
      "districtId" : "1",
      "nameZh" : "大里圖書館(中興路)",
      "pgp" : "0",
      "terminal" : "0",
      "latitude" : "24.08754",
      "inDis" : "50",
      "routeId" : "132",
      "seqNo" : "52"
   },
   {
      "GoBack" : "1",
      "longitude" : "120.69707",
      "outDis" : "50",
      "Id" : "2866",
      "oid" : "7383",
      "districtId" : "1",
      "nameZh" : "草湖",
      "pgp" : "0",
      "terminal" : "0",
      "latitude" : "24.08409",
      "inDis" : "50",
      "routeId" : "132",
      "seqNo" : "53"
   },
   {
      "GoBack" : "1",
      "longitude" : "120.69827",
      "outDis" : "50",
      "Id" : "4349",
      "oid" : "7386",
      "districtId" : "1",
      "nameZh" : "中興東南路口",
      "pgp" : "0",
      "terminal" : "0",
      "latitude" : "24.08061",
      "inDis" : "50",
      "routeId" : "132",
      "seqNo" : "54"
   },
   {
      "GoBack" : "1",
      "longitude" : "120.69987",
      "outDis" : "50",
      "Id" : "2062",
      "oid" : "7065",
      "districtId" : "1",
      "nameZh" : "中正吉峰路口",
      "pgp" : "0",
      "terminal" : "0",
      "latitude" : "24.07597",
      "inDis" : "50",
      "routeId" : "132",
      "seqNo" : "55"
   },
   {
      "GoBack" : "1",
      "longitude" : "120.70073",
      "outDis" : "50",
      "Id" : "3973",
      "oid" : "7628",
      "districtId" : "1",
      "nameZh" : "霧峰分局",
      "pgp" : "0",
      "terminal" : "0",
      "latitude" : "24.07573",
      "inDis" : "50",
      "routeId" : "132",
      "seqNo" : "56"
   },
   {
      "GoBack" : "1",
      "longitude" : "120.70709",
      "outDis" : "50",
      "Id" : "1944",
      "oid" : "7044",
      "districtId" : "1",
      "nameZh" : "全陽社區",
      "pgp" : "0",
      "terminal" : "0",
      "latitude" : "24.07648",
      "inDis" : "50",
      "routeId" : "132",
      "seqNo" : "57"
   },
   {
      "GoBack" : "1",
      "longitude" : "120.71098",
      "outDis" : "50",
      "Id" : "2061",
      "oid" : "7064",
      "districtId" : "1",
      "nameZh" : "吉峰社區",
      "pgp" : "0",
      "terminal" : "0",
      "latitude" : "24.07694",
      "inDis" : "50",
      "routeId" : "132",
      "seqNo" : "58"
   },
   {
      "GoBack" : "1",
      "longitude" : "120.71508",
      "outDis" : "50",
      "Id" : "1844",
      "oid" : "7015",
      "districtId" : "1",
      "nameZh" : "台影文化城",
      "pgp" : "0",
      "terminal" : "0",
      "latitude" : "24.07707",
      "inDis" : "50",
      "routeId" : "132",
      "seqNo" : "59"
   },
   {
      "GoBack" : "1",
      "longitude" : "120.71533",
      "outDis" : "50",
      "Id" : "2059",
      "oid" : "7061",
      "districtId" : "1",
      "nameZh" : "吉峰里",
      "pgp" : "0",
      "terminal" : "0",
      "latitude" : "24.07632",
      "inDis" : "50",
      "routeId" : "132",
      "seqNo" : "60"
   },
   {
      "GoBack" : "1",
      "longitude" : "120.71458",
      "outDis" : "50",
      "Id" : "2060",
      "oid" : "7063",
      "districtId" : "1",
      "nameZh" : "吉峰東路口",
      "pgp" : "0",
      "terminal" : "0",
      "latitude" : "24.07505",
      "inDis" : "50",
      "routeId" : "132",
      "seqNo" : "61"
   },
   {
      "GoBack" : "1",
      "longitude" : "120.71551",
      "outDis" : "50",
      "Id" : "3246",
      "oid" : "7481",
      "districtId" : "1",
      "nameZh" : "朝陽科技大學",
      "pgp" : "0",
      "terminal" : "0",
      "latitude" : "24.07041",
      "inDis" : "50",
      "routeId" : "132",
      "seqNo" : "62"
   },
   {
      "GoBack" : "2",
      "longitude" : "120.71551",
      "outDis" : "50",
      "Id" : "3246",
      "oid" : "247271488",
      "districtId" : "1",
      "nameZh" : "朝陽科技大學",
      "pgp" : "0",
      "terminal" : "0",
      "latitude" : "24.07041",
      "inDis" : "50",
      "routeId" : "132",
      "seqNo" : "1"
   },
   {
      "GoBack" : "2",
      "longitude" : "120.71455",
      "outDis" : "50",
      "Id" : "2060",
      "oid" : "7062",
      "districtId" : "1",
      "nameZh" : "吉峰東路口",
      "pgp" : "0",
      "terminal" : "0",
      "latitude" : "24.07503",
      "inDis" : "50",
      "routeId" : "132",
      "seqNo" : "2"
   },
   {
      "GoBack" : "2",
      "longitude" : "120.71533",
      "outDis" : "50",
      "Id" : "2059",
      "oid" : "7061",
      "districtId" : "1",
      "nameZh" : "吉峰里",
      "pgp" : "0",
      "terminal" : "0",
      "latitude" : "24.07632",
      "inDis" : "50",
      "routeId" : "132",
      "seqNo" : "3"
   },
   {
      "GoBack" : "2",
      "longitude" : "120.71483",
      "outDis" : "50",
      "Id" : "1844",
      "oid" : "7016",
      "districtId" : "1",
      "nameZh" : "台影文化城",
      "pgp" : "0",
      "terminal" : "0",
      "latitude" : "24.07721",
      "inDis" : "50",
      "routeId" : "132",
      "seqNo" : "4"
   },
   {
      "GoBack" : "2",
      "longitude" : "120.71098",
      "outDis" : "50",
      "Id" : "2061",
      "oid" : "7064",
      "districtId" : "1",
      "nameZh" : "吉峰社區",
      "pgp" : "0",
      "terminal" : "0",
      "latitude" : "24.07694",
      "inDis" : "50",
      "routeId" : "132",
      "seqNo" : "5"
   },
   {
      "GoBack" : "2",
      "longitude" : "120.7073",
      "outDis" : "50",
      "Id" : "1944",
      "oid" : "7043",
      "districtId" : "1",
      "nameZh" : "全陽社區",
      "pgp" : "0",
      "terminal" : "0",
      "latitude" : "24.07648",
      "inDis" : "50",
      "routeId" : "132",
      "seqNo" : "6"
   },
   {
      "GoBack" : "2",
      "longitude" : "120.70073",
      "outDis" : "50",
      "Id" : "3973",
      "oid" : "7628",
      "districtId" : "1",
      "nameZh" : "霧峰分局",
      "pgp" : "0",
      "terminal" : "0",
      "latitude" : "24.07573",
      "inDis" : "50",
      "routeId" : "132",
      "seqNo" : "7"
   },
   {
      "GoBack" : "2",
      "longitude" : "120.69987",
      "outDis" : "50",
      "Id" : "2062",
      "oid" : "7065",
      "districtId" : "1",
      "nameZh" : "中正吉峰路口",
      "pgp" : "0",
      "terminal" : "0",
      "latitude" : "24.07597",
      "inDis" : "50",
      "routeId" : "132",
      "seqNo" : "8"
   },
   {
      "GoBack" : "2",
      "longitude" : "120.69827",
      "outDis" : "50",
      "Id" : "4349",
      "oid" : "7386",
      "districtId" : "1",
      "nameZh" : "中興東南路口",
      "pgp" : "0",
      "terminal" : "0",
      "latitude" : "24.08061",
      "inDis" : "50",
      "routeId" : "132",
      "seqNo" : "9"
   },
   {
      "GoBack" : "2",
      "longitude" : "120.69707",
      "outDis" : "50",
      "Id" : "2866",
      "oid" : "7383",
      "districtId" : "1",
      "nameZh" : "草湖",
      "pgp" : "0",
      "terminal" : "0",
      "latitude" : "24.08409",
      "inDis" : "50",
      "routeId" : "132",
      "seqNo" : "10"
   },
   {
      "GoBack" : "2",
      "longitude" : "120.69635",
      "outDis" : "50",
      "Id" : "5034",
      "oid" : "309557183",
      "districtId" : "1",
      "nameZh" : "財政部印刷廠",
      "pgp" : "0",
      "terminal" : "0",
      "latitude" : "24.08663",
      "inDis" : "50",
      "routeId" : "132",
      "seqNo" : "11"
   },
   {
      "GoBack" : "2",
      "longitude" : "120.6954",
      "outDis" : "50",
      "Id" : "4253",
      "oid" : "7169",
      "districtId" : "1",
      "nameZh" : "大里圖書館(中興路)",
      "pgp" : "0",
      "terminal" : "0",
      "latitude" : "24.08862",
      "inDis" : "50",
      "routeId" : "132",
      "seqNo" : "12"
   },
   {
      "GoBack" : "2",
      "longitude" : "120.69371",
      "outDis" : "50",
      "Id" : "4286",
      "oid" : "7143",
      "districtId" : "1",
      "nameZh" : "青年高中",
      "pgp" : "0",
      "terminal" : "0",
      "latitude" : "24.08994",
      "inDis" : "50",
      "routeId" : "132",
      "seqNo" : "13"
   },
   {
      "GoBack" : "2",
      "longitude" : "120.69194",
      "outDis" : "50",
      "Id" : "4661",
      "oid" : "7292",
      "districtId" : "1",
      "nameZh" : "中興仁化路口",
      "pgp" : "0",
      "terminal" : "0",
      "latitude" : "24.09168",
      "inDis" : "50",
      "routeId" : "132",
      "seqNo" : "14"
   },
   {
      "GoBack" : "2",
      "longitude" : "120.68529",
      "outDis" : "50",
      "Id" : "5087",
      "oid" : "7225",
      "districtId" : "1",
      "nameZh" : "大突寮(國中路)",
      "pgp" : "0",
      "terminal" : "0",
      "latitude" : "24.09539",
      "inDis" : "50",
      "routeId" : "132",
      "seqNo" : "15"
   },
   {
      "GoBack" : "2",
      "longitude" : "120.68171",
      "outDis" : "50",
      "Id" : "4923",
      "oid" : "309153577",
      "districtId" : "1",
      "nameZh" : "台電大里服務所",
      "pgp" : "0",
      "terminal" : "0",
      "latitude" : "24.09608",
      "inDis" : "50",
      "routeId" : "132",
      "seqNo" : "16"
   },
   {
      "GoBack" : "2",
      "longitude" : "120.68046",
      "outDis" : "50",
      "Id" : "4922",
      "oid" : "309153578",
      "districtId" : "1",
      "nameZh" : "市立大里高中",
      "pgp" : "0",
      "terminal" : "0",
      "latitude" : "24.09573",
      "inDis" : "50",
      "routeId" : "132",
      "seqNo" : "17"
   },
   {
      "GoBack" : "2",
      "longitude" : "120.6792",
      "outDis" : "50",
      "Id" : "4921",
      "oid" : "308835167",
      "districtId" : "1",
      "nameZh" : "東里國中路口",
      "pgp" : "0",
      "terminal" : "0",
      "latitude" : "24.09567",
      "inDis" : "50",
      "routeId" : "132",
      "seqNo" : "18"
   },
   {
      "GoBack" : "2",
      "longitude" : "120.67943",
      "outDis" : "50",
      "Id" : "4920",
      "oid" : "309153580",
      "districtId" : "1",
      "nameZh" : "大里區公所",
      "pgp" : "0",
      "terminal" : "0",
      "latitude" : "24.09934",
      "inDis" : "50",
      "routeId" : "132",
      "seqNo" : "19"
   },
   {
      "GoBack" : "2",
      "longitude" : "120.68301",
      "outDis" : "50",
      "Id" : "4823",
      "oid" : "310655195",
      "districtId" : "1",
      "nameZh" : "大里國光路口",
      "pgp" : "0",
      "terminal" : "0",
      "latitude" : "24.10057",
      "inDis" : "50",
      "routeId" : "132",
      "seqNo" : "20"
   },
   {
      "GoBack" : "2",
      "longitude" : "120.68782",
      "outDis" : "50",
      "Id" : "5616",
      "oid" : "317119909",
      "districtId" : "1",
      "nameZh" : "兒童藝術館(勝利二路)",
      "pgp" : "0",
      "terminal" : "0",
      "latitude" : "24.1003",
      "inDis" : "50",
      "routeId" : "132",
      "seqNo" : "21"
   },
   {
      "GoBack" : "2",
      "longitude" : "120.68864",
      "outDis" : "50",
      "Id" : "1126",
      "oid" : "7202",
      "districtId" : "1",
      "nameZh" : "下內新",
      "pgp" : "0",
      "terminal" : "0",
      "latitude" : "24.10257",
      "inDis" : "50",
      "routeId" : "132",
      "seqNo" : "22"
   },
   {
      "GoBack" : "2",
      "longitude" : "120.68941",
      "outDis" : "50",
      "Id" : "2026",
      "oid" : "7054",
      "districtId" : "1",
      "nameZh" : "立人高中",
      "pgp" : "0",
      "terminal" : "0",
      "latitude" : "24.10584",
      "inDis" : "50",
      "routeId" : "132",
      "seqNo" : "23"
   },
   {
      "GoBack" : "2",
      "longitude" : "120.69003",
      "outDis" : "50",
      "Id" : "1363",
      "oid" : "7237",
      "districtId" : "1",
      "nameZh" : "中興大里路口",
      "pgp" : "0",
      "terminal" : "0",
      "latitude" : "24.10863",
      "inDis" : "50",
      "routeId" : "132",
      "seqNo" : "24"
   },
   {
      "GoBack" : "2",
      "longitude" : "120.68993",
      "outDis" : "50",
      "Id" : "1576",
      "oid" : "7298",
      "districtId" : "1",
      "nameZh" : "內新市場",
      "pgp" : "0",
      "terminal" : "0",
      "latitude" : "24.11107",
      "inDis" : "50",
      "routeId" : "132",
      "seqNo" : "25"
   },
   {
      "GoBack" : "2",
      "longitude" : "120.68986",
      "outDis" : "50",
      "Id" : "2691",
      "oid" : "7173",
      "districtId" : "1",
      "nameZh" : "省農會",
      "pgp" : "0",
      "terminal" : "0",
      "latitude" : "24.1125",
      "inDis" : "50",
      "routeId" : "132",
      "seqNo" : "26"
   },
   {
      "GoBack" : "2",
      "longitude" : "120.68974",
      "outDis" : "50",
      "Id" : "5485",
      "oid" : "314655296",
      "districtId" : "1",
      "nameZh" : "中興內新街口",
      "pgp" : "0",
      "terminal" : "0",
      "latitude" : "24.11408",
      "inDis" : "50",
      "routeId" : "132",
      "seqNo" : "27"
   },
   {
      "GoBack" : "2",
      "longitude" : "120.68958",
      "outDis" : "50",
      "Id" : "3280",
      "oid" : "7490",
      "districtId" : "1",
      "nameZh" : "菩提醫院",
      "pgp" : "0",
      "terminal" : "0",
      "latitude" : "24.11508",
      "inDis" : "50",
      "routeId" : "132",
      "seqNo" : "28"
   },
   {
      "GoBack" : "2",
      "longitude" : "120.68957",
      "outDis" : "50",
      "Id" : "3281",
      "oid" : "7493",
      "districtId" : "1",
      "nameZh" : "菸葉廠",
      "pgp" : "0",
      "terminal" : "0",
      "latitude" : "24.11794",
      "inDis" : "50",
      "routeId" : "132",
      "seqNo" : "29"
   },
   {
      "GoBack" : "2",
      "longitude" : "120.68664",
      "outDis" : "50",
      "Id" : "2591",
      "oid" : "7156",
      "districtId" : "1",
      "nameZh" : "南門橋頭",
      "pgp" : "0",
      "terminal" : "0",
      "latitude" : "24.1212",
      "inDis" : "50",
      "routeId" : "132",
      "seqNo" : "30"
   },
   {
      "GoBack" : "2",
      "longitude" : "120.6843",
      "outDis" : "50",
      "Id" : "5112",
      "oid" : "7118",
      "districtId" : "1",
      "nameZh" : "明德高中(臺中路)",
      "pgp" : "0",
      "terminal" : "0",
      "latitude" : "24.12292",
      "inDis" : "50",
      "routeId" : "132",
      "seqNo" : "31"
   },
   {
      "GoBack" : "2",
      "longitude" : "120.68404",
      "outDis" : "50",
      "Id" : "0255",
      "oid" : "7153",
      "districtId" : "1",
      "nameZh" : "南門仔",
      "pgp" : "0",
      "terminal" : "0",
      "latitude" : "24.12545",
      "inDis" : "50",
      "routeId" : "132",
      "seqNo" : "32"
   },
   {
      "GoBack" : "2",
      "longitude" : "120.68443",
      "outDis" : "50",
      "Id" : "5607",
      "oid" : "7003",
      "districtId" : "1",
      "nameZh" : "興大附農(臺中路)",
      "pgp" : "0",
      "terminal" : "0",
      "latitude" : "24.12723",
      "inDis" : "50",
      "routeId" : "132",
      "seqNo" : "33"
   },
   {
      "GoBack" : "2",
      "longitude" : "120.68502",
      "outDis" : "50",
      "Id" : "0257",
      "oid" : "7005",
      "districtId" : "1",
      "nameZh" : "臺中國小",
      "pgp" : "0",
      "terminal" : "0",
      "latitude" : "24.13026",
      "inDis" : "50",
      "routeId" : "132",
      "seqNo" : "34"
   },
   {
      "GoBack" : "2",
      "longitude" : "120.68392",
      "outDis" : "50",
      "Id" : "0049",
      "oid" : "7448",
      "districtId" : "1",
      "nameZh" : "第三市場(臺中家商)",
      "pgp" : "0",
      "terminal" : "0",
      "latitude" : "24.13256",
      "inDis" : "50",
      "routeId" : "132",
      "seqNo" : "35"
   },
   {
      "GoBack" : "2",
      "longitude" : "120.68328",
      "outDis" : "50",
      "Id" : "5595",
      "oid" : "317773393",
      "districtId" : "1",
      "nameZh" : "綠川西站(臺灣大道口)",
      "pgp" : "0",
      "terminal" : "0",
      "latitude" : "24.13815",
      "inDis" : "50",
      "routeId" : "132",
      "seqNo" : "36"
   },
   {
      "GoBack" : "2",
      "longitude" : "120.68358",
      "outDis" : "50",
      "Id" : "0151",
      "oid" : "7436",
      "districtId" : "1",
      "nameZh" : "第一廣場",
      "pgp" : "0",
      "terminal" : "0",
      "latitude" : "24.13897",
      "inDis" : "50",
      "routeId" : "132",
      "seqNo" : "37"
   },
   {
      "GoBack" : "2",
      "longitude" : "120.68202",
      "outDis" : "50",
      "Id" : "0206",
      "oid" : "7432",
      "districtId" : "1",
      "nameZh" : "第一信用",
      "pgp" : "0",
      "terminal" : "0",
      "latitude" : "24.14036",
      "inDis" : "50",
      "routeId" : "132",
      "seqNo" : "38"
   },
   {
      "GoBack" : "2",
      "longitude" : "120.68003",
      "outDis" : "50",
      "Id" : "4395",
      "oid" : "7440",
      "districtId" : "1",
      "nameZh" : "第二市場(臺灣大道)",
      "pgp" : "0",
      "terminal" : "0",
      "latitude" : "24.14213",
      "inDis" : "50",
      "routeId" : "132",
      "seqNo" : "39"
   },
   {
      "GoBack" : "2",
      "longitude" : "120.67975",
      "outDis" : "50",
      "Id" : "0424",
      "oid" : "EDC2C78FD9244587812F3CFAE1E378C5",
      "districtId" : "1",
      "nameZh" : "中區公所(興中街)",
      "pgp" : "0",
      "terminal" : "0",
      "latitude" : "24.14437",
      "inDis" : "50",
      "routeId" : "132",
      "seqNo" : "40"
   },
   {
      "GoBack" : "2",
      "longitude" : "120.68243",
      "outDis" : "50",
      "Id" : "4543",
      "oid" : "7315",
      "districtId" : "1",
      "nameZh" : "臺中公園(三民路)",
      "pgp" : "0",
      "terminal" : "0",
      "latitude" : "24.14584",
      "inDis" : "50",
      "routeId" : "132",
      "seqNo" : "41"
   },
   {
      "GoBack" : "2",
      "longitude" : "120.68393",
      "outDis" : "50",
      "Id" : "0045",
      "oid" : "7356",
      "districtId" : "1",
      "nameZh" : "國立臺中科技大學",
      "pgp" : "0",
      "terminal" : "0",
      "latitude" : "24.14961",
      "inDis" : "50",
      "routeId" : "132",
      "seqNo" : "42"
   },
   {
      "GoBack" : "2",
      "longitude" : "120.68501",
      "outDis" : "50",
      "Id" : "0046",
      "oid" : "7251",
      "districtId" : "1",
      "nameZh" : "中友百貨",
      "pgp" : "0",
      "terminal" : "0",
      "latitude" : "24.15217",
      "inDis" : "50",
      "routeId" : "132",
      "seqNo" : "43"
   },
   {
      "GoBack" : "2",
      "longitude" : "120.68578",
      "outDis" : "50",
      "Id" : "0047",
      "oid" : "7185",
      "districtId" : "1",
      "nameZh" : "一心市場",
      "pgp" : "0",
      "terminal" : "0",
      "latitude" : "24.1541",
      "inDis" : "50",
      "routeId" : "132",
      "seqNo" : "44"
   },
   {
      "GoBack" : "2",
      "longitude" : "120.6871",
      "outDis" : "50",
      "Id" : "0934",
      "oid" : "A369F80BD1F74F92A75B79E3B1367FC9",
      "districtId" : "1",
      "nameZh" : "三民錦中街口",
      "pgp" : "0",
      "terminal" : "0",
      "latitude" : "24.15556",
      "inDis" : "50",
      "routeId" : "132",
      "seqNo" : "45"
   },
   {
      "GoBack" : "2",
      "longitude" : "120.68794",
      "outDis" : "50",
      "Id" : "4399",
      "oid" : "7509",
      "districtId" : "1",
      "nameZh" : "新民高中(三民路)",
      "pgp" : "0",
      "terminal" : "0",
      "latitude" : "24.15622",
      "inDis" : "50",
      "routeId" : "132",
      "seqNo" : "46"
   },
   {
      "GoBack" : "2",
      "longitude" : "120.6899",
      "outDis" : "50",
      "Id" : "0960",
      "oid" : "7634",
      "districtId" : "1",
      "nameZh" : "寶覺寺",
      "pgp" : "0",
      "terminal" : "0",
      "latitude" : "24.15792",
      "inDis" : "50",
      "routeId" : "132",
      "seqNo" : "47"
   },
   {
      "GoBack" : "2",
      "longitude" : "120.69207",
      "outDis" : "50",
      "Id" : "0892",
      "oid" : "7557",
      "districtId" : "1",
      "nameZh" : "監理站",
      "pgp" : "0",
      "terminal" : "0",
      "latitude" : "24.16101",
      "inDis" : "50",
      "routeId" : "132",
      "seqNo" : "48"
   },
   {
      "GoBack" : "2",
      "longitude" : "120.69194",
      "outDis" : "50",
      "Id" : "5515",
      "oid" : "315467329",
      "districtId" : "1",
      "nameZh" : "北屯國小(進化北路)",
      "pgp" : "0",
      "terminal" : "0",
      "latitude" : "24.16284",
      "inDis" : "50",
      "routeId" : "132",
      "seqNo" : "49"
   },
   {
      "GoBack" : "2",
      "longitude" : "120.68986",
      "outDis" : "50",
      "Id" : "0493",
      "oid" : "12684",
      "districtId" : "1",
      "nameZh" : "北屯市場",
      "pgp" : "0",
      "terminal" : "0",
      "latitude" : "24.16306",
      "inDis" : "50",
      "routeId" : "132",
      "seqNo" : "50"
   },
   {
      "GoBack" : "2",
      "longitude" : "120.68773",
      "outDis" : "50",
      "Id" : "0830",
      "oid" : "7488",
      "districtId" : "1",
      "nameZh" : "稅務新村",
      "pgp" : "0",
      "terminal" : "0",
      "latitude" : "24.16303",
      "inDis" : "50",
      "routeId" : "132",
      "seqNo" : "51"
   },
   {
      "GoBack" : "2",
      "longitude" : "120.68631",
      "outDis" : "50",
      "Id" : "0800",
      "oid" : "12724",
      "districtId" : "1",
      "nameZh" : "頂厝里",
      "pgp" : "0",
      "terminal" : "0",
      "latitude" : "24.16313",
      "inDis" : "50",
      "routeId" : "132",
      "seqNo" : "52"
   },
   {
      "GoBack" : "2",
      "longitude" : "120.68497",
      "outDis" : "50",
      "Id" : "0098",
      "oid" : "7404",
      "districtId" : "1",
      "nameZh" : "崇德橋",
      "pgp" : "0",
      "terminal" : "0",
      "latitude" : "24.16411",
      "inDis" : "50",
      "routeId" : "132",
      "seqNo" : "53"
   },
   {
      "GoBack" : "2",
      "longitude" : "120.68498",
      "outDis" : "50",
      "Id" : "3511",
      "oid" : "7536",
      "districtId" : "1",
      "nameZh" : "聖德禪寺",
      "pgp" : "0",
      "terminal" : "0",
      "latitude" : "24.16793",
      "inDis" : "50",
      "routeId" : "132",
      "seqNo" : "54"
   },
   {
      "GoBack" : "2",
      "longitude" : "120.68522",
      "outDis" : "50",
      "Id" : "1768",
      "oid" : "7342",
      "districtId" : "1",
      "nameZh" : "崇德北平路口",
      "pgp" : "0",
      "terminal" : "0",
      "latitude" : "24.17051",
      "inDis" : "50",
      "routeId" : "132",
      "seqNo" : "55"
   },
   {
      "GoBack" : "2",
      "longitude" : "120.6855",
      "outDis" : "50",
      "Id" : "4339",
      "oid" : "A7E6C8A38F884A5FA47067DB88E6906B",
      "districtId" : "1",
      "nameZh" : "崇德文心路口",
      "pgp" : "0",
      "terminal" : "0",
      "latitude" : "24.1717",
      "inDis" : "50",
      "routeId" : "132",
      "seqNo" : "56"
   },
   {
      "GoBack" : "2",
      "longitude" : "120.68544",
      "outDis" : "50",
      "Id" : "0199",
      "oid" : "7402",
      "districtId" : "1",
      "nameZh" : "崇德瀋陽路口",
      "pgp" : "0",
      "terminal" : "0",
      "latitude" : "24.1732",
      "inDis" : "50",
      "routeId" : "132",
      "seqNo" : "57"
   },
   {
      "GoBack" : "2",
      "longitude" : "120.6856",
      "outDis" : "50",
      "Id" : "5131",
      "oid" : "306661878",
      "districtId" : "1",
      "nameZh" : "崇德國中(民俗公園)",
      "pgp" : "0",
      "terminal" : "0",
      "latitude" : "24.17523",
      "inDis" : "50",
      "routeId" : "132",
      "seqNo" : "58"
   },
   {
      "GoBack" : "2",
      "longitude" : "120.68577",
      "outDis" : "50",
      "Id" : "0196",
      "oid" : "7663",
      "districtId" : "1",
      "nameZh" : "崇德一路口",
      "pgp" : "0",
      "terminal" : "0",
      "latitude" : "24.17723",
      "inDis" : "50",
      "routeId" : "132",
      "seqNo" : "59"
   },
   {
      "GoBack" : "2",
      "longitude" : "120.68588",
      "outDis" : "50",
      "Id" : "0195",
      "oid" : "12404",
      "districtId" : "1",
      "nameZh" : "崇德五路口",
      "pgp" : "0",
      "terminal" : "0",
      "latitude" : "24.17879",
      "inDis" : "50",
      "routeId" : "132",
      "seqNo" : "60"
   },
   {
      "GoBack" : "2",
      "longitude" : "120.68608",
      "outDis" : "50",
      "Id" : "5387",
      "oid" : "313288983",
      "districtId" : "1",
      "nameZh" : "崇德六路口",
      "pgp" : "0",
      "terminal" : "0",
      "latitude" : "24.18086",
      "inDis" : "50",
      "routeId" : "132",
      "seqNo" : "61"
   },
   {
      "GoBack" : "2",
      "longitude" : "120.68611",
      "outDis" : "50",
      "Id" : "0194",
      "oid" : "65B6CDF2371C4D37973B93467FC23177",
      "districtId" : "1",
      "nameZh" : "北屯區行政大樓",
      "pgp" : "0",
      "terminal" : "0",
      "latitude" : "24.1826",
      "inDis" : "50",
      "routeId" : "132",
      "seqNo" : "62"
   }
]
