[
   {
      "GoBack" : "1",
      "longitude" : "120.56103",
      "outDis" : "50",
      "Id" : "2248",
      "oid" : "7094",
      "districtId" : "1",
      "nameZh" : "沙鹿站",
      "pgp" : "0",
      "terminal" : "0",
      "latitude" : "24.23783",
      "inDis" : "50",
      "routeId" : "180",
      "seqNo" : "1"
   },
   {
      "GoBack" : "1",
      "longitude" : "120.55967",
      "outDis" : "50",
      "Id" : "4681",
      "oid" : "313348322",
      "districtId" : "1",
      "nameZh" : "沙鹿市場",
      "pgp" : "0",
      "terminal" : "0",
      "latitude" : "24.23731",
      "inDis" : "50",
      "routeId" : "180",
      "seqNo" : "2"
   },
   {
      "GoBack" : "1",
      "longitude" : "120.55923",
      "outDis" : "50",
      "Id" : "4815",
      "oid" : "313348309",
      "districtId" : "1",
      "nameZh" : "沙鹿火車站",
      "pgp" : "0",
      "terminal" : "0",
      "latitude" : "24.23612",
      "inDis" : "50",
      "routeId" : "180",
      "seqNo" : "3"
   },
   {
      "GoBack" : "1",
      "longitude" : "120.55882",
      "outDis" : "50",
      "Id" : "4816",
      "oid" : "313222697",
      "districtId" : "1",
      "nameZh" : "沙鹿光田醫院",
      "pgp" : "0",
      "terminal" : "0",
      "latitude" : "24.23492",
      "inDis" : "50",
      "routeId" : "180",
      "seqNo" : "4"
   },
   {
      "GoBack" : "1",
      "longitude" : "120.5588",
      "outDis" : "50",
      "Id" : "3809",
      "oid" : "14654",
      "districtId" : "1",
      "nameZh" : "興仁里",
      "pgp" : "0",
      "terminal" : "0",
      "latitude" : "24.23027",
      "inDis" : "50",
      "routeId" : "180",
      "seqNo" : "5"
   },
   {
      "GoBack" : "1",
      "longitude" : "120.55734",
      "outDis" : "50",
      "Id" : "1664",
      "oid" : "313575203",
      "districtId" : "1",
      "nameZh" : "文光國小",
      "pgp" : "0",
      "terminal" : "0",
      "latitude" : "24.2242",
      "inDis" : "50",
      "routeId" : "180",
      "seqNo" : "6"
   },
   {
      "GoBack" : "1",
      "longitude" : "120.55692",
      "outDis" : "50",
      "Id" : "4458",
      "oid" : "311330176",
      "districtId" : "1",
      "nameZh" : "沙田天仁街口",
      "pgp" : "0",
      "terminal" : "0",
      "latitude" : "24.22316",
      "inDis" : "50",
      "routeId" : "180",
      "seqNo" : "7"
   },
   {
      "GoBack" : "1",
      "longitude" : "120.55613",
      "outDis" : "50",
      "Id" : "2613",
      "oid" : "14656",
      "districtId" : "1",
      "nameZh" : "南勢里",
      "pgp" : "0",
      "terminal" : "0",
      "latitude" : "24.22126",
      "inDis" : "50",
      "routeId" : "180",
      "seqNo" : "8"
   },
   {
      "GoBack" : "1",
      "longitude" : "120.55287",
      "outDis" : "50",
      "Id" : "4459",
      "oid" : "14657",
      "districtId" : "1",
      "nameZh" : "沙田太平路口",
      "pgp" : "0",
      "terminal" : "0",
      "latitude" : "24.21671",
      "inDis" : "50",
      "routeId" : "180",
      "seqNo" : "9"
   },
   {
      "GoBack" : "1",
      "longitude" : "120.55164",
      "outDis" : "50",
      "Id" : "5159",
      "oid" : "313575192",
      "districtId" : "1",
      "nameZh" : "龍山國小(山腳里)",
      "pgp" : "0",
      "terminal" : "0",
      "latitude" : "24.21345",
      "inDis" : "50",
      "routeId" : "180",
      "seqNo" : "10"
   },
   {
      "GoBack" : "1",
      "longitude" : "120.55056",
      "outDis" : "50",
      "Id" : "2559",
      "oid" : "14659",
      "districtId" : "1",
      "nameZh" : "南山腳",
      "pgp" : "0",
      "terminal" : "0",
      "latitude" : "24.21022",
      "inDis" : "50",
      "routeId" : "180",
      "seqNo" : "11"
   },
   {
      "GoBack" : "1",
      "longitude" : "120.54923",
      "outDis" : "50",
      "Id" : "4010",
      "oid" : "14660",
      "districtId" : "1",
      "nameZh" : "鷺山",
      "pgp" : "0",
      "terminal" : "0",
      "latitude" : "24.20743",
      "inDis" : "50",
      "routeId" : "180",
      "seqNo" : "12"
   },
   {
      "GoBack" : "1",
      "longitude" : "120.54798",
      "outDis" : "50",
      "Id" : "3850",
      "oid" : "14661",
      "districtId" : "1",
      "nameZh" : "龍目井",
      "pgp" : "0",
      "terminal" : "0",
      "latitude" : "24.20249",
      "inDis" : "50",
      "routeId" : "180",
      "seqNo" : "13"
   },
   {
      "GoBack" : "1",
      "longitude" : "120.54693",
      "outDis" : "50",
      "Id" : "3855",
      "oid" : "14662",
      "districtId" : "1",
      "nameZh" : "龍泉",
      "pgp" : "0",
      "terminal" : "0",
      "latitude" : "24.19936",
      "inDis" : "50",
      "routeId" : "180",
      "seqNo" : "14"
   },
   {
      "GoBack" : "1",
      "longitude" : "120.54659",
      "outDis" : "50",
      "Id" : "3846",
      "oid" : "14663",
      "districtId" : "1",
      "nameZh" : "龍井火車站",
      "pgp" : "0",
      "terminal" : "0",
      "latitude" : "24.19687",
      "inDis" : "50",
      "routeId" : "180",
      "seqNo" : "15"
   },
   {
      "GoBack" : "1",
      "longitude" : "120.54608",
      "outDis" : "50",
      "Id" : "5160",
      "oid" : "14664",
      "districtId" : "1",
      "nameZh" : "龍井區公所",
      "pgp" : "0",
      "terminal" : "0",
      "latitude" : "24.19246",
      "inDis" : "50",
      "routeId" : "180",
      "seqNo" : "16"
   },
   {
      "GoBack" : "1",
      "longitude" : "120.54574",
      "outDis" : "50",
      "Id" : "3847",
      "oid" : "14665",
      "districtId" : "1",
      "nameZh" : "龍井加油站",
      "pgp" : "0",
      "terminal" : "0",
      "latitude" : "24.18898",
      "inDis" : "50",
      "routeId" : "180",
      "seqNo" : "17"
   },
   {
      "GoBack" : "1",
      "longitude" : "120.54549",
      "outDis" : "50",
      "Id" : "3853",
      "oid" : "14666",
      "districtId" : "1",
      "nameZh" : "龍崗",
      "pgp" : "0",
      "terminal" : "0",
      "latitude" : "24.18642",
      "inDis" : "50",
      "routeId" : "180",
      "seqNo" : "18"
   },
   {
      "GoBack" : "1",
      "longitude" : "120.54554",
      "outDis" : "50",
      "Id" : "3031",
      "oid" : "14667",
      "districtId" : "1",
      "nameZh" : "深水",
      "pgp" : "0",
      "terminal" : "0",
      "latitude" : "24.18257",
      "inDis" : "50",
      "routeId" : "180",
      "seqNo" : "19"
   },
   {
      "GoBack" : "1",
      "longitude" : "120.54457",
      "outDis" : "50",
      "Id" : "2242",
      "oid" : "129902015",
      "districtId" : "1",
      "nameZh" : "村內入口",
      "pgp" : "0",
      "terminal" : "0",
      "latitude" : "24.179",
      "inDis" : "50",
      "routeId" : "180",
      "seqNo" : "20"
   },
   {
      "GoBack" : "1",
      "longitude" : "120.54379",
      "outDis" : "50",
      "Id" : "2144",
      "oid" : "14669",
      "districtId" : "1",
      "nameZh" : "竹坑口",
      "pgp" : "0",
      "terminal" : "0",
      "latitude" : "24.17549",
      "inDis" : "50",
      "routeId" : "180",
      "seqNo" : "21"
   },
   {
      "GoBack" : "1",
      "longitude" : "120.54343",
      "outDis" : "50",
      "Id" : "5482",
      "oid" : "314570080",
      "districtId" : "1",
      "nameZh" : "沙田中華路口",
      "pgp" : "0",
      "terminal" : "0",
      "latitude" : "24.17399",
      "inDis" : "50",
      "routeId" : "180",
      "seqNo" : "22"
   },
   {
      "GoBack" : "1",
      "longitude" : "120.54238",
      "outDis" : "50",
      "Id" : "5746",
      "oid" : "14671",
      "districtId" : "1",
      "nameZh" : "山陽一站",
      "pgp" : "0",
      "terminal" : "0",
      "latitude" : "24.1689",
      "inDis" : "50",
      "routeId" : "180",
      "seqNo" : "23"
   },
   {
      "GoBack" : "1",
      "longitude" : "120.54283",
      "outDis" : "50",
      "Id" : "1395",
      "oid" : "14672",
      "districtId" : "1",
      "nameZh" : "山陽",
      "pgp" : "0",
      "terminal" : "0",
      "latitude" : "24.16408",
      "inDis" : "50",
      "routeId" : "180",
      "seqNo" : "24"
   },
   {
      "GoBack" : "1",
      "longitude" : "120.54356",
      "outDis" : "50",
      "Id" : "4450",
      "oid" : "14673",
      "districtId" : "1",
      "nameZh" : "北頂街",
      "pgp" : "0",
      "terminal" : "0",
      "latitude" : "24.15977",
      "inDis" : "50",
      "routeId" : "180",
      "seqNo" : "25"
   },
   {
      "GoBack" : "1",
      "longitude" : "120.54388",
      "outDis" : "50",
      "Id" : "3157",
      "oid" : "14674",
      "districtId" : "1",
      "nameZh" : "頂街",
      "pgp" : "0",
      "terminal" : "0",
      "latitude" : "24.15796",
      "inDis" : "50",
      "routeId" : "180",
      "seqNo" : "26"
   },
   {
      "GoBack" : "1",
      "longitude" : "120.54422",
      "outDis" : "50",
      "Id" : "1303",
      "oid" : "14675",
      "districtId" : "1",
      "nameZh" : "大肚火車站",
      "pgp" : "0",
      "terminal" : "0",
      "latitude" : "24.15449",
      "inDis" : "50",
      "routeId" : "180",
      "seqNo" : "27"
   },
   {
      "GoBack" : "1",
      "longitude" : "120.54536",
      "outDis" : "50",
      "Id" : "4786",
      "oid" : "14676",
      "districtId" : "1",
      "nameZh" : "大肚區公所",
      "pgp" : "0",
      "terminal" : "0",
      "latitude" : "24.1512",
      "inDis" : "50",
      "routeId" : "180",
      "seqNo" : "28"
   },
   {
      "GoBack" : "1",
      "longitude" : "120.54574",
      "outDis" : "50",
      "Id" : "1302",
      "oid" : "313575198",
      "districtId" : "1",
      "nameZh" : "大肚",
      "pgp" : "0",
      "terminal" : "0",
      "latitude" : "24.1498",
      "inDis" : "50",
      "routeId" : "180",
      "seqNo" : "29"
   },
   {
      "GoBack" : "1",
      "longitude" : "120.54673",
      "outDis" : "50",
      "Id" : "1359",
      "oid" : "14677",
      "districtId" : "1",
      "nameZh" : "大道國中",
      "pgp" : "0",
      "terminal" : "0",
      "latitude" : "24.14613",
      "inDis" : "50",
      "routeId" : "180",
      "seqNo" : "30"
   },
   {
      "GoBack" : "1",
      "longitude" : "120.54794",
      "outDis" : "50",
      "Id" : "4460",
      "oid" : "14018",
      "districtId" : "1",
      "nameZh" : "沙田自由路口",
      "pgp" : "0",
      "terminal" : "0",
      "latitude" : "24.14309",
      "inDis" : "50",
      "routeId" : "180",
      "seqNo" : "31"
   },
   {
      "GoBack" : "1",
      "longitude" : "120.54919",
      "outDis" : "50",
      "Id" : "4491",
      "oid" : "14678",
      "districtId" : "1",
      "nameZh" : "新興里",
      "pgp" : "0",
      "terminal" : "0",
      "latitude" : "24.14073",
      "inDis" : "50",
      "routeId" : "180",
      "seqNo" : "32"
   },
   {
      "GoBack" : "1",
      "longitude" : "120.5518",
      "outDis" : "50",
      "Id" : "4038",
      "oid" : "14679",
      "districtId" : "1",
      "nameZh" : "崁仔腳",
      "pgp" : "0",
      "terminal" : "0",
      "latitude" : "24.13717",
      "inDis" : "50",
      "routeId" : "180",
      "seqNo" : "33"
   },
   {
      "GoBack" : "1",
      "longitude" : "120.55358",
      "outDis" : "50",
      "Id" : "2443",
      "oid" : "14680",
      "districtId" : "1",
      "nameZh" : "東興紡織",
      "pgp" : "0",
      "terminal" : "0",
      "latitude" : "24.13472",
      "inDis" : "50",
      "routeId" : "180",
      "seqNo" : "34"
   },
   {
      "GoBack" : "1",
      "longitude" : "120.55383",
      "outDis" : "50",
      "Id" : "2494",
      "oid" : "14681",
      "districtId" : "1",
      "nameZh" : "社腳",
      "pgp" : "0",
      "terminal" : "0",
      "latitude" : "24.133",
      "inDis" : "50",
      "routeId" : "180",
      "seqNo" : "35"
   },
   {
      "GoBack" : "1",
      "longitude" : "120.55759",
      "outDis" : "50",
      "Id" : "4869",
      "oid" : "14682",
      "districtId" : "1",
      "nameZh" : "營埔",
      "pgp" : "0",
      "terminal" : "0",
      "latitude" : "24.12759",
      "inDis" : "50",
      "routeId" : "180",
      "seqNo" : "36"
   },
   {
      "GoBack" : "1",
      "longitude" : "120.56034",
      "outDis" : "50",
      "Id" : "4511",
      "oid" : "14683",
      "districtId" : "1",
      "nameZh" : "興國公司",
      "pgp" : "0",
      "terminal" : "0",
      "latitude" : "24.12584",
      "inDis" : "50",
      "routeId" : "180",
      "seqNo" : "37"
   },
   {
      "GoBack" : "1",
      "longitude" : "120.56207",
      "outDis" : "50",
      "Id" : "2886",
      "oid" : "14684",
      "districtId" : "1",
      "nameZh" : "追分郵局",
      "pgp" : "0",
      "terminal" : "0",
      "latitude" : "24.12482",
      "inDis" : "50",
      "routeId" : "180",
      "seqNo" : "38"
   },
   {
      "GoBack" : "1",
      "longitude" : "120.5645",
      "outDis" : "50",
      "Id" : "1390",
      "oid" : "14685",
      "districtId" : "1",
      "nameZh" : "山仔頂",
      "pgp" : "0",
      "terminal" : "0",
      "latitude" : "24.12339",
      "inDis" : "50",
      "routeId" : "180",
      "seqNo" : "39"
   },
   {
      "GoBack" : "1",
      "longitude" : "120.56594",
      "outDis" : "50",
      "Id" : "4858",
      "oid" : "14686",
      "districtId" : "1",
      "nameZh" : "福山",
      "pgp" : "0",
      "terminal" : "0",
      "latitude" : "24.12271",
      "inDis" : "50",
      "routeId" : "180",
      "seqNo" : "40"
   },
   {
      "GoBack" : "1",
      "longitude" : "120.56812",
      "outDis" : "50",
      "Id" : "2885",
      "oid" : "14687",
      "districtId" : "1",
      "nameZh" : "追分國小",
      "pgp" : "0",
      "terminal" : "0",
      "latitude" : "24.12203",
      "inDis" : "50",
      "routeId" : "180",
      "seqNo" : "41"
   },
   {
      "GoBack" : "1",
      "longitude" : "120.57048",
      "outDis" : "50",
      "Id" : "2884",
      "oid" : "14688",
      "districtId" : "1",
      "nameZh" : "追分",
      "pgp" : "0",
      "terminal" : "0",
      "latitude" : "24.12114",
      "inDis" : "50",
      "routeId" : "180",
      "seqNo" : "42"
   },
   {
      "GoBack" : "1",
      "longitude" : "120.57649",
      "outDis" : "50",
      "Id" : "2597",
      "oid" : "14689",
      "districtId" : "1",
      "nameZh" : "南追分",
      "pgp" : "0",
      "terminal" : "0",
      "latitude" : "24.11887",
      "inDis" : "50",
      "routeId" : "180",
      "seqNo" : "43"
   },
   {
      "GoBack" : "1",
      "longitude" : "120.57256",
      "outDis" : "50",
      "Id" : "2941",
      "oid" : "14711",
      "districtId" : "1",
      "nameZh" : "國聖井",
      "pgp" : "0",
      "terminal" : "0",
      "latitude" : "24.0977",
      "inDis" : "50",
      "routeId" : "180",
      "seqNo" : "44"
   },
   {
      "GoBack" : "1",
      "longitude" : "120.568",
      "outDis" : "50",
      "Id" : "2942",
      "oid" : "14692",
      "districtId" : "1",
      "nameZh" : "國聖國小",
      "pgp" : "0",
      "terminal" : "0",
      "latitude" : "24.09282",
      "inDis" : "50",
      "routeId" : "180",
      "seqNo" : "45"
   },
   {
      "GoBack" : "1",
      "longitude" : "120.56621",
      "outDis" : "50",
      "Id" : "4787",
      "oid" : "14693",
      "districtId" : "1",
      "nameZh" : "中庄子",
      "pgp" : "0",
      "terminal" : "0",
      "latitude" : "24.08992",
      "inDis" : "50",
      "routeId" : "180",
      "seqNo" : "46"
   },
   {
      "GoBack" : "1",
      "longitude" : "120.56019",
      "outDis" : "50",
      "Id" : "5036",
      "oid" : "14694",
      "districtId" : "1",
      "nameZh" : "原民館",
      "pgp" : "0",
      "terminal" : "0",
      "latitude" : "24.0867",
      "inDis" : "50",
      "routeId" : "180",
      "seqNo" : "47"
   },
   {
      "GoBack" : "1",
      "longitude" : "120.55521",
      "outDis" : "50",
      "Id" : "2320",
      "oid" : "14695",
      "districtId" : "1",
      "nameZh" : "和調里",
      "pgp" : "0",
      "terminal" : "0",
      "latitude" : "24.08496",
      "inDis" : "50",
      "routeId" : "180",
      "seqNo" : "48"
   },
   {
      "GoBack" : "1",
      "longitude" : "120.55097",
      "outDis" : "50",
      "Id" : "4800",
      "oid" : "14696",
      "districtId" : "1",
      "nameZh" : "市子尾",
      "pgp" : "0",
      "terminal" : "0",
      "latitude" : "24.08435",
      "inDis" : "50",
      "routeId" : "180",
      "seqNo" : "49"
   },
   {
      "GoBack" : "1",
      "longitude" : "120.54985",
      "outDis" : "50",
      "Id" : "2534",
      "oid" : "14697",
      "districtId" : "1",
      "nameZh" : "長順街口",
      "pgp" : "0",
      "terminal" : "0",
      "latitude" : "24.08417",
      "inDis" : "50",
      "routeId" : "180",
      "seqNo" : "50"
   },
   {
      "GoBack" : "1",
      "longitude" : "120.54639",
      "outDis" : "50",
      "Id" : "2284",
      "oid" : "14698",
      "districtId" : "1",
      "nameZh" : "車路口",
      "pgp" : "0",
      "terminal" : "0",
      "latitude" : "24.08352",
      "inDis" : "50",
      "routeId" : "180",
      "seqNo" : "51"
   },
   {
      "GoBack" : "1",
      "longitude" : "120.54283",
      "outDis" : "50",
      "Id" : "0557",
      "oid" : "14699",
      "districtId" : "1",
      "nameZh" : "民生路口",
      "pgp" : "0",
      "terminal" : "0",
      "latitude" : "24.08262",
      "inDis" : "50",
      "routeId" : "180",
      "seqNo" : "52"
   },
   {
      "GoBack" : "1",
      "longitude" : "120.54094",
      "outDis" : "50",
      "Id" : "4856",
      "oid" : "14700",
      "districtId" : "1",
      "nameZh" : "彰化站",
      "pgp" : "0",
      "terminal" : "0",
      "latitude" : "24.08212",
      "inDis" : "50",
      "routeId" : "180",
      "seqNo" : "53"
   },
   {
      "GoBack" : "2",
      "longitude" : "120.54094",
      "outDis" : "50",
      "Id" : "4856",
      "oid" : "14701",
      "districtId" : "1",
      "nameZh" : "彰化站",
      "pgp" : "0",
      "terminal" : "0",
      "latitude" : "24.08212",
      "inDis" : "50",
      "routeId" : "180",
      "seqNo" : "1"
   },
   {
      "GoBack" : "2",
      "longitude" : "120.54283",
      "outDis" : "50",
      "Id" : "0557",
      "oid" : "14703",
      "districtId" : "1",
      "nameZh" : "民生路口",
      "pgp" : "0",
      "terminal" : "0",
      "latitude" : "24.08262",
      "inDis" : "50",
      "routeId" : "180",
      "seqNo" : "2"
   },
   {
      "GoBack" : "2",
      "longitude" : "120.54639",
      "outDis" : "50",
      "Id" : "2284",
      "oid" : "14704",
      "districtId" : "1",
      "nameZh" : "車路口",
      "pgp" : "0",
      "terminal" : "0",
      "latitude" : "24.08352",
      "inDis" : "50",
      "routeId" : "180",
      "seqNo" : "3"
   },
   {
      "GoBack" : "2",
      "longitude" : "120.54985",
      "outDis" : "50",
      "Id" : "2534",
      "oid" : "14705",
      "districtId" : "1",
      "nameZh" : "長順街口",
      "pgp" : "0",
      "terminal" : "0",
      "latitude" : "24.08417",
      "inDis" : "50",
      "routeId" : "180",
      "seqNo" : "4"
   },
   {
      "GoBack" : "2",
      "longitude" : "120.55101",
      "outDis" : "50",
      "Id" : "4800",
      "oid" : "14706",
      "districtId" : "1",
      "nameZh" : "市子尾",
      "pgp" : "0",
      "terminal" : "0",
      "latitude" : "24.08426",
      "inDis" : "50",
      "routeId" : "180",
      "seqNo" : "5"
   },
   {
      "GoBack" : "2",
      "longitude" : "120.55521",
      "outDis" : "50",
      "Id" : "2320",
      "oid" : "14707",
      "districtId" : "1",
      "nameZh" : "和調里",
      "pgp" : "0",
      "terminal" : "0",
      "latitude" : "24.08496",
      "inDis" : "50",
      "routeId" : "180",
      "seqNo" : "6"
   },
   {
      "GoBack" : "2",
      "longitude" : "120.56019",
      "outDis" : "50",
      "Id" : "5036",
      "oid" : "14708",
      "districtId" : "1",
      "nameZh" : "原民館",
      "pgp" : "0",
      "terminal" : "0",
      "latitude" : "24.0867",
      "inDis" : "50",
      "routeId" : "180",
      "seqNo" : "7"
   },
   {
      "GoBack" : "2",
      "longitude" : "120.56621",
      "outDis" : "50",
      "Id" : "4787",
      "oid" : "14709",
      "districtId" : "1",
      "nameZh" : "中庄子",
      "pgp" : "0",
      "terminal" : "0",
      "latitude" : "24.08992",
      "inDis" : "50",
      "routeId" : "180",
      "seqNo" : "8"
   },
   {
      "GoBack" : "2",
      "longitude" : "120.568",
      "outDis" : "50",
      "Id" : "2942",
      "oid" : "14710",
      "districtId" : "1",
      "nameZh" : "國聖國小",
      "pgp" : "0",
      "terminal" : "0",
      "latitude" : "24.09282",
      "inDis" : "50",
      "routeId" : "180",
      "seqNo" : "9"
   },
   {
      "GoBack" : "2",
      "longitude" : "120.57266",
      "outDis" : "50",
      "Id" : "2941",
      "oid" : "8191",
      "districtId" : "1",
      "nameZh" : "國聖井",
      "pgp" : "0",
      "terminal" : "0",
      "latitude" : "24.09741",
      "inDis" : "50",
      "routeId" : "180",
      "seqNo" : "10"
   },
   {
      "GoBack" : "2",
      "longitude" : "120.57649",
      "outDis" : "50",
      "Id" : "2597",
      "oid" : "14713",
      "districtId" : "1",
      "nameZh" : "南追分",
      "pgp" : "0",
      "terminal" : "0",
      "latitude" : "24.11887",
      "inDis" : "50",
      "routeId" : "180",
      "seqNo" : "11"
   },
   {
      "GoBack" : "2",
      "longitude" : "120.57048",
      "outDis" : "50",
      "Id" : "2884",
      "oid" : "14714",
      "districtId" : "1",
      "nameZh" : "追分",
      "pgp" : "0",
      "terminal" : "0",
      "latitude" : "24.12114",
      "inDis" : "50",
      "routeId" : "180",
      "seqNo" : "12"
   },
   {
      "GoBack" : "2",
      "longitude" : "120.56812",
      "outDis" : "50",
      "Id" : "2885",
      "oid" : "14715",
      "districtId" : "1",
      "nameZh" : "追分國小",
      "pgp" : "0",
      "terminal" : "0",
      "latitude" : "24.12203",
      "inDis" : "50",
      "routeId" : "180",
      "seqNo" : "13"
   },
   {
      "GoBack" : "2",
      "longitude" : "120.56624",
      "outDis" : "50",
      "Id" : "4858",
      "oid" : "14716",
      "districtId" : "1",
      "nameZh" : "福山",
      "pgp" : "0",
      "terminal" : "0",
      "latitude" : "24.12259",
      "inDis" : "50",
      "routeId" : "180",
      "seqNo" : "14"
   },
   {
      "GoBack" : "2",
      "longitude" : "120.5645",
      "outDis" : "50",
      "Id" : "1390",
      "oid" : "14717",
      "districtId" : "1",
      "nameZh" : "山仔頂",
      "pgp" : "0",
      "terminal" : "0",
      "latitude" : "24.12339",
      "inDis" : "50",
      "routeId" : "180",
      "seqNo" : "15"
   },
   {
      "GoBack" : "2",
      "longitude" : "120.56207",
      "outDis" : "50",
      "Id" : "2886",
      "oid" : "14718",
      "districtId" : "1",
      "nameZh" : "追分郵局",
      "pgp" : "0",
      "terminal" : "0",
      "latitude" : "24.12482",
      "inDis" : "50",
      "routeId" : "180",
      "seqNo" : "16"
   },
   {
      "GoBack" : "2",
      "longitude" : "120.56034",
      "outDis" : "50",
      "Id" : "4511",
      "oid" : "14719",
      "districtId" : "1",
      "nameZh" : "興國公司",
      "pgp" : "0",
      "terminal" : "0",
      "latitude" : "24.12584",
      "inDis" : "50",
      "routeId" : "180",
      "seqNo" : "17"
   },
   {
      "GoBack" : "2",
      "longitude" : "120.55759",
      "outDis" : "50",
      "Id" : "4869",
      "oid" : "14720",
      "districtId" : "1",
      "nameZh" : "營埔",
      "pgp" : "0",
      "terminal" : "0",
      "latitude" : "24.12759",
      "inDis" : "50",
      "routeId" : "180",
      "seqNo" : "18"
   },
   {
      "GoBack" : "2",
      "longitude" : "120.55383",
      "outDis" : "50",
      "Id" : "2494",
      "oid" : "14721",
      "districtId" : "1",
      "nameZh" : "社腳",
      "pgp" : "0",
      "terminal" : "0",
      "latitude" : "24.133",
      "inDis" : "50",
      "routeId" : "180",
      "seqNo" : "19"
   },
   {
      "GoBack" : "2",
      "longitude" : "120.55358",
      "outDis" : "50",
      "Id" : "2443",
      "oid" : "14722",
      "districtId" : "1",
      "nameZh" : "東興紡織",
      "pgp" : "0",
      "terminal" : "0",
      "latitude" : "24.13472",
      "inDis" : "50",
      "routeId" : "180",
      "seqNo" : "20"
   },
   {
      "GoBack" : "2",
      "longitude" : "120.5518",
      "outDis" : "50",
      "Id" : "4038",
      "oid" : "14723",
      "districtId" : "1",
      "nameZh" : "崁仔腳",
      "pgp" : "0",
      "terminal" : "0",
      "latitude" : "24.13717",
      "inDis" : "50",
      "routeId" : "180",
      "seqNo" : "21"
   },
   {
      "GoBack" : "2",
      "longitude" : "120.54916",
      "outDis" : "50",
      "Id" : "4491",
      "oid" : "14724",
      "districtId" : "1",
      "nameZh" : "新興里",
      "pgp" : "0",
      "terminal" : "0",
      "latitude" : "24.141",
      "inDis" : "50",
      "routeId" : "180",
      "seqNo" : "22"
   },
   {
      "GoBack" : "2",
      "longitude" : "120.54794",
      "outDis" : "50",
      "Id" : "4460",
      "oid" : "14018",
      "districtId" : "1",
      "nameZh" : "沙田自由路口",
      "pgp" : "0",
      "terminal" : "0",
      "latitude" : "24.14309",
      "inDis" : "50",
      "routeId" : "180",
      "seqNo" : "23"
   },
   {
      "GoBack" : "2",
      "longitude" : "120.54673",
      "outDis" : "50",
      "Id" : "1359",
      "oid" : "14725",
      "districtId" : "1",
      "nameZh" : "大道國中",
      "pgp" : "0",
      "terminal" : "0",
      "latitude" : "24.14613",
      "inDis" : "50",
      "routeId" : "180",
      "seqNo" : "24"
   },
   {
      "GoBack" : "2",
      "longitude" : "120.54574",
      "outDis" : "50",
      "Id" : "1302",
      "oid" : "313575198",
      "districtId" : "1",
      "nameZh" : "大肚",
      "pgp" : "0",
      "terminal" : "0",
      "latitude" : "24.1498",
      "inDis" : "50",
      "routeId" : "180",
      "seqNo" : "25"
   },
   {
      "GoBack" : "2",
      "longitude" : "120.54536",
      "outDis" : "50",
      "Id" : "4786",
      "oid" : "14726",
      "districtId" : "1",
      "nameZh" : "大肚區公所",
      "pgp" : "0",
      "terminal" : "0",
      "latitude" : "24.1512",
      "inDis" : "50",
      "routeId" : "180",
      "seqNo" : "26"
   },
   {
      "GoBack" : "2",
      "longitude" : "120.54421",
      "outDis" : "50",
      "Id" : "1303",
      "oid" : "14727",
      "districtId" : "1",
      "nameZh" : "大肚火車站",
      "pgp" : "0",
      "terminal" : "0",
      "latitude" : "24.15432",
      "inDis" : "50",
      "routeId" : "180",
      "seqNo" : "27"
   },
   {
      "GoBack" : "2",
      "longitude" : "120.54393",
      "outDis" : "50",
      "Id" : "3157",
      "oid" : "14728",
      "districtId" : "1",
      "nameZh" : "頂街",
      "pgp" : "0",
      "terminal" : "0",
      "latitude" : "24.15806",
      "inDis" : "50",
      "routeId" : "180",
      "seqNo" : "28"
   },
   {
      "GoBack" : "2",
      "longitude" : "120.54356",
      "outDis" : "50",
      "Id" : "4450",
      "oid" : "14729",
      "districtId" : "1",
      "nameZh" : "北頂街",
      "pgp" : "0",
      "terminal" : "0",
      "latitude" : "24.15977",
      "inDis" : "50",
      "routeId" : "180",
      "seqNo" : "29"
   },
   {
      "GoBack" : "2",
      "longitude" : "120.54283",
      "outDis" : "50",
      "Id" : "1395",
      "oid" : "14730",
      "districtId" : "1",
      "nameZh" : "山陽",
      "pgp" : "0",
      "terminal" : "0",
      "latitude" : "24.16408",
      "inDis" : "50",
      "routeId" : "180",
      "seqNo" : "30"
   },
   {
      "GoBack" : "2",
      "longitude" : "120.54238",
      "outDis" : "50",
      "Id" : "5746",
      "oid" : "14671",
      "districtId" : "1",
      "nameZh" : "山陽一站",
      "pgp" : "0",
      "terminal" : "0",
      "latitude" : "24.1689",
      "inDis" : "50",
      "routeId" : "180",
      "seqNo" : "31"
   },
   {
      "GoBack" : "2",
      "longitude" : "120.54331",
      "outDis" : "50",
      "Id" : "5482",
      "oid" : "314570081",
      "districtId" : "1",
      "nameZh" : "沙田中華路口",
      "pgp" : "0",
      "terminal" : "0",
      "latitude" : "24.17399",
      "inDis" : "50",
      "routeId" : "180",
      "seqNo" : "32"
   },
   {
      "GoBack" : "2",
      "longitude" : "120.54379",
      "outDis" : "50",
      "Id" : "2144",
      "oid" : "14733",
      "districtId" : "1",
      "nameZh" : "竹坑口",
      "pgp" : "0",
      "terminal" : "0",
      "latitude" : "24.17549",
      "inDis" : "50",
      "routeId" : "180",
      "seqNo" : "33"
   },
   {
      "GoBack" : "2",
      "longitude" : "120.54457",
      "outDis" : "50",
      "Id" : "2242",
      "oid" : "129902015",
      "districtId" : "1",
      "nameZh" : "村內入口",
      "pgp" : "0",
      "terminal" : "0",
      "latitude" : "24.179",
      "inDis" : "50",
      "routeId" : "180",
      "seqNo" : "34"
   },
   {
      "GoBack" : "2",
      "longitude" : "120.54554",
      "outDis" : "50",
      "Id" : "3031",
      "oid" : "14735",
      "districtId" : "1",
      "nameZh" : "深水",
      "pgp" : "0",
      "terminal" : "0",
      "latitude" : "24.18257",
      "inDis" : "50",
      "routeId" : "180",
      "seqNo" : "35"
   },
   {
      "GoBack" : "2",
      "longitude" : "120.54549",
      "outDis" : "50",
      "Id" : "3853",
      "oid" : "14736",
      "districtId" : "1",
      "nameZh" : "龍崗",
      "pgp" : "0",
      "terminal" : "0",
      "latitude" : "24.18642",
      "inDis" : "50",
      "routeId" : "180",
      "seqNo" : "36"
   },
   {
      "GoBack" : "2",
      "longitude" : "120.54574",
      "outDis" : "50",
      "Id" : "3847",
      "oid" : "14737",
      "districtId" : "1",
      "nameZh" : "龍井加油站",
      "pgp" : "0",
      "terminal" : "0",
      "latitude" : "24.18898",
      "inDis" : "50",
      "routeId" : "180",
      "seqNo" : "37"
   },
   {
      "GoBack" : "2",
      "longitude" : "120.54608",
      "outDis" : "50",
      "Id" : "5160",
      "oid" : "14738",
      "districtId" : "1",
      "nameZh" : "龍井區公所",
      "pgp" : "0",
      "terminal" : "0",
      "latitude" : "24.19246",
      "inDis" : "50",
      "routeId" : "180",
      "seqNo" : "38"
   },
   {
      "GoBack" : "2",
      "longitude" : "120.54659",
      "outDis" : "50",
      "Id" : "3846",
      "oid" : "14739",
      "districtId" : "1",
      "nameZh" : "龍井火車站",
      "pgp" : "0",
      "terminal" : "0",
      "latitude" : "24.19687",
      "inDis" : "50",
      "routeId" : "180",
      "seqNo" : "39"
   },
   {
      "GoBack" : "2",
      "longitude" : "120.54692",
      "outDis" : "50",
      "Id" : "3855",
      "oid" : "14740",
      "districtId" : "1",
      "nameZh" : "龍泉",
      "pgp" : "0",
      "terminal" : "0",
      "latitude" : "24.19936",
      "inDis" : "50",
      "routeId" : "180",
      "seqNo" : "40"
   },
   {
      "GoBack" : "2",
      "longitude" : "120.54798",
      "outDis" : "50",
      "Id" : "3850",
      "oid" : "14741",
      "districtId" : "1",
      "nameZh" : "龍目井",
      "pgp" : "0",
      "terminal" : "0",
      "latitude" : "24.20249",
      "inDis" : "50",
      "routeId" : "180",
      "seqNo" : "41"
   },
   {
      "GoBack" : "2",
      "longitude" : "120.54923",
      "outDis" : "50",
      "Id" : "4010",
      "oid" : "14742",
      "districtId" : "1",
      "nameZh" : "鷺山",
      "pgp" : "0",
      "terminal" : "0",
      "latitude" : "24.20743",
      "inDis" : "50",
      "routeId" : "180",
      "seqNo" : "42"
   },
   {
      "GoBack" : "2",
      "longitude" : "120.55056",
      "outDis" : "50",
      "Id" : "2559",
      "oid" : "14743",
      "districtId" : "1",
      "nameZh" : "南山腳",
      "pgp" : "0",
      "terminal" : "0",
      "latitude" : "24.21022",
      "inDis" : "50",
      "routeId" : "180",
      "seqNo" : "43"
   },
   {
      "GoBack" : "2",
      "longitude" : "120.55183",
      "outDis" : "50",
      "Id" : "5159",
      "oid" : "313575193",
      "districtId" : "1",
      "nameZh" : "龍山國小(山腳里)",
      "pgp" : "0",
      "terminal" : "0",
      "latitude" : "24.21378",
      "inDis" : "50",
      "routeId" : "180",
      "seqNo" : "44"
   },
   {
      "GoBack" : "2",
      "longitude" : "120.55287",
      "outDis" : "50",
      "Id" : "4459",
      "oid" : "14745",
      "districtId" : "1",
      "nameZh" : "沙田太平路口",
      "pgp" : "0",
      "terminal" : "0",
      "latitude" : "24.21671",
      "inDis" : "50",
      "routeId" : "180",
      "seqNo" : "45"
   },
   {
      "GoBack" : "2",
      "longitude" : "120.55613",
      "outDis" : "50",
      "Id" : "2613",
      "oid" : "14746",
      "districtId" : "1",
      "nameZh" : "南勢里",
      "pgp" : "0",
      "terminal" : "0",
      "latitude" : "24.22126",
      "inDis" : "50",
      "routeId" : "180",
      "seqNo" : "46"
   },
   {
      "GoBack" : "2",
      "longitude" : "120.55692",
      "outDis" : "50",
      "Id" : "4458",
      "oid" : "313575201",
      "districtId" : "1",
      "nameZh" : "沙田天仁街口",
      "pgp" : "0",
      "terminal" : "0",
      "latitude" : "24.22287",
      "inDis" : "50",
      "routeId" : "180",
      "seqNo" : "47"
   },
   {
      "GoBack" : "2",
      "longitude" : "120.55759",
      "outDis" : "50",
      "Id" : "1664",
      "oid" : "313575204",
      "districtId" : "1",
      "nameZh" : "文光國小",
      "pgp" : "0",
      "terminal" : "0",
      "latitude" : "24.22451",
      "inDis" : "50",
      "routeId" : "180",
      "seqNo" : "48"
   },
   {
      "GoBack" : "2",
      "longitude" : "120.5588",
      "outDis" : "50",
      "Id" : "3809",
      "oid" : "14748",
      "districtId" : "1",
      "nameZh" : "興仁里",
      "pgp" : "0",
      "terminal" : "0",
      "latitude" : "24.23027",
      "inDis" : "50",
      "routeId" : "180",
      "seqNo" : "49"
   },
   {
      "GoBack" : "2",
      "longitude" : "120.55897",
      "outDis" : "50",
      "Id" : "4816",
      "oid" : "313348300",
      "districtId" : "1",
      "nameZh" : "沙鹿光田醫院",
      "pgp" : "0",
      "terminal" : "0",
      "latitude" : "24.235",
      "inDis" : "50",
      "routeId" : "180",
      "seqNo" : "50"
   },
   {
      "GoBack" : "2",
      "longitude" : "120.55923",
      "outDis" : "50",
      "Id" : "4815",
      "oid" : "313348309",
      "districtId" : "1",
      "nameZh" : "沙鹿火車站",
      "pgp" : "0",
      "terminal" : "0",
      "latitude" : "24.23612",
      "inDis" : "50",
      "routeId" : "180",
      "seqNo" : "51"
   },
   {
      "GoBack" : "2",
      "longitude" : "120.55967",
      "outDis" : "50",
      "Id" : "4681",
      "oid" : "313348322",
      "districtId" : "1",
      "nameZh" : "沙鹿市場",
      "pgp" : "0",
      "terminal" : "0",
      "latitude" : "24.23731",
      "inDis" : "50",
      "routeId" : "180",
      "seqNo" : "52"
   },
   {
      "GoBack" : "2",
      "longitude" : "120.56106",
      "outDis" : "50",
      "Id" : "2248",
      "oid" : "10784",
      "districtId" : "1",
      "nameZh" : "沙鹿站",
      "pgp" : "0",
      "terminal" : "0",
      "latitude" : "24.23783",
      "inDis" : "50",
      "routeId" : "180",
      "seqNo" : "53"
   }
]
