[
   {
      "GoBack" : "1",
      "longitude" : "120.63181",
      "outDis" : "50",
      "Id" : "0057",
      "oid" : "7583",
      "districtId" : "1",
      "nameZh" : "黎明新村(博愛街)",
      "pgp" : "0",
      "terminal" : "0",
      "latitude" : "24.15376",
      "inDis" : "50",
      "routeId" : "107",
      "seqNo" : "1"
   },
   {
      "GoBack" : "1",
      "longitude" : "120.63206",
      "outDis" : "50",
      "Id" : "5369",
      "oid" : "313936738",
      "districtId" : "1",
      "nameZh" : "警察電台",
      "pgp" : "0",
      "terminal" : "0",
      "latitude" : "24.1526",
      "inDis" : "50",
      "routeId" : "107",
      "seqNo" : "2"
   },
   {
      "GoBack" : "1",
      "longitude" : "120.6315",
      "outDis" : "50",
      "Id" : "1410",
      "oid" : "5D1C30F310434C9B815EF590DD5CDA19",
      "districtId" : "1",
      "nameZh" : "干城三站",
      "pgp" : "0",
      "terminal" : "0",
      "latitude" : "24.15214",
      "inDis" : "50",
      "routeId" : "107",
      "seqNo" : "3"
   },
   {
      "GoBack" : "1",
      "longitude" : "120.62914",
      "outDis" : "50",
      "Id" : "0401",
      "oid" : "5C85F41DC7D94553B9599A468057550F",
      "districtId" : "1",
      "nameZh" : "干城二站",
      "pgp" : "0",
      "terminal" : "0",
      "latitude" : "24.15255",
      "inDis" : "50",
      "routeId" : "107",
      "seqNo" : "4"
   },
   {
      "GoBack" : "1",
      "longitude" : "120.62869",
      "outDis" : "50",
      "Id" : "0553",
      "oid" : "55CDE6585B104CD3A1DD3476CA6E1D65",
      "districtId" : "1",
      "nameZh" : "幼稚園",
      "pgp" : "0",
      "terminal" : "0",
      "latitude" : "24.15447",
      "inDis" : "50",
      "routeId" : "107",
      "seqNo" : "5"
   },
   {
      "GoBack" : "1",
      "longitude" : "120.63086",
      "outDis" : "50",
      "Id" : "4178",
      "oid" : "220938618",
      "districtId" : "1",
      "nameZh" : "干城一站",
      "pgp" : "0",
      "terminal" : "0",
      "latitude" : "24.15551",
      "inDis" : "50",
      "routeId" : "107",
      "seqNo" : "6"
   },
   {
      "GoBack" : "1",
      "longitude" : "120.63314",
      "outDis" : "50",
      "Id" : "0000",
      "oid" : "17E2945143B944449971196382AE3F81",
      "districtId" : "1",
      "nameZh" : "黎明派出所",
      "pgp" : "0",
      "terminal" : "0",
      "latitude" : "24.15566",
      "inDis" : "50",
      "routeId" : "107",
      "seqNo" : "7"
   },
   {
      "GoBack" : "1",
      "longitude" : "120.6347",
      "outDis" : "50",
      "Id" : "3892",
      "oid" : "7607",
      "districtId" : "1",
      "nameZh" : "黎明新村(黎明路)",
      "pgp" : "0",
      "terminal" : "0",
      "latitude" : "24.15465",
      "inDis" : "50",
      "routeId" : "107",
      "seqNo" : "8"
   },
   {
      "GoBack" : "1",
      "longitude" : "120.6349",
      "outDis" : "75",
      "Id" : "4160",
      "oid" : "11152",
      "districtId" : "1",
      "nameZh" : "黎明大業路口",
      "pgp" : "0",
      "terminal" : "0",
      "latitude" : "24.15289",
      "inDis" : "75",
      "routeId" : "107",
      "seqNo" : "9"
   },
   {
      "GoBack" : "1",
      "longitude" : "120.63779",
      "outDis" : "50",
      "Id" : "0815",
      "oid" : "8ABE6D33AFA440CFB23CDA40D5C9AAB8",
      "districtId" : "1",
      "nameZh" : "惠文國小",
      "pgp" : "0",
      "terminal" : "0",
      "latitude" : "24.15154",
      "inDis" : "50",
      "routeId" : "107",
      "seqNo" : "10"
   },
   {
      "GoBack" : "1",
      "longitude" : "120.64007",
      "outDis" : "50",
      "Id" : "0814",
      "oid" : "7471",
      "districtId" : "1",
      "nameZh" : "惠文高中(公益路)",
      "pgp" : "0",
      "terminal" : "0",
      "latitude" : "24.15129",
      "inDis" : "50",
      "routeId" : "107",
      "seqNo" : "11"
   },
   {
      "GoBack" : "1",
      "longitude" : "120.6433",
      "outDis" : "50",
      "Id" : "5476",
      "oid" : "7312",
      "districtId" : "1",
      "nameZh" : "臺中特殊教育學校",
      "pgp" : "0",
      "terminal" : "0",
      "latitude" : "24.15109",
      "inDis" : "50",
      "routeId" : "107",
      "seqNo" : "12"
   },
   {
      "GoBack" : "1",
      "longitude" : "120.64673",
      "outDis" : "50",
      "Id" : "1607",
      "oid" : "7311",
      "districtId" : "1",
      "nameZh" : "公益文心路口",
      "pgp" : "0",
      "terminal" : "0",
      "latitude" : "24.15084",
      "inDis" : "50",
      "routeId" : "107",
      "seqNo" : "13"
   },
   {
      "GoBack" : "1",
      "longitude" : "120.64982",
      "outDis" : "50",
      "Id" : "0456",
      "oid" : "7309",
      "districtId" : "1",
      "nameZh" : "公益大墩路口",
      "pgp" : "0",
      "terminal" : "0",
      "latitude" : "24.1509",
      "inDis" : "50",
      "routeId" : "107",
      "seqNo" : "14"
   },
   {
      "GoBack" : "1",
      "longitude" : "120.65296",
      "outDis" : "50",
      "Id" : "4553",
      "oid" : "7130",
      "districtId" : "1",
      "nameZh" : "公益東興路口",
      "pgp" : "0",
      "terminal" : "0",
      "latitude" : "24.15087",
      "inDis" : "50",
      "routeId" : "107",
      "seqNo" : "15"
   },
   {
      "GoBack" : "1",
      "longitude" : "120.65592",
      "outDis" : "50",
      "Id" : "0140",
      "oid" : "7571",
      "districtId" : "1",
      "nameZh" : "公益精誠路口",
      "pgp" : "0",
      "terminal" : "0",
      "latitude" : "24.15091",
      "inDis" : "50",
      "routeId" : "107",
      "seqNo" : "16"
   },
   {
      "GoBack" : "1",
      "longitude" : "120.65786",
      "outDis" : "50",
      "Id" : "4587",
      "oid" : "7310",
      "districtId" : "1",
      "nameZh" : "公益公園(公益路)",
      "pgp" : "0",
      "terminal" : "0",
      "latitude" : "24.15086",
      "inDis" : "50",
      "routeId" : "107",
      "seqNo" : "17"
   },
   {
      "GoBack" : "1",
      "longitude" : "120.66065",
      "outDis" : "50",
      "Id" : "0141",
      "oid" : "7263",
      "districtId" : "1",
      "nameZh" : "公益中美街口",
      "pgp" : "0",
      "terminal" : "0",
      "latitude" : "24.15081",
      "inDis" : "50",
      "routeId" : "107",
      "seqNo" : "18"
   },
   {
      "GoBack" : "1",
      "longitude" : "120.66452",
      "outDis" : "50",
      "Id" : "0276",
      "oid" : "4F2E759BF74D4FACBB506B5534004E99",
      "districtId" : "1",
      "nameZh" : "草悟道(市民廣場)",
      "pgp" : "0",
      "terminal" : "0",
      "latitude" : "24.15085",
      "inDis" : "50",
      "routeId" : "107",
      "seqNo" : "19"
   },
   {
      "GoBack" : "1",
      "longitude" : "120.66868",
      "outDis" : "50",
      "Id" : "5095",
      "oid" : "3634DB3B13954E5F8DC21394ED87E2E4",
      "districtId" : "1",
      "nameZh" : "公益臺灣大道口",
      "pgp" : "0",
      "terminal" : "0",
      "latitude" : "24.15084",
      "inDis" : "50",
      "routeId" : "107",
      "seqNo" : "20"
   },
   {
      "GoBack" : "1",
      "longitude" : "120.67155",
      "outDis" : "50",
      "Id" : "0723",
      "oid" : "7182",
      "districtId" : "1",
      "nameZh" : "茄苳腳",
      "pgp" : "0",
      "terminal" : "0",
      "latitude" : "24.14955",
      "inDis" : "50",
      "routeId" : "107",
      "seqNo" : "21"
   },
   {
      "GoBack" : "1",
      "longitude" : "120.67185",
      "outDis" : "50",
      "Id" : "0513",
      "oid" : "7371",
      "districtId" : "1",
      "nameZh" : "臺中教育大學",
      "pgp" : "0",
      "terminal" : "0",
      "latitude" : "24.14472",
      "inDis" : "50",
      "routeId" : "107",
      "seqNo" : "23"
   },
   {
      "GoBack" : "1",
      "longitude" : "120.67463",
      "outDis" : "50",
      "Id" : "4623",
      "oid" : "7030",
      "districtId" : "1",
      "nameZh" : "民權中華路口",
      "pgp" : "0",
      "terminal" : "0",
      "latitude" : "24.14242",
      "inDis" : "50",
      "routeId" : "107",
      "seqNo" : "24"
   },
   {
      "GoBack" : "1",
      "longitude" : "120.6765",
      "outDis" : "50",
      "Id" : "0208",
      "oid" : "8157",
      "districtId" : "1",
      "nameZh" : "臺中醫院",
      "pgp" : "0",
      "terminal" : "0",
      "latitude" : "24.14097",
      "inDis" : "50",
      "routeId" : "107",
      "seqNo" : "25"
   },
   {
      "GoBack" : "1",
      "longitude" : "120.67842",
      "outDis" : "50",
      "Id" : "4416",
      "oid" : "7024",
      "districtId" : "1",
      "nameZh" : "臺中州廳",
      "pgp" : "0",
      "terminal" : "0",
      "latitude" : "24.13896",
      "inDis" : "50",
      "routeId" : "107",
      "seqNo" : "26"
   },
   {
      "GoBack" : "1",
      "longitude" : "120.68037",
      "outDis" : "50",
      "Id" : "0215",
      "oid" : "7068",
      "districtId" : "1",
      "nameZh" : "合作金庫",
      "pgp" : "0",
      "terminal" : "0",
      "latitude" : "24.13808",
      "inDis" : "50",
      "routeId" : "107",
      "seqNo" : "27"
   },
   {
      "GoBack" : "1",
      "longitude" : "120.68185",
      "outDis" : "50",
      "Id" : "0216",
      "oid" : "0022596B0EF546EF8F48E2A3217E7729",
      "districtId" : "1",
      "nameZh" : "彰化銀行(自由路)",
      "pgp" : "0",
      "terminal" : "0",
      "latitude" : "24.13969",
      "inDis" : "50",
      "routeId" : "107",
      "seqNo" : "28"
   },
   {
      "GoBack" : "1",
      "longitude" : "120.6846",
      "outDis" : "50",
      "Id" : "1824",
      "oid" : "7358",
      "districtId" : "1",
      "nameZh" : "臺中火車站",
      "pgp" : "0",
      "terminal" : "0",
      "latitude" : "24.13726",
      "inDis" : "50",
      "routeId" : "107",
      "seqNo" : "29"
   },
   {
      "GoBack" : "1",
      "longitude" : "120.68392",
      "outDis" : "50",
      "Id" : "0049",
      "oid" : "7448",
      "districtId" : "1",
      "nameZh" : "第三市場(臺中家商)",
      "pgp" : "0",
      "terminal" : "0",
      "latitude" : "24.13256",
      "inDis" : "50",
      "routeId" : "107",
      "seqNo" : "30"
   },
   {
      "GoBack" : "1",
      "longitude" : "120.68502",
      "outDis" : "50",
      "Id" : "0257",
      "oid" : "7005",
      "districtId" : "1",
      "nameZh" : "臺中國小",
      "pgp" : "0",
      "terminal" : "0",
      "latitude" : "24.13026",
      "inDis" : "50",
      "routeId" : "107",
      "seqNo" : "31"
   },
   {
      "GoBack" : "1",
      "longitude" : "120.68452",
      "outDis" : "75",
      "Id" : "5607",
      "oid" : "11025",
      "districtId" : "1",
      "nameZh" : "興大附農(臺中路)",
      "pgp" : "0",
      "terminal" : "0",
      "latitude" : "24.12696",
      "inDis" : "75",
      "routeId" : "107",
      "seqNo" : "32"
   },
   {
      "GoBack" : "1",
      "longitude" : "120.68353",
      "outDis" : "50",
      "Id" : "0255",
      "oid" : "311171320",
      "districtId" : "1",
      "nameZh" : "南門仔",
      "pgp" : "0",
      "terminal" : "0",
      "latitude" : "24.12471",
      "inDis" : "50",
      "routeId" : "107",
      "seqNo" : "33"
   },
   {
      "GoBack" : "1",
      "longitude" : "120.68419",
      "outDis" : "50",
      "Id" : "0254",
      "oid" : "7119",
      "districtId" : "1",
      "nameZh" : "明德高中",
      "pgp" : "0",
      "terminal" : "0",
      "latitude" : "24.12273",
      "inDis" : "50",
      "routeId" : "107",
      "seqNo" : "34"
   },
   {
      "GoBack" : "1",
      "longitude" : "120.68598",
      "outDis" : "50",
      "Id" : "2591",
      "oid" : "7154",
      "districtId" : "1",
      "nameZh" : "南門橋頭",
      "pgp" : "0",
      "terminal" : "0",
      "latitude" : "24.12138",
      "inDis" : "50",
      "routeId" : "107",
      "seqNo" : "35"
   },
   {
      "GoBack" : "1",
      "longitude" : "120.68948",
      "outDis" : "50",
      "Id" : "3281",
      "oid" : "7492",
      "districtId" : "1",
      "nameZh" : "菸葉廠",
      "pgp" : "0",
      "terminal" : "0",
      "latitude" : "24.11737",
      "inDis" : "50",
      "routeId" : "107",
      "seqNo" : "36"
   },
   {
      "GoBack" : "1",
      "longitude" : "120.68958",
      "outDis" : "50",
      "Id" : "3280",
      "oid" : "7490",
      "districtId" : "1",
      "nameZh" : "菩提醫院",
      "pgp" : "0",
      "terminal" : "0",
      "latitude" : "24.11508",
      "inDis" : "50",
      "routeId" : "107",
      "seqNo" : "37"
   },
   {
      "GoBack" : "1",
      "longitude" : "120.68974",
      "outDis" : "50",
      "Id" : "5485",
      "oid" : "314655296",
      "districtId" : "1",
      "nameZh" : "中興內新街口",
      "pgp" : "0",
      "terminal" : "0",
      "latitude" : "24.11408",
      "inDis" : "50",
      "routeId" : "107",
      "seqNo" : "38"
   },
   {
      "GoBack" : "1",
      "longitude" : "120.68986",
      "outDis" : "50",
      "Id" : "2691",
      "oid" : "7174",
      "districtId" : "1",
      "nameZh" : "省農會",
      "pgp" : "0",
      "terminal" : "0",
      "latitude" : "24.1125",
      "inDis" : "50",
      "routeId" : "107",
      "seqNo" : "39"
   },
   {
      "GoBack" : "1",
      "longitude" : "120.69002",
      "outDis" : "50",
      "Id" : "1576",
      "oid" : "5394",
      "districtId" : "1",
      "nameZh" : "內新市場",
      "pgp" : "0",
      "terminal" : "0",
      "latitude" : "24.11079",
      "inDis" : "50",
      "routeId" : "107",
      "seqNo" : "40"
   },
   {
      "GoBack" : "1",
      "longitude" : "120.68996",
      "outDis" : "50",
      "Id" : "1363",
      "oid" : "7236",
      "districtId" : "1",
      "nameZh" : "中興大里路口",
      "pgp" : "0",
      "terminal" : "0",
      "latitude" : "24.10841",
      "inDis" : "50",
      "routeId" : "107",
      "seqNo" : "41"
   },
   {
      "GoBack" : "1",
      "longitude" : "120.68941",
      "outDis" : "50",
      "Id" : "2026",
      "oid" : "7054",
      "districtId" : "1",
      "nameZh" : "立人高中",
      "pgp" : "0",
      "terminal" : "0",
      "latitude" : "24.10584",
      "inDis" : "50",
      "routeId" : "107",
      "seqNo" : "42"
   },
   {
      "GoBack" : "1",
      "longitude" : "120.68848",
      "outDis" : "50",
      "Id" : "1126",
      "oid" : "12470",
      "districtId" : "1",
      "nameZh" : "下內新",
      "pgp" : "0",
      "terminal" : "0",
      "latitude" : "24.10263",
      "inDis" : "50",
      "routeId" : "107",
      "seqNo" : "43"
   },
   {
      "GoBack" : "1",
      "longitude" : "120.6879",
      "outDis" : "50",
      "Id" : "5151",
      "oid" : "12580",
      "districtId" : "1",
      "nameZh" : "兒童藝術館(中興路)",
      "pgp" : "0",
      "terminal" : "0",
      "latitude" : "24.10002",
      "inDis" : "50",
      "routeId" : "107",
      "seqNo" : "44"
   },
   {
      "GoBack" : "1",
      "longitude" : "120.68694",
      "outDis" : "50",
      "Id" : "1322",
      "oid" : "309974047",
      "districtId" : "1",
      "nameZh" : "大突寮(中興路)",
      "pgp" : "0",
      "terminal" : "0",
      "latitude" : "24.09735",
      "inDis" : "50",
      "routeId" : "107",
      "seqNo" : "45"
   },
   {
      "GoBack" : "1",
      "longitude" : "120.69194",
      "outDis" : "50",
      "Id" : "4661",
      "oid" : "7292",
      "districtId" : "1",
      "nameZh" : "中興仁化路口",
      "pgp" : "0",
      "terminal" : "0",
      "latitude" : "24.09168",
      "inDis" : "50",
      "routeId" : "107",
      "seqNo" : "46"
   },
   {
      "GoBack" : "1",
      "longitude" : "120.69371",
      "outDis" : "50",
      "Id" : "4286",
      "oid" : "7143",
      "districtId" : "1",
      "nameZh" : "青年高中",
      "pgp" : "0",
      "terminal" : "0",
      "latitude" : "24.08994",
      "inDis" : "50",
      "routeId" : "107",
      "seqNo" : "47"
   },
   {
      "GoBack" : "1",
      "longitude" : "120.69597",
      "outDis" : "50",
      "Id" : "4253",
      "oid" : "7170",
      "districtId" : "1",
      "nameZh" : "大里圖書館(中興路)",
      "pgp" : "0",
      "terminal" : "0",
      "latitude" : "24.08754",
      "inDis" : "50",
      "routeId" : "107",
      "seqNo" : "48"
   },
   {
      "GoBack" : "1",
      "longitude" : "120.69707",
      "outDis" : "50",
      "Id" : "2866",
      "oid" : "7383",
      "districtId" : "1",
      "nameZh" : "草湖",
      "pgp" : "0",
      "terminal" : "0",
      "latitude" : "24.08409",
      "inDis" : "50",
      "routeId" : "107",
      "seqNo" : "49"
   },
   {
      "GoBack" : "1",
      "longitude" : "120.69827",
      "outDis" : "50",
      "Id" : "4349",
      "oid" : "7386",
      "districtId" : "1",
      "nameZh" : "中興東南路口",
      "pgp" : "0",
      "terminal" : "0",
      "latitude" : "24.08061",
      "inDis" : "50",
      "routeId" : "107",
      "seqNo" : "50"
   },
   {
      "GoBack" : "1",
      "longitude" : "120.69947",
      "outDis" : "50",
      "Id" : "2062",
      "oid" : "13155",
      "districtId" : "1",
      "nameZh" : "中正吉峰路口",
      "pgp" : "0",
      "terminal" : "0",
      "latitude" : "24.0765",
      "inDis" : "50",
      "routeId" : "107",
      "seqNo" : "51"
   },
   {
      "GoBack" : "1",
      "longitude" : "120.69981",
      "outDis" : "50",
      "Id" : "3980",
      "oid" : "7631",
      "districtId" : "1",
      "nameZh" : "霧峰農工",
      "pgp" : "0",
      "terminal" : "0",
      "latitude" : "24.07378",
      "inDis" : "50",
      "routeId" : "107",
      "seqNo" : "52"
   },
   {
      "GoBack" : "1",
      "longitude" : "120.69928",
      "outDis" : "50",
      "Id" : "1994",
      "oid" : "311784445",
      "districtId" : "1",
      "nameZh" : "甲寅",
      "pgp" : "0",
      "terminal" : "0",
      "latitude" : "24.0697",
      "inDis" : "50",
      "routeId" : "107",
      "seqNo" : "53"
   },
   {
      "GoBack" : "1",
      "longitude" : "120.6989",
      "outDis" : "50",
      "Id" : "4972",
      "oid" : "7027",
      "districtId" : "1",
      "nameZh" : "中正草湖路口",
      "pgp" : "0",
      "terminal" : "0",
      "latitude" : "24.067",
      "inDis" : "50",
      "routeId" : "107",
      "seqNo" : "54"
   },
   {
      "GoBack" : "1",
      "longitude" : "120.69867",
      "outDis" : "50",
      "Id" : "3972",
      "oid" : "7626",
      "districtId" : "1",
      "nameZh" : "霧峰",
      "pgp" : "0",
      "terminal" : "0",
      "latitude" : "24.0641",
      "inDis" : "50",
      "routeId" : "107",
      "seqNo" : "55"
   },
   {
      "GoBack" : "1",
      "longitude" : "120.6984",
      "outDis" : "50",
      "Id" : "3978",
      "oid" : "13223",
      "districtId" : "1",
      "nameZh" : "霧峰郵局",
      "pgp" : "0",
      "terminal" : "0",
      "latitude" : "24.06174",
      "inDis" : "50",
      "routeId" : "107",
      "seqNo" : "56"
   },
   {
      "GoBack" : "1",
      "longitude" : "120.69807",
      "outDis" : "50",
      "Id" : "5546",
      "oid" : "316462698",
      "districtId" : "1",
      "nameZh" : "教育部國教署",
      "pgp" : "0",
      "terminal" : "0",
      "latitude" : "24.05974",
      "inDis" : "50",
      "routeId" : "107",
      "seqNo" : "57"
   },
   {
      "GoBack" : "1",
      "longitude" : "120.69778",
      "outDis" : "50",
      "Id" : "3976",
      "oid" : "7629",
      "districtId" : "1",
      "nameZh" : "霧峰國小",
      "pgp" : "0",
      "terminal" : "0",
      "latitude" : "24.05761",
      "inDis" : "50",
      "routeId" : "107",
      "seqNo" : "58"
   },
   {
      "GoBack" : "1",
      "longitude" : "120.69701",
      "outDis" : "50",
      "Id" : "2692",
      "oid" : "7175",
      "districtId" : "1",
      "nameZh" : "省議會",
      "pgp" : "0",
      "terminal" : "0",
      "latitude" : "24.05533",
      "inDis" : "50",
      "routeId" : "107",
      "seqNo" : "59"
   },
   {
      "GoBack" : "1",
      "longitude" : "120.69403",
      "outDis" : "50",
      "Id" : "1026",
      "oid" : "7190",
      "districtId" : "1",
      "nameZh" : "八德橋",
      "pgp" : "0",
      "terminal" : "0",
      "latitude" : "24.0495",
      "inDis" : "50",
      "routeId" : "107",
      "seqNo" : "60"
   },
   {
      "GoBack" : "1",
      "longitude" : "120.69236",
      "outDis" : "50",
      "Id" : "2048",
      "oid" : "7058",
      "districtId" : "1",
      "nameZh" : "光復新村",
      "pgp" : "0",
      "terminal" : "0",
      "latitude" : "24.04592",
      "inDis" : "50",
      "routeId" : "107",
      "seqNo" : "61"
   },
   {
      "GoBack" : "1",
      "longitude" : "120.69187",
      "outDis" : "50",
      "Id" : "1588",
      "oid" : "5403",
      "districtId" : "1",
      "nameZh" : "六股",
      "pgp" : "0",
      "terminal" : "0",
      "latitude" : "24.04164",
      "inDis" : "50",
      "routeId" : "107",
      "seqNo" : "62"
   },
   {
      "GoBack" : "1",
      "longitude" : "120.69304",
      "outDis" : "50",
      "Id" : "1400",
      "oid" : "5295",
      "districtId" : "1",
      "nameZh" : "山腳巷",
      "pgp" : "0",
      "terminal" : "0",
      "latitude" : "24.03852",
      "inDis" : "50",
      "routeId" : "107",
      "seqNo" : "63"
   },
   {
      "GoBack" : "1",
      "longitude" : "120.69372",
      "outDis" : "50",
      "Id" : "2304",
      "oid" : "5828",
      "districtId" : "1",
      "nameZh" : "味全工廠",
      "pgp" : "0",
      "terminal" : "0",
      "latitude" : "24.0347",
      "inDis" : "50",
      "routeId" : "107",
      "seqNo" : "64"
   },
   {
      "GoBack" : "1",
      "longitude" : "120.6968",
      "outDis" : "50",
      "Id" : "3533",
      "oid" : "6504",
      "districtId" : "1",
      "nameZh" : "農試所",
      "pgp" : "0",
      "terminal" : "0",
      "latitude" : "24.02934",
      "inDis" : "50",
      "routeId" : "107",
      "seqNo" : "65"
   },
   {
      "GoBack" : "1",
      "longitude" : "120.69683",
      "outDis" : "50",
      "Id" : "3504",
      "oid" : "6493",
      "districtId" : "1",
      "nameZh" : "萬豐",
      "pgp" : "0",
      "terminal" : "0",
      "latitude" : "24.02653",
      "inDis" : "50",
      "routeId" : "107",
      "seqNo" : "66"
   },
   {
      "GoBack" : "1",
      "longitude" : "120.69662",
      "outDis" : "50",
      "Id" : "4410",
      "oid" : "304286678",
      "districtId" : "1",
      "nameZh" : "全家福社區",
      "pgp" : "0",
      "terminal" : "0",
      "latitude" : "24.0241",
      "inDis" : "50",
      "routeId" : "107",
      "seqNo" : "67"
   },
   {
      "GoBack" : "1",
      "longitude" : "120.69632",
      "outDis" : "50",
      "Id" : "3944",
      "oid" : "311348105",
      "districtId" : "1",
      "nameZh" : "豐營",
      "pgp" : "0",
      "terminal" : "0",
      "latitude" : "24.02091",
      "inDis" : "50",
      "routeId" : "107",
      "seqNo" : "68"
   },
   {
      "GoBack" : "1",
      "longitude" : "120.69604",
      "outDis" : "50",
      "Id" : "3534",
      "oid" : "6505",
      "districtId" : "1",
      "nameZh" : "農試所宿舍",
      "pgp" : "0",
      "terminal" : "0",
      "latitude" : "24.0173",
      "inDis" : "50",
      "routeId" : "107",
      "seqNo" : "69"
   },
   {
      "GoBack" : "1",
      "longitude" : "120.69571",
      "outDis" : "50",
      "Id" : "3911",
      "oid" : "6681",
      "districtId" : "1",
      "nameZh" : "舊正(烏溪橋頭)",
      "pgp" : "0",
      "terminal" : "0",
      "latitude" : "24.01448",
      "inDis" : "50",
      "routeId" : "107",
      "seqNo" : "70"
   },
   {
      "GoBack" : "2",
      "longitude" : "120.6957",
      "outDis" : "50",
      "Id" : "3911",
      "oid" : "6682",
      "districtId" : "1",
      "nameZh" : "舊正(烏溪橋頭)",
      "pgp" : "0",
      "terminal" : "0",
      "latitude" : "24.01476",
      "inDis" : "50",
      "routeId" : "107",
      "seqNo" : "1"
   },
   {
      "GoBack" : "2",
      "longitude" : "120.69601",
      "outDis" : "50",
      "Id" : "3534",
      "oid" : "8079",
      "districtId" : "1",
      "nameZh" : "農試所宿舍",
      "pgp" : "0",
      "terminal" : "0",
      "latitude" : "24.01868",
      "inDis" : "50",
      "routeId" : "107",
      "seqNo" : "2"
   },
   {
      "GoBack" : "2",
      "longitude" : "120.69632",
      "outDis" : "50",
      "Id" : "3944",
      "oid" : "311348105",
      "districtId" : "1",
      "nameZh" : "豐營",
      "pgp" : "0",
      "terminal" : "0",
      "latitude" : "24.02091",
      "inDis" : "50",
      "routeId" : "107",
      "seqNo" : "3"
   },
   {
      "GoBack" : "2",
      "longitude" : "120.69653",
      "outDis" : "50",
      "Id" : "4410",
      "oid" : "304286679",
      "districtId" : "1",
      "nameZh" : "全家福社區",
      "pgp" : "0",
      "terminal" : "0",
      "latitude" : "24.02414",
      "inDis" : "50",
      "routeId" : "107",
      "seqNo" : "4"
   },
   {
      "GoBack" : "2",
      "longitude" : "120.6967",
      "outDis" : "50",
      "Id" : "3504",
      "oid" : "6494",
      "districtId" : "1",
      "nameZh" : "萬豐",
      "pgp" : "0",
      "terminal" : "0",
      "latitude" : "24.0259",
      "inDis" : "50",
      "routeId" : "107",
      "seqNo" : "5"
   },
   {
      "GoBack" : "2",
      "longitude" : "120.69681",
      "outDis" : "50",
      "Id" : "3533",
      "oid" : "9898",
      "districtId" : "1",
      "nameZh" : "農試所",
      "pgp" : "0",
      "terminal" : "0",
      "latitude" : "24.02948",
      "inDis" : "50",
      "routeId" : "107",
      "seqNo" : "6"
   },
   {
      "GoBack" : "2",
      "longitude" : "120.69407",
      "outDis" : "50",
      "Id" : "2304",
      "oid" : "7101",
      "districtId" : "1",
      "nameZh" : "味全工廠",
      "pgp" : "0",
      "terminal" : "0",
      "latitude" : "24.0341",
      "inDis" : "50",
      "routeId" : "107",
      "seqNo" : "7"
   },
   {
      "GoBack" : "2",
      "longitude" : "120.69304",
      "outDis" : "50",
      "Id" : "1400",
      "oid" : "7929",
      "districtId" : "1",
      "nameZh" : "山腳巷",
      "pgp" : "0",
      "terminal" : "0",
      "latitude" : "24.03852",
      "inDis" : "50",
      "routeId" : "107",
      "seqNo" : "8"
   },
   {
      "GoBack" : "2",
      "longitude" : "120.69181",
      "outDis" : "50",
      "Id" : "1588",
      "oid" : "5404",
      "districtId" : "1",
      "nameZh" : "六股",
      "pgp" : "0",
      "terminal" : "0",
      "latitude" : "24.04138",
      "inDis" : "50",
      "routeId" : "107",
      "seqNo" : "9"
   },
   {
      "GoBack" : "2",
      "longitude" : "120.69237",
      "outDis" : "50",
      "Id" : "2048",
      "oid" : "5687",
      "districtId" : "1",
      "nameZh" : "光復新村",
      "pgp" : "0",
      "terminal" : "0",
      "latitude" : "24.0455",
      "inDis" : "50",
      "routeId" : "107",
      "seqNo" : "10"
   },
   {
      "GoBack" : "2",
      "longitude" : "120.69403",
      "outDis" : "50",
      "Id" : "1026",
      "oid" : "7190",
      "districtId" : "1",
      "nameZh" : "八德橋",
      "pgp" : "0",
      "terminal" : "0",
      "latitude" : "24.0495",
      "inDis" : "50",
      "routeId" : "107",
      "seqNo" : "11"
   },
   {
      "GoBack" : "2",
      "longitude" : "120.69701",
      "outDis" : "50",
      "Id" : "2692",
      "oid" : "7175",
      "districtId" : "1",
      "nameZh" : "省議會",
      "pgp" : "0",
      "terminal" : "0",
      "latitude" : "24.05533",
      "inDis" : "50",
      "routeId" : "107",
      "seqNo" : "12"
   },
   {
      "GoBack" : "2",
      "longitude" : "120.69778",
      "outDis" : "50",
      "Id" : "3976",
      "oid" : "7629",
      "districtId" : "1",
      "nameZh" : "霧峰國小",
      "pgp" : "0",
      "terminal" : "0",
      "latitude" : "24.05761",
      "inDis" : "50",
      "routeId" : "107",
      "seqNo" : "13"
   },
   {
      "GoBack" : "2",
      "longitude" : "120.69807",
      "outDis" : "50",
      "Id" : "5546",
      "oid" : "316462698",
      "districtId" : "1",
      "nameZh" : "教育部國教署",
      "pgp" : "0",
      "terminal" : "0",
      "latitude" : "24.05974",
      "inDis" : "50",
      "routeId" : "107",
      "seqNo" : "14"
   },
   {
      "GoBack" : "2",
      "longitude" : "120.6984",
      "outDis" : "50",
      "Id" : "3978",
      "oid" : "13223",
      "districtId" : "1",
      "nameZh" : "霧峰郵局",
      "pgp" : "0",
      "terminal" : "0",
      "latitude" : "24.06174",
      "inDis" : "50",
      "routeId" : "107",
      "seqNo" : "15"
   },
   {
      "GoBack" : "2",
      "longitude" : "120.69867",
      "outDis" : "50",
      "Id" : "3972",
      "oid" : "7626",
      "districtId" : "1",
      "nameZh" : "霧峰",
      "pgp" : "0",
      "terminal" : "0",
      "latitude" : "24.0641",
      "inDis" : "50",
      "routeId" : "107",
      "seqNo" : "16"
   },
   {
      "GoBack" : "2",
      "longitude" : "120.6989",
      "outDis" : "50",
      "Id" : "4972",
      "oid" : "7027",
      "districtId" : "1",
      "nameZh" : "中正草湖路口",
      "pgp" : "0",
      "terminal" : "0",
      "latitude" : "24.067",
      "inDis" : "50",
      "routeId" : "107",
      "seqNo" : "17"
   },
   {
      "GoBack" : "2",
      "longitude" : "120.69928",
      "outDis" : "50",
      "Id" : "1994",
      "oid" : "311784445",
      "districtId" : "1",
      "nameZh" : "甲寅",
      "pgp" : "0",
      "terminal" : "0",
      "latitude" : "24.0697",
      "inDis" : "50",
      "routeId" : "107",
      "seqNo" : "18"
   },
   {
      "GoBack" : "2",
      "longitude" : "120.69981",
      "outDis" : "50",
      "Id" : "3980",
      "oid" : "7631",
      "districtId" : "1",
      "nameZh" : "霧峰農工",
      "pgp" : "0",
      "terminal" : "0",
      "latitude" : "24.07378",
      "inDis" : "50",
      "routeId" : "107",
      "seqNo" : "19"
   },
   {
      "GoBack" : "2",
      "longitude" : "120.69987",
      "outDis" : "50",
      "Id" : "2062",
      "oid" : "13156",
      "districtId" : "1",
      "nameZh" : "中正吉峰路口",
      "pgp" : "0",
      "terminal" : "0",
      "latitude" : "24.07597",
      "inDis" : "50",
      "routeId" : "107",
      "seqNo" : "20"
   },
   {
      "GoBack" : "2",
      "longitude" : "120.69827",
      "outDis" : "50",
      "Id" : "4349",
      "oid" : "7386",
      "districtId" : "1",
      "nameZh" : "中興東南路口",
      "pgp" : "0",
      "terminal" : "0",
      "latitude" : "24.08061",
      "inDis" : "50",
      "routeId" : "107",
      "seqNo" : "21"
   },
   {
      "GoBack" : "2",
      "longitude" : "120.69707",
      "outDis" : "50",
      "Id" : "2866",
      "oid" : "7383",
      "districtId" : "1",
      "nameZh" : "草湖",
      "pgp" : "0",
      "terminal" : "0",
      "latitude" : "24.08409",
      "inDis" : "50",
      "routeId" : "107",
      "seqNo" : "22"
   },
   {
      "GoBack" : "2",
      "longitude" : "120.69635",
      "outDis" : "50",
      "Id" : "5034",
      "oid" : "309557183",
      "districtId" : "1",
      "nameZh" : "財政部印刷廠",
      "pgp" : "0",
      "terminal" : "0",
      "latitude" : "24.08663",
      "inDis" : "50",
      "routeId" : "107",
      "seqNo" : "23"
   },
   {
      "GoBack" : "2",
      "longitude" : "120.6954",
      "outDis" : "50",
      "Id" : "4253",
      "oid" : "7169",
      "districtId" : "1",
      "nameZh" : "大里圖書館(中興路)",
      "pgp" : "0",
      "terminal" : "0",
      "latitude" : "24.08862",
      "inDis" : "50",
      "routeId" : "107",
      "seqNo" : "24"
   },
   {
      "GoBack" : "2",
      "longitude" : "120.69371",
      "outDis" : "50",
      "Id" : "4286",
      "oid" : "7143",
      "districtId" : "1",
      "nameZh" : "青年高中",
      "pgp" : "0",
      "terminal" : "0",
      "latitude" : "24.08994",
      "inDis" : "50",
      "routeId" : "107",
      "seqNo" : "25"
   },
   {
      "GoBack" : "2",
      "longitude" : "120.69194",
      "outDis" : "50",
      "Id" : "4661",
      "oid" : "7292",
      "districtId" : "1",
      "nameZh" : "中興仁化路口",
      "pgp" : "0",
      "terminal" : "0",
      "latitude" : "24.09168",
      "inDis" : "50",
      "routeId" : "107",
      "seqNo" : "26"
   },
   {
      "GoBack" : "2",
      "longitude" : "120.68694",
      "outDis" : "50",
      "Id" : "1322",
      "oid" : "309974047",
      "districtId" : "1",
      "nameZh" : "大突寮(中興路)",
      "pgp" : "0",
      "terminal" : "0",
      "latitude" : "24.09735",
      "inDis" : "50",
      "routeId" : "107",
      "seqNo" : "27"
   },
   {
      "GoBack" : "2",
      "longitude" : "120.6879",
      "outDis" : "50",
      "Id" : "5151",
      "oid" : "12581",
      "districtId" : "1",
      "nameZh" : "兒童藝術館(中興路)",
      "pgp" : "0",
      "terminal" : "0",
      "latitude" : "24.10002",
      "inDis" : "50",
      "routeId" : "107",
      "seqNo" : "28"
   },
   {
      "GoBack" : "2",
      "longitude" : "120.68844",
      "outDis" : "50",
      "Id" : "1126",
      "oid" : "12471",
      "districtId" : "1",
      "nameZh" : "下內新",
      "pgp" : "0",
      "terminal" : "0",
      "latitude" : "24.10271",
      "inDis" : "50",
      "routeId" : "107",
      "seqNo" : "29"
   },
   {
      "GoBack" : "2",
      "longitude" : "120.68941",
      "outDis" : "50",
      "Id" : "2026",
      "oid" : "7054",
      "districtId" : "1",
      "nameZh" : "立人高中",
      "pgp" : "0",
      "terminal" : "0",
      "latitude" : "24.10584",
      "inDis" : "50",
      "routeId" : "107",
      "seqNo" : "30"
   },
   {
      "GoBack" : "2",
      "longitude" : "120.69003",
      "outDis" : "50",
      "Id" : "1363",
      "oid" : "7237",
      "districtId" : "1",
      "nameZh" : "中興大里路口",
      "pgp" : "0",
      "terminal" : "0",
      "latitude" : "24.10863",
      "inDis" : "50",
      "routeId" : "107",
      "seqNo" : "31"
   },
   {
      "GoBack" : "2",
      "longitude" : "120.69002",
      "outDis" : "50",
      "Id" : "1576",
      "oid" : "5394",
      "districtId" : "1",
      "nameZh" : "內新市場",
      "pgp" : "0",
      "terminal" : "0",
      "latitude" : "24.11079",
      "inDis" : "50",
      "routeId" : "107",
      "seqNo" : "32"
   },
   {
      "GoBack" : "2",
      "longitude" : "120.68986",
      "outDis" : "50",
      "Id" : "2691",
      "oid" : "7174",
      "districtId" : "1",
      "nameZh" : "省農會",
      "pgp" : "0",
      "terminal" : "0",
      "latitude" : "24.1125",
      "inDis" : "50",
      "routeId" : "107",
      "seqNo" : "33"
   },
   {
      "GoBack" : "2",
      "longitude" : "120.68974",
      "outDis" : "50",
      "Id" : "5485",
      "oid" : "314655296",
      "districtId" : "1",
      "nameZh" : "中興內新街口",
      "pgp" : "0",
      "terminal" : "0",
      "latitude" : "24.11408",
      "inDis" : "50",
      "routeId" : "107",
      "seqNo" : "34"
   },
   {
      "GoBack" : "2",
      "longitude" : "120.68958",
      "outDis" : "50",
      "Id" : "3280",
      "oid" : "7490",
      "districtId" : "1",
      "nameZh" : "菩提醫院",
      "pgp" : "0",
      "terminal" : "0",
      "latitude" : "24.11508",
      "inDis" : "50",
      "routeId" : "107",
      "seqNo" : "35"
   },
   {
      "GoBack" : "2",
      "longitude" : "120.68957",
      "outDis" : "50",
      "Id" : "3281",
      "oid" : "7493",
      "districtId" : "1",
      "nameZh" : "菸葉廠",
      "pgp" : "0",
      "terminal" : "0",
      "latitude" : "24.11794",
      "inDis" : "50",
      "routeId" : "107",
      "seqNo" : "36"
   },
   {
      "GoBack" : "2",
      "longitude" : "120.68598",
      "outDis" : "50",
      "Id" : "2591",
      "oid" : "7154",
      "districtId" : "1",
      "nameZh" : "南門橋頭",
      "pgp" : "0",
      "terminal" : "0",
      "latitude" : "24.12138",
      "inDis" : "50",
      "routeId" : "107",
      "seqNo" : "37"
   },
   {
      "GoBack" : "2",
      "longitude" : "120.68419",
      "outDis" : "50",
      "Id" : "0254",
      "oid" : "7119",
      "districtId" : "1",
      "nameZh" : "明德高中",
      "pgp" : "0",
      "terminal" : "0",
      "latitude" : "24.12273",
      "inDis" : "50",
      "routeId" : "107",
      "seqNo" : "38"
   },
   {
      "GoBack" : "2",
      "longitude" : "120.68421",
      "outDis" : "50",
      "Id" : "0255",
      "oid" : "7415",
      "districtId" : "1",
      "nameZh" : "南門仔",
      "pgp" : "0",
      "terminal" : "0",
      "latitude" : "24.1254",
      "inDis" : "50",
      "routeId" : "107",
      "seqNo" : "39"
   },
   {
      "GoBack" : "2",
      "longitude" : "120.68452",
      "outDis" : "75",
      "Id" : "5607",
      "oid" : "11026",
      "districtId" : "1",
      "nameZh" : "興大附農(臺中路)",
      "pgp" : "0",
      "terminal" : "0",
      "latitude" : "24.12696",
      "inDis" : "75",
      "routeId" : "107",
      "seqNo" : "40"
   },
   {
      "GoBack" : "2",
      "longitude" : "120.68502",
      "outDis" : "50",
      "Id" : "0257",
      "oid" : "7005",
      "districtId" : "1",
      "nameZh" : "臺中國小",
      "pgp" : "0",
      "terminal" : "0",
      "latitude" : "24.13026",
      "inDis" : "50",
      "routeId" : "107",
      "seqNo" : "41"
   },
   {
      "GoBack" : "2",
      "longitude" : "120.68392",
      "outDis" : "50",
      "Id" : "0049",
      "oid" : "7448",
      "districtId" : "1",
      "nameZh" : "第三市場(臺中家商)",
      "pgp" : "0",
      "terminal" : "0",
      "latitude" : "24.13256",
      "inDis" : "50",
      "routeId" : "107",
      "seqNo" : "42"
   },
   {
      "GoBack" : "2",
      "longitude" : "120.68328",
      "outDis" : "50",
      "Id" : "5595",
      "oid" : "317773393",
      "districtId" : "1",
      "nameZh" : "綠川西站(臺灣大道口)",
      "pgp" : "0",
      "terminal" : "0",
      "latitude" : "24.13815",
      "inDis" : "50",
      "routeId" : "107",
      "seqNo" : "43"
   },
   {
      "GoBack" : "2",
      "longitude" : "120.68281",
      "outDis" : "50",
      "Id" : "0151",
      "oid" : "7434",
      "districtId" : "1",
      "nameZh" : "第一廣場",
      "pgp" : "0",
      "terminal" : "0",
      "latitude" : "24.13973",
      "inDis" : "50",
      "routeId" : "107",
      "seqNo" : "44"
   },
   {
      "GoBack" : "2",
      "longitude" : "120.68212",
      "outDis" : "50",
      "Id" : "0206",
      "oid" : "05EFBC366538431D8D91D4F611EF8A0A",
      "districtId" : "1",
      "nameZh" : "第一信用",
      "pgp" : "0",
      "terminal" : "0",
      "latitude" : "24.14046",
      "inDis" : "50",
      "routeId" : "107",
      "seqNo" : "45"
   },
   {
      "GoBack" : "2",
      "longitude" : "120.67932",
      "outDis" : "50",
      "Id" : "4395",
      "oid" : "7438",
      "districtId" : "1",
      "nameZh" : "第二市場(臺灣大道)",
      "pgp" : "0",
      "terminal" : "0",
      "latitude" : "24.14272",
      "inDis" : "50",
      "routeId" : "107",
      "seqNo" : "46"
   },
   {
      "GoBack" : "2",
      "longitude" : "120.67692",
      "outDis" : "50",
      "Id" : "4375",
      "oid" : "7276",
      "districtId" : "1",
      "nameZh" : "臺灣大道中華路口",
      "pgp" : "0",
      "terminal" : "0",
      "latitude" : "24.14478",
      "inDis" : "50",
      "routeId" : "107",
      "seqNo" : "48"
   },
   {
      "GoBack" : "2",
      "longitude" : "120.67507",
      "outDis" : "50",
      "Id" : "5092",
      "oid" : "7260",
      "districtId" : "1",
      "nameZh" : "臺灣大道原子街口",
      "pgp" : "0",
      "terminal" : "0",
      "latitude" : "24.14634",
      "inDis" : "50",
      "routeId" : "107",
      "seqNo" : "49"
   },
   {
      "GoBack" : "2",
      "longitude" : "120.67155",
      "outDis" : "50",
      "Id" : "0723",
      "oid" : "7182",
      "districtId" : "1",
      "nameZh" : "茄苳腳",
      "pgp" : "0",
      "terminal" : "0",
      "latitude" : "24.14955",
      "inDis" : "50",
      "routeId" : "107",
      "seqNo" : "51"
   },
   {
      "GoBack" : "2",
      "longitude" : "120.66868",
      "outDis" : "50",
      "Id" : "5095",
      "oid" : "3634DB3B13954E5F8DC21394ED87E2E4",
      "districtId" : "1",
      "nameZh" : "公益臺灣大道口",
      "pgp" : "0",
      "terminal" : "0",
      "latitude" : "24.15084",
      "inDis" : "50",
      "routeId" : "107",
      "seqNo" : "52"
   },
   {
      "GoBack" : "2",
      "longitude" : "120.66452",
      "outDis" : "50",
      "Id" : "0276",
      "oid" : "4F2E759BF74D4FACBB506B5534004E99",
      "districtId" : "1",
      "nameZh" : "草悟道(市民廣場)",
      "pgp" : "0",
      "terminal" : "0",
      "latitude" : "24.15085",
      "inDis" : "50",
      "routeId" : "107",
      "seqNo" : "53"
   },
   {
      "GoBack" : "2",
      "longitude" : "120.66065",
      "outDis" : "50",
      "Id" : "0141",
      "oid" : "7263",
      "districtId" : "1",
      "nameZh" : "公益中美街口",
      "pgp" : "0",
      "terminal" : "0",
      "latitude" : "24.15081",
      "inDis" : "50",
      "routeId" : "107",
      "seqNo" : "54"
   },
   {
      "GoBack" : "2",
      "longitude" : "120.65786",
      "outDis" : "50",
      "Id" : "4587",
      "oid" : "7310",
      "districtId" : "1",
      "nameZh" : "公益公園(公益路)",
      "pgp" : "0",
      "terminal" : "0",
      "latitude" : "24.15086",
      "inDis" : "50",
      "routeId" : "107",
      "seqNo" : "55"
   },
   {
      "GoBack" : "2",
      "longitude" : "120.65592",
      "outDis" : "50",
      "Id" : "0140",
      "oid" : "7571",
      "districtId" : "1",
      "nameZh" : "公益精誠路口",
      "pgp" : "0",
      "terminal" : "0",
      "latitude" : "24.15091",
      "inDis" : "50",
      "routeId" : "107",
      "seqNo" : "56"
   },
   {
      "GoBack" : "2",
      "longitude" : "120.65296",
      "outDis" : "50",
      "Id" : "4553",
      "oid" : "7130",
      "districtId" : "1",
      "nameZh" : "公益東興路口",
      "pgp" : "0",
      "terminal" : "0",
      "latitude" : "24.15087",
      "inDis" : "50",
      "routeId" : "107",
      "seqNo" : "57"
   },
   {
      "GoBack" : "2",
      "longitude" : "120.64982",
      "outDis" : "50",
      "Id" : "0456",
      "oid" : "7309",
      "districtId" : "1",
      "nameZh" : "公益大墩路口",
      "pgp" : "0",
      "terminal" : "0",
      "latitude" : "24.1509",
      "inDis" : "50",
      "routeId" : "107",
      "seqNo" : "58"
   },
   {
      "GoBack" : "2",
      "longitude" : "120.64673",
      "outDis" : "50",
      "Id" : "1607",
      "oid" : "7311",
      "districtId" : "1",
      "nameZh" : "公益文心路口",
      "pgp" : "0",
      "terminal" : "0",
      "latitude" : "24.15084",
      "inDis" : "50",
      "routeId" : "107",
      "seqNo" : "59"
   },
   {
      "GoBack" : "2",
      "longitude" : "120.6433",
      "outDis" : "50",
      "Id" : "5476",
      "oid" : "7312",
      "districtId" : "1",
      "nameZh" : "臺中特殊教育學校",
      "pgp" : "0",
      "terminal" : "0",
      "latitude" : "24.15109",
      "inDis" : "50",
      "routeId" : "107",
      "seqNo" : "60"
   },
   {
      "GoBack" : "2",
      "longitude" : "120.64007",
      "outDis" : "50",
      "Id" : "0814",
      "oid" : "7471",
      "districtId" : "1",
      "nameZh" : "惠文高中(公益路)",
      "pgp" : "0",
      "terminal" : "0",
      "latitude" : "24.15129",
      "inDis" : "50",
      "routeId" : "107",
      "seqNo" : "61"
   },
   {
      "GoBack" : "2",
      "longitude" : "120.63779",
      "outDis" : "50",
      "Id" : "0815",
      "oid" : "F708C57B1383444497BF3D672BB0FAE7",
      "districtId" : "1",
      "nameZh" : "惠文國小",
      "pgp" : "0",
      "terminal" : "0",
      "latitude" : "24.15155",
      "inDis" : "50",
      "routeId" : "107",
      "seqNo" : "62"
   },
   {
      "GoBack" : "2",
      "longitude" : "120.63495",
      "outDis" : "75",
      "Id" : "4160",
      "oid" : "11153",
      "districtId" : "1",
      "nameZh" : "黎明大業路口",
      "pgp" : "0",
      "terminal" : "0",
      "latitude" : "24.15284",
      "inDis" : "75",
      "routeId" : "107",
      "seqNo" : "63"
   },
   {
      "GoBack" : "2",
      "longitude" : "120.6347",
      "outDis" : "50",
      "Id" : "3892",
      "oid" : "7607",
      "districtId" : "1",
      "nameZh" : "黎明新村(黎明路)",
      "pgp" : "0",
      "terminal" : "0",
      "latitude" : "24.15465",
      "inDis" : "50",
      "routeId" : "107",
      "seqNo" : "64"
   },
   {
      "GoBack" : "2",
      "longitude" : "120.63314",
      "outDis" : "50",
      "Id" : "0000",
      "oid" : "17E2945143B944449971196382AE3F81",
      "districtId" : "1",
      "nameZh" : "黎明派出所",
      "pgp" : "0",
      "terminal" : "0",
      "latitude" : "24.15566",
      "inDis" : "50",
      "routeId" : "107",
      "seqNo" : "65"
   },
   {
      "GoBack" : "2",
      "longitude" : "120.63181",
      "outDis" : "50",
      "Id" : "0057",
      "oid" : "7583",
      "districtId" : "1",
      "nameZh" : "黎明新村(博愛街)",
      "pgp" : "0",
      "terminal" : "0",
      "latitude" : "24.15376",
      "inDis" : "50",
      "routeId" : "107",
      "seqNo" : "66"
   }
]
