[
   {
      "GoBack" : "1",
      "longitude" : "120.82784",
      "outDis" : "80",
      "Id" : "2428",
      "oid" : "5899",
      "districtId" : "1",
      "nameZh" : "東勢",
      "pgp" : "0",
      "terminal" : "0",
      "latitude" : "24.25838",
      "inDis" : "50",
      "routeId" : "252",
      "seqNo" : "1"
   },
   {
      "GoBack" : "1",
      "longitude" : "120.82924",
      "outDis" : "50",
      "Id" : "2570",
      "oid" : "8023",
      "districtId" : "1",
      "nameZh" : "南平里",
      "pgp" : "0",
      "terminal" : "0",
      "latitude" : "24.25518",
      "inDis" : "50",
      "routeId" : "252",
      "seqNo" : "2"
   },
   {
      "GoBack" : "1",
      "longitude" : "120.82984",
      "outDis" : "50",
      "Id" : "1415",
      "oid" : "7930",
      "districtId" : "1",
      "nameZh" : "中嵙口",
      "pgp" : "0",
      "terminal" : "0",
      "latitude" : "24.25259",
      "inDis" : "50",
      "routeId" : "252",
      "seqNo" : "3"
   },
   {
      "GoBack" : "1",
      "longitude" : "120.83065",
      "outDis" : "80",
      "Id" : "4409",
      "oid" : "8005",
      "districtId" : "1",
      "nameZh" : "東勢南站",
      "pgp" : "0",
      "terminal" : "0",
      "latitude" : "24.24976",
      "inDis" : "50",
      "routeId" : "252",
      "seqNo" : "4"
   },
   {
      "GoBack" : "1",
      "longitude" : "120.83282",
      "outDis" : "50",
      "Id" : "2002",
      "oid" : "5655",
      "districtId" : "1",
      "nameZh" : "石角口",
      "pgp" : "0",
      "terminal" : "0",
      "latitude" : "24.24723",
      "inDis" : "50",
      "routeId" : "252",
      "seqNo" : "5"
   },
   {
      "GoBack" : "1",
      "longitude" : "120.8321",
      "outDis" : "50",
      "Id" : "4524",
      "oid" : "305529400",
      "districtId" : "1",
      "nameZh" : "東坑豐勢路口",
      "pgp" : "0",
      "terminal" : "0",
      "latitude" : "24.24749",
      "inDis" : "50",
      "routeId" : "252",
      "seqNo" : "6"
   },
   {
      "GoBack" : "1",
      "longitude" : "120.83707",
      "outDis" : "50",
      "Id" : "1339",
      "oid" : "5258",
      "districtId" : "1",
      "nameZh" : "大雪山後門",
      "pgp" : "0",
      "terminal" : "0",
      "latitude" : "24.24493",
      "inDis" : "50",
      "routeId" : "252",
      "seqNo" : "7"
   },
   {
      "GoBack" : "1",
      "longitude" : "120.84068",
      "outDis" : "50",
      "Id" : "2921",
      "oid" : "6174",
      "districtId" : "1",
      "nameZh" : "高簡",
      "pgp" : "0",
      "terminal" : "0",
      "latitude" : "24.24496",
      "inDis" : "50",
      "routeId" : "252",
      "seqNo" : "8"
   },
   {
      "GoBack" : "1",
      "longitude" : "120.84251",
      "outDis" : "50",
      "Id" : "1242",
      "oid" : "5186",
      "districtId" : "1",
      "nameZh" : "上高簡",
      "pgp" : "0",
      "terminal" : "0",
      "latitude" : "24.24493",
      "inDis" : "50",
      "routeId" : "252",
      "seqNo" : "9"
   },
   {
      "GoBack" : "1",
      "longitude" : "120.84601",
      "outDis" : "50",
      "Id" : "2217",
      "oid" : "5774",
      "districtId" : "1",
      "nameZh" : "伯公下",
      "pgp" : "0",
      "terminal" : "0",
      "latitude" : "24.2429",
      "inDis" : "50",
      "routeId" : "252",
      "seqNo" : "10"
   },
   {
      "GoBack" : "1",
      "longitude" : "120.8479",
      "outDis" : "50",
      "Id" : "1816",
      "oid" : "5542",
      "districtId" : "1",
      "nameZh" : "古靈堂",
      "pgp" : "0",
      "terminal" : "0",
      "latitude" : "24.24109",
      "inDis" : "50",
      "routeId" : "252",
      "seqNo" : "11"
   },
   {
      "GoBack" : "1",
      "longitude" : "120.85013",
      "outDis" : "50",
      "Id" : "2001",
      "oid" : "5653",
      "districtId" : "1",
      "nameZh" : "石角",
      "pgp" : "0",
      "terminal" : "0",
      "latitude" : "24.24041",
      "inDis" : "50",
      "routeId" : "252",
      "seqNo" : "12"
   },
   {
      "GoBack" : "1",
      "longitude" : "120.85152",
      "outDis" : "50",
      "Id" : "2003",
      "oid" : "5656",
      "districtId" : "1",
      "nameZh" : "石角國小",
      "pgp" : "0",
      "terminal" : "0",
      "latitude" : "24.23887",
      "inDis" : "50",
      "routeId" : "252",
      "seqNo" : "13"
   },
   {
      "GoBack" : "1",
      "longitude" : "120.85426",
      "outDis" : "50",
      "Id" : "1227",
      "oid" : "5175",
      "districtId" : "1",
      "nameZh" : "上石角",
      "pgp" : "0",
      "terminal" : "0",
      "latitude" : "24.23618",
      "inDis" : "50",
      "routeId" : "252",
      "seqNo" : "14"
   },
   {
      "GoBack" : "1",
      "longitude" : "120.86117",
      "outDis" : "50",
      "Id" : "3312",
      "oid" : "6385",
      "districtId" : "1",
      "nameZh" : "雲仙洞",
      "pgp" : "0",
      "terminal" : "0",
      "latitude" : "24.23723",
      "inDis" : "50",
      "routeId" : "252",
      "seqNo" : "15"
   },
   {
      "GoBack" : "1",
      "longitude" : "120.86353",
      "outDis" : "50",
      "Id" : "2018",
      "oid" : "5667",
      "districtId" : "1",
      "nameZh" : "石橋頭前",
      "pgp" : "0",
      "terminal" : "0",
      "latitude" : "24.23974",
      "inDis" : "50",
      "routeId" : "252",
      "seqNo" : "16"
   },
   {
      "GoBack" : "1",
      "longitude" : "120.86816",
      "outDis" : "50",
      "Id" : "2324",
      "oid" : "5843",
      "districtId" : "1",
      "nameZh" : "坪埔",
      "pgp" : "0",
      "terminal" : "0",
      "latitude" : "24.241",
      "inDis" : "50",
      "routeId" : "252",
      "seqNo" : "17"
   },
   {
      "GoBack" : "1",
      "longitude" : "120.87327",
      "outDis" : "50",
      "Id" : "3881",
      "oid" : "6666",
      "districtId" : "1",
      "nameZh" : "檢查站",
      "pgp" : "0",
      "terminal" : "0",
      "latitude" : "24.24027",
      "inDis" : "50",
      "routeId" : "252",
      "seqNo" : "18"
   },
   {
      "GoBack" : "1",
      "longitude" : "120.87836",
      "outDis" : "50",
      "Id" : "3449",
      "oid" : "6467",
      "districtId" : "1",
      "nameZh" : "楊桃樹腳",
      "pgp" : "0",
      "terminal" : "0",
      "latitude" : "24.23691",
      "inDis" : "50",
      "routeId" : "252",
      "seqNo" : "19"
   },
   {
      "GoBack" : "1",
      "longitude" : "120.87783",
      "outDis" : "50",
      "Id" : "5211",
      "oid" : "310787728",
      "districtId" : "1",
      "nameZh" : "下楊桃樹腳",
      "pgp" : "0",
      "terminal" : "0",
      "latitude" : "24.23398",
      "inDis" : "50",
      "routeId" : "252",
      "seqNo" : "20"
   },
   {
      "GoBack" : "1",
      "longitude" : "120.87886",
      "outDis" : "50",
      "Id" : "5213",
      "oid" : "310787732",
      "districtId" : "1",
      "nameZh" : "上小南坑",
      "pgp" : "0",
      "terminal" : "0",
      "latitude" : "24.22969",
      "inDis" : "50",
      "routeId" : "252",
      "seqNo" : "21"
   },
   {
      "GoBack" : "1",
      "longitude" : "120.8789",
      "outDis" : "50",
      "Id" : "1384",
      "oid" : "5285",
      "districtId" : "1",
      "nameZh" : "小南坑",
      "pgp" : "0",
      "terminal" : "0",
      "latitude" : "24.22751",
      "inDis" : "50",
      "routeId" : "252",
      "seqNo" : "22"
   },
   {
      "GoBack" : "1",
      "longitude" : "120.87817",
      "outDis" : "50",
      "Id" : "0985",
      "oid" : "311159722",
      "districtId" : "1",
      "nameZh" : "七公里",
      "pgp" : "0",
      "terminal" : "0",
      "latitude" : "24.22394",
      "inDis" : "50",
      "routeId" : "252",
      "seqNo" : "23"
   },
   {
      "GoBack" : "1",
      "longitude" : "120.87944",
      "outDis" : "50",
      "Id" : "1018",
      "oid" : "5041",
      "districtId" : "1",
      "nameZh" : "八公里",
      "pgp" : "0",
      "terminal" : "0",
      "latitude" : "24.21904",
      "inDis" : "50",
      "routeId" : "252",
      "seqNo" : "24"
   },
   {
      "GoBack" : "1",
      "longitude" : "120.88277",
      "outDis" : "50",
      "Id" : "1319",
      "oid" : "5240",
      "districtId" : "1",
      "nameZh" : "大南坑",
      "pgp" : "0",
      "terminal" : "0",
      "latitude" : "24.21422",
      "inDis" : "50",
      "routeId" : "252",
      "seqNo" : "25"
   },
   {
      "GoBack" : "1",
      "longitude" : "120.88412",
      "outDis" : "50",
      "Id" : "5202",
      "oid" : "310787710",
      "districtId" : "1",
      "nameZh" : "九公里",
      "pgp" : "0",
      "terminal" : "0",
      "latitude" : "24.21512",
      "inDis" : "50",
      "routeId" : "252",
      "seqNo" : "26"
   },
   {
      "GoBack" : "1",
      "longitude" : "120.88903",
      "outDis" : "50",
      "Id" : "1038",
      "oid" : "5052",
      "districtId" : "1",
      "nameZh" : "十公里",
      "pgp" : "0",
      "terminal" : "0",
      "latitude" : "24.21784",
      "inDis" : "50",
      "routeId" : "252",
      "seqNo" : "27"
   },
   {
      "GoBack" : "1",
      "longitude" : "120.88739",
      "outDis" : "50",
      "Id" : "1027",
      "oid" : "5047",
      "districtId" : "1",
      "nameZh" : "十一公里",
      "pgp" : "0",
      "terminal" : "0",
      "latitude" : "24.2206",
      "inDis" : "50",
      "routeId" : "252",
      "seqNo" : "28"
   },
   {
      "GoBack" : "1",
      "longitude" : "120.89415",
      "outDis" : "50",
      "Id" : "1029",
      "oid" : "5048",
      "districtId" : "1",
      "nameZh" : "十二公里",
      "pgp" : "0",
      "terminal" : "0",
      "latitude" : "24.22085",
      "inDis" : "50",
      "routeId" : "252",
      "seqNo" : "29"
   },
   {
      "GoBack" : "1",
      "longitude" : "120.8959",
      "outDis" : "50",
      "Id" : "1032",
      "oid" : "5050",
      "districtId" : "1",
      "nameZh" : "十三公里",
      "pgp" : "0",
      "terminal" : "0",
      "latitude" : "24.22576",
      "inDis" : "50",
      "routeId" : "252",
      "seqNo" : "30"
   },
   {
      "GoBack" : "1",
      "longitude" : "120.90027",
      "outDis" : "50",
      "Id" : "1042",
      "oid" : "5055",
      "districtId" : "1",
      "nameZh" : "十四公里",
      "pgp" : "0",
      "terminal" : "0",
      "latitude" : "24.23267",
      "inDis" : "50",
      "routeId" : "252",
      "seqNo" : "31"
   },
   {
      "GoBack" : "1",
      "longitude" : "120.90688",
      "outDis" : "50",
      "Id" : "5302",
      "oid" : "311033709",
      "districtId" : "1",
      "nameZh" : "十五公里",
      "pgp" : "0",
      "terminal" : "0",
      "latitude" : "24.23924",
      "inDis" : "50",
      "routeId" : "252",
      "seqNo" : "32"
   },
   {
      "GoBack" : "1",
      "longitude" : "120.90703",
      "outDis" : "50",
      "Id" : "3783",
      "oid" : "6623",
      "districtId" : "1",
      "nameZh" : "橫流溪",
      "pgp" : "0",
      "terminal" : "0",
      "latitude" : "24.24073",
      "inDis" : "50",
      "routeId" : "252",
      "seqNo" : "33"
   },
   {
      "GoBack" : "1",
      "longitude" : "121.00787",
      "outDis" : "50",
      "Id" : "3535",
      "oid" : "6506",
      "districtId" : "1",
      "nameZh" : "遊客中心",
      "pgp" : "0",
      "terminal" : "0",
      "latitude" : "24.25623",
      "inDis" : "50",
      "routeId" : "252",
      "seqNo" : "34"
   },
   {
      "GoBack" : "1",
      "longitude" : "121.02873",
      "outDis" : "50",
      "Id" : "5219",
      "oid" : "310787744",
      "districtId" : "1",
      "nameZh" : "大雪山森林遊樂區",
      "pgp" : "0",
      "terminal" : "0",
      "latitude" : "24.28251",
      "inDis" : "50",
      "routeId" : "252",
      "seqNo" : "35"
   },
   {
      "GoBack" : "2",
      "longitude" : "121.02873",
      "outDis" : "50",
      "Id" : "5219",
      "oid" : "310787744",
      "districtId" : "1",
      "nameZh" : "大雪山森林遊樂區",
      "pgp" : "0",
      "terminal" : "0",
      "latitude" : "24.28251",
      "inDis" : "50",
      "routeId" : "252",
      "seqNo" : "1"
   },
   {
      "GoBack" : "2",
      "longitude" : "121.00787",
      "outDis" : "50",
      "Id" : "3535",
      "oid" : "6506",
      "districtId" : "1",
      "nameZh" : "遊客中心",
      "pgp" : "0",
      "terminal" : "0",
      "latitude" : "24.25623",
      "inDis" : "50",
      "routeId" : "252",
      "seqNo" : "2"
   },
   {
      "GoBack" : "2",
      "longitude" : "120.90703",
      "outDis" : "50",
      "Id" : "3783",
      "oid" : "6623",
      "districtId" : "1",
      "nameZh" : "橫流溪",
      "pgp" : "0",
      "terminal" : "0",
      "latitude" : "24.24073",
      "inDis" : "50",
      "routeId" : "252",
      "seqNo" : "3"
   },
   {
      "GoBack" : "2",
      "longitude" : "120.90688",
      "outDis" : "50",
      "Id" : "5302",
      "oid" : "311033709",
      "districtId" : "1",
      "nameZh" : "十五公里",
      "pgp" : "0",
      "terminal" : "0",
      "latitude" : "24.23924",
      "inDis" : "50",
      "routeId" : "252",
      "seqNo" : "4"
   },
   {
      "GoBack" : "2",
      "longitude" : "120.90027",
      "outDis" : "50",
      "Id" : "1042",
      "oid" : "5055",
      "districtId" : "1",
      "nameZh" : "十四公里",
      "pgp" : "0",
      "terminal" : "0",
      "latitude" : "24.23267",
      "inDis" : "50",
      "routeId" : "252",
      "seqNo" : "5"
   },
   {
      "GoBack" : "2",
      "longitude" : "120.8959",
      "outDis" : "50",
      "Id" : "1032",
      "oid" : "5050",
      "districtId" : "1",
      "nameZh" : "十三公里",
      "pgp" : "0",
      "terminal" : "0",
      "latitude" : "24.22576",
      "inDis" : "50",
      "routeId" : "252",
      "seqNo" : "6"
   },
   {
      "GoBack" : "2",
      "longitude" : "120.89415",
      "outDis" : "50",
      "Id" : "1029",
      "oid" : "5048",
      "districtId" : "1",
      "nameZh" : "十二公里",
      "pgp" : "0",
      "terminal" : "0",
      "latitude" : "24.22085",
      "inDis" : "50",
      "routeId" : "252",
      "seqNo" : "7"
   },
   {
      "GoBack" : "2",
      "longitude" : "120.88739",
      "outDis" : "50",
      "Id" : "1027",
      "oid" : "5047",
      "districtId" : "1",
      "nameZh" : "十一公里",
      "pgp" : "0",
      "terminal" : "0",
      "latitude" : "24.2206",
      "inDis" : "50",
      "routeId" : "252",
      "seqNo" : "8"
   },
   {
      "GoBack" : "2",
      "longitude" : "120.88903",
      "outDis" : "50",
      "Id" : "1038",
      "oid" : "5052",
      "districtId" : "1",
      "nameZh" : "十公里",
      "pgp" : "0",
      "terminal" : "0",
      "latitude" : "24.21784",
      "inDis" : "50",
      "routeId" : "252",
      "seqNo" : "9"
   },
   {
      "GoBack" : "2",
      "longitude" : "120.88412",
      "outDis" : "50",
      "Id" : "5202",
      "oid" : "310787710",
      "districtId" : "1",
      "nameZh" : "九公里",
      "pgp" : "0",
      "terminal" : "0",
      "latitude" : "24.21512",
      "inDis" : "50",
      "routeId" : "252",
      "seqNo" : "10"
   },
   {
      "GoBack" : "2",
      "longitude" : "120.88277",
      "outDis" : "50",
      "Id" : "1319",
      "oid" : "5240",
      "districtId" : "1",
      "nameZh" : "大南坑",
      "pgp" : "0",
      "terminal" : "0",
      "latitude" : "24.21422",
      "inDis" : "50",
      "routeId" : "252",
      "seqNo" : "11"
   },
   {
      "GoBack" : "2",
      "longitude" : "120.87944",
      "outDis" : "50",
      "Id" : "1018",
      "oid" : "5041",
      "districtId" : "1",
      "nameZh" : "八公里",
      "pgp" : "0",
      "terminal" : "0",
      "latitude" : "24.21904",
      "inDis" : "50",
      "routeId" : "252",
      "seqNo" : "12"
   },
   {
      "GoBack" : "2",
      "longitude" : "120.87817",
      "outDis" : "50",
      "Id" : "0985",
      "oid" : "311159722",
      "districtId" : "1",
      "nameZh" : "七公里",
      "pgp" : "0",
      "terminal" : "0",
      "latitude" : "24.22394",
      "inDis" : "50",
      "routeId" : "252",
      "seqNo" : "13"
   },
   {
      "GoBack" : "2",
      "longitude" : "120.8789",
      "outDis" : "50",
      "Id" : "1384",
      "oid" : "5285",
      "districtId" : "1",
      "nameZh" : "小南坑",
      "pgp" : "0",
      "terminal" : "0",
      "latitude" : "24.22751",
      "inDis" : "50",
      "routeId" : "252",
      "seqNo" : "14"
   },
   {
      "GoBack" : "2",
      "longitude" : "120.87886",
      "outDis" : "50",
      "Id" : "5213",
      "oid" : "310787732",
      "districtId" : "1",
      "nameZh" : "上小南坑",
      "pgp" : "0",
      "terminal" : "0",
      "latitude" : "24.22969",
      "inDis" : "50",
      "routeId" : "252",
      "seqNo" : "15"
   },
   {
      "GoBack" : "2",
      "longitude" : "120.87783",
      "outDis" : "50",
      "Id" : "5211",
      "oid" : "310787728",
      "districtId" : "1",
      "nameZh" : "下楊桃樹腳",
      "pgp" : "0",
      "terminal" : "0",
      "latitude" : "24.23398",
      "inDis" : "50",
      "routeId" : "252",
      "seqNo" : "16"
   },
   {
      "GoBack" : "2",
      "longitude" : "120.87836",
      "outDis" : "50",
      "Id" : "3449",
      "oid" : "6467",
      "districtId" : "1",
      "nameZh" : "楊桃樹腳",
      "pgp" : "0",
      "terminal" : "0",
      "latitude" : "24.23691",
      "inDis" : "50",
      "routeId" : "252",
      "seqNo" : "17"
   },
   {
      "GoBack" : "2",
      "longitude" : "120.87327",
      "outDis" : "50",
      "Id" : "3881",
      "oid" : "6666",
      "districtId" : "1",
      "nameZh" : "檢查站",
      "pgp" : "0",
      "terminal" : "0",
      "latitude" : "24.24027",
      "inDis" : "50",
      "routeId" : "252",
      "seqNo" : "18"
   },
   {
      "GoBack" : "2",
      "longitude" : "120.86816",
      "outDis" : "50",
      "Id" : "2324",
      "oid" : "5843",
      "districtId" : "1",
      "nameZh" : "坪埔",
      "pgp" : "0",
      "terminal" : "0",
      "latitude" : "24.241",
      "inDis" : "50",
      "routeId" : "252",
      "seqNo" : "19"
   },
   {
      "GoBack" : "2",
      "longitude" : "120.86353",
      "outDis" : "50",
      "Id" : "2018",
      "oid" : "5667",
      "districtId" : "1",
      "nameZh" : "石橋頭前",
      "pgp" : "0",
      "terminal" : "0",
      "latitude" : "24.23974",
      "inDis" : "50",
      "routeId" : "252",
      "seqNo" : "20"
   },
   {
      "GoBack" : "2",
      "longitude" : "120.86117",
      "outDis" : "50",
      "Id" : "3312",
      "oid" : "6385",
      "districtId" : "1",
      "nameZh" : "雲仙洞",
      "pgp" : "0",
      "terminal" : "0",
      "latitude" : "24.23723",
      "inDis" : "50",
      "routeId" : "252",
      "seqNo" : "21"
   },
   {
      "GoBack" : "2",
      "longitude" : "120.85426",
      "outDis" : "50",
      "Id" : "1227",
      "oid" : "5175",
      "districtId" : "1",
      "nameZh" : "上石角",
      "pgp" : "0",
      "terminal" : "0",
      "latitude" : "24.23618",
      "inDis" : "50",
      "routeId" : "252",
      "seqNo" : "22"
   },
   {
      "GoBack" : "2",
      "longitude" : "120.85152",
      "outDis" : "50",
      "Id" : "2003",
      "oid" : "5656",
      "districtId" : "1",
      "nameZh" : "石角國小",
      "pgp" : "0",
      "terminal" : "0",
      "latitude" : "24.23887",
      "inDis" : "50",
      "routeId" : "252",
      "seqNo" : "23"
   },
   {
      "GoBack" : "2",
      "longitude" : "120.85013",
      "outDis" : "50",
      "Id" : "2001",
      "oid" : "5653",
      "districtId" : "1",
      "nameZh" : "石角",
      "pgp" : "0",
      "terminal" : "0",
      "latitude" : "24.24041",
      "inDis" : "50",
      "routeId" : "252",
      "seqNo" : "24"
   },
   {
      "GoBack" : "2",
      "longitude" : "120.8479",
      "outDis" : "50",
      "Id" : "1816",
      "oid" : "5542",
      "districtId" : "1",
      "nameZh" : "古靈堂",
      "pgp" : "0",
      "terminal" : "0",
      "latitude" : "24.24109",
      "inDis" : "50",
      "routeId" : "252",
      "seqNo" : "25"
   },
   {
      "GoBack" : "2",
      "longitude" : "120.84601",
      "outDis" : "50",
      "Id" : "2217",
      "oid" : "5774",
      "districtId" : "1",
      "nameZh" : "伯公下",
      "pgp" : "0",
      "terminal" : "0",
      "latitude" : "24.2429",
      "inDis" : "50",
      "routeId" : "252",
      "seqNo" : "26"
   },
   {
      "GoBack" : "2",
      "longitude" : "120.84251",
      "outDis" : "50",
      "Id" : "1242",
      "oid" : "5186",
      "districtId" : "1",
      "nameZh" : "上高簡",
      "pgp" : "0",
      "terminal" : "0",
      "latitude" : "24.24493",
      "inDis" : "50",
      "routeId" : "252",
      "seqNo" : "27"
   },
   {
      "GoBack" : "2",
      "longitude" : "120.84068",
      "outDis" : "50",
      "Id" : "2921",
      "oid" : "6174",
      "districtId" : "1",
      "nameZh" : "高簡",
      "pgp" : "0",
      "terminal" : "0",
      "latitude" : "24.24496",
      "inDis" : "50",
      "routeId" : "252",
      "seqNo" : "28"
   },
   {
      "GoBack" : "2",
      "longitude" : "120.83707",
      "outDis" : "50",
      "Id" : "1339",
      "oid" : "5258",
      "districtId" : "1",
      "nameZh" : "大雪山後門",
      "pgp" : "0",
      "terminal" : "0",
      "latitude" : "24.24493",
      "inDis" : "50",
      "routeId" : "252",
      "seqNo" : "29"
   },
   {
      "GoBack" : "2",
      "longitude" : "120.8321",
      "outDis" : "50",
      "Id" : "4524",
      "oid" : "305529400",
      "districtId" : "1",
      "nameZh" : "東坑豐勢路口",
      "pgp" : "0",
      "terminal" : "0",
      "latitude" : "24.24749",
      "inDis" : "50",
      "routeId" : "252",
      "seqNo" : "30"
   },
   {
      "GoBack" : "2",
      "longitude" : "120.83282",
      "outDis" : "50",
      "Id" : "2002",
      "oid" : "5655",
      "districtId" : "1",
      "nameZh" : "石角口",
      "pgp" : "0",
      "terminal" : "0",
      "latitude" : "24.24723",
      "inDis" : "50",
      "routeId" : "252",
      "seqNo" : "31"
   },
   {
      "GoBack" : "2",
      "longitude" : "120.83065",
      "outDis" : "80",
      "Id" : "4409",
      "oid" : "8005",
      "districtId" : "1",
      "nameZh" : "東勢南站",
      "pgp" : "0",
      "terminal" : "0",
      "latitude" : "24.24976",
      "inDis" : "50",
      "routeId" : "252",
      "seqNo" : "32"
   },
   {
      "GoBack" : "2",
      "longitude" : "120.82984",
      "outDis" : "50",
      "Id" : "1415",
      "oid" : "7930",
      "districtId" : "1",
      "nameZh" : "中嵙口",
      "pgp" : "0",
      "terminal" : "0",
      "latitude" : "24.25259",
      "inDis" : "50",
      "routeId" : "252",
      "seqNo" : "33"
   },
   {
      "GoBack" : "2",
      "longitude" : "120.82924",
      "outDis" : "50",
      "Id" : "2570",
      "oid" : "8023",
      "districtId" : "1",
      "nameZh" : "南平里",
      "pgp" : "0",
      "terminal" : "0",
      "latitude" : "24.25518",
      "inDis" : "50",
      "routeId" : "252",
      "seqNo" : "34"
   },
   {
      "GoBack" : "2",
      "longitude" : "120.82784",
      "outDis" : "80",
      "Id" : "2428",
      "oid" : "5899",
      "districtId" : "1",
      "nameZh" : "東勢",
      "pgp" : "0",
      "terminal" : "0",
      "latitude" : "24.25838",
      "inDis" : "50",
      "routeId" : "252",
      "seqNo" : "35"
   }
]
