[
   {
      "GoBack" : "1",
      "longitude" : "120.56092",
      "outDis" : "50",
      "Id" : "2247",
      "oid" : "2064",
      "districtId" : "1",
      "nameZh" : "沙鹿",
      "pgp" : "0",
      "terminal" : "0",
      "latitude" : "24.23782",
      "inDis" : "50",
      "routeId" : "166",
      "seqNo" : "1"
   },
   {
      "GoBack" : "1",
      "longitude" : "120.55967",
      "outDis" : "50",
      "Id" : "4681",
      "oid" : "313348322",
      "districtId" : "1",
      "nameZh" : "沙鹿市場",
      "pgp" : "0",
      "terminal" : "0",
      "latitude" : "24.23731",
      "inDis" : "50",
      "routeId" : "166",
      "seqNo" : "2"
   },
   {
      "GoBack" : "1",
      "longitude" : "120.55882",
      "outDis" : "50",
      "Id" : "4816",
      "oid" : "313222697",
      "districtId" : "1",
      "nameZh" : "沙鹿光田醫院",
      "pgp" : "0",
      "terminal" : "0",
      "latitude" : "24.23492",
      "inDis" : "50",
      "routeId" : "166",
      "seqNo" : "3"
   },
   {
      "GoBack" : "1",
      "longitude" : "120.55885",
      "outDis" : "50",
      "Id" : "3809",
      "oid" : "2067",
      "districtId" : "1",
      "nameZh" : "興仁里",
      "pgp" : "0",
      "terminal" : "0",
      "latitude" : "24.23033",
      "inDis" : "50",
      "routeId" : "166",
      "seqNo" : "4"
   },
   {
      "GoBack" : "1",
      "longitude" : "120.55765",
      "outDis" : "50",
      "Id" : "1664",
      "oid" : "2159",
      "districtId" : "1",
      "nameZh" : "文光國小",
      "pgp" : "0",
      "terminal" : "0",
      "latitude" : "24.2247",
      "inDis" : "50",
      "routeId" : "166",
      "seqNo" : "5"
   },
   {
      "GoBack" : "1",
      "longitude" : "120.556",
      "outDis" : "50",
      "Id" : "2613",
      "oid" : "2069",
      "districtId" : "1",
      "nameZh" : "南勢里",
      "pgp" : "0",
      "terminal" : "0",
      "latitude" : "24.22108",
      "inDis" : "50",
      "routeId" : "166",
      "seqNo" : "6"
   },
   {
      "GoBack" : "1",
      "longitude" : "120.55337",
      "outDis" : "50",
      "Id" : "4459",
      "oid" : "2070",
      "districtId" : "1",
      "nameZh" : "沙田太平路口",
      "pgp" : "0",
      "terminal" : "0",
      "latitude" : "24.21756",
      "inDis" : "50",
      "routeId" : "166",
      "seqNo" : "7"
   },
   {
      "GoBack" : "1",
      "longitude" : "120.55177",
      "outDis" : "50",
      "Id" : "5159",
      "oid" : "2071",
      "districtId" : "1",
      "nameZh" : "龍山國小(山腳里)",
      "pgp" : "0",
      "terminal" : "0",
      "latitude" : "24.21406",
      "inDis" : "50",
      "routeId" : "166",
      "seqNo" : "8"
   },
   {
      "GoBack" : "1",
      "longitude" : "120.55062",
      "outDis" : "50",
      "Id" : "2559",
      "oid" : "2072",
      "districtId" : "1",
      "nameZh" : "南山腳",
      "pgp" : "0",
      "terminal" : "0",
      "latitude" : "24.21076",
      "inDis" : "50",
      "routeId" : "166",
      "seqNo" : "9"
   },
   {
      "GoBack" : "1",
      "longitude" : "120.54936",
      "outDis" : "50",
      "Id" : "4010",
      "oid" : "2073",
      "districtId" : "1",
      "nameZh" : "鷺山",
      "pgp" : "0",
      "terminal" : "0",
      "latitude" : "24.2078",
      "inDis" : "50",
      "routeId" : "166",
      "seqNo" : "10"
   },
   {
      "GoBack" : "1",
      "longitude" : "120.54801",
      "outDis" : "50",
      "Id" : "3850",
      "oid" : "2074",
      "districtId" : "1",
      "nameZh" : "龍目井",
      "pgp" : "0",
      "terminal" : "0",
      "latitude" : "24.20314",
      "inDis" : "50",
      "routeId" : "166",
      "seqNo" : "11"
   },
   {
      "GoBack" : "1",
      "longitude" : "120.54704",
      "outDis" : "50",
      "Id" : "3855",
      "oid" : "2075",
      "districtId" : "1",
      "nameZh" : "龍泉",
      "pgp" : "0",
      "terminal" : "0",
      "latitude" : "24.19935",
      "inDis" : "50",
      "routeId" : "166",
      "seqNo" : "12"
   },
   {
      "GoBack" : "1",
      "longitude" : "120.54601",
      "outDis" : "50",
      "Id" : "5160",
      "oid" : "2076",
      "districtId" : "1",
      "nameZh" : "龍井區公所",
      "pgp" : "0",
      "terminal" : "0",
      "latitude" : "24.19236",
      "inDis" : "50",
      "routeId" : "166",
      "seqNo" : "13"
   },
   {
      "GoBack" : "1",
      "longitude" : "120.54543",
      "outDis" : "50",
      "Id" : "3853",
      "oid" : "2077",
      "districtId" : "1",
      "nameZh" : "龍崗",
      "pgp" : "0",
      "terminal" : "0",
      "latitude" : "24.18648",
      "inDis" : "50",
      "routeId" : "166",
      "seqNo" : "14"
   },
   {
      "GoBack" : "1",
      "longitude" : "120.54546",
      "outDis" : "50",
      "Id" : "3031",
      "oid" : "2078",
      "districtId" : "1",
      "nameZh" : "深水",
      "pgp" : "0",
      "terminal" : "0",
      "latitude" : "24.18231",
      "inDis" : "50",
      "routeId" : "166",
      "seqNo" : "15"
   },
   {
      "GoBack" : "1",
      "longitude" : "120.54461",
      "outDis" : "50",
      "Id" : "2242",
      "oid" : "7090",
      "districtId" : "1",
      "nameZh" : "村內入口",
      "pgp" : "0",
      "terminal" : "0",
      "latitude" : "24.17876",
      "inDis" : "50",
      "routeId" : "166",
      "seqNo" : "16"
   },
   {
      "GoBack" : "1",
      "longitude" : "120.54384",
      "outDis" : "50",
      "Id" : "2144",
      "oid" : "2080",
      "districtId" : "1",
      "nameZh" : "竹坑口",
      "pgp" : "0",
      "terminal" : "0",
      "latitude" : "24.17598",
      "inDis" : "50",
      "routeId" : "166",
      "seqNo" : "17"
   },
   {
      "GoBack" : "1",
      "longitude" : "120.54343",
      "outDis" : "50",
      "Id" : "5482",
      "oid" : "314570080",
      "districtId" : "1",
      "nameZh" : "沙田中華路口",
      "pgp" : "0",
      "terminal" : "0",
      "latitude" : "24.17399",
      "inDis" : "50",
      "routeId" : "166",
      "seqNo" : "18"
   },
   {
      "GoBack" : "1",
      "longitude" : "120.54218",
      "outDis" : "50",
      "Id" : "5746",
      "oid" : "2082",
      "districtId" : "1",
      "nameZh" : "山陽一站",
      "pgp" : "0",
      "terminal" : "0",
      "latitude" : "24.16961",
      "inDis" : "50",
      "routeId" : "166",
      "seqNo" : "19"
   },
   {
      "GoBack" : "1",
      "longitude" : "120.54241",
      "outDis" : "50",
      "Id" : "1395",
      "oid" : "2083",
      "districtId" : "1",
      "nameZh" : "山陽",
      "pgp" : "0",
      "terminal" : "0",
      "latitude" : "24.16531",
      "inDis" : "50",
      "routeId" : "166",
      "seqNo" : "20"
   },
   {
      "GoBack" : "1",
      "longitude" : "120.54551",
      "outDis" : "50",
      "Id" : "1302",
      "oid" : "2084",
      "districtId" : "1",
      "nameZh" : "大肚",
      "pgp" : "0",
      "terminal" : "0",
      "latitude" : "24.14988",
      "inDis" : "50",
      "routeId" : "166",
      "seqNo" : "21"
   },
   {
      "GoBack" : "1",
      "longitude" : "120.54914",
      "outDis" : "50",
      "Id" : "3432",
      "oid" : "2085",
      "districtId" : "1",
      "nameZh" : "新興",
      "pgp" : "0",
      "terminal" : "0",
      "latitude" : "24.14087",
      "inDis" : "50",
      "routeId" : "166",
      "seqNo" : "22"
   },
   {
      "GoBack" : "1",
      "longitude" : "120.55384",
      "outDis" : "50",
      "Id" : "2494",
      "oid" : "2086",
      "districtId" : "1",
      "nameZh" : "社腳",
      "pgp" : "0",
      "terminal" : "0",
      "latitude" : "24.13271",
      "inDis" : "50",
      "routeId" : "166",
      "seqNo" : "23"
   },
   {
      "GoBack" : "1",
      "longitude" : "120.55669",
      "outDis" : "50",
      "Id" : "4514",
      "oid" : "2087",
      "districtId" : "1",
      "nameZh" : "營埔里",
      "pgp" : "0",
      "terminal" : "0",
      "latitude" : "24.12797",
      "inDis" : "50",
      "routeId" : "166",
      "seqNo" : "24"
   },
   {
      "GoBack" : "1",
      "longitude" : "120.56404",
      "outDis" : "50",
      "Id" : "1390",
      "oid" : "2139",
      "districtId" : "1",
      "nameZh" : "山仔頂",
      "pgp" : "0",
      "terminal" : "0",
      "latitude" : "24.1239",
      "inDis" : "50",
      "routeId" : "166",
      "seqNo" : "25"
   },
   {
      "GoBack" : "1",
      "longitude" : "120.56762",
      "outDis" : "50",
      "Id" : "2885",
      "oid" : "2089",
      "districtId" : "1",
      "nameZh" : "追分國小",
      "pgp" : "0",
      "terminal" : "0",
      "latitude" : "24.12212",
      "inDis" : "50",
      "routeId" : "166",
      "seqNo" : "26"
   },
   {
      "GoBack" : "1",
      "longitude" : "120.57011",
      "outDis" : "50",
      "Id" : "2884",
      "oid" : "2090",
      "districtId" : "1",
      "nameZh" : "追分",
      "pgp" : "0",
      "terminal" : "0",
      "latitude" : "24.12123",
      "inDis" : "50",
      "routeId" : "166",
      "seqNo" : "27"
   },
   {
      "GoBack" : "1",
      "longitude" : "120.57578",
      "outDis" : "50",
      "Id" : "2597",
      "oid" : "2091",
      "districtId" : "1",
      "nameZh" : "南追分",
      "pgp" : "0",
      "terminal" : "0",
      "latitude" : "24.11904",
      "inDis" : "50",
      "routeId" : "166",
      "seqNo" : "28"
   },
   {
      "GoBack" : "1",
      "longitude" : "120.5892",
      "outDis" : "50",
      "Id" : "1743",
      "oid" : "2092",
      "districtId" : "1",
      "nameZh" : "王田",
      "pgp" : "0",
      "terminal" : "0",
      "latitude" : "24.11337",
      "inDis" : "50",
      "routeId" : "166",
      "seqNo" : "29"
   },
   {
      "GoBack" : "1",
      "longitude" : "120.59323",
      "outDis" : "50",
      "Id" : "3277",
      "oid" : "2093",
      "districtId" : "1",
      "nameZh" : "善光寺",
      "pgp" : "0",
      "terminal" : "0",
      "latitude" : "24.11294",
      "inDis" : "50",
      "routeId" : "166",
      "seqNo" : "30"
   },
   {
      "GoBack" : "1",
      "longitude" : "120.60156",
      "outDis" : "50",
      "Id" : "2120",
      "oid" : "2094",
      "districtId" : "1",
      "nameZh" : "成功嶺",
      "pgp" : "0",
      "terminal" : "0",
      "latitude" : "24.11044",
      "inDis" : "50",
      "routeId" : "166",
      "seqNo" : "31"
   },
   {
      "GoBack" : "1",
      "longitude" : "120.60591",
      "outDis" : "50",
      "Id" : "5083",
      "oid" : "2095",
      "districtId" : "1",
      "nameZh" : "三和里2",
      "pgp" : "0",
      "terminal" : "0",
      "latitude" : "24.10877",
      "inDis" : "50",
      "routeId" : "166",
      "seqNo" : "32"
   },
   {
      "GoBack" : "1",
      "longitude" : "120.61261",
      "outDis" : "50",
      "Id" : "5367",
      "oid" : "2096",
      "districtId" : "1",
      "nameZh" : "烏日巷",
      "pgp" : "0",
      "terminal" : "0",
      "latitude" : "24.10725",
      "inDis" : "50",
      "routeId" : "166",
      "seqNo" : "33"
   },
   {
      "GoBack" : "1",
      "longitude" : "120.61634",
      "outDis" : "50",
      "Id" : "2907",
      "oid" : "2097",
      "districtId" : "1",
      "nameZh" : "高鐵臺中站",
      "pgp" : "0",
      "terminal" : "0",
      "latitude" : "24.11169",
      "inDis" : "50",
      "routeId" : "166",
      "seqNo" : "34"
   },
   {
      "GoBack" : "1",
      "longitude" : "120.61758",
      "outDis" : "50",
      "Id" : "5368",
      "oid" : "2098",
      "districtId" : "1",
      "nameZh" : "烏日高中",
      "pgp" : "0",
      "terminal" : "0",
      "latitude" : "24.1061",
      "inDis" : "50",
      "routeId" : "166",
      "seqNo" : "35"
   },
   {
      "GoBack" : "1",
      "longitude" : "120.62249",
      "outDis" : "50",
      "Id" : "2816",
      "oid" : "2099",
      "districtId" : "1",
      "nameZh" : "烏日",
      "pgp" : "0",
      "terminal" : "0",
      "latitude" : "24.10647",
      "inDis" : "50",
      "routeId" : "166",
      "seqNo" : "36"
   },
   {
      "GoBack" : "1",
      "longitude" : "120.63298",
      "outDis" : "50",
      "Id" : "2821",
      "oid" : "2100",
      "districtId" : "1",
      "nameZh" : "烏日橋",
      "pgp" : "0",
      "terminal" : "0",
      "latitude" : "24.10576",
      "inDis" : "50",
      "routeId" : "166",
      "seqNo" : "37"
   },
   {
      "GoBack" : "1",
      "longitude" : "120.63567",
      "outDis" : "50",
      "Id" : "2365",
      "oid" : "2101",
      "districtId" : "1",
      "nameZh" : "明道中學",
      "pgp" : "0",
      "terminal" : "0",
      "latitude" : "24.10701",
      "inDis" : "50",
      "routeId" : "166",
      "seqNo" : "38"
   },
   {
      "GoBack" : "1",
      "longitude" : "120.64139",
      "outDis" : "50",
      "Id" : "0994",
      "oid" : "2102",
      "districtId" : "1",
      "nameZh" : "九張犁",
      "pgp" : "0",
      "terminal" : "0",
      "latitude" : "24.10874",
      "inDis" : "50",
      "routeId" : "166",
      "seqNo" : "39"
   },
   {
      "GoBack" : "1",
      "longitude" : "120.64597",
      "outDis" : "50",
      "Id" : "3790",
      "oid" : "2124",
      "districtId" : "1",
      "nameZh" : "樹仔腳",
      "pgp" : "0",
      "terminal" : "0",
      "latitude" : "24.11016",
      "inDis" : "50",
      "routeId" : "166",
      "seqNo" : "40"
   },
   {
      "GoBack" : "1",
      "longitude" : "120.6481",
      "outDis" : "50",
      "Id" : "5195",
      "oid" : "2123",
      "districtId" : "1",
      "nameZh" : "復興環中路口",
      "pgp" : "0",
      "terminal" : "0",
      "latitude" : "24.11095",
      "inDis" : "50",
      "routeId" : "166",
      "seqNo" : "41"
   },
   {
      "GoBack" : "1",
      "longitude" : "120.65418",
      "outDis" : "50",
      "Id" : "4536",
      "oid" : "2105",
      "districtId" : "1",
      "nameZh" : "復興大慶街口",
      "pgp" : "0",
      "terminal" : "0",
      "latitude" : "24.11419",
      "inDis" : "50",
      "routeId" : "166",
      "seqNo" : "42"
   },
   {
      "GoBack" : "1",
      "longitude" : "120.65801",
      "outDis" : "50",
      "Id" : "4538",
      "oid" : "2106",
      "districtId" : "1",
      "nameZh" : "臺中高工(復興路)",
      "pgp" : "0",
      "terminal" : "0",
      "latitude" : "24.11721",
      "inDis" : "50",
      "routeId" : "166",
      "seqNo" : "43"
   },
   {
      "GoBack" : "1",
      "longitude" : "120.65966",
      "outDis" : "50",
      "Id" : "0129",
      "oid" : "2107",
      "districtId" : "1",
      "nameZh" : "宜寧中學",
      "pgp" : "0",
      "terminal" : "0",
      "latitude" : "24.11912",
      "inDis" : "50",
      "routeId" : "166",
      "seqNo" : "44"
   },
   {
      "GoBack" : "1",
      "longitude" : "120.66303",
      "outDis" : "50",
      "Id" : "3395",
      "oid" : "7515",
      "districtId" : "1",
      "nameZh" : "復興新和街口",
      "pgp" : "0",
      "terminal" : "0",
      "latitude" : "24.12392",
      "inDis" : "50",
      "routeId" : "166",
      "seqNo" : "45"
   },
   {
      "GoBack" : "1",
      "longitude" : "120.66539",
      "outDis" : "50",
      "Id" : "0543",
      "oid" : "2109",
      "districtId" : "1",
      "nameZh" : "四育國中",
      "pgp" : "0",
      "terminal" : "0",
      "latitude" : "24.1264",
      "inDis" : "50",
      "routeId" : "166",
      "seqNo" : "46"
   },
   {
      "GoBack" : "1",
      "longitude" : "120.67196",
      "outDis" : "50",
      "Id" : "5393",
      "oid" : "312954998",
      "districtId" : "1",
      "nameZh" : "公共資訊圖書館(復興路)",
      "pgp" : "0",
      "terminal" : "0",
      "latitude" : "24.12985",
      "inDis" : "50",
      "routeId" : "166",
      "seqNo" : "47"
   },
   {
      "GoBack" : "1",
      "longitude" : "120.67469",
      "outDis" : "50",
      "Id" : "0178",
      "oid" : "7445",
      "districtId" : "1",
      "nameZh" : "第三分局",
      "pgp" : "0",
      "terminal" : "0",
      "latitude" : "24.13108",
      "inDis" : "50",
      "routeId" : "166",
      "seqNo" : "48"
   },
   {
      "GoBack" : "1",
      "longitude" : "120.6764",
      "outDis" : "50",
      "Id" : "4604",
      "oid" : "7737",
      "districtId" : "1",
      "nameZh" : "復興有恆街口",
      "pgp" : "0",
      "terminal" : "0",
      "latitude" : "24.13182",
      "inDis" : "50",
      "routeId" : "166",
      "seqNo" : "49"
   },
   {
      "GoBack" : "1",
      "longitude" : "120.67692",
      "outDis" : "50",
      "Id" : "0180",
      "oid" : "2111",
      "districtId" : "1",
      "nameZh" : "林祖厝",
      "pgp" : "0",
      "terminal" : "0",
      "latitude" : "24.13201",
      "inDis" : "50",
      "routeId" : "166",
      "seqNo" : "50"
   },
   {
      "GoBack" : "1",
      "longitude" : "120.67994",
      "outDis" : "50",
      "Id" : "1659",
      "oid" : "301535698",
      "districtId" : "1",
      "nameZh" : "文化創意園區",
      "pgp" : "0",
      "terminal" : "0",
      "latitude" : "24.13317",
      "inDis" : "50",
      "routeId" : "166",
      "seqNo" : "51"
   },
   {
      "GoBack" : "1",
      "longitude" : "120.68182",
      "outDis" : "50",
      "Id" : "0518",
      "oid" : "115DF7739EDA40CC9C702A4F61B74164",
      "districtId" : "1",
      "nameZh" : "臺中酒廠(復興路)",
      "pgp" : "0",
      "terminal" : "0",
      "latitude" : "24.13394",
      "inDis" : "50",
      "routeId" : "166",
      "seqNo" : "52"
   },
   {
      "GoBack" : "1",
      "longitude" : "120.68555",
      "outDis" : "50",
      "Id" : "1829",
      "oid" : "2113",
      "districtId" : "1",
      "nameZh" : "臺中站",
      "pgp" : "0",
      "terminal" : "0",
      "latitude" : "24.13869",
      "inDis" : "50",
      "routeId" : "166",
      "seqNo" : "53"
   },
   {
      "GoBack" : "2",
      "longitude" : "120.68593",
      "outDis" : "50",
      "Id" : "1829",
      "oid" : "2114",
      "districtId" : "1",
      "nameZh" : "臺中站",
      "pgp" : "0",
      "terminal" : "0",
      "latitude" : "24.13897",
      "inDis" : "50",
      "routeId" : "166",
      "seqNo" : "1"
   },
   {
      "GoBack" : "2",
      "longitude" : "120.68244",
      "outDis" : "50",
      "Id" : "0518",
      "oid" : "9DB315301D4C4745997D1C41D6A3C929",
      "districtId" : "1",
      "nameZh" : "臺中酒廠(復興路)",
      "pgp" : "0",
      "terminal" : "0",
      "latitude" : "24.13418",
      "inDis" : "50",
      "routeId" : "166",
      "seqNo" : "2"
   },
   {
      "GoBack" : "2",
      "longitude" : "120.67994",
      "outDis" : "50",
      "Id" : "1659",
      "oid" : "301535699",
      "districtId" : "1",
      "nameZh" : "文化創意園區",
      "pgp" : "0",
      "terminal" : "0",
      "latitude" : "24.13317",
      "inDis" : "50",
      "routeId" : "166",
      "seqNo" : "3"
   },
   {
      "GoBack" : "2",
      "longitude" : "120.67861",
      "outDis" : "50",
      "Id" : "0180",
      "oid" : "2116",
      "districtId" : "1",
      "nameZh" : "林祖厝",
      "pgp" : "0",
      "terminal" : "0",
      "latitude" : "24.13282",
      "inDis" : "50",
      "routeId" : "166",
      "seqNo" : "4"
   },
   {
      "GoBack" : "2",
      "longitude" : "120.6764",
      "outDis" : "50",
      "Id" : "4604",
      "oid" : "7737",
      "districtId" : "1",
      "nameZh" : "復興有恆街口",
      "pgp" : "0",
      "terminal" : "0",
      "latitude" : "24.13182",
      "inDis" : "50",
      "routeId" : "166",
      "seqNo" : "5"
   },
   {
      "GoBack" : "2",
      "longitude" : "120.67469",
      "outDis" : "50",
      "Id" : "0178",
      "oid" : "7445",
      "districtId" : "1",
      "nameZh" : "第三分局",
      "pgp" : "0",
      "terminal" : "0",
      "latitude" : "24.13108",
      "inDis" : "50",
      "routeId" : "166",
      "seqNo" : "6"
   },
   {
      "GoBack" : "2",
      "longitude" : "120.67196",
      "outDis" : "50",
      "Id" : "5393",
      "oid" : "312954998",
      "districtId" : "1",
      "nameZh" : "公共資訊圖書館(復興路)",
      "pgp" : "0",
      "terminal" : "0",
      "latitude" : "24.12985",
      "inDis" : "50",
      "routeId" : "166",
      "seqNo" : "7"
   },
   {
      "GoBack" : "2",
      "longitude" : "120.66539",
      "outDis" : "50",
      "Id" : "0543",
      "oid" : "2118",
      "districtId" : "1",
      "nameZh" : "四育國中",
      "pgp" : "0",
      "terminal" : "0",
      "latitude" : "24.1268",
      "inDis" : "50",
      "routeId" : "166",
      "seqNo" : "8"
   },
   {
      "GoBack" : "2",
      "longitude" : "120.66303",
      "outDis" : "50",
      "Id" : "3395",
      "oid" : "7850",
      "districtId" : "1",
      "nameZh" : "復興新和街口",
      "pgp" : "0",
      "terminal" : "0",
      "latitude" : "24.12392",
      "inDis" : "50",
      "routeId" : "166",
      "seqNo" : "9"
   },
   {
      "GoBack" : "2",
      "longitude" : "120.65926",
      "outDis" : "50",
      "Id" : "0129",
      "oid" : "2120",
      "districtId" : "1",
      "nameZh" : "宜寧中學",
      "pgp" : "0",
      "terminal" : "0",
      "latitude" : "24.11875",
      "inDis" : "50",
      "routeId" : "166",
      "seqNo" : "10"
   },
   {
      "GoBack" : "2",
      "longitude" : "120.65778",
      "outDis" : "50",
      "Id" : "4538",
      "oid" : "2121",
      "districtId" : "1",
      "nameZh" : "臺中高工(復興路)",
      "pgp" : "0",
      "terminal" : "0",
      "latitude" : "24.11717",
      "inDis" : "50",
      "routeId" : "166",
      "seqNo" : "11"
   },
   {
      "GoBack" : "2",
      "longitude" : "120.65452",
      "outDis" : "50",
      "Id" : "4536",
      "oid" : "2122",
      "districtId" : "1",
      "nameZh" : "復興大慶街口",
      "pgp" : "0",
      "terminal" : "0",
      "latitude" : "24.11475",
      "inDis" : "50",
      "routeId" : "166",
      "seqNo" : "12"
   },
   {
      "GoBack" : "2",
      "longitude" : "120.64756",
      "outDis" : "50",
      "Id" : "5195",
      "oid" : "2104",
      "districtId" : "1",
      "nameZh" : "復興環中路口",
      "pgp" : "0",
      "terminal" : "0",
      "latitude" : "24.11088",
      "inDis" : "50",
      "routeId" : "166",
      "seqNo" : "13"
   },
   {
      "GoBack" : "2",
      "longitude" : "120.64502",
      "outDis" : "50",
      "Id" : "3790",
      "oid" : "2103",
      "districtId" : "1",
      "nameZh" : "樹仔腳",
      "pgp" : "0",
      "terminal" : "0",
      "latitude" : "24.11003",
      "inDis" : "50",
      "routeId" : "166",
      "seqNo" : "14"
   },
   {
      "GoBack" : "2",
      "longitude" : "120.64161",
      "outDis" : "50",
      "Id" : "0994",
      "oid" : "2125",
      "districtId" : "1",
      "nameZh" : "九張犁",
      "pgp" : "0",
      "terminal" : "0",
      "latitude" : "24.10892",
      "inDis" : "50",
      "routeId" : "166",
      "seqNo" : "15"
   },
   {
      "GoBack" : "2",
      "longitude" : "120.6365",
      "outDis" : "50",
      "Id" : "2365",
      "oid" : "2126",
      "districtId" : "1",
      "nameZh" : "明道中學",
      "pgp" : "0",
      "terminal" : "0",
      "latitude" : "24.10738",
      "inDis" : "50",
      "routeId" : "166",
      "seqNo" : "16"
   },
   {
      "GoBack" : "2",
      "longitude" : "120.63298",
      "outDis" : "50",
      "Id" : "2821",
      "oid" : "2100",
      "districtId" : "1",
      "nameZh" : "烏日橋",
      "pgp" : "0",
      "terminal" : "0",
      "latitude" : "24.10576",
      "inDis" : "50",
      "routeId" : "166",
      "seqNo" : "17"
   },
   {
      "GoBack" : "2",
      "longitude" : "120.62253",
      "outDis" : "50",
      "Id" : "2816",
      "oid" : "2128",
      "districtId" : "1",
      "nameZh" : "烏日",
      "pgp" : "0",
      "terminal" : "0",
      "latitude" : "24.10643",
      "inDis" : "50",
      "routeId" : "166",
      "seqNo" : "18"
   },
   {
      "GoBack" : "2",
      "longitude" : "120.6173",
      "outDis" : "50",
      "Id" : "5368",
      "oid" : "2129",
      "districtId" : "1",
      "nameZh" : "烏日高中",
      "pgp" : "0",
      "terminal" : "0",
      "latitude" : "24.10627",
      "inDis" : "50",
      "routeId" : "166",
      "seqNo" : "19"
   },
   {
      "GoBack" : "2",
      "longitude" : "120.61644",
      "outDis" : "50",
      "Id" : "2907",
      "oid" : "2130",
      "districtId" : "1",
      "nameZh" : "高鐵臺中站",
      "pgp" : "0",
      "terminal" : "0",
      "latitude" : "24.11196",
      "inDis" : "50",
      "routeId" : "166",
      "seqNo" : "20"
   },
   {
      "GoBack" : "2",
      "longitude" : "120.61272",
      "outDis" : "50",
      "Id" : "5367",
      "oid" : "2131",
      "districtId" : "1",
      "nameZh" : "烏日巷",
      "pgp" : "0",
      "terminal" : "0",
      "latitude" : "24.10741",
      "inDis" : "50",
      "routeId" : "166",
      "seqNo" : "21"
   },
   {
      "GoBack" : "2",
      "longitude" : "120.60634",
      "outDis" : "50",
      "Id" : "5083",
      "oid" : "2132",
      "districtId" : "1",
      "nameZh" : "三和里2",
      "pgp" : "0",
      "terminal" : "0",
      "latitude" : "24.10889",
      "inDis" : "50",
      "routeId" : "166",
      "seqNo" : "22"
   },
   {
      "GoBack" : "2",
      "longitude" : "120.60111",
      "outDis" : "50",
      "Id" : "2120",
      "oid" : "2133",
      "districtId" : "1",
      "nameZh" : "成功嶺",
      "pgp" : "0",
      "terminal" : "0",
      "latitude" : "24.11041",
      "inDis" : "50",
      "routeId" : "166",
      "seqNo" : "23"
   },
   {
      "GoBack" : "2",
      "longitude" : "120.59332",
      "outDis" : "50",
      "Id" : "3277",
      "oid" : "2134",
      "districtId" : "1",
      "nameZh" : "善光寺",
      "pgp" : "0",
      "terminal" : "0",
      "latitude" : "24.11327",
      "inDis" : "50",
      "routeId" : "166",
      "seqNo" : "24"
   },
   {
      "GoBack" : "2",
      "longitude" : "120.58915",
      "outDis" : "50",
      "Id" : "1743",
      "oid" : "2135",
      "districtId" : "1",
      "nameZh" : "王田",
      "pgp" : "0",
      "terminal" : "0",
      "latitude" : "24.11362",
      "inDis" : "50",
      "routeId" : "166",
      "seqNo" : "25"
   },
   {
      "GoBack" : "2",
      "longitude" : "120.57609",
      "outDis" : "50",
      "Id" : "2597",
      "oid" : "2136",
      "districtId" : "1",
      "nameZh" : "南追分",
      "pgp" : "0",
      "terminal" : "0",
      "latitude" : "24.11912",
      "inDis" : "50",
      "routeId" : "166",
      "seqNo" : "26"
   },
   {
      "GoBack" : "2",
      "longitude" : "120.57015",
      "outDis" : "50",
      "Id" : "2884",
      "oid" : "2137",
      "districtId" : "1",
      "nameZh" : "追分",
      "pgp" : "0",
      "terminal" : "0",
      "latitude" : "24.12136",
      "inDis" : "50",
      "routeId" : "166",
      "seqNo" : "27"
   },
   {
      "GoBack" : "2",
      "longitude" : "120.56771",
      "outDis" : "50",
      "Id" : "2885",
      "oid" : "2138",
      "districtId" : "1",
      "nameZh" : "追分國小",
      "pgp" : "0",
      "terminal" : "0",
      "latitude" : "24.12227",
      "inDis" : "50",
      "routeId" : "166",
      "seqNo" : "28"
   },
   {
      "GoBack" : "2",
      "longitude" : "120.56404",
      "outDis" : "50",
      "Id" : "1390",
      "oid" : "2139",
      "districtId" : "1",
      "nameZh" : "山仔頂",
      "pgp" : "0",
      "terminal" : "0",
      "latitude" : "24.1239",
      "inDis" : "50",
      "routeId" : "166",
      "seqNo" : "29"
   },
   {
      "GoBack" : "2",
      "longitude" : "120.55674",
      "outDis" : "50",
      "Id" : "4514",
      "oid" : "2140",
      "districtId" : "1",
      "nameZh" : "營埔里",
      "pgp" : "0",
      "terminal" : "0",
      "latitude" : "24.12813",
      "inDis" : "50",
      "routeId" : "166",
      "seqNo" : "30"
   },
   {
      "GoBack" : "2",
      "longitude" : "120.55399",
      "outDis" : "50",
      "Id" : "2494",
      "oid" : "2141",
      "districtId" : "1",
      "nameZh" : "社腳",
      "pgp" : "0",
      "terminal" : "0",
      "latitude" : "24.13313",
      "inDis" : "50",
      "routeId" : "166",
      "seqNo" : "31"
   },
   {
      "GoBack" : "2",
      "longitude" : "120.54923",
      "outDis" : "50",
      "Id" : "3432",
      "oid" : "2142",
      "districtId" : "1",
      "nameZh" : "新興",
      "pgp" : "0",
      "terminal" : "0",
      "latitude" : "24.14109",
      "inDis" : "50",
      "routeId" : "166",
      "seqNo" : "32"
   },
   {
      "GoBack" : "2",
      "longitude" : "120.54579",
      "outDis" : "50",
      "Id" : "1302",
      "oid" : "2143",
      "districtId" : "1",
      "nameZh" : "大肚",
      "pgp" : "0",
      "terminal" : "0",
      "latitude" : "24.14976",
      "inDis" : "50",
      "routeId" : "166",
      "seqNo" : "33"
   },
   {
      "GoBack" : "2",
      "longitude" : "120.5425",
      "outDis" : "50",
      "Id" : "1395",
      "oid" : "2144",
      "districtId" : "1",
      "nameZh" : "山陽",
      "pgp" : "0",
      "terminal" : "0",
      "latitude" : "24.16595",
      "inDis" : "50",
      "routeId" : "166",
      "seqNo" : "34"
   },
   {
      "GoBack" : "2",
      "longitude" : "120.54239",
      "outDis" : "50",
      "Id" : "5746",
      "oid" : "2145",
      "districtId" : "1",
      "nameZh" : "山陽一站",
      "pgp" : "0",
      "terminal" : "0",
      "latitude" : "24.16921",
      "inDis" : "50",
      "routeId" : "166",
      "seqNo" : "35"
   },
   {
      "GoBack" : "2",
      "longitude" : "120.54331",
      "outDis" : "50",
      "Id" : "5482",
      "oid" : "314570081",
      "districtId" : "1",
      "nameZh" : "沙田中華路口",
      "pgp" : "0",
      "terminal" : "0",
      "latitude" : "24.17399",
      "inDis" : "50",
      "routeId" : "166",
      "seqNo" : "36"
   },
   {
      "GoBack" : "2",
      "longitude" : "120.5439",
      "outDis" : "50",
      "Id" : "2144",
      "oid" : "2147",
      "districtId" : "1",
      "nameZh" : "竹坑口",
      "pgp" : "0",
      "terminal" : "0",
      "latitude" : "24.17612",
      "inDis" : "50",
      "routeId" : "166",
      "seqNo" : "37"
   },
   {
      "GoBack" : "2",
      "longitude" : "120.54461",
      "outDis" : "50",
      "Id" : "2242",
      "oid" : "7090",
      "districtId" : "1",
      "nameZh" : "村內入口",
      "pgp" : "0",
      "terminal" : "0",
      "latitude" : "24.17876",
      "inDis" : "50",
      "routeId" : "166",
      "seqNo" : "38"
   },
   {
      "GoBack" : "2",
      "longitude" : "120.5456",
      "outDis" : "50",
      "Id" : "3031",
      "oid" : "2149",
      "districtId" : "1",
      "nameZh" : "深水",
      "pgp" : "0",
      "terminal" : "0",
      "latitude" : "24.18299",
      "inDis" : "50",
      "routeId" : "166",
      "seqNo" : "39"
   },
   {
      "GoBack" : "2",
      "longitude" : "120.54558",
      "outDis" : "50",
      "Id" : "3853",
      "oid" : "2150",
      "districtId" : "1",
      "nameZh" : "龍崗",
      "pgp" : "0",
      "terminal" : "0",
      "latitude" : "24.18701",
      "inDis" : "50",
      "routeId" : "166",
      "seqNo" : "40"
   },
   {
      "GoBack" : "2",
      "longitude" : "120.54612",
      "outDis" : "50",
      "Id" : "5160",
      "oid" : "2151",
      "districtId" : "1",
      "nameZh" : "龍井區公所",
      "pgp" : "0",
      "terminal" : "0",
      "latitude" : "24.1921",
      "inDis" : "50",
      "routeId" : "166",
      "seqNo" : "41"
   },
   {
      "GoBack" : "2",
      "longitude" : "120.54696",
      "outDis" : "50",
      "Id" : "3855",
      "oid" : "2152",
      "districtId" : "1",
      "nameZh" : "龍泉",
      "pgp" : "0",
      "terminal" : "0",
      "latitude" : "24.19906",
      "inDis" : "50",
      "routeId" : "166",
      "seqNo" : "42"
   },
   {
      "GoBack" : "2",
      "longitude" : "120.54832",
      "outDis" : "50",
      "Id" : "3850",
      "oid" : "2153",
      "districtId" : "1",
      "nameZh" : "龍目井",
      "pgp" : "0",
      "terminal" : "0",
      "latitude" : "24.20328",
      "inDis" : "50",
      "routeId" : "166",
      "seqNo" : "43"
   },
   {
      "GoBack" : "2",
      "longitude" : "120.54954",
      "outDis" : "50",
      "Id" : "4010",
      "oid" : "2154",
      "districtId" : "1",
      "nameZh" : "鷺山",
      "pgp" : "0",
      "terminal" : "0",
      "latitude" : "24.20795",
      "inDis" : "50",
      "routeId" : "166",
      "seqNo" : "44"
   },
   {
      "GoBack" : "2",
      "longitude" : "120.55089",
      "outDis" : "50",
      "Id" : "2559",
      "oid" : "2155",
      "districtId" : "1",
      "nameZh" : "南山腳",
      "pgp" : "0",
      "terminal" : "0",
      "latitude" : "24.2109",
      "inDis" : "50",
      "routeId" : "166",
      "seqNo" : "45"
   },
   {
      "GoBack" : "2",
      "longitude" : "120.55197",
      "outDis" : "50",
      "Id" : "5159",
      "oid" : "2156",
      "districtId" : "1",
      "nameZh" : "龍山國小(山腳里)",
      "pgp" : "0",
      "terminal" : "0",
      "latitude" : "24.21408",
      "inDis" : "50",
      "routeId" : "166",
      "seqNo" : "46"
   },
   {
      "GoBack" : "2",
      "longitude" : "120.55351",
      "outDis" : "50",
      "Id" : "4459",
      "oid" : "2157",
      "districtId" : "1",
      "nameZh" : "沙田太平路口",
      "pgp" : "0",
      "terminal" : "0",
      "latitude" : "24.21765",
      "inDis" : "50",
      "routeId" : "166",
      "seqNo" : "47"
   },
   {
      "GoBack" : "2",
      "longitude" : "120.55608",
      "outDis" : "50",
      "Id" : "2613",
      "oid" : "2158",
      "districtId" : "1",
      "nameZh" : "南勢里",
      "pgp" : "0",
      "terminal" : "0",
      "latitude" : "24.22088",
      "inDis" : "50",
      "routeId" : "166",
      "seqNo" : "48"
   },
   {
      "GoBack" : "2",
      "longitude" : "120.55765",
      "outDis" : "50",
      "Id" : "1664",
      "oid" : "2159",
      "districtId" : "1",
      "nameZh" : "文光國小",
      "pgp" : "0",
      "terminal" : "0",
      "latitude" : "24.2247",
      "inDis" : "50",
      "routeId" : "166",
      "seqNo" : "49"
   },
   {
      "GoBack" : "2",
      "longitude" : "120.55887",
      "outDis" : "50",
      "Id" : "3809",
      "oid" : "2160",
      "districtId" : "1",
      "nameZh" : "興仁里",
      "pgp" : "0",
      "terminal" : "0",
      "latitude" : "24.23056",
      "inDis" : "50",
      "routeId" : "166",
      "seqNo" : "50"
   },
   {
      "GoBack" : "2",
      "longitude" : "120.55897",
      "outDis" : "50",
      "Id" : "4816",
      "oid" : "313348300",
      "districtId" : "1",
      "nameZh" : "沙鹿光田醫院",
      "pgp" : "0",
      "terminal" : "0",
      "latitude" : "24.235",
      "inDis" : "50",
      "routeId" : "166",
      "seqNo" : "51"
   },
   {
      "GoBack" : "2",
      "longitude" : "120.55967",
      "outDis" : "50",
      "Id" : "4681",
      "oid" : "313348322",
      "districtId" : "1",
      "nameZh" : "沙鹿市場",
      "pgp" : "0",
      "terminal" : "0",
      "latitude" : "24.23731",
      "inDis" : "50",
      "routeId" : "166",
      "seqNo" : "52"
   },
   {
      "GoBack" : "2",
      "longitude" : "120.56092",
      "outDis" : "50",
      "Id" : "2247",
      "oid" : "2163",
      "districtId" : "1",
      "nameZh" : "沙鹿",
      "pgp" : "0",
      "terminal" : "0",
      "latitude" : "24.23782",
      "inDis" : "50",
      "routeId" : "166",
      "seqNo" : "53"
   }
]
