[
   {
      "GoBack" : "1",
      "longitude" : "120.82862",
      "outDis" : "50",
      "Id" : "2428",
      "oid" : "5900",
      "districtId" : "1",
      "nameZh" : "東勢",
      "pgp" : "0",
      "terminal" : "0",
      "latitude" : "24.25742",
      "inDis" : "50",
      "routeId" : "264",
      "seqNo" : "1"
   },
   {
      "GoBack" : "1",
      "longitude" : "120.8272",
      "outDis" : "80",
      "Id" : "4500",
      "oid" : "5745",
      "districtId" : "1",
      "nameZh" : "東勢老人會館",
      "pgp" : "0",
      "terminal" : "0",
      "latitude" : "24.26098",
      "inDis" : "50",
      "routeId" : "264",
      "seqNo" : "2"
   },
   {
      "GoBack" : "1",
      "longitude" : "120.82676",
      "outDis" : "80",
      "Id" : "2434",
      "oid" : "5905",
      "districtId" : "1",
      "nameZh" : "東新國中",
      "pgp" : "0",
      "terminal" : "0",
      "latitude" : "24.26256",
      "inDis" : "50",
      "routeId" : "264",
      "seqNo" : "3"
   },
   {
      "GoBack" : "1",
      "longitude" : "120.82464",
      "outDis" : "50",
      "Id" : "4494",
      "oid" : "6462",
      "districtId" : "1",
      "nameZh" : "新豐新寧街口",
      "pgp" : "0",
      "terminal" : "0",
      "latitude" : "24.26264",
      "inDis" : "50",
      "routeId" : "264",
      "seqNo" : "4"
   },
   {
      "GoBack" : "1",
      "longitude" : "120.81608",
      "outDis" : "50",
      "Id" : "4430",
      "oid" : "5198",
      "districtId" : "1",
      "nameZh" : "土牛(豐勢路)",
      "pgp" : "0",
      "terminal" : "0",
      "latitude" : "24.26021",
      "inDis" : "50",
      "routeId" : "264",
      "seqNo" : "5"
   },
   {
      "GoBack" : "1",
      "longitude" : "120.81402",
      "outDis" : "50",
      "Id" : "2593",
      "oid" : "6000",
      "districtId" : "1",
      "nameZh" : "南眉",
      "pgp" : "0",
      "terminal" : "0",
      "latitude" : "24.25639",
      "inDis" : "50",
      "routeId" : "264",
      "seqNo" : "6"
   },
   {
      "GoBack" : "1",
      "longitude" : "120.80775",
      "outDis" : "50",
      "Id" : "2446",
      "oid" : "5914",
      "districtId" : "1",
      "nameZh" : "果菜市場",
      "pgp" : "0",
      "terminal" : "0",
      "latitude" : "24.25706",
      "inDis" : "50",
      "routeId" : "264",
      "seqNo" : "9"
   },
   {
      "GoBack" : "1",
      "longitude" : "120.80698",
      "outDis" : "50",
      "Id" : "1394",
      "oid" : "5287",
      "districtId" : "1",
      "nameZh" : "山頂",
      "pgp" : "0",
      "terminal" : "0",
      "latitude" : "24.25547",
      "inDis" : "50",
      "routeId" : "264",
      "seqNo" : "10"
   },
   {
      "GoBack" : "1",
      "longitude" : "120.80775",
      "outDis" : "50",
      "Id" : "3557",
      "oid" : "6515",
      "districtId" : "1",
      "nameZh" : "電信局前",
      "pgp" : "0",
      "terminal" : "0",
      "latitude" : "24.25339",
      "inDis" : "50",
      "routeId" : "264",
      "seqNo" : "11"
   },
   {
      "GoBack" : "1",
      "longitude" : "120.80893",
      "outDis" : "50",
      "Id" : "1438",
      "oid" : "5318",
      "districtId" : "1",
      "nameZh" : "中正里",
      "pgp" : "0",
      "terminal" : "0",
      "latitude" : "24.25027",
      "inDis" : "50",
      "routeId" : "264",
      "seqNo" : "12"
   },
   {
      "GoBack" : "1",
      "longitude" : "120.80868",
      "outDis" : "50",
      "Id" : "0011",
      "oid" : "6372",
      "districtId" : "1",
      "nameZh" : "郵局",
      "pgp" : "0",
      "terminal" : "0",
      "latitude" : "24.24772",
      "inDis" : "50",
      "routeId" : "264",
      "seqNo" : "13"
   },
   {
      "GoBack" : "1",
      "longitude" : "120.80832",
      "outDis" : "50",
      "Id" : "1199",
      "oid" : "5153",
      "districtId" : "1",
      "nameZh" : "下新社",
      "pgp" : "0",
      "terminal" : "0",
      "latitude" : "24.24638",
      "inDis" : "50",
      "routeId" : "264",
      "seqNo" : "14"
   },
   {
      "GoBack" : "1",
      "longitude" : "120.80835",
      "outDis" : "50",
      "Id" : "3398",
      "oid" : "6433",
      "districtId" : "1",
      "nameZh" : "新社",
      "pgp" : "0",
      "terminal" : "0",
      "latitude" : "24.24458",
      "inDis" : "50",
      "routeId" : "264",
      "seqNo" : "15"
   },
   {
      "GoBack" : "1",
      "longitude" : "120.80832",
      "outDis" : "50",
      "Id" : "1887",
      "oid" : "6379",
      "districtId" : "1",
      "nameZh" : "市場前",
      "pgp" : "0",
      "terminal" : "0",
      "latitude" : "24.24234",
      "inDis" : "50",
      "routeId" : "264",
      "seqNo" : "16"
   },
   {
      "GoBack" : "1",
      "longitude" : "120.80926",
      "outDis" : "50",
      "Id" : "1264",
      "oid" : "5205",
      "districtId" : "1",
      "nameZh" : "土城 ",
      "pgp" : "0",
      "terminal" : "0",
      "latitude" : "24.23992",
      "inDis" : "50",
      "routeId" : "264",
      "seqNo" : "17"
   },
   {
      "GoBack" : "1",
      "longitude" : "120.81476",
      "outDis" : "50",
      "Id" : "1691",
      "oid" : "5469",
      "districtId" : "1",
      "nameZh" : "月湖里",
      "pgp" : "0",
      "terminal" : "0",
      "latitude" : "24.23702",
      "inDis" : "50",
      "routeId" : "264",
      "seqNo" : "18"
   },
   {
      "GoBack" : "1",
      "longitude" : "120.8169",
      "outDis" : "50",
      "Id" : "2219",
      "oid" : "5776",
      "districtId" : "1",
      "nameZh" : "伯公崎",
      "pgp" : "0",
      "terminal" : "0",
      "latitude" : "24.23039",
      "inDis" : "50",
      "routeId" : "264",
      "seqNo" : "19"
   },
   {
      "GoBack" : "1",
      "longitude" : "120.81938",
      "outDis" : "50",
      "Id" : "2500",
      "oid" : "5949",
      "districtId" : "1",
      "nameZh" : "股份園路口",
      "pgp" : "0",
      "terminal" : "0",
      "latitude" : "24.22295",
      "inDis" : "50",
      "routeId" : "264",
      "seqNo" : "20"
   },
   {
      "GoBack" : "1",
      "longitude" : "120.8204",
      "outDis" : "50",
      "Id" : "1133",
      "oid" : "5114",
      "districtId" : "1",
      "nameZh" : "下水底寮",
      "pgp" : "0",
      "terminal" : "0",
      "latitude" : "24.21904",
      "inDis" : "50",
      "routeId" : "264",
      "seqNo" : "21"
   },
   {
      "GoBack" : "1",
      "longitude" : "120.81995",
      "outDis" : "50",
      "Id" : "3362",
      "oid" : "6408",
      "districtId" : "1",
      "nameZh" : "新七村",
      "pgp" : "0",
      "terminal" : "0",
      "latitude" : "24.21527",
      "inDis" : "50",
      "routeId" : "264",
      "seqNo" : "22"
   },
   {
      "GoBack" : "1",
      "longitude" : "120.82012",
      "outDis" : "50",
      "Id" : "1158",
      "oid" : "5126",
      "districtId" : "1",
      "nameZh" : "下東興",
      "pgp" : "0",
      "terminal" : "0",
      "latitude" : "24.21243",
      "inDis" : "50",
      "routeId" : "264",
      "seqNo" : "23"
   },
   {
      "GoBack" : "1",
      "longitude" : "120.8214",
      "outDis" : "50",
      "Id" : "2441",
      "oid" : "5909",
      "districtId" : "1",
      "nameZh" : "東興",
      "pgp" : "0",
      "terminal" : "0",
      "latitude" : "24.20688",
      "inDis" : "50",
      "routeId" : "264",
      "seqNo" : "24"
   },
   {
      "GoBack" : "1",
      "longitude" : "120.82143",
      "outDis" : "50",
      "Id" : "3123",
      "oid" : "6296",
      "districtId" : "1",
      "nameZh" : "頂東興",
      "pgp" : "0",
      "terminal" : "0",
      "latitude" : "24.20415",
      "inDis" : "50",
      "routeId" : "264",
      "seqNo" : "25"
   },
   {
      "GoBack" : "1",
      "longitude" : "120.81903",
      "outDis" : "50",
      "Id" : "2964",
      "oid" : "6190",
      "districtId" : "1",
      "nameZh" : "崎頂",
      "pgp" : "0",
      "terminal" : "0",
      "latitude" : "24.20203",
      "inDis" : "50",
      "routeId" : "264",
      "seqNo" : "27"
   },
   {
      "GoBack" : "1",
      "longitude" : "120.81603",
      "outDis" : "50",
      "Id" : "1008",
      "oid" : "5034",
      "districtId" : "1",
      "nameZh" : "二苗圃口",
      "pgp" : "0",
      "terminal" : "0",
      "latitude" : "24.20277",
      "inDis" : "50",
      "routeId" : "264",
      "seqNo" : "28"
   },
   {
      "GoBack" : "1",
      "longitude" : "120.81597",
      "outDis" : "50",
      "Id" : "1139",
      "oid" : "5119",
      "districtId" : "1",
      "nameZh" : "下田寮",
      "pgp" : "0",
      "terminal" : "0",
      "latitude" : "24.19767",
      "inDis" : "50",
      "routeId" : "264",
      "seqNo" : "29"
   },
   {
      "GoBack" : "1",
      "longitude" : "120.81596",
      "outDis" : "50",
      "Id" : "1226",
      "oid" : "5174",
      "districtId" : "1",
      "nameZh" : "上田寮",
      "pgp" : "0",
      "terminal" : "0",
      "latitude" : "24.19558",
      "inDis" : "50",
      "routeId" : "264",
      "seqNo" : "30"
   },
   {
      "GoBack" : "1",
      "longitude" : "120.81361",
      "outDis" : "50",
      "Id" : "0244",
      "oid" : "310639233",
      "districtId" : "1",
      "nameZh" : "紫明宮",
      "pgp" : "0",
      "terminal" : "0",
      "latitude" : "24.1926",
      "inDis" : "50",
      "routeId" : "264",
      "seqNo" : "31"
   },
   {
      "GoBack" : "1",
      "longitude" : "120.81189",
      "outDis" : "50",
      "Id" : "1533",
      "oid" : "5370",
      "districtId" : "1",
      "nameZh" : "五村口",
      "pgp" : "0",
      "terminal" : "0",
      "latitude" : "24.19102",
      "inDis" : "50",
      "routeId" : "264",
      "seqNo" : "32"
   },
   {
      "GoBack" : "1",
      "longitude" : "120.81139",
      "outDis" : "50",
      "Id" : "3368",
      "oid" : "6413",
      "districtId" : "1",
      "nameZh" : "新五村",
      "pgp" : "0",
      "terminal" : "0",
      "latitude" : "24.19034",
      "inDis" : "50",
      "routeId" : "264",
      "seqNo" : "33"
   },
   {
      "GoBack" : "2",
      "longitude" : "120.81139",
      "outDis" : "50",
      "Id" : "3368",
      "oid" : "6413",
      "districtId" : "1",
      "nameZh" : "新五村",
      "pgp" : "0",
      "terminal" : "0",
      "latitude" : "24.19034",
      "inDis" : "50",
      "routeId" : "264",
      "seqNo" : "1"
   },
   {
      "GoBack" : "2",
      "longitude" : "120.81189",
      "outDis" : "50",
      "Id" : "1533",
      "oid" : "5370",
      "districtId" : "1",
      "nameZh" : "五村口",
      "pgp" : "0",
      "terminal" : "0",
      "latitude" : "24.19102",
      "inDis" : "50",
      "routeId" : "264",
      "seqNo" : "2"
   },
   {
      "GoBack" : "2",
      "longitude" : "120.81361",
      "outDis" : "50",
      "Id" : "0244",
      "oid" : "310639233",
      "districtId" : "1",
      "nameZh" : "紫明宮",
      "pgp" : "0",
      "terminal" : "0",
      "latitude" : "24.1926",
      "inDis" : "50",
      "routeId" : "264",
      "seqNo" : "3"
   },
   {
      "GoBack" : "2",
      "longitude" : "120.81596",
      "outDis" : "50",
      "Id" : "1226",
      "oid" : "5174",
      "districtId" : "1",
      "nameZh" : "上田寮",
      "pgp" : "0",
      "terminal" : "0",
      "latitude" : "24.19558",
      "inDis" : "50",
      "routeId" : "264",
      "seqNo" : "4"
   },
   {
      "GoBack" : "2",
      "longitude" : "120.81597",
      "outDis" : "50",
      "Id" : "1139",
      "oid" : "5119",
      "districtId" : "1",
      "nameZh" : "下田寮",
      "pgp" : "0",
      "terminal" : "0",
      "latitude" : "24.19767",
      "inDis" : "50",
      "routeId" : "264",
      "seqNo" : "5"
   },
   {
      "GoBack" : "2",
      "longitude" : "120.81603",
      "outDis" : "50",
      "Id" : "1008",
      "oid" : "5034",
      "districtId" : "1",
      "nameZh" : "二苗圃口",
      "pgp" : "0",
      "terminal" : "0",
      "latitude" : "24.20277",
      "inDis" : "50",
      "routeId" : "264",
      "seqNo" : "6"
   },
   {
      "GoBack" : "2",
      "longitude" : "120.81903",
      "outDis" : "50",
      "Id" : "2964",
      "oid" : "6190",
      "districtId" : "1",
      "nameZh" : "崎頂",
      "pgp" : "0",
      "terminal" : "0",
      "latitude" : "24.20203",
      "inDis" : "50",
      "routeId" : "264",
      "seqNo" : "8"
   },
   {
      "GoBack" : "2",
      "longitude" : "120.82143",
      "outDis" : "50",
      "Id" : "3123",
      "oid" : "6296",
      "districtId" : "1",
      "nameZh" : "頂東興",
      "pgp" : "0",
      "terminal" : "0",
      "latitude" : "24.20415",
      "inDis" : "50",
      "routeId" : "264",
      "seqNo" : "10"
   },
   {
      "GoBack" : "2",
      "longitude" : "120.8214",
      "outDis" : "50",
      "Id" : "2441",
      "oid" : "5909",
      "districtId" : "1",
      "nameZh" : "東興",
      "pgp" : "0",
      "terminal" : "0",
      "latitude" : "24.20688",
      "inDis" : "50",
      "routeId" : "264",
      "seqNo" : "11"
   },
   {
      "GoBack" : "2",
      "longitude" : "120.82012",
      "outDis" : "50",
      "Id" : "1158",
      "oid" : "5126",
      "districtId" : "1",
      "nameZh" : "下東興",
      "pgp" : "0",
      "terminal" : "0",
      "latitude" : "24.21243",
      "inDis" : "50",
      "routeId" : "264",
      "seqNo" : "12"
   },
   {
      "GoBack" : "2",
      "longitude" : "120.81995",
      "outDis" : "50",
      "Id" : "3362",
      "oid" : "6408",
      "districtId" : "1",
      "nameZh" : "新七村",
      "pgp" : "0",
      "terminal" : "0",
      "latitude" : "24.21527",
      "inDis" : "50",
      "routeId" : "264",
      "seqNo" : "13"
   },
   {
      "GoBack" : "2",
      "longitude" : "120.8204",
      "outDis" : "50",
      "Id" : "1133",
      "oid" : "5114",
      "districtId" : "1",
      "nameZh" : "下水底寮",
      "pgp" : "0",
      "terminal" : "0",
      "latitude" : "24.21904",
      "inDis" : "50",
      "routeId" : "264",
      "seqNo" : "14"
   },
   {
      "GoBack" : "2",
      "longitude" : "120.81938",
      "outDis" : "50",
      "Id" : "2500",
      "oid" : "5949",
      "districtId" : "1",
      "nameZh" : "股份園路口",
      "pgp" : "0",
      "terminal" : "0",
      "latitude" : "24.22295",
      "inDis" : "50",
      "routeId" : "264",
      "seqNo" : "15"
   },
   {
      "GoBack" : "2",
      "longitude" : "120.8169",
      "outDis" : "50",
      "Id" : "2219",
      "oid" : "5776",
      "districtId" : "1",
      "nameZh" : "伯公崎",
      "pgp" : "0",
      "terminal" : "0",
      "latitude" : "24.23039",
      "inDis" : "50",
      "routeId" : "264",
      "seqNo" : "16"
   },
   {
      "GoBack" : "2",
      "longitude" : "120.81476",
      "outDis" : "50",
      "Id" : "1691",
      "oid" : "5469",
      "districtId" : "1",
      "nameZh" : "月湖里",
      "pgp" : "0",
      "terminal" : "0",
      "latitude" : "24.23702",
      "inDis" : "50",
      "routeId" : "264",
      "seqNo" : "17"
   },
   {
      "GoBack" : "2",
      "longitude" : "120.80926",
      "outDis" : "50",
      "Id" : "1264",
      "oid" : "5205",
      "districtId" : "1",
      "nameZh" : "土城 ",
      "pgp" : "0",
      "terminal" : "0",
      "latitude" : "24.23992",
      "inDis" : "50",
      "routeId" : "264",
      "seqNo" : "18"
   },
   {
      "GoBack" : "2",
      "longitude" : "120.80832",
      "outDis" : "50",
      "Id" : "1887",
      "oid" : "6379",
      "districtId" : "1",
      "nameZh" : "市場前",
      "pgp" : "0",
      "terminal" : "0",
      "latitude" : "24.24234",
      "inDis" : "50",
      "routeId" : "264",
      "seqNo" : "19"
   },
   {
      "GoBack" : "2",
      "longitude" : "120.80835",
      "outDis" : "50",
      "Id" : "3398",
      "oid" : "6433",
      "districtId" : "1",
      "nameZh" : "新社",
      "pgp" : "0",
      "terminal" : "0",
      "latitude" : "24.24458",
      "inDis" : "50",
      "routeId" : "264",
      "seqNo" : "20"
   },
   {
      "GoBack" : "2",
      "longitude" : "120.80832",
      "outDis" : "50",
      "Id" : "1199",
      "oid" : "5153",
      "districtId" : "1",
      "nameZh" : "下新社",
      "pgp" : "0",
      "terminal" : "0",
      "latitude" : "24.24638",
      "inDis" : "50",
      "routeId" : "264",
      "seqNo" : "21"
   },
   {
      "GoBack" : "2",
      "longitude" : "120.80868",
      "outDis" : "50",
      "Id" : "0011",
      "oid" : "6372",
      "districtId" : "1",
      "nameZh" : "郵局",
      "pgp" : "0",
      "terminal" : "0",
      "latitude" : "24.24772",
      "inDis" : "50",
      "routeId" : "264",
      "seqNo" : "22"
   },
   {
      "GoBack" : "2",
      "longitude" : "120.80893",
      "outDis" : "50",
      "Id" : "1438",
      "oid" : "5318",
      "districtId" : "1",
      "nameZh" : "中正里",
      "pgp" : "0",
      "terminal" : "0",
      "latitude" : "24.25027",
      "inDis" : "50",
      "routeId" : "264",
      "seqNo" : "23"
   },
   {
      "GoBack" : "2",
      "longitude" : "120.80775",
      "outDis" : "50",
      "Id" : "3557",
      "oid" : "6515",
      "districtId" : "1",
      "nameZh" : "電信局前",
      "pgp" : "0",
      "terminal" : "0",
      "latitude" : "24.25339",
      "inDis" : "50",
      "routeId" : "264",
      "seqNo" : "24"
   },
   {
      "GoBack" : "2",
      "longitude" : "120.80698",
      "outDis" : "50",
      "Id" : "1394",
      "oid" : "5287",
      "districtId" : "1",
      "nameZh" : "山頂",
      "pgp" : "0",
      "terminal" : "0",
      "latitude" : "24.25547",
      "inDis" : "50",
      "routeId" : "264",
      "seqNo" : "25"
   },
   {
      "GoBack" : "2",
      "longitude" : "120.80775",
      "outDis" : "50",
      "Id" : "2446",
      "oid" : "5914",
      "districtId" : "1",
      "nameZh" : "果菜市場",
      "pgp" : "0",
      "terminal" : "0",
      "latitude" : "24.25706",
      "inDis" : "50",
      "routeId" : "264",
      "seqNo" : "26"
   },
   {
      "GoBack" : "2",
      "longitude" : "120.81402",
      "outDis" : "50",
      "Id" : "2593",
      "oid" : "6000",
      "districtId" : "1",
      "nameZh" : "南眉",
      "pgp" : "0",
      "terminal" : "0",
      "latitude" : "24.25639",
      "inDis" : "50",
      "routeId" : "264",
      "seqNo" : "29"
   },
   {
      "GoBack" : "2",
      "longitude" : "120.81608",
      "outDis" : "50",
      "Id" : "4430",
      "oid" : "5198",
      "districtId" : "1",
      "nameZh" : "土牛(豐勢路)",
      "pgp" : "0",
      "terminal" : "0",
      "latitude" : "24.26021",
      "inDis" : "50",
      "routeId" : "264",
      "seqNo" : "30"
   },
   {
      "GoBack" : "2",
      "longitude" : "120.82456",
      "outDis" : "50",
      "Id" : "4415",
      "oid" : "304371955",
      "districtId" : "1",
      "nameZh" : "東勢游泳池",
      "pgp" : "0",
      "terminal" : "0",
      "latitude" : "24.26119",
      "inDis" : "50",
      "routeId" : "264",
      "seqNo" : "31"
   },
   {
      "GoBack" : "2",
      "longitude" : "120.82862",
      "outDis" : "50",
      "Id" : "2428",
      "oid" : "5900",
      "districtId" : "1",
      "nameZh" : "東勢",
      "pgp" : "0",
      "terminal" : "0",
      "latitude" : "24.25742",
      "inDis" : "50",
      "routeId" : "264",
      "seqNo" : "34"
   }
]
