[
   {
      "GoBack" : "1",
      "longitude" : "120.59899",
      "outDis" : "50",
      "Id" : "0135",
      "oid" : "312174380",
      "districtId" : "1",
      "nameZh" : "臺中航空站",
      "pgp" : "0",
      "terminal" : "0",
      "latitude" : "24.25348",
      "inDis" : "50",
      "routeId" : "156",
      "seqNo" : "1"
   },
   {
      "GoBack" : "1",
      "longitude" : "120.60825",
      "outDis" : "50",
      "Id" : "1604",
      "oid" : "7693",
      "districtId" : "1",
      "nameZh" : "公明里",
      "pgp" : "0",
      "terminal" : "0",
      "latitude" : "24.24659",
      "inDis" : "50",
      "routeId" : "156",
      "seqNo" : "2"
   },
   {
      "GoBack" : "1",
      "longitude" : "120.61478",
      "outDis" : "50",
      "Id" : "3023",
      "oid" : "7811",
      "districtId" : "1",
      "nameZh" : "清泉里",
      "pgp" : "0",
      "terminal" : "0",
      "latitude" : "24.24428",
      "inDis" : "50",
      "routeId" : "156",
      "seqNo" : "3"
   },
   {
      "GoBack" : "1",
      "longitude" : "120.61754",
      "outDis" : "50",
      "Id" : "4960",
      "oid" : "307906617",
      "districtId" : "1",
      "nameZh" : "中清清泉路口",
      "pgp" : "0",
      "terminal" : "0",
      "latitude" : "24.24333",
      "inDis" : "50",
      "routeId" : "156",
      "seqNo" : "4"
   },
   {
      "GoBack" : "1",
      "longitude" : "120.63113",
      "outDis" : "50",
      "Id" : "1591",
      "oid" : "7301",
      "districtId" : "1",
      "nameZh" : "六張犁",
      "pgp" : "0",
      "terminal" : "0",
      "latitude" : "24.2401",
      "inDis" : "50",
      "routeId" : "156",
      "seqNo" : "5"
   },
   {
      "GoBack" : "1",
      "longitude" : "120.6429",
      "outDis" : "50",
      "Id" : "4651",
      "oid" : "13419",
      "districtId" : "1",
      "nameZh" : "大明國小(中清路)",
      "pgp" : "0",
      "terminal" : "0",
      "latitude" : "24.22864",
      "inDis" : "50",
      "routeId" : "156",
      "seqNo" : "6"
   },
   {
      "GoBack" : "1",
      "longitude" : "120.64673",
      "outDis" : "50",
      "Id" : "1620",
      "oid" : "13425",
      "districtId" : "1",
      "nameZh" : "大雅分駐所",
      "pgp" : "0",
      "terminal" : "0",
      "latitude" : "24.22478",
      "inDis" : "50",
      "routeId" : "156",
      "seqNo" : "7"
   },
   {
      "GoBack" : "1",
      "longitude" : "120.64803",
      "outDis" : "50",
      "Id" : "1346",
      "oid" : "13424",
      "districtId" : "1",
      "nameZh" : "大雅",
      "pgp" : "0",
      "terminal" : "0",
      "latitude" : "24.2228",
      "inDis" : "50",
      "routeId" : "156",
      "seqNo" : "8"
   },
   {
      "GoBack" : "1",
      "longitude" : "120.64843",
      "outDis" : "50",
      "Id" : "4306",
      "oid" : "51754502",
      "districtId" : "1",
      "nameZh" : "中清雅潭路口",
      "pgp" : "0",
      "terminal" : "0",
      "latitude" : "24.21925",
      "inDis" : "50",
      "routeId" : "156",
      "seqNo" : "9"
   },
   {
      "GoBack" : "1",
      "longitude" : "120.64923",
      "outDis" : "50",
      "Id" : "2558",
      "oid" : "9CF9646B1824456FAA6826704A9184AB",
      "districtId" : "1",
      "nameZh" : "南大雅",
      "pgp" : "0",
      "terminal" : "0",
      "latitude" : "24.21697",
      "inDis" : "50",
      "routeId" : "156",
      "seqNo" : "10"
   },
   {
      "GoBack" : "1",
      "longitude" : "120.64947",
      "outDis" : "50",
      "Id" : "1345",
      "oid" : "7230",
      "districtId" : "1",
      "nameZh" : "大華國中",
      "pgp" : "0",
      "terminal" : "0",
      "latitude" : "24.21497",
      "inDis" : "50",
      "routeId" : "156",
      "seqNo" : "11"
   },
   {
      "GoBack" : "1",
      "longitude" : "120.65253",
      "outDis" : "50",
      "Id" : "0936",
      "oid" : "7596",
      "districtId" : "1",
      "nameZh" : "頭張(中清路)",
      "pgp" : "0",
      "terminal" : "0",
      "latitude" : "24.20563",
      "inDis" : "50",
      "routeId" : "156",
      "seqNo" : "12"
   },
   {
      "GoBack" : "1",
      "longitude" : "120.65493",
      "outDis" : "50",
      "Id" : "0827",
      "oid" : "7482",
      "districtId" : "1",
      "nameZh" : "港尾",
      "pgp" : "0",
      "terminal" : "0",
      "latitude" : "24.20096",
      "inDis" : "50",
      "routeId" : "156",
      "seqNo" : "13"
   },
   {
      "GoBack" : "1",
      "longitude" : "120.61433",
      "outDis" : "50",
      "Id" : "5003",
      "oid" : "309414075",
      "districtId" : "1",
      "nameZh" : "國際會展中心",
      "pgp" : "0",
      "terminal" : "0",
      "latitude" : "24.11704",
      "inDis" : "50",
      "routeId" : "156",
      "seqNo" : "14"
   },
   {
      "GoBack" : "1",
      "longitude" : "120.61666",
      "outDis" : "50",
      "Id" : "2907",
      "oid" : "310692257",
      "districtId" : "1",
      "nameZh" : "高鐵臺中站(17月台)",
      "pgp" : "0",
      "terminal" : "0",
      "latitude" : "24.11413",
      "inDis" : "50",
      "routeId" : "156",
      "seqNo" : "15"
   },
   {
      "GoBack" : "2",
      "longitude" : "120.61666",
      "outDis" : "50",
      "Id" : "2907",
      "oid" : "310692257",
      "districtId" : "1",
      "nameZh" : "高鐵臺中站(17月台)",
      "pgp" : "0",
      "terminal" : "0",
      "latitude" : "24.11413",
      "inDis" : "50",
      "routeId" : "156",
      "seqNo" : "1"
   },
   {
      "GoBack" : "2",
      "longitude" : "120.61433",
      "outDis" : "50",
      "Id" : "5003",
      "oid" : "309414076",
      "districtId" : "1",
      "nameZh" : "國際會展中心",
      "pgp" : "0",
      "terminal" : "0",
      "latitude" : "24.11704",
      "inDis" : "50",
      "routeId" : "156",
      "seqNo" : "2"
   },
   {
      "GoBack" : "2",
      "longitude" : "120.65493",
      "outDis" : "50",
      "Id" : "0827",
      "oid" : "7482",
      "districtId" : "1",
      "nameZh" : "港尾",
      "pgp" : "0",
      "terminal" : "0",
      "latitude" : "24.20096",
      "inDis" : "50",
      "routeId" : "156",
      "seqNo" : "3"
   },
   {
      "GoBack" : "2",
      "longitude" : "120.65253",
      "outDis" : "50",
      "Id" : "0936",
      "oid" : "7596",
      "districtId" : "1",
      "nameZh" : "頭張(中清路)",
      "pgp" : "0",
      "terminal" : "0",
      "latitude" : "24.20563",
      "inDis" : "50",
      "routeId" : "156",
      "seqNo" : "4"
   },
   {
      "GoBack" : "2",
      "longitude" : "120.64947",
      "outDis" : "50",
      "Id" : "1345",
      "oid" : "7230",
      "districtId" : "1",
      "nameZh" : "大華國中",
      "pgp" : "0",
      "terminal" : "0",
      "latitude" : "24.21497",
      "inDis" : "50",
      "routeId" : "156",
      "seqNo" : "5"
   },
   {
      "GoBack" : "2",
      "longitude" : "120.64909",
      "outDis" : "50",
      "Id" : "2558",
      "oid" : "37B96B8128A84D31AD1EE9AB9ACFECB2",
      "districtId" : "1",
      "nameZh" : "南大雅",
      "pgp" : "0",
      "terminal" : "0",
      "latitude" : "24.21724",
      "inDis" : "50",
      "routeId" : "156",
      "seqNo" : "6"
   },
   {
      "GoBack" : "2",
      "longitude" : "120.64843",
      "outDis" : "50",
      "Id" : "4306",
      "oid" : "51754502",
      "districtId" : "1",
      "nameZh" : "中清雅潭路口",
      "pgp" : "0",
      "terminal" : "0",
      "latitude" : "24.21925",
      "inDis" : "50",
      "routeId" : "156",
      "seqNo" : "7"
   },
   {
      "GoBack" : "2",
      "longitude" : "120.64803",
      "outDis" : "50",
      "Id" : "1346",
      "oid" : "13424",
      "districtId" : "1",
      "nameZh" : "大雅",
      "pgp" : "0",
      "terminal" : "0",
      "latitude" : "24.2228",
      "inDis" : "50",
      "routeId" : "156",
      "seqNo" : "8"
   },
   {
      "GoBack" : "2",
      "longitude" : "120.64673",
      "outDis" : "50",
      "Id" : "1620",
      "oid" : "13425",
      "districtId" : "1",
      "nameZh" : "大雅分駐所",
      "pgp" : "0",
      "terminal" : "0",
      "latitude" : "24.22478",
      "inDis" : "50",
      "routeId" : "156",
      "seqNo" : "9"
   },
   {
      "GoBack" : "2",
      "longitude" : "120.64284",
      "outDis" : "50",
      "Id" : "4651",
      "oid" : "7222",
      "districtId" : "1",
      "nameZh" : "大明國小(中清路)",
      "pgp" : "0",
      "terminal" : "0",
      "latitude" : "24.22844",
      "inDis" : "50",
      "routeId" : "156",
      "seqNo" : "10"
   },
   {
      "GoBack" : "2",
      "longitude" : "120.63126",
      "outDis" : "50",
      "Id" : "1591",
      "oid" : "7303",
      "districtId" : "1",
      "nameZh" : "六張犁",
      "pgp" : "0",
      "terminal" : "0",
      "latitude" : "24.24003",
      "inDis" : "50",
      "routeId" : "156",
      "seqNo" : "11"
   },
   {
      "GoBack" : "2",
      "longitude" : "120.61757",
      "outDis" : "50",
      "Id" : "4960",
      "oid" : "307906618",
      "districtId" : "1",
      "nameZh" : "中清清泉路口",
      "pgp" : "0",
      "terminal" : "0",
      "latitude" : "24.24336",
      "inDis" : "50",
      "routeId" : "156",
      "seqNo" : "12"
   },
   {
      "GoBack" : "2",
      "longitude" : "120.61478",
      "outDis" : "50",
      "Id" : "3023",
      "oid" : "7811",
      "districtId" : "1",
      "nameZh" : "清泉里",
      "pgp" : "0",
      "terminal" : "0",
      "latitude" : "24.24428",
      "inDis" : "50",
      "routeId" : "156",
      "seqNo" : "13"
   },
   {
      "GoBack" : "2",
      "longitude" : "120.60825",
      "outDis" : "50",
      "Id" : "1604",
      "oid" : "7693",
      "districtId" : "1",
      "nameZh" : "公明里",
      "pgp" : "0",
      "terminal" : "0",
      "latitude" : "24.24659",
      "inDis" : "50",
      "routeId" : "156",
      "seqNo" : "14"
   },
   {
      "GoBack" : "2",
      "longitude" : "120.59899",
      "outDis" : "50",
      "Id" : "0135",
      "oid" : "312174380",
      "districtId" : "1",
      "nameZh" : "臺中航空站",
      "pgp" : "0",
      "terminal" : "0",
      "latitude" : "24.25348",
      "inDis" : "50",
      "routeId" : "156",
      "seqNo" : "15"
   }
]
