[
   {
      "GoBack" : "1",
      "longitude" : "121.00835",
      "outDis" : "50",
      "Id" : "2274",
      "oid" : "7988",
      "districtId" : "1",
      "nameZh" : "谷關",
      "pgp" : "0",
      "terminal" : "0",
      "latitude" : "24.20284",
      "inDis" : "50",
      "routeId" : "269",
      "seqNo" : "1"
   },
   {
      "GoBack" : "1",
      "longitude" : "121.00436",
      "outDis" : "50",
      "Id" : "3852",
      "oid" : "6655",
      "districtId" : "1",
      "nameZh" : "龍谷樂園",
      "pgp" : "0",
      "terminal" : "0",
      "latitude" : "24.20283",
      "inDis" : "50",
      "routeId" : "269",
      "seqNo" : "2"
   },
   {
      "GoBack" : "1",
      "longitude" : "121.00157",
      "outDis" : "50",
      "Id" : "2290",
      "oid" : "5818",
      "districtId" : "1",
      "nameZh" : "佳保臺",
      "pgp" : "0",
      "terminal" : "0",
      "latitude" : "24.2009",
      "inDis" : "50",
      "routeId" : "269",
      "seqNo" : "3"
   },
   {
      "GoBack" : "1",
      "longitude" : "121.00825",
      "outDis" : "50",
      "Id" : "5203",
      "oid" : "310787712",
      "districtId" : "1",
      "nameZh" : "八仙山森林遊樂區",
      "pgp" : "0",
      "terminal" : "0",
      "latitude" : "24.19686",
      "inDis" : "50",
      "routeId" : "269",
      "seqNo" : "4"
   },
   {
      "GoBack" : "2",
      "longitude" : "121.00825",
      "outDis" : "50",
      "Id" : "5203",
      "oid" : "310787713",
      "districtId" : "1",
      "nameZh" : "八仙山森林遊樂區",
      "pgp" : "0",
      "terminal" : "0",
      "latitude" : "24.19686",
      "inDis" : "50",
      "routeId" : "269",
      "seqNo" : "1"
   },
   {
      "GoBack" : "2",
      "longitude" : "121.00157",
      "outDis" : "50",
      "Id" : "2290",
      "oid" : "5818",
      "districtId" : "1",
      "nameZh" : "佳保臺",
      "pgp" : "0",
      "terminal" : "0",
      "latitude" : "24.2009",
      "inDis" : "50",
      "routeId" : "269",
      "seqNo" : "2"
   },
   {
      "GoBack" : "2",
      "longitude" : "121.00436",
      "outDis" : "50",
      "Id" : "3852",
      "oid" : "6655",
      "districtId" : "1",
      "nameZh" : "龍谷樂園",
      "pgp" : "0",
      "terminal" : "0",
      "latitude" : "24.20283",
      "inDis" : "50",
      "routeId" : "269",
      "seqNo" : "3"
   },
   {
      "GoBack" : "2",
      "longitude" : "121.00835",
      "outDis" : "50",
      "Id" : "2274",
      "oid" : "7988",
      "districtId" : "1",
      "nameZh" : "谷關",
      "pgp" : "0",
      "terminal" : "0",
      "latitude" : "24.20284",
      "inDis" : "50",
      "routeId" : "269",
      "seqNo" : "4"
   }
]
