[
   {
      "GoBack" : "1",
      "longitude" : "120.64803",
      "outDis" : "50",
      "Id" : "1346",
      "oid" : "13424",
      "districtId" : "1",
      "nameZh" : "大雅",
      "pgp" : "0",
      "terminal" : "0",
      "latitude" : "24.2228",
      "inDis" : "50",
      "routeId" : "9區",
      "seqNo" : "1"
   },
   {
      "GoBack" : "1",
      "longitude" : "120.64673",
      "outDis" : "50",
      "Id" : "1620",
      "oid" : "13425",
      "districtId" : "1",
      "nameZh" : "大雅分駐所",
      "pgp" : "0",
      "terminal" : "0",
      "latitude" : "24.22478",
      "inDis" : "50",
      "routeId" : "9區",
      "seqNo" : "2"
   },
   {
      "GoBack" : "1",
      "longitude" : "120.64457",
      "outDis" : "50",
      "Id" : "5423",
      "oid" : "313288973",
      "districtId" : "1",
      "nameZh" : "大雅澄清醫院",
      "pgp" : "0",
      "terminal" : "0",
      "latitude" : "24.22699",
      "inDis" : "50",
      "routeId" : "9區",
      "seqNo" : "3"
   },
   {
      "GoBack" : "1",
      "longitude" : "120.6429",
      "outDis" : "50",
      "Id" : "4651",
      "oid" : "13419",
      "districtId" : "1",
      "nameZh" : "大明國小(中清路)",
      "pgp" : "0",
      "terminal" : "0",
      "latitude" : "24.22864",
      "inDis" : "50",
      "routeId" : "9區",
      "seqNo" : "4"
   },
   {
      "GoBack" : "1",
      "longitude" : "120.64112",
      "outDis" : "50",
      "Id" : "2253",
      "oid" : "7095",
      "districtId" : "1",
      "nameZh" : "秀山里",
      "pgp" : "0",
      "terminal" : "0",
      "latitude" : "24.23025",
      "inDis" : "50",
      "routeId" : "9區",
      "seqNo" : "5"
   },
   {
      "GoBack" : "1",
      "longitude" : "120.63829",
      "outDis" : "50",
      "Id" : "2798",
      "oid" : "7374",
      "districtId" : "1",
      "nameZh" : "泰聯公司",
      "pgp" : "0",
      "terminal" : "0",
      "latitude" : "24.23322",
      "inDis" : "50",
      "routeId" : "9區",
      "seqNo" : "6"
   },
   {
      "GoBack" : "1",
      "longitude" : "120.63487",
      "outDis" : "50",
      "Id" : "1593",
      "oid" : "7692",
      "districtId" : "1",
      "nameZh" : "六寶里",
      "pgp" : "0",
      "terminal" : "0",
      "latitude" : "24.23644",
      "inDis" : "50",
      "routeId" : "9區",
      "seqNo" : "7"
   },
   {
      "GoBack" : "1",
      "longitude" : "120.63242",
      "outDis" : "50",
      "Id" : "2289",
      "oid" : "7099",
      "districtId" : "1",
      "nameZh" : "亞東公司",
      "pgp" : "0",
      "terminal" : "0",
      "latitude" : "24.2389",
      "inDis" : "50",
      "routeId" : "9區",
      "seqNo" : "8"
   },
   {
      "GoBack" : "1",
      "longitude" : "120.63126",
      "outDis" : "50",
      "Id" : "1591",
      "oid" : "7303",
      "districtId" : "1",
      "nameZh" : "六張犁",
      "pgp" : "0",
      "terminal" : "0",
      "latitude" : "24.24003",
      "inDis" : "50",
      "routeId" : "9區",
      "seqNo" : "9"
   },
   {
      "GoBack" : "1",
      "longitude" : "120.62669",
      "outDis" : "50",
      "Id" : "3663",
      "oid" : "7564",
      "districtId" : "1",
      "nameZh" : "福樂新城",
      "pgp" : "0",
      "terminal" : "0",
      "latitude" : "24.24239",
      "inDis" : "50",
      "routeId" : "9區",
      "seqNo" : "10"
   },
   {
      "GoBack" : "1",
      "longitude" : "120.6204",
      "outDis" : "50",
      "Id" : "4669",
      "oid" : "7425",
      "districtId" : "1",
      "nameZh" : "中清信義路口",
      "pgp" : "0",
      "terminal" : "0",
      "latitude" : "24.2425",
      "inDis" : "50",
      "routeId" : "9區",
      "seqNo" : "11"
   },
   {
      "GoBack" : "1",
      "longitude" : "120.61754",
      "outDis" : "50",
      "Id" : "4960",
      "oid" : "307906617",
      "districtId" : "1",
      "nameZh" : "中清清泉路口",
      "pgp" : "0",
      "terminal" : "0",
      "latitude" : "24.24333",
      "inDis" : "50",
      "routeId" : "9區",
      "seqNo" : "12"
   },
   {
      "GoBack" : "1",
      "longitude" : "120.61478",
      "outDis" : "50",
      "Id" : "3023",
      "oid" : "7811",
      "districtId" : "1",
      "nameZh" : "清泉里",
      "pgp" : "0",
      "terminal" : "0",
      "latitude" : "24.24428",
      "inDis" : "50",
      "routeId" : "9區",
      "seqNo" : "13"
   },
   {
      "GoBack" : "1",
      "longitude" : "120.60825",
      "outDis" : "50",
      "Id" : "1604",
      "oid" : "7693",
      "districtId" : "1",
      "nameZh" : "公明里",
      "pgp" : "0",
      "terminal" : "0",
      "latitude" : "24.24659",
      "inDis" : "50",
      "routeId" : "9區",
      "seqNo" : "14"
   },
   {
      "GoBack" : "1",
      "longitude" : "120.60564",
      "outDis" : "50",
      "Id" : "3738",
      "oid" : "13565",
      "districtId" : "1",
      "nameZh" : "樂群二村",
      "pgp" : "0",
      "terminal" : "0",
      "latitude" : "24.24771",
      "inDis" : "50",
      "routeId" : "9區",
      "seqNo" : "15"
   },
   {
      "GoBack" : "1",
      "longitude" : "120.60169",
      "outDis" : "50",
      "Id" : "1556",
      "oid" : "13448",
      "districtId" : "1",
      "nameZh" : "中清仁愛巷口",
      "pgp" : "0",
      "terminal" : "0",
      "latitude" : "24.24951",
      "inDis" : "50",
      "routeId" : "9區",
      "seqNo" : "16"
   },
   {
      "GoBack" : "1",
      "longitude" : "120.60098",
      "outDis" : "50",
      "Id" : "4713",
      "oid" : "306167894",
      "districtId" : "1",
      "nameZh" : "公明國中",
      "pgp" : "0",
      "terminal" : "0",
      "latitude" : "24.24982",
      "inDis" : "50",
      "routeId" : "9區",
      "seqNo" : "17"
   },
   {
      "GoBack" : "1",
      "longitude" : "120.5984",
      "outDis" : "50",
      "Id" : "4982",
      "oid" : "306167896",
      "districtId" : "1",
      "nameZh" : "漢翔複材中心",
      "pgp" : "0",
      "terminal" : "0",
      "latitude" : "24.25234",
      "inDis" : "50",
      "routeId" : "9區",
      "seqNo" : "18"
   },
   {
      "GoBack" : "1",
      "longitude" : "120.59883",
      "outDis" : "50",
      "Id" : "0135",
      "oid" : "13550",
      "districtId" : "1",
      "nameZh" : "臺中航空站",
      "pgp" : "0",
      "terminal" : "0",
      "latitude" : "24.25305",
      "inDis" : "50",
      "routeId" : "9區",
      "seqNo" : "19"
   },
   {
      "GoBack" : "1",
      "longitude" : "120.60003",
      "outDis" : "50",
      "Id" : "5381",
      "oid" : "312172944",
      "districtId" : "1",
      "nameZh" : "西勢十巷口",
      "pgp" : "0",
      "terminal" : "0",
      "latitude" : "24.25557",
      "inDis" : "50",
      "routeId" : "9區",
      "seqNo" : "20"
   },
   {
      "GoBack" : "1",
      "longitude" : "120.60119",
      "outDis" : "50",
      "Id" : "5662",
      "oid" : "317773386",
      "districtId" : "1",
      "nameZh" : "中航和睦路口",
      "pgp" : "0",
      "terminal" : "0",
      "latitude" : "24.2578",
      "inDis" : "50",
      "routeId" : "9區",
      "seqNo" : "21"
   },
   {
      "GoBack" : "1",
      "longitude" : "120.5987",
      "outDis" : "50",
      "Id" : "4101",
      "oid" : "317773389",
      "districtId" : "1",
      "nameZh" : "西勢里",
      "pgp" : "0",
      "terminal" : "0",
      "latitude" : "24.25982",
      "inDis" : "50",
      "routeId" : "9區",
      "seqNo" : "22"
   },
   {
      "GoBack" : "1",
      "longitude" : "120.59513",
      "outDis" : "50",
      "Id" : "4083",
      "oid" : "13450",
      "districtId" : "1",
      "nameZh" : "公館國小",
      "pgp" : "0",
      "terminal" : "0",
      "latitude" : "24.26084",
      "inDis" : "50",
      "routeId" : "9區",
      "seqNo" : "23"
   },
   {
      "GoBack" : "1",
      "longitude" : "120.58787",
      "outDis" : "50",
      "Id" : "5033",
      "oid" : "309555541",
      "districtId" : "1",
      "nameZh" : "國仕加油站",
      "pgp" : "0",
      "terminal" : "0",
      "latitude" : "24.26416",
      "inDis" : "50",
      "routeId" : "9區",
      "seqNo" : "24"
   },
   {
      "GoBack" : "1",
      "longitude" : "120.58224",
      "outDis" : "50",
      "Id" : "4137",
      "oid" : "13560",
      "districtId" : "1",
      "nameZh" : "嘉陽高中",
      "pgp" : "0",
      "terminal" : "0",
      "latitude" : "24.26578",
      "inDis" : "50",
      "routeId" : "9區",
      "seqNo" : "25"
   },
   {
      "GoBack" : "1",
      "longitude" : "120.57435",
      "outDis" : "50",
      "Id" : "4119",
      "oid" : "13526",
      "districtId" : "1",
      "nameZh" : "清水高中",
      "pgp" : "0",
      "terminal" : "0",
      "latitude" : "24.2661",
      "inDis" : "50",
      "routeId" : "9區",
      "seqNo" : "26"
   },
   {
      "GoBack" : "1",
      "longitude" : "120.57506",
      "outDis" : "50",
      "Id" : "5141",
      "oid" : "10590",
      "districtId" : "1",
      "nameZh" : "華南銀行(清水分行)",
      "pgp" : "0",
      "terminal" : "0",
      "latitude" : "24.2679",
      "inDis" : "50",
      "routeId" : "9區",
      "seqNo" : "27"
   },
   {
      "GoBack" : "1",
      "longitude" : "120.57591",
      "outDis" : "50",
      "Id" : "3013",
      "oid" : "10591",
      "districtId" : "1",
      "nameZh" : "清水",
      "pgp" : "0",
      "terminal" : "0",
      "latitude" : "24.27022",
      "inDis" : "50",
      "routeId" : "9區",
      "seqNo" : "28"
   },
   {
      "GoBack" : "1",
      "longitude" : "120.57712",
      "outDis" : "50",
      "Id" : "4521",
      "oid" : "305513527",
      "districtId" : "1",
      "nameZh" : "中山董公街口",
      "pgp" : "0",
      "terminal" : "0",
      "latitude" : "24.2732",
      "inDis" : "50",
      "routeId" : "9區",
      "seqNo" : "29"
   },
   {
      "GoBack" : "1",
      "longitude" : "120.57725",
      "outDis" : "50",
      "Id" : "4442",
      "oid" : "14059",
      "districtId" : "1",
      "nameZh" : "中山高美路口",
      "pgp" : "0",
      "terminal" : "0",
      "latitude" : "24.27531",
      "inDis" : "50",
      "routeId" : "9區",
      "seqNo" : "30"
   },
   {
      "GoBack" : "2",
      "longitude" : "120.57725",
      "outDis" : "50",
      "Id" : "4442",
      "oid" : "14059",
      "districtId" : "1",
      "nameZh" : "中山高美路口",
      "pgp" : "0",
      "terminal" : "0",
      "latitude" : "24.27531",
      "inDis" : "50",
      "routeId" : "9區",
      "seqNo" : "1"
   },
   {
      "GoBack" : "2",
      "longitude" : "120.57712",
      "outDis" : "50",
      "Id" : "4521",
      "oid" : "305513527",
      "districtId" : "1",
      "nameZh" : "中山董公街口",
      "pgp" : "0",
      "terminal" : "0",
      "latitude" : "24.2732",
      "inDis" : "50",
      "routeId" : "9區",
      "seqNo" : "2"
   },
   {
      "GoBack" : "2",
      "longitude" : "120.57591",
      "outDis" : "50",
      "Id" : "3013",
      "oid" : "10591",
      "districtId" : "1",
      "nameZh" : "清水",
      "pgp" : "0",
      "terminal" : "0",
      "latitude" : "24.27022",
      "inDis" : "50",
      "routeId" : "9區",
      "seqNo" : "3"
   },
   {
      "GoBack" : "2",
      "longitude" : "120.57506",
      "outDis" : "50",
      "Id" : "5141",
      "oid" : "10590",
      "districtId" : "1",
      "nameZh" : "華南銀行(清水分行)",
      "pgp" : "0",
      "terminal" : "0",
      "latitude" : "24.2679",
      "inDis" : "50",
      "routeId" : "9區",
      "seqNo" : "4"
   },
   {
      "GoBack" : "2",
      "longitude" : "120.57435",
      "outDis" : "50",
      "Id" : "4119",
      "oid" : "13526",
      "districtId" : "1",
      "nameZh" : "清水高中",
      "pgp" : "0",
      "terminal" : "0",
      "latitude" : "24.2661",
      "inDis" : "50",
      "routeId" : "9區",
      "seqNo" : "5"
   },
   {
      "GoBack" : "2",
      "longitude" : "120.58224",
      "outDis" : "50",
      "Id" : "4137",
      "oid" : "13560",
      "districtId" : "1",
      "nameZh" : "嘉陽高中",
      "pgp" : "0",
      "terminal" : "0",
      "latitude" : "24.26578",
      "inDis" : "50",
      "routeId" : "9區",
      "seqNo" : "6"
   },
   {
      "GoBack" : "2",
      "longitude" : "120.58787",
      "outDis" : "50",
      "Id" : "5033",
      "oid" : "309555541",
      "districtId" : "1",
      "nameZh" : "國仕加油站",
      "pgp" : "0",
      "terminal" : "0",
      "latitude" : "24.26416",
      "inDis" : "50",
      "routeId" : "9區",
      "seqNo" : "7"
   },
   {
      "GoBack" : "2",
      "longitude" : "120.59513",
      "outDis" : "50",
      "Id" : "4083",
      "oid" : "13450",
      "districtId" : "1",
      "nameZh" : "公館國小",
      "pgp" : "0",
      "terminal" : "0",
      "latitude" : "24.26084",
      "inDis" : "50",
      "routeId" : "9區",
      "seqNo" : "8"
   },
   {
      "GoBack" : "2",
      "longitude" : "120.5987",
      "outDis" : "50",
      "Id" : "4101",
      "oid" : "317773389",
      "districtId" : "1",
      "nameZh" : "西勢里",
      "pgp" : "0",
      "terminal" : "0",
      "latitude" : "24.25982",
      "inDis" : "50",
      "routeId" : "9區",
      "seqNo" : "9"
   },
   {
      "GoBack" : "2",
      "longitude" : "120.60129",
      "outDis" : "50",
      "Id" : "5662",
      "oid" : "317773387",
      "districtId" : "1",
      "nameZh" : "中航和睦路口",
      "pgp" : "0",
      "terminal" : "0",
      "latitude" : "24.25821",
      "inDis" : "50",
      "routeId" : "9區",
      "seqNo" : "10"
   },
   {
      "GoBack" : "2",
      "longitude" : "120.60003",
      "outDis" : "50",
      "Id" : "5381",
      "oid" : "312172944",
      "districtId" : "1",
      "nameZh" : "西勢十巷口",
      "pgp" : "0",
      "terminal" : "0",
      "latitude" : "24.25557",
      "inDis" : "50",
      "routeId" : "9區",
      "seqNo" : "11"
   },
   {
      "GoBack" : "2",
      "longitude" : "120.59883",
      "outDis" : "50",
      "Id" : "0135",
      "oid" : "13550",
      "districtId" : "1",
      "nameZh" : "臺中航空站",
      "pgp" : "0",
      "terminal" : "0",
      "latitude" : "24.25305",
      "inDis" : "50",
      "routeId" : "9區",
      "seqNo" : "12"
   },
   {
      "GoBack" : "2",
      "longitude" : "120.59843",
      "outDis" : "50",
      "Id" : "4982",
      "oid" : "306167895",
      "districtId" : "1",
      "nameZh" : "漢翔複材中心",
      "pgp" : "0",
      "terminal" : "0",
      "latitude" : "24.25229",
      "inDis" : "50",
      "routeId" : "9區",
      "seqNo" : "13"
   },
   {
      "GoBack" : "2",
      "longitude" : "120.60087",
      "outDis" : "50",
      "Id" : "4713",
      "oid" : "306167893",
      "districtId" : "1",
      "nameZh" : "公明國中",
      "pgp" : "0",
      "terminal" : "0",
      "latitude" : "24.24963",
      "inDis" : "50",
      "routeId" : "9區",
      "seqNo" : "14"
   },
   {
      "GoBack" : "2",
      "longitude" : "120.60169",
      "outDis" : "50",
      "Id" : "1556",
      "oid" : "13448",
      "districtId" : "1",
      "nameZh" : "中清仁愛巷口",
      "pgp" : "0",
      "terminal" : "0",
      "latitude" : "24.24951",
      "inDis" : "50",
      "routeId" : "9區",
      "seqNo" : "15"
   },
   {
      "GoBack" : "2",
      "longitude" : "120.60564",
      "outDis" : "50",
      "Id" : "3738",
      "oid" : "13565",
      "districtId" : "1",
      "nameZh" : "樂群二村",
      "pgp" : "0",
      "terminal" : "0",
      "latitude" : "24.24771",
      "inDis" : "50",
      "routeId" : "9區",
      "seqNo" : "16"
   },
   {
      "GoBack" : "2",
      "longitude" : "120.60825",
      "outDis" : "50",
      "Id" : "1604",
      "oid" : "7693",
      "districtId" : "1",
      "nameZh" : "公明里",
      "pgp" : "0",
      "terminal" : "0",
      "latitude" : "24.24659",
      "inDis" : "50",
      "routeId" : "9區",
      "seqNo" : "17"
   },
   {
      "GoBack" : "2",
      "longitude" : "120.61478",
      "outDis" : "50",
      "Id" : "3023",
      "oid" : "7811",
      "districtId" : "1",
      "nameZh" : "清泉里",
      "pgp" : "0",
      "terminal" : "0",
      "latitude" : "24.24428",
      "inDis" : "50",
      "routeId" : "9區",
      "seqNo" : "18"
   },
   {
      "GoBack" : "2",
      "longitude" : "120.61757",
      "outDis" : "50",
      "Id" : "4960",
      "oid" : "307906618",
      "districtId" : "1",
      "nameZh" : "中清清泉路口",
      "pgp" : "0",
      "terminal" : "0",
      "latitude" : "24.24336",
      "inDis" : "50",
      "routeId" : "9區",
      "seqNo" : "19"
   },
   {
      "GoBack" : "2",
      "longitude" : "120.6204",
      "outDis" : "50",
      "Id" : "4669",
      "oid" : "7425",
      "districtId" : "1",
      "nameZh" : "中清信義路口",
      "pgp" : "0",
      "terminal" : "0",
      "latitude" : "24.2425",
      "inDis" : "50",
      "routeId" : "9區",
      "seqNo" : "20"
   },
   {
      "GoBack" : "2",
      "longitude" : "120.62669",
      "outDis" : "50",
      "Id" : "3663",
      "oid" : "7564",
      "districtId" : "1",
      "nameZh" : "福樂新城",
      "pgp" : "0",
      "terminal" : "0",
      "latitude" : "24.24239",
      "inDis" : "50",
      "routeId" : "9區",
      "seqNo" : "21"
   },
   {
      "GoBack" : "2",
      "longitude" : "120.63113",
      "outDis" : "50",
      "Id" : "1591",
      "oid" : "7301",
      "districtId" : "1",
      "nameZh" : "六張犁",
      "pgp" : "0",
      "terminal" : "0",
      "latitude" : "24.2401",
      "inDis" : "50",
      "routeId" : "9區",
      "seqNo" : "22"
   },
   {
      "GoBack" : "2",
      "longitude" : "120.63229",
      "outDis" : "50",
      "Id" : "2289",
      "oid" : "7097",
      "districtId" : "1",
      "nameZh" : "亞東公司",
      "pgp" : "0",
      "terminal" : "0",
      "latitude" : "24.23887",
      "inDis" : "50",
      "routeId" : "9區",
      "seqNo" : "23"
   },
   {
      "GoBack" : "2",
      "longitude" : "120.63455",
      "outDis" : "50",
      "Id" : "1593",
      "oid" : "7304",
      "districtId" : "1",
      "nameZh" : "六寶里",
      "pgp" : "0",
      "terminal" : "0",
      "latitude" : "24.23659",
      "inDis" : "50",
      "routeId" : "9區",
      "seqNo" : "24"
   },
   {
      "GoBack" : "2",
      "longitude" : "120.63809",
      "outDis" : "50",
      "Id" : "2798",
      "oid" : "7373",
      "districtId" : "1",
      "nameZh" : "泰聯公司",
      "pgp" : "0",
      "terminal" : "0",
      "latitude" : "24.23318",
      "inDis" : "50",
      "routeId" : "9區",
      "seqNo" : "25"
   },
   {
      "GoBack" : "2",
      "longitude" : "120.64112",
      "outDis" : "50",
      "Id" : "2253",
      "oid" : "7095",
      "districtId" : "1",
      "nameZh" : "秀山里",
      "pgp" : "0",
      "terminal" : "0",
      "latitude" : "24.23025",
      "inDis" : "50",
      "routeId" : "9區",
      "seqNo" : "26"
   },
   {
      "GoBack" : "2",
      "longitude" : "120.64284",
      "outDis" : "50",
      "Id" : "4651",
      "oid" : "7222",
      "districtId" : "1",
      "nameZh" : "大明國小(中清路)",
      "pgp" : "0",
      "terminal" : "0",
      "latitude" : "24.22844",
      "inDis" : "50",
      "routeId" : "9區",
      "seqNo" : "27"
   },
   {
      "GoBack" : "2",
      "longitude" : "120.64457",
      "outDis" : "50",
      "Id" : "5423",
      "oid" : "313288973",
      "districtId" : "1",
      "nameZh" : "大雅澄清醫院",
      "pgp" : "0",
      "terminal" : "0",
      "latitude" : "24.22699",
      "inDis" : "50",
      "routeId" : "9區",
      "seqNo" : "28"
   },
   {
      "GoBack" : "2",
      "longitude" : "120.64673",
      "outDis" : "50",
      "Id" : "1620",
      "oid" : "13425",
      "districtId" : "1",
      "nameZh" : "大雅分駐所",
      "pgp" : "0",
      "terminal" : "0",
      "latitude" : "24.22478",
      "inDis" : "50",
      "routeId" : "9區",
      "seqNo" : "29"
   },
   {
      "GoBack" : "2",
      "longitude" : "120.64803",
      "outDis" : "50",
      "Id" : "1346",
      "oid" : "13424",
      "districtId" : "1",
      "nameZh" : "大雅",
      "pgp" : "0",
      "terminal" : "0",
      "latitude" : "24.2228",
      "inDis" : "50",
      "routeId" : "9區",
      "seqNo" : "30"
   }
]
