[
   {
      "GoBack" : "1",
      "longitude" : "120.65481",
      "outDis" : "50",
      "Id" : "0827",
      "oid" : "7836",
      "districtId" : "1",
      "nameZh" : "港尾",
      "pgp" : "0",
      "terminal" : "0",
      "latitude" : "24.20105",
      "inDis" : "50",
      "routeId" : "108",
      "seqNo" : "1"
   },
   {
      "GoBack" : "1",
      "longitude" : "120.65636",
      "outDis" : "40",
      "Id" : "1475",
      "oid" : "3573",
      "districtId" : "1",
      "nameZh" : "中清環中路口",
      "pgp" : "0",
      "terminal" : "0",
      "latitude" : "24.19826",
      "inDis" : "40",
      "routeId" : "108",
      "seqNo" : "2"
   },
   {
      "GoBack" : "1",
      "longitude" : "120.6585",
      "outDis" : "50",
      "Id" : "0136",
      "oid" : "7207",
      "districtId" : "1",
      "nameZh" : "下港尾",
      "pgp" : "0",
      "terminal" : "0",
      "latitude" : "24.19522",
      "inDis" : "50",
      "routeId" : "108",
      "seqNo" : "3"
   },
   {
      "GoBack" : "1",
      "longitude" : "120.65934",
      "outDis" : "50",
      "Id" : "2069",
      "oid" : "13480",
      "districtId" : "1",
      "nameZh" : "中清同榮路口",
      "pgp" : "0",
      "terminal" : "0",
      "latitude" : "24.19374",
      "inDis" : "50",
      "routeId" : "108",
      "seqNo" : "4"
   },
   {
      "GoBack" : "1",
      "longitude" : "120.65978",
      "outDis" : "50",
      "Id" : "3293",
      "oid" : "3675",
      "districtId" : "1",
      "nameZh" : "貿易三村",
      "pgp" : "0",
      "terminal" : "0",
      "latitude" : "24.19313",
      "inDis" : "50",
      "routeId" : "108",
      "seqNo" : "5"
   },
   {
      "GoBack" : "1",
      "longitude" : "120.66161",
      "outDis" : "50",
      "Id" : "0708",
      "oid" : "3795",
      "districtId" : "1",
      "nameZh" : "后庄國宅",
      "pgp" : "0",
      "terminal" : "0",
      "latitude" : "24.1901",
      "inDis" : "50",
      "routeId" : "108",
      "seqNo" : "6"
   },
   {
      "GoBack" : "1",
      "longitude" : "120.66282",
      "outDis" : "50",
      "Id" : "0989",
      "oid" : "3794",
      "districtId" : "1",
      "nameZh" : "中清后庄路口",
      "pgp" : "0",
      "terminal" : "0",
      "latitude" : "24.18802",
      "inDis" : "50",
      "routeId" : "108",
      "seqNo" : "7"
   },
   {
      "GoBack" : "1",
      "longitude" : "120.66396",
      "outDis" : "50",
      "Id" : "2638",
      "oid" : "311087546",
      "districtId" : "1",
      "nameZh" : "后庄仔",
      "pgp" : "0",
      "terminal" : "0",
      "latitude" : "24.18601",
      "inDis" : "50",
      "routeId" : "108",
      "seqNo" : "8"
   },
   {
      "GoBack" : "1",
      "longitude" : "120.66496",
      "outDis" : "50",
      "Id" : "0801",
      "oid" : "3679",
      "districtId" : "1",
      "nameZh" : "頂陳平",
      "pgp" : "0",
      "terminal" : "0",
      "latitude" : "24.18437",
      "inDis" : "50",
      "routeId" : "108",
      "seqNo" : "9"
   },
   {
      "GoBack" : "1",
      "longitude" : "120.66571",
      "outDis" : "50",
      "Id" : "0789",
      "oid" : "7452",
      "districtId" : "1",
      "nameZh" : "陳平",
      "pgp" : "0",
      "terminal" : "0",
      "latitude" : "24.18285",
      "inDis" : "50",
      "routeId" : "108",
      "seqNo" : "10"
   },
   {
      "GoBack" : "1",
      "longitude" : "120.66638",
      "outDis" : "50",
      "Id" : "0593",
      "oid" : "7059",
      "districtId" : "1",
      "nameZh" : "全民醫院",
      "pgp" : "0",
      "terminal" : "0",
      "latitude" : "24.18129",
      "inDis" : "50",
      "routeId" : "108",
      "seqNo" : "11"
   },
   {
      "GoBack" : "1",
      "longitude" : "120.66818",
      "outDis" : "50",
      "Id" : "0385",
      "oid" : "7239",
      "districtId" : "1",
      "nameZh" : "大德國中",
      "pgp" : "0",
      "terminal" : "0",
      "latitude" : "24.17873",
      "inDis" : "50",
      "routeId" : "108",
      "seqNo" : "12"
   },
   {
      "GoBack" : "1",
      "longitude" : "120.66916",
      "outDis" : "50",
      "Id" : "5100",
      "oid" : "319227555",
      "districtId" : "1",
      "nameZh" : "水湳市場(中清路)",
      "pgp" : "0",
      "terminal" : "0",
      "latitude" : "24.17756",
      "inDis" : "50",
      "routeId" : "108",
      "seqNo" : "13"
   },
   {
      "GoBack" : "1",
      "longitude" : "120.67008",
      "outDis" : "30",
      "Id" : "0486",
      "oid" : "319227554",
      "districtId" : "1",
      "nameZh" : "水湳",
      "pgp" : "0",
      "terminal" : "0",
      "latitude" : "24.17636",
      "inDis" : "30",
      "routeId" : "108",
      "seqNo" : "14"
   },
   {
      "GoBack" : "1",
      "longitude" : "120.67078",
      "outDis" : "50",
      "Id" : "0334",
      "oid" : "D69AC0FA54AD4C7599C77BACA548875B",
      "districtId" : "1",
      "nameZh" : "下水湳",
      "pgp" : "0",
      "terminal" : "0",
      "latitude" : "24.17553",
      "inDis" : "50",
      "routeId" : "108",
      "seqNo" : "15"
   },
   {
      "GoBack" : "1",
      "longitude" : "120.67156",
      "outDis" : "50",
      "Id" : "0805",
      "oid" : "7464",
      "districtId" : "1",
      "nameZh" : "頂賴厝",
      "pgp" : "0",
      "terminal" : "0",
      "latitude" : "24.17202",
      "inDis" : "50",
      "routeId" : "108",
      "seqNo" : "16"
   },
   {
      "GoBack" : "1",
      "longitude" : "120.67231",
      "outDis" : "50",
      "Id" : "1629",
      "oid" : "3628",
      "districtId" : "1",
      "nameZh" : "天津路商圈",
      "pgp" : "0",
      "terminal" : "0",
      "latitude" : "24.17052",
      "inDis" : "50",
      "routeId" : "108",
      "seqNo" : "17"
   },
   {
      "GoBack" : "1",
      "longitude" : "120.67314",
      "outDis" : "50",
      "Id" : "5737",
      "oid" : "320660555",
      "districtId" : "1",
      "nameZh" : "曉明女中(中清路)",
      "pgp" : "0",
      "terminal" : "0",
      "latitude" : "24.16755",
      "inDis" : "50",
      "routeId" : "108",
      "seqNo" : "18"
   },
   {
      "GoBack" : "1",
      "longitude" : "120.67329",
      "outDis" : "50",
      "Id" : "5736",
      "oid" : "7554",
      "districtId" : "1",
      "nameZh" : "中清漢口路口",
      "pgp" : "0",
      "terminal" : "0",
      "latitude" : "24.16643",
      "inDis" : "50",
      "routeId" : "108",
      "seqNo" : "19"
   },
   {
      "GoBack" : "1",
      "longitude" : "120.6741",
      "outDis" : "50",
      "Id" : "5735",
      "oid" : "7319",
      "districtId" : "1",
      "nameZh" : "中清太原路口",
      "pgp" : "0",
      "terminal" : "0",
      "latitude" : "24.16381",
      "inDis" : "50",
      "routeId" : "108",
      "seqNo" : "20"
   },
   {
      "GoBack" : "1",
      "longitude" : "120.67483",
      "outDis" : "50",
      "Id" : "5734",
      "oid" : "33F6AB3B4017402F81CDF40E4C53F958",
      "districtId" : "1",
      "nameZh" : "中清忠明路口",
      "pgp" : "0",
      "terminal" : "0",
      "latitude" : "24.1623",
      "inDis" : "50",
      "routeId" : "108",
      "seqNo" : "21"
   },
   {
      "GoBack" : "1",
      "longitude" : "120.67533",
      "outDis" : "50",
      "Id" : "5733",
      "oid" : "913DE806DEE146C38BE56C32FEC939B6",
      "districtId" : "1",
      "nameZh" : "大道公廟(中清路)",
      "pgp" : "0",
      "terminal" : "0",
      "latitude" : "24.16061",
      "inDis" : "50",
      "routeId" : "108",
      "seqNo" : "22"
   },
   {
      "GoBack" : "1",
      "longitude" : "120.67591",
      "outDis" : "50",
      "Id" : "5732",
      "oid" : "7393",
      "districtId" : "1",
      "nameZh" : "中清健行路口",
      "pgp" : "0",
      "terminal" : "0",
      "latitude" : "24.15875",
      "inDis" : "50",
      "routeId" : "108",
      "seqNo" : "23"
   },
   {
      "GoBack" : "1",
      "longitude" : "120.67678",
      "outDis" : "50",
      "Id" : "0092",
      "oid" : "7142",
      "districtId" : "1",
      "nameZh" : "邱厝里",
      "pgp" : "0",
      "terminal" : "0",
      "latitude" : "24.15651",
      "inDis" : "50",
      "routeId" : "108",
      "seqNo" : "24"
   },
   {
      "GoBack" : "1",
      "longitude" : "120.67737",
      "outDis" : "50",
      "Id" : "0481",
      "oid" : "7328",
      "districtId" : "1",
      "nameZh" : "文莊里",
      "pgp" : "0",
      "terminal" : "0",
      "latitude" : "24.15433",
      "inDis" : "50",
      "routeId" : "108",
      "seqNo" : "25"
   },
   {
      "GoBack" : "1",
      "longitude" : "120.6773",
      "outDis" : "50",
      "Id" : "0503",
      "oid" : "E1B6DA23FAD64304BB4C88B430F99349",
      "districtId" : "1",
      "nameZh" : "臺中二中",
      "pgp" : "0",
      "terminal" : "0",
      "latitude" : "24.15243",
      "inDis" : "50",
      "routeId" : "108",
      "seqNo" : "26"
   },
   {
      "GoBack" : "1",
      "longitude" : "120.67901",
      "outDis" : "50",
      "Id" : "0145",
      "oid" : "7731",
      "districtId" : "1",
      "nameZh" : "光大里",
      "pgp" : "0",
      "terminal" : "0",
      "latitude" : "24.15201",
      "inDis" : "50",
      "routeId" : "108",
      "seqNo" : "27"
   },
   {
      "GoBack" : "1",
      "longitude" : "120.68031",
      "outDis" : "50",
      "Id" : "0146",
      "oid" : "10735",
      "districtId" : "1",
      "nameZh" : "五常里",
      "pgp" : "0",
      "terminal" : "0",
      "latitude" : "24.15249",
      "inDis" : "50",
      "routeId" : "108",
      "seqNo" : "28"
   },
   {
      "GoBack" : "1",
      "longitude" : "120.68375",
      "outDis" : "50",
      "Id" : "3772",
      "oid" : "11182",
      "districtId" : "1",
      "nameZh" : "五權學士路口",
      "pgp" : "0",
      "terminal" : "0",
      "latitude" : "24.15386",
      "inDis" : "50",
      "routeId" : "108",
      "seqNo" : "29"
   },
   {
      "GoBack" : "1",
      "longitude" : "120.68578",
      "outDis" : "50",
      "Id" : "0047",
      "oid" : "7185",
      "districtId" : "1",
      "nameZh" : "一心市場",
      "pgp" : "0",
      "terminal" : "0",
      "latitude" : "24.1541",
      "inDis" : "50",
      "routeId" : "108",
      "seqNo" : "30"
   },
   {
      "GoBack" : "1",
      "longitude" : "120.68502",
      "outDis" : "50",
      "Id" : "0046",
      "oid" : "7252",
      "districtId" : "1",
      "nameZh" : "中友百貨",
      "pgp" : "0",
      "terminal" : "0",
      "latitude" : "24.15198",
      "inDis" : "50",
      "routeId" : "108",
      "seqNo" : "31"
   },
   {
      "GoBack" : "1",
      "longitude" : "120.68372",
      "outDis" : "50",
      "Id" : "0045",
      "oid" : "7354",
      "districtId" : "1",
      "nameZh" : "國立臺中科技大學",
      "pgp" : "0",
      "terminal" : "0",
      "latitude" : "24.14893",
      "inDis" : "50",
      "routeId" : "108",
      "seqNo" : "32"
   },
   {
      "GoBack" : "1",
      "longitude" : "120.68212",
      "outDis" : "50",
      "Id" : "4543",
      "oid" : "7313",
      "districtId" : "1",
      "nameZh" : "臺中公園(三民路)",
      "pgp" : "0",
      "terminal" : "0",
      "latitude" : "24.14507",
      "inDis" : "50",
      "routeId" : "108",
      "seqNo" : "33"
   },
   {
      "GoBack" : "1",
      "longitude" : "120.6814",
      "outDis" : "50",
      "Id" : "5506",
      "oid" : "91837E9FC9B247A08387B0A29626EDC9",
      "districtId" : "1",
      "nameZh" : "光復國小(三民路)",
      "pgp" : "0",
      "terminal" : "0",
      "latitude" : "24.14411",
      "inDis" : "50",
      "routeId" : "108",
      "seqNo" : "34"
   },
   {
      "GoBack" : "1",
      "longitude" : "120.67999",
      "outDis" : "50",
      "Id" : "4609",
      "oid" : "5763C3AD6F414066A086CA2BD9FBF7BA",
      "districtId" : "1",
      "nameZh" : "第二市場(三民路)",
      "pgp" : "0",
      "terminal" : "0",
      "latitude" : "24.14287",
      "inDis" : "50",
      "routeId" : "108",
      "seqNo" : "35"
   },
   {
      "GoBack" : "1",
      "longitude" : "120.67838",
      "outDis" : "50",
      "Id" : "5026",
      "oid" : "309504377",
      "districtId" : "1",
      "nameZh" : "美榮藥局",
      "pgp" : "0",
      "terminal" : "0",
      "latitude" : "24.14131",
      "inDis" : "50",
      "routeId" : "108",
      "seqNo" : "36"
   },
   {
      "GoBack" : "1",
      "longitude" : "120.67848",
      "outDis" : "50",
      "Id" : "4416",
      "oid" : "6DA05825CE704FBB9B2BF69FECA70245",
      "districtId" : "1",
      "nameZh" : "臺中州廳",
      "pgp" : "0",
      "terminal" : "0",
      "latitude" : "24.1391",
      "inDis" : "50",
      "routeId" : "108",
      "seqNo" : "37"
   },
   {
      "GoBack" : "1",
      "longitude" : "120.68043",
      "outDis" : "50",
      "Id" : "0215",
      "oid" : "8159",
      "districtId" : "1",
      "nameZh" : "合作金庫",
      "pgp" : "0",
      "terminal" : "0",
      "latitude" : "24.13835",
      "inDis" : "50",
      "routeId" : "108",
      "seqNo" : "38"
   },
   {
      "GoBack" : "1",
      "longitude" : "120.68172",
      "outDis" : "50",
      "Id" : "0216",
      "oid" : "6ADAC683C94A4B6CA183F1DF21164DBB",
      "districtId" : "1",
      "nameZh" : "彰化銀行(自由路)",
      "pgp" : "0",
      "terminal" : "0",
      "latitude" : "24.1397",
      "inDis" : "50",
      "routeId" : "108",
      "seqNo" : "39"
   },
   {
      "GoBack" : "1",
      "longitude" : "120.6846",
      "outDis" : "50",
      "Id" : "0041",
      "oid" : "10F4F024E5254045AE0911F852803D41",
      "districtId" : "1",
      "nameZh" : "臺中火車站",
      "pgp" : "0",
      "terminal" : "0",
      "latitude" : "24.13726",
      "inDis" : "50",
      "routeId" : "108",
      "seqNo" : "40"
   },
   {
      "GoBack" : "1",
      "longitude" : "120.68392",
      "outDis" : "50",
      "Id" : "0049",
      "oid" : "7448",
      "districtId" : "1",
      "nameZh" : "第三市場(臺中家商)",
      "pgp" : "0",
      "terminal" : "0",
      "latitude" : "24.13256",
      "inDis" : "50",
      "routeId" : "108",
      "seqNo" : "41"
   },
   {
      "GoBack" : "1",
      "longitude" : "120.68502",
      "outDis" : "50",
      "Id" : "0257",
      "oid" : "7005",
      "districtId" : "1",
      "nameZh" : "臺中國小",
      "pgp" : "0",
      "terminal" : "0",
      "latitude" : "24.13026",
      "inDis" : "50",
      "routeId" : "108",
      "seqNo" : "42"
   },
   {
      "GoBack" : "1",
      "longitude" : "120.6844",
      "outDis" : "50",
      "Id" : "5607",
      "oid" : "5559",
      "districtId" : "1",
      "nameZh" : "興大附農(臺中路)",
      "pgp" : "0",
      "terminal" : "0",
      "latitude" : "24.12749",
      "inDis" : "50",
      "routeId" : "108",
      "seqNo" : "43"
   },
   {
      "GoBack" : "1",
      "longitude" : "120.68421",
      "outDis" : "50",
      "Id" : "0255",
      "oid" : "7415",
      "districtId" : "1",
      "nameZh" : "南門仔",
      "pgp" : "0",
      "terminal" : "0",
      "latitude" : "24.1254",
      "inDis" : "50",
      "routeId" : "108",
      "seqNo" : "44"
   },
   {
      "GoBack" : "1",
      "longitude" : "120.68412",
      "outDis" : "50",
      "Id" : "0254",
      "oid" : "7117",
      "districtId" : "1",
      "nameZh" : "明德高中",
      "pgp" : "0",
      "terminal" : "0",
      "latitude" : "24.12291",
      "inDis" : "50",
      "routeId" : "108",
      "seqNo" : "45"
   },
   {
      "GoBack" : "1",
      "longitude" : "120.68664",
      "outDis" : "50",
      "Id" : "2591",
      "oid" : "7156",
      "districtId" : "1",
      "nameZh" : "南門橋頭",
      "pgp" : "0",
      "terminal" : "0",
      "latitude" : "24.1212",
      "inDis" : "50",
      "routeId" : "108",
      "seqNo" : "46"
   },
   {
      "GoBack" : "1",
      "longitude" : "120.68957",
      "outDis" : "50",
      "Id" : "3281",
      "oid" : "7493",
      "districtId" : "1",
      "nameZh" : "菸葉廠",
      "pgp" : "0",
      "terminal" : "0",
      "latitude" : "24.11794",
      "inDis" : "50",
      "routeId" : "108",
      "seqNo" : "47"
   },
   {
      "GoBack" : "1",
      "longitude" : "120.68958",
      "outDis" : "50",
      "Id" : "3280",
      "oid" : "7490",
      "districtId" : "1",
      "nameZh" : "菩提醫院",
      "pgp" : "0",
      "terminal" : "0",
      "latitude" : "24.11508",
      "inDis" : "50",
      "routeId" : "108",
      "seqNo" : "48"
   },
   {
      "GoBack" : "1",
      "longitude" : "120.68974",
      "outDis" : "50",
      "Id" : "5485",
      "oid" : "314655296",
      "districtId" : "1",
      "nameZh" : "中興內新街口",
      "pgp" : "0",
      "terminal" : "0",
      "latitude" : "24.11408",
      "inDis" : "50",
      "routeId" : "108",
      "seqNo" : "49"
   },
   {
      "GoBack" : "1",
      "longitude" : "120.68986",
      "outDis" : "50",
      "Id" : "2691",
      "oid" : "7173",
      "districtId" : "1",
      "nameZh" : "省農會",
      "pgp" : "0",
      "terminal" : "0",
      "latitude" : "24.1125",
      "inDis" : "50",
      "routeId" : "108",
      "seqNo" : "50"
   },
   {
      "GoBack" : "1",
      "longitude" : "120.68993",
      "outDis" : "50",
      "Id" : "1576",
      "oid" : "7298",
      "districtId" : "1",
      "nameZh" : "內新市場",
      "pgp" : "0",
      "terminal" : "0",
      "latitude" : "24.11107",
      "inDis" : "50",
      "routeId" : "108",
      "seqNo" : "51"
   },
   {
      "GoBack" : "1",
      "longitude" : "120.69003",
      "outDis" : "50",
      "Id" : "1363",
      "oid" : "7237",
      "districtId" : "1",
      "nameZh" : "中興大里路口",
      "pgp" : "0",
      "terminal" : "0",
      "latitude" : "24.10863",
      "inDis" : "50",
      "routeId" : "108",
      "seqNo" : "52"
   },
   {
      "GoBack" : "1",
      "longitude" : "120.68941",
      "outDis" : "50",
      "Id" : "2026",
      "oid" : "7054",
      "districtId" : "1",
      "nameZh" : "立人高中",
      "pgp" : "0",
      "terminal" : "0",
      "latitude" : "24.10584",
      "inDis" : "50",
      "routeId" : "108",
      "seqNo" : "53"
   },
   {
      "GoBack" : "1",
      "longitude" : "120.68864",
      "outDis" : "50",
      "Id" : "1126",
      "oid" : "7202",
      "districtId" : "1",
      "nameZh" : "下內新",
      "pgp" : "0",
      "terminal" : "0",
      "latitude" : "24.10257",
      "inDis" : "50",
      "routeId" : "108",
      "seqNo" : "54"
   },
   {
      "GoBack" : "1",
      "longitude" : "120.6879",
      "outDis" : "50",
      "Id" : "5151",
      "oid" : "12580",
      "districtId" : "1",
      "nameZh" : "兒童藝術館(中興路)",
      "pgp" : "0",
      "terminal" : "0",
      "latitude" : "24.10002",
      "inDis" : "50",
      "routeId" : "108",
      "seqNo" : "55"
   },
   {
      "GoBack" : "1",
      "longitude" : "120.68694",
      "outDis" : "50",
      "Id" : "1322",
      "oid" : "309974047",
      "districtId" : "1",
      "nameZh" : "大突寮(中興路)",
      "pgp" : "0",
      "terminal" : "0",
      "latitude" : "24.09735",
      "inDis" : "50",
      "routeId" : "108",
      "seqNo" : "56"
   },
   {
      "GoBack" : "1",
      "longitude" : "120.69146",
      "outDis" : "50",
      "Id" : "4661",
      "oid" : "7291",
      "districtId" : "1",
      "nameZh" : "中興仁化路口",
      "pgp" : "0",
      "terminal" : "0",
      "latitude" : "24.09192",
      "inDis" : "50",
      "routeId" : "108",
      "seqNo" : "57"
   },
   {
      "GoBack" : "1",
      "longitude" : "120.69371",
      "outDis" : "50",
      "Id" : "4286",
      "oid" : "7143",
      "districtId" : "1",
      "nameZh" : "青年高中",
      "pgp" : "0",
      "terminal" : "0",
      "latitude" : "24.08994",
      "inDis" : "50",
      "routeId" : "108",
      "seqNo" : "58"
   },
   {
      "GoBack" : "1",
      "longitude" : "120.69597",
      "outDis" : "50",
      "Id" : "4253",
      "oid" : "7170",
      "districtId" : "1",
      "nameZh" : "大里圖書館(中興路)",
      "pgp" : "0",
      "terminal" : "0",
      "latitude" : "24.08754",
      "inDis" : "50",
      "routeId" : "108",
      "seqNo" : "59"
   },
   {
      "GoBack" : "1",
      "longitude" : "120.69725",
      "outDis" : "50",
      "Id" : "2866",
      "oid" : "7384",
      "districtId" : "1",
      "nameZh" : "草湖",
      "pgp" : "0",
      "terminal" : "0",
      "latitude" : "24.08404",
      "inDis" : "50",
      "routeId" : "108",
      "seqNo" : "60"
   },
   {
      "GoBack" : "1",
      "longitude" : "120.69827",
      "outDis" : "50",
      "Id" : "4349",
      "oid" : "7386",
      "districtId" : "1",
      "nameZh" : "中興東南路口",
      "pgp" : "0",
      "terminal" : "0",
      "latitude" : "24.08061",
      "inDis" : "50",
      "routeId" : "108",
      "seqNo" : "61"
   },
   {
      "GoBack" : "1",
      "longitude" : "120.69952",
      "outDis" : "50",
      "Id" : "2062",
      "oid" : "7066",
      "districtId" : "1",
      "nameZh" : "中正吉峰路口",
      "pgp" : "0",
      "terminal" : "0",
      "latitude" : "24.07654",
      "inDis" : "50",
      "routeId" : "108",
      "seqNo" : "62"
   },
   {
      "GoBack" : "1",
      "longitude" : "120.69986",
      "outDis" : "50",
      "Id" : "3980",
      "oid" : "7632",
      "districtId" : "1",
      "nameZh" : "霧峰農工",
      "pgp" : "0",
      "terminal" : "0",
      "latitude" : "24.07332",
      "inDis" : "50",
      "routeId" : "108",
      "seqNo" : "63"
   },
   {
      "GoBack" : "1",
      "longitude" : "120.69928",
      "outDis" : "50",
      "Id" : "1994",
      "oid" : "311784445",
      "districtId" : "1",
      "nameZh" : "甲寅",
      "pgp" : "0",
      "terminal" : "0",
      "latitude" : "24.0697",
      "inDis" : "50",
      "routeId" : "108",
      "seqNo" : "64"
   },
   {
      "GoBack" : "1",
      "longitude" : "120.6989",
      "outDis" : "50",
      "Id" : "4972",
      "oid" : "7027",
      "districtId" : "1",
      "nameZh" : "中正草湖路口",
      "pgp" : "0",
      "terminal" : "0",
      "latitude" : "24.067",
      "inDis" : "50",
      "routeId" : "108",
      "seqNo" : "65"
   },
   {
      "GoBack" : "1",
      "longitude" : "120.69797",
      "outDis" : "50",
      "Id" : "4930",
      "oid" : "308835185",
      "districtId" : "1",
      "nameZh" : "霧峰農會",
      "pgp" : "0",
      "terminal" : "0",
      "latitude" : "24.06471",
      "inDis" : "50",
      "routeId" : "108",
      "seqNo" : "66"
   },
   {
      "GoBack" : "1",
      "longitude" : "120.69518",
      "outDis" : "50",
      "Id" : "5754",
      "oid" : "320825245",
      "districtId" : "1",
      "nameZh" : "林森育賢路口",
      "pgp" : "0",
      "terminal" : "0",
      "latitude" : "24.06142",
      "inDis" : "50",
      "routeId" : "108",
      "seqNo" : "67"
   },
   {
      "GoBack" : "1",
      "longitude" : "120.68497",
      "outDis" : "50",
      "Id" : "5200",
      "oid" : "310785356",
      "districtId" : "1",
      "nameZh" : "福新柳豐路口",
      "pgp" : "0",
      "terminal" : "0",
      "latitude" : "24.05166",
      "inDis" : "50",
      "routeId" : "108",
      "seqNo" : "68"
   },
   {
      "GoBack" : "1",
      "longitude" : "120.68727",
      "outDis" : "50",
      "Id" : "5529",
      "oid" : "303699003",
      "districtId" : "1",
      "nameZh" : "亞洲大學安藤館",
      "pgp" : "0",
      "terminal" : "0",
      "latitude" : "24.04725",
      "inDis" : "50",
      "routeId" : "108",
      "seqNo" : "69"
   },
   {
      "GoBack" : "1",
      "longitude" : "120.6886",
      "outDis" : "50",
      "Id" : "4413",
      "oid" : "304270266",
      "districtId" : "1",
      "nameZh" : "王厝",
      "pgp" : "0",
      "terminal" : "0",
      "latitude" : "24.04377",
      "inDis" : "50",
      "routeId" : "108",
      "seqNo" : "70"
   },
   {
      "GoBack" : "1",
      "longitude" : "120.68868",
      "outDis" : "50",
      "Id" : "4629",
      "oid" : "304270268",
      "districtId" : "1",
      "nameZh" : "光復國中小(柳豐路)",
      "pgp" : "0",
      "terminal" : "0",
      "latitude" : "24.04362",
      "inDis" : "50",
      "routeId" : "108",
      "seqNo" : "71"
   },
   {
      "GoBack" : "1",
      "longitude" : "120.69181",
      "outDis" : "50",
      "Id" : "1588",
      "oid" : "7300",
      "districtId" : "1",
      "nameZh" : "六股",
      "pgp" : "0",
      "terminal" : "0",
      "latitude" : "24.04138",
      "inDis" : "50",
      "routeId" : "108",
      "seqNo" : "72"
   },
   {
      "GoBack" : "1",
      "longitude" : "120.69304",
      "outDis" : "50",
      "Id" : "1400",
      "oid" : "7929",
      "districtId" : "1",
      "nameZh" : "山腳巷",
      "pgp" : "0",
      "terminal" : "0",
      "latitude" : "24.03852",
      "inDis" : "50",
      "routeId" : "108",
      "seqNo" : "73"
   },
   {
      "GoBack" : "1",
      "longitude" : "120.69407",
      "outDis" : "50",
      "Id" : "2304",
      "oid" : "7101",
      "districtId" : "1",
      "nameZh" : "味全工廠",
      "pgp" : "0",
      "terminal" : "0",
      "latitude" : "24.0341",
      "inDis" : "50",
      "routeId" : "108",
      "seqNo" : "74"
   },
   {
      "GoBack" : "1",
      "longitude" : "120.69681",
      "outDis" : "50",
      "Id" : "3533",
      "oid" : "9898",
      "districtId" : "1",
      "nameZh" : "農試所",
      "pgp" : "0",
      "terminal" : "0",
      "latitude" : "24.02948",
      "inDis" : "50",
      "routeId" : "108",
      "seqNo" : "75"
   },
   {
      "GoBack" : "1",
      "longitude" : "120.6967",
      "outDis" : "50",
      "Id" : "3504",
      "oid" : "7534",
      "districtId" : "1",
      "nameZh" : "萬豐",
      "pgp" : "0",
      "terminal" : "0",
      "latitude" : "24.0259",
      "inDis" : "50",
      "routeId" : "108",
      "seqNo" : "76"
   },
   {
      "GoBack" : "1",
      "longitude" : "120.69653",
      "outDis" : "50",
      "Id" : "4410",
      "oid" : "304286679",
      "districtId" : "1",
      "nameZh" : "全家福社區",
      "pgp" : "0",
      "terminal" : "0",
      "latitude" : "24.02414",
      "inDis" : "50",
      "routeId" : "108",
      "seqNo" : "77"
   },
   {
      "GoBack" : "1",
      "longitude" : "120.69632",
      "outDis" : "50",
      "Id" : "3944",
      "oid" : "311348105",
      "districtId" : "1",
      "nameZh" : "豐營",
      "pgp" : "0",
      "terminal" : "0",
      "latitude" : "24.02091",
      "inDis" : "50",
      "routeId" : "108",
      "seqNo" : "78"
   },
   {
      "GoBack" : "1",
      "longitude" : "120.69604",
      "outDis" : "50",
      "Id" : "3534",
      "oid" : "6505",
      "districtId" : "1",
      "nameZh" : "農試所宿舍",
      "pgp" : "0",
      "terminal" : "0",
      "latitude" : "24.0173",
      "inDis" : "50",
      "routeId" : "108",
      "seqNo" : "79"
   },
   {
      "GoBack" : "1",
      "longitude" : "120.6957",
      "outDis" : "50",
      "Id" : "0061",
      "oid" : "311087547",
      "districtId" : "1",
      "nameZh" : "舊正",
      "pgp" : "0",
      "terminal" : "0",
      "latitude" : "24.01476",
      "inDis" : "50",
      "routeId" : "108",
      "seqNo" : "80"
   },
   {
      "GoBack" : "1",
      "longitude" : "120.69472",
      "outDis" : "50",
      "Id" : "2585",
      "oid" : "10310",
      "districtId" : "1",
      "nameZh" : "南岸",
      "pgp" : "0",
      "terminal" : "0",
      "latitude" : "24.00531",
      "inDis" : "50",
      "routeId" : "108",
      "seqNo" : "81"
   },
   {
      "GoBack" : "1",
      "longitude" : "120.69169",
      "outDis" : "50",
      "Id" : "2072",
      "oid" : "10296",
      "districtId" : "1",
      "nameZh" : "同德家商",
      "pgp" : "0",
      "terminal" : "0",
      "latitude" : "24.00217",
      "inDis" : "50",
      "routeId" : "108",
      "seqNo" : "82"
   },
   {
      "GoBack" : "1",
      "longitude" : "120.68953",
      "outDis" : "50",
      "Id" : "4729",
      "oid" : "306695414",
      "districtId" : "1",
      "nameZh" : "中正御富路口",
      "pgp" : "0",
      "terminal" : "0",
      "latitude" : "23.99762",
      "inDis" : "50",
      "routeId" : "108",
      "seqNo" : "83"
   },
   {
      "GoBack" : "1",
      "longitude" : "120.6885",
      "outDis" : "50",
      "Id" : "3437",
      "oid" : "7529",
      "districtId" : "1",
      "nameZh" : "新豐",
      "pgp" : "0",
      "terminal" : "0",
      "latitude" : "23.99426",
      "inDis" : "50",
      "routeId" : "108",
      "seqNo" : "84"
   },
   {
      "GoBack" : "1",
      "longitude" : "120.68787",
      "outDis" : "50",
      "Id" : "3798",
      "oid" : "6627",
      "districtId" : "1",
      "nameZh" : "御史里",
      "pgp" : "0",
      "terminal" : "0",
      "latitude" : "23.99065",
      "inDis" : "50",
      "routeId" : "108",
      "seqNo" : "85"
   },
   {
      "GoBack" : "1",
      "longitude" : "120.68657",
      "outDis" : "50",
      "Id" : "4730",
      "oid" : "306695510",
      "districtId" : "1",
      "nameZh" : "惠和醫院",
      "pgp" : "0",
      "terminal" : "0",
      "latitude" : "23.98492",
      "inDis" : "50",
      "routeId" : "108",
      "seqNo" : "86"
   },
   {
      "GoBack" : "1",
      "longitude" : "120.68473",
      "outDis" : "50",
      "Id" : "1381",
      "oid" : "8476",
      "districtId" : "1",
      "nameZh" : "大觀",
      "pgp" : "0",
      "terminal" : "0",
      "latitude" : "23.98166",
      "inDis" : "50",
      "routeId" : "108",
      "seqNo" : "87"
   },
   {
      "GoBack" : "1",
      "longitude" : "120.68386",
      "outDis" : "50",
      "Id" : "4731",
      "oid" : "306695511",
      "districtId" : "1",
      "nameZh" : "草屯第一銀行",
      "pgp" : "0",
      "terminal" : "0",
      "latitude" : "23.97659",
      "inDis" : "50",
      "routeId" : "108",
      "seqNo" : "88"
   },
   {
      "GoBack" : "2",
      "longitude" : "120.68386",
      "outDis" : "50",
      "Id" : "4731",
      "oid" : "306695511",
      "districtId" : "1",
      "nameZh" : "草屯第一銀行",
      "pgp" : "0",
      "terminal" : "0",
      "latitude" : "23.97659",
      "inDis" : "50",
      "routeId" : "108",
      "seqNo" : "1"
   },
   {
      "GoBack" : "2",
      "longitude" : "120.68473",
      "outDis" : "50",
      "Id" : "1381",
      "oid" : "8476",
      "districtId" : "1",
      "nameZh" : "大觀",
      "pgp" : "0",
      "terminal" : "0",
      "latitude" : "23.98166",
      "inDis" : "50",
      "routeId" : "108",
      "seqNo" : "2"
   },
   {
      "GoBack" : "2",
      "longitude" : "120.68657",
      "outDis" : "50",
      "Id" : "4730",
      "oid" : "306695510",
      "districtId" : "1",
      "nameZh" : "惠和醫院",
      "pgp" : "0",
      "terminal" : "0",
      "latitude" : "23.98492",
      "inDis" : "50",
      "routeId" : "108",
      "seqNo" : "3"
   },
   {
      "GoBack" : "2",
      "longitude" : "120.68787",
      "outDis" : "50",
      "Id" : "3798",
      "oid" : "6627",
      "districtId" : "1",
      "nameZh" : "御史里",
      "pgp" : "0",
      "terminal" : "0",
      "latitude" : "23.99065",
      "inDis" : "50",
      "routeId" : "108",
      "seqNo" : "4"
   },
   {
      "GoBack" : "2",
      "longitude" : "120.6885",
      "outDis" : "50",
      "Id" : "3437",
      "oid" : "7529",
      "districtId" : "1",
      "nameZh" : "新豐",
      "pgp" : "0",
      "terminal" : "0",
      "latitude" : "23.99426",
      "inDis" : "50",
      "routeId" : "108",
      "seqNo" : "5"
   },
   {
      "GoBack" : "2",
      "longitude" : "120.68953",
      "outDis" : "50",
      "Id" : "4729",
      "oid" : "306695414",
      "districtId" : "1",
      "nameZh" : "中正御富路口",
      "pgp" : "0",
      "terminal" : "0",
      "latitude" : "23.99762",
      "inDis" : "50",
      "routeId" : "108",
      "seqNo" : "6"
   },
   {
      "GoBack" : "2",
      "longitude" : "120.69169",
      "outDis" : "50",
      "Id" : "2072",
      "oid" : "10296",
      "districtId" : "1",
      "nameZh" : "同德家商",
      "pgp" : "0",
      "terminal" : "0",
      "latitude" : "24.00217",
      "inDis" : "50",
      "routeId" : "108",
      "seqNo" : "7"
   },
   {
      "GoBack" : "2",
      "longitude" : "120.69472",
      "outDis" : "50",
      "Id" : "2585",
      "oid" : "10310",
      "districtId" : "1",
      "nameZh" : "南岸",
      "pgp" : "0",
      "terminal" : "0",
      "latitude" : "24.00531",
      "inDis" : "50",
      "routeId" : "108",
      "seqNo" : "8"
   },
   {
      "GoBack" : "2",
      "longitude" : "120.6957",
      "outDis" : "50",
      "Id" : "0061",
      "oid" : "311087547",
      "districtId" : "1",
      "nameZh" : "舊正",
      "pgp" : "0",
      "terminal" : "0",
      "latitude" : "24.01476",
      "inDis" : "50",
      "routeId" : "108",
      "seqNo" : "9"
   },
   {
      "GoBack" : "2",
      "longitude" : "120.69604",
      "outDis" : "50",
      "Id" : "3534",
      "oid" : "6505",
      "districtId" : "1",
      "nameZh" : "農試所宿舍",
      "pgp" : "0",
      "terminal" : "0",
      "latitude" : "24.0173",
      "inDis" : "50",
      "routeId" : "108",
      "seqNo" : "10"
   },
   {
      "GoBack" : "2",
      "longitude" : "120.69632",
      "outDis" : "50",
      "Id" : "3944",
      "oid" : "311348105",
      "districtId" : "1",
      "nameZh" : "豐營",
      "pgp" : "0",
      "terminal" : "0",
      "latitude" : "24.02091",
      "inDis" : "50",
      "routeId" : "108",
      "seqNo" : "11"
   },
   {
      "GoBack" : "2",
      "longitude" : "120.69653",
      "outDis" : "50",
      "Id" : "4410",
      "oid" : "304286679",
      "districtId" : "1",
      "nameZh" : "全家福社區",
      "pgp" : "0",
      "terminal" : "0",
      "latitude" : "24.02414",
      "inDis" : "50",
      "routeId" : "108",
      "seqNo" : "12"
   },
   {
      "GoBack" : "2",
      "longitude" : "120.6967",
      "outDis" : "50",
      "Id" : "3504",
      "oid" : "7534",
      "districtId" : "1",
      "nameZh" : "萬豐",
      "pgp" : "0",
      "terminal" : "0",
      "latitude" : "24.0259",
      "inDis" : "50",
      "routeId" : "108",
      "seqNo" : "13"
   },
   {
      "GoBack" : "2",
      "longitude" : "120.6968",
      "outDis" : "50",
      "Id" : "3533",
      "oid" : "6504",
      "districtId" : "1",
      "nameZh" : "農試所",
      "pgp" : "0",
      "terminal" : "0",
      "latitude" : "24.02934",
      "inDis" : "50",
      "routeId" : "108",
      "seqNo" : "14"
   },
   {
      "GoBack" : "2",
      "longitude" : "120.69407",
      "outDis" : "50",
      "Id" : "2304",
      "oid" : "7101",
      "districtId" : "1",
      "nameZh" : "味全工廠",
      "pgp" : "0",
      "terminal" : "0",
      "latitude" : "24.0341",
      "inDis" : "50",
      "routeId" : "108",
      "seqNo" : "15"
   },
   {
      "GoBack" : "2",
      "longitude" : "120.69304",
      "outDis" : "50",
      "Id" : "1400",
      "oid" : "5295",
      "districtId" : "1",
      "nameZh" : "山腳巷",
      "pgp" : "0",
      "terminal" : "0",
      "latitude" : "24.03852",
      "inDis" : "50",
      "routeId" : "108",
      "seqNo" : "16"
   },
   {
      "GoBack" : "2",
      "longitude" : "120.69181",
      "outDis" : "50",
      "Id" : "1588",
      "oid" : "7300",
      "districtId" : "1",
      "nameZh" : "六股",
      "pgp" : "0",
      "terminal" : "0",
      "latitude" : "24.04138",
      "inDis" : "50",
      "routeId" : "108",
      "seqNo" : "17"
   },
   {
      "GoBack" : "2",
      "longitude" : "120.68868",
      "outDis" : "50",
      "Id" : "4629",
      "oid" : "304270268",
      "districtId" : "1",
      "nameZh" : "光復國中小(柳豐路)",
      "pgp" : "0",
      "terminal" : "0",
      "latitude" : "24.04362",
      "inDis" : "50",
      "routeId" : "108",
      "seqNo" : "18"
   },
   {
      "GoBack" : "2",
      "longitude" : "120.6886",
      "outDis" : "50",
      "Id" : "4413",
      "oid" : "304270266",
      "districtId" : "1",
      "nameZh" : "王厝",
      "pgp" : "0",
      "terminal" : "0",
      "latitude" : "24.04377",
      "inDis" : "50",
      "routeId" : "108",
      "seqNo" : "19"
   },
   {
      "GoBack" : "2",
      "longitude" : "120.68727",
      "outDis" : "50",
      "Id" : "5529",
      "oid" : "303699003",
      "districtId" : "1",
      "nameZh" : "亞洲大學安藤館",
      "pgp" : "0",
      "terminal" : "0",
      "latitude" : "24.04725",
      "inDis" : "50",
      "routeId" : "108",
      "seqNo" : "20"
   },
   {
      "GoBack" : "2",
      "longitude" : "120.68497",
      "outDis" : "50",
      "Id" : "5200",
      "oid" : "310785357",
      "districtId" : "1",
      "nameZh" : "福新柳豐路口",
      "pgp" : "0",
      "terminal" : "0",
      "latitude" : "24.05166",
      "inDis" : "50",
      "routeId" : "108",
      "seqNo" : "21"
   },
   {
      "GoBack" : "2",
      "longitude" : "120.6954",
      "outDis" : "50",
      "Id" : "5754",
      "oid" : "320825246",
      "districtId" : "1",
      "nameZh" : "林森育賢路口",
      "pgp" : "0",
      "terminal" : "0",
      "latitude" : "24.06133",
      "inDis" : "50",
      "routeId" : "108",
      "seqNo" : "22"
   },
   {
      "GoBack" : "2",
      "longitude" : "120.69791",
      "outDis" : "50",
      "Id" : "4930",
      "oid" : "308835186",
      "districtId" : "1",
      "nameZh" : "霧峰農會",
      "pgp" : "0",
      "terminal" : "0",
      "latitude" : "24.06465",
      "inDis" : "50",
      "routeId" : "108",
      "seqNo" : "23"
   },
   {
      "GoBack" : "2",
      "longitude" : "120.6989",
      "outDis" : "50",
      "Id" : "4972",
      "oid" : "7027",
      "districtId" : "1",
      "nameZh" : "中正草湖路口",
      "pgp" : "0",
      "terminal" : "0",
      "latitude" : "24.067",
      "inDis" : "50",
      "routeId" : "108",
      "seqNo" : "24"
   },
   {
      "GoBack" : "2",
      "longitude" : "120.69939",
      "outDis" : "50",
      "Id" : "1994",
      "oid" : "7048",
      "districtId" : "1",
      "nameZh" : "甲寅",
      "pgp" : "0",
      "terminal" : "0",
      "latitude" : "24.07032",
      "inDis" : "50",
      "routeId" : "108",
      "seqNo" : "25"
   },
   {
      "GoBack" : "2",
      "longitude" : "120.69986",
      "outDis" : "50",
      "Id" : "3980",
      "oid" : "7632",
      "districtId" : "1",
      "nameZh" : "霧峰農工",
      "pgp" : "0",
      "terminal" : "0",
      "latitude" : "24.07332",
      "inDis" : "50",
      "routeId" : "108",
      "seqNo" : "26"
   },
   {
      "GoBack" : "2",
      "longitude" : "120.69952",
      "outDis" : "50",
      "Id" : "2062",
      "oid" : "7066",
      "districtId" : "1",
      "nameZh" : "中正吉峰路口",
      "pgp" : "0",
      "terminal" : "0",
      "latitude" : "24.07654",
      "inDis" : "50",
      "routeId" : "108",
      "seqNo" : "27"
   },
   {
      "GoBack" : "2",
      "longitude" : "120.69827",
      "outDis" : "50",
      "Id" : "4349",
      "oid" : "7386",
      "districtId" : "1",
      "nameZh" : "中興東南路口",
      "pgp" : "0",
      "terminal" : "0",
      "latitude" : "24.08061",
      "inDis" : "50",
      "routeId" : "108",
      "seqNo" : "28"
   },
   {
      "GoBack" : "2",
      "longitude" : "120.69725",
      "outDis" : "50",
      "Id" : "2866",
      "oid" : "7384",
      "districtId" : "1",
      "nameZh" : "草湖",
      "pgp" : "0",
      "terminal" : "0",
      "latitude" : "24.08404",
      "inDis" : "50",
      "routeId" : "108",
      "seqNo" : "29"
   },
   {
      "GoBack" : "2",
      "longitude" : "120.69635",
      "outDis" : "50",
      "Id" : "5034",
      "oid" : "309557183",
      "districtId" : "1",
      "nameZh" : "財政部印刷廠",
      "pgp" : "0",
      "terminal" : "0",
      "latitude" : "24.08663",
      "inDis" : "50",
      "routeId" : "108",
      "seqNo" : "30"
   },
   {
      "GoBack" : "2",
      "longitude" : "120.6954",
      "outDis" : "50",
      "Id" : "4253",
      "oid" : "7169",
      "districtId" : "1",
      "nameZh" : "大里圖書館(中興路)",
      "pgp" : "0",
      "terminal" : "0",
      "latitude" : "24.08862",
      "inDis" : "50",
      "routeId" : "108",
      "seqNo" : "31"
   },
   {
      "GoBack" : "2",
      "longitude" : "120.69371",
      "outDis" : "50",
      "Id" : "4286",
      "oid" : "7143",
      "districtId" : "1",
      "nameZh" : "青年高中",
      "pgp" : "0",
      "terminal" : "0",
      "latitude" : "24.08994",
      "inDis" : "50",
      "routeId" : "108",
      "seqNo" : "32"
   },
   {
      "GoBack" : "2",
      "longitude" : "120.69146",
      "outDis" : "50",
      "Id" : "4661",
      "oid" : "7291",
      "districtId" : "1",
      "nameZh" : "中興仁化路口",
      "pgp" : "0",
      "terminal" : "0",
      "latitude" : "24.09192",
      "inDis" : "50",
      "routeId" : "108",
      "seqNo" : "33"
   },
   {
      "GoBack" : "2",
      "longitude" : "120.68694",
      "outDis" : "50",
      "Id" : "1322",
      "oid" : "309974047",
      "districtId" : "1",
      "nameZh" : "大突寮(中興路)",
      "pgp" : "0",
      "terminal" : "0",
      "latitude" : "24.09735",
      "inDis" : "50",
      "routeId" : "108",
      "seqNo" : "34"
   },
   {
      "GoBack" : "2",
      "longitude" : "120.6879",
      "outDis" : "50",
      "Id" : "5151",
      "oid" : "12580",
      "districtId" : "1",
      "nameZh" : "兒童藝術館(中興路)",
      "pgp" : "0",
      "terminal" : "0",
      "latitude" : "24.10002",
      "inDis" : "50",
      "routeId" : "108",
      "seqNo" : "35"
   },
   {
      "GoBack" : "2",
      "longitude" : "120.68864",
      "outDis" : "50",
      "Id" : "1126",
      "oid" : "7202",
      "districtId" : "1",
      "nameZh" : "下內新",
      "pgp" : "0",
      "terminal" : "0",
      "latitude" : "24.10257",
      "inDis" : "50",
      "routeId" : "108",
      "seqNo" : "36"
   },
   {
      "GoBack" : "2",
      "longitude" : "120.68941",
      "outDis" : "50",
      "Id" : "2026",
      "oid" : "7054",
      "districtId" : "1",
      "nameZh" : "立人高中",
      "pgp" : "0",
      "terminal" : "0",
      "latitude" : "24.10584",
      "inDis" : "50",
      "routeId" : "108",
      "seqNo" : "37"
   },
   {
      "GoBack" : "2",
      "longitude" : "120.69003",
      "outDis" : "50",
      "Id" : "1363",
      "oid" : "7237",
      "districtId" : "1",
      "nameZh" : "中興大里路口",
      "pgp" : "0",
      "terminal" : "0",
      "latitude" : "24.10863",
      "inDis" : "50",
      "routeId" : "108",
      "seqNo" : "38"
   },
   {
      "GoBack" : "2",
      "longitude" : "120.68993",
      "outDis" : "50",
      "Id" : "1576",
      "oid" : "7298",
      "districtId" : "1",
      "nameZh" : "內新市場",
      "pgp" : "0",
      "terminal" : "0",
      "latitude" : "24.11107",
      "inDis" : "50",
      "routeId" : "108",
      "seqNo" : "39"
   },
   {
      "GoBack" : "2",
      "longitude" : "120.68986",
      "outDis" : "50",
      "Id" : "2691",
      "oid" : "7173",
      "districtId" : "1",
      "nameZh" : "省農會",
      "pgp" : "0",
      "terminal" : "0",
      "latitude" : "24.1125",
      "inDis" : "50",
      "routeId" : "108",
      "seqNo" : "40"
   },
   {
      "GoBack" : "2",
      "longitude" : "120.68974",
      "outDis" : "50",
      "Id" : "5485",
      "oid" : "314655296",
      "districtId" : "1",
      "nameZh" : "中興內新街口",
      "pgp" : "0",
      "terminal" : "0",
      "latitude" : "24.11408",
      "inDis" : "50",
      "routeId" : "108",
      "seqNo" : "41"
   },
   {
      "GoBack" : "2",
      "longitude" : "120.68958",
      "outDis" : "50",
      "Id" : "3280",
      "oid" : "7490",
      "districtId" : "1",
      "nameZh" : "菩提醫院",
      "pgp" : "0",
      "terminal" : "0",
      "latitude" : "24.11508",
      "inDis" : "50",
      "routeId" : "108",
      "seqNo" : "42"
   },
   {
      "GoBack" : "2",
      "longitude" : "120.68957",
      "outDis" : "50",
      "Id" : "3281",
      "oid" : "7493",
      "districtId" : "1",
      "nameZh" : "菸葉廠",
      "pgp" : "0",
      "terminal" : "0",
      "latitude" : "24.11794",
      "inDis" : "50",
      "routeId" : "108",
      "seqNo" : "43"
   },
   {
      "GoBack" : "2",
      "longitude" : "120.68664",
      "outDis" : "50",
      "Id" : "2591",
      "oid" : "7156",
      "districtId" : "1",
      "nameZh" : "南門橋頭",
      "pgp" : "0",
      "terminal" : "0",
      "latitude" : "24.1212",
      "inDis" : "50",
      "routeId" : "108",
      "seqNo" : "44"
   },
   {
      "GoBack" : "2",
      "longitude" : "120.68412",
      "outDis" : "50",
      "Id" : "0254",
      "oid" : "7117",
      "districtId" : "1",
      "nameZh" : "明德高中",
      "pgp" : "0",
      "terminal" : "0",
      "latitude" : "24.12291",
      "inDis" : "50",
      "routeId" : "108",
      "seqNo" : "45"
   },
   {
      "GoBack" : "2",
      "longitude" : "120.68421",
      "outDis" : "50",
      "Id" : "0255",
      "oid" : "7415",
      "districtId" : "1",
      "nameZh" : "南門仔",
      "pgp" : "0",
      "terminal" : "0",
      "latitude" : "24.1254",
      "inDis" : "50",
      "routeId" : "108",
      "seqNo" : "46"
   },
   {
      "GoBack" : "2",
      "longitude" : "120.68556",
      "outDis" : "50",
      "Id" : "5607",
      "oid" : "313888518",
      "districtId" : "1",
      "nameZh" : "興大附農(臺中路)",
      "pgp" : "0",
      "terminal" : "0",
      "latitude" : "24.12981",
      "inDis" : "50",
      "routeId" : "108",
      "seqNo" : "47"
   },
   {
      "GoBack" : "2",
      "longitude" : "120.68502",
      "outDis" : "50",
      "Id" : "0257",
      "oid" : "7005",
      "districtId" : "1",
      "nameZh" : "臺中國小",
      "pgp" : "0",
      "terminal" : "0",
      "latitude" : "24.13026",
      "inDis" : "50",
      "routeId" : "108",
      "seqNo" : "48"
   },
   {
      "GoBack" : "2",
      "longitude" : "120.68392",
      "outDis" : "50",
      "Id" : "0049",
      "oid" : "7448",
      "districtId" : "1",
      "nameZh" : "第三市場(臺中家商)",
      "pgp" : "0",
      "terminal" : "0",
      "latitude" : "24.13256",
      "inDis" : "50",
      "routeId" : "108",
      "seqNo" : "49"
   },
   {
      "GoBack" : "2",
      "longitude" : "120.6846",
      "outDis" : "50",
      "Id" : "0041",
      "oid" : "10F4F024E5254045AE0911F852803D41",
      "districtId" : "1",
      "nameZh" : "臺中火車站",
      "pgp" : "0",
      "terminal" : "0",
      "latitude" : "24.13726",
      "inDis" : "50",
      "routeId" : "108",
      "seqNo" : "50"
   },
   {
      "GoBack" : "2",
      "longitude" : "120.68358",
      "outDis" : "50",
      "Id" : "0151",
      "oid" : "7436",
      "districtId" : "1",
      "nameZh" : "第一廣場",
      "pgp" : "0",
      "terminal" : "0",
      "latitude" : "24.13897",
      "inDis" : "50",
      "routeId" : "108",
      "seqNo" : "51"
   },
   {
      "GoBack" : "2",
      "longitude" : "120.68261",
      "outDis" : "30",
      "Id" : "4401",
      "oid" : "AD006E5F67DD4A0AB2BF329BE61E5289",
      "districtId" : "1",
      "nameZh" : "彰化銀行(臺灣大道)",
      "pgp" : "0",
      "terminal" : "0",
      "latitude" : "24.13985",
      "inDis" : "50",
      "routeId" : "108",
      "seqNo" : "52"
   },
   {
      "GoBack" : "2",
      "longitude" : "120.68202",
      "outDis" : "50",
      "Id" : "0206",
      "oid" : "7432",
      "districtId" : "1",
      "nameZh" : "第一信用",
      "pgp" : "0",
      "terminal" : "0",
      "latitude" : "24.14036",
      "inDis" : "50",
      "routeId" : "108",
      "seqNo" : "53"
   },
   {
      "GoBack" : "2",
      "longitude" : "120.67991",
      "outDis" : "50",
      "Id" : "4395",
      "oid" : "591F9DC7715E426C9BB691D4D62260D3",
      "districtId" : "1",
      "nameZh" : "第二市場(臺灣大道)",
      "pgp" : "0",
      "terminal" : "0",
      "latitude" : "24.14193",
      "inDis" : "50",
      "routeId" : "108",
      "seqNo" : "54"
   },
   {
      "GoBack" : "2",
      "longitude" : "120.68091",
      "outDis" : "50",
      "Id" : "5506",
      "oid" : "8A3D17D8A606447DAE64873A8642C36F",
      "districtId" : "1",
      "nameZh" : "光復國小(三民路)",
      "pgp" : "0",
      "terminal" : "0",
      "latitude" : "24.14368",
      "inDis" : "50",
      "routeId" : "108",
      "seqNo" : "55"
   },
   {
      "GoBack" : "2",
      "longitude" : "120.68212",
      "outDis" : "50",
      "Id" : "4543",
      "oid" : "7313",
      "districtId" : "1",
      "nameZh" : "臺中公園(三民路)",
      "pgp" : "0",
      "terminal" : "0",
      "latitude" : "24.14507",
      "inDis" : "50",
      "routeId" : "108",
      "seqNo" : "56"
   },
   {
      "GoBack" : "2",
      "longitude" : "120.68372",
      "outDis" : "50",
      "Id" : "0045",
      "oid" : "7354",
      "districtId" : "1",
      "nameZh" : "國立臺中科技大學",
      "pgp" : "0",
      "terminal" : "0",
      "latitude" : "24.14893",
      "inDis" : "50",
      "routeId" : "108",
      "seqNo" : "57"
   },
   {
      "GoBack" : "2",
      "longitude" : "120.68502",
      "outDis" : "50",
      "Id" : "0046",
      "oid" : "7252",
      "districtId" : "1",
      "nameZh" : "中友百貨",
      "pgp" : "0",
      "terminal" : "0",
      "latitude" : "24.15198",
      "inDis" : "50",
      "routeId" : "108",
      "seqNo" : "58"
   },
   {
      "GoBack" : "2",
      "longitude" : "120.68385",
      "outDis" : "50",
      "Id" : "3772",
      "oid" : "13334",
      "districtId" : "1",
      "nameZh" : "五權學士路口",
      "pgp" : "0",
      "terminal" : "0",
      "latitude" : "24.15372",
      "inDis" : "50",
      "routeId" : "108",
      "seqNo" : "59"
   },
   {
      "GoBack" : "2",
      "longitude" : "120.68031",
      "outDis" : "50",
      "Id" : "0146",
      "oid" : "10735",
      "districtId" : "1",
      "nameZh" : "五常里",
      "pgp" : "0",
      "terminal" : "0",
      "latitude" : "24.15249",
      "inDis" : "50",
      "routeId" : "108",
      "seqNo" : "60"
   },
   {
      "GoBack" : "2",
      "longitude" : "120.67901",
      "outDis" : "50",
      "Id" : "0145",
      "oid" : "7731",
      "districtId" : "1",
      "nameZh" : "光大里",
      "pgp" : "0",
      "terminal" : "0",
      "latitude" : "24.15201",
      "inDis" : "50",
      "routeId" : "108",
      "seqNo" : "61"
   },
   {
      "GoBack" : "2",
      "longitude" : "120.6774",
      "outDis" : "50",
      "Id" : "0503",
      "oid" : "8244",
      "districtId" : "1",
      "nameZh" : "臺中二中",
      "pgp" : "0",
      "terminal" : "0",
      "latitude" : "24.15234",
      "inDis" : "50",
      "routeId" : "108",
      "seqNo" : "62"
   },
   {
      "GoBack" : "2",
      "longitude" : "120.67737",
      "outDis" : "50",
      "Id" : "0481",
      "oid" : "7328",
      "districtId" : "1",
      "nameZh" : "文莊里",
      "pgp" : "0",
      "terminal" : "0",
      "latitude" : "24.15433",
      "inDis" : "50",
      "routeId" : "108",
      "seqNo" : "63"
   },
   {
      "GoBack" : "2",
      "longitude" : "120.67678",
      "outDis" : "50",
      "Id" : "0092",
      "oid" : "7142",
      "districtId" : "1",
      "nameZh" : "邱厝里",
      "pgp" : "0",
      "terminal" : "0",
      "latitude" : "24.15651",
      "inDis" : "50",
      "routeId" : "108",
      "seqNo" : "64"
   },
   {
      "GoBack" : "2",
      "longitude" : "120.67591",
      "outDis" : "50",
      "Id" : "5732",
      "oid" : "7393",
      "districtId" : "1",
      "nameZh" : "中清健行路口",
      "pgp" : "0",
      "terminal" : "0",
      "latitude" : "24.15875",
      "inDis" : "50",
      "routeId" : "108",
      "seqNo" : "65"
   },
   {
      "GoBack" : "2",
      "longitude" : "120.67533",
      "outDis" : "50",
      "Id" : "5733",
      "oid" : "913DE806DEE146C38BE56C32FEC939B6",
      "districtId" : "1",
      "nameZh" : "大道公廟(中清路)",
      "pgp" : "0",
      "terminal" : "0",
      "latitude" : "24.16061",
      "inDis" : "50",
      "routeId" : "108",
      "seqNo" : "66"
   },
   {
      "GoBack" : "2",
      "longitude" : "120.67483",
      "outDis" : "50",
      "Id" : "5734",
      "oid" : "33F6AB3B4017402F81CDF40E4C53F958",
      "districtId" : "1",
      "nameZh" : "中清忠明路口",
      "pgp" : "0",
      "terminal" : "0",
      "latitude" : "24.1623",
      "inDis" : "50",
      "routeId" : "108",
      "seqNo" : "67"
   },
   {
      "GoBack" : "2",
      "longitude" : "120.6741",
      "outDis" : "50",
      "Id" : "5735",
      "oid" : "7319",
      "districtId" : "1",
      "nameZh" : "中清太原路口",
      "pgp" : "0",
      "terminal" : "0",
      "latitude" : "24.16381",
      "inDis" : "50",
      "routeId" : "108",
      "seqNo" : "68"
   },
   {
      "GoBack" : "2",
      "longitude" : "120.67329",
      "outDis" : "50",
      "Id" : "5736",
      "oid" : "7554",
      "districtId" : "1",
      "nameZh" : "中清漢口路口",
      "pgp" : "0",
      "terminal" : "0",
      "latitude" : "24.16643",
      "inDis" : "50",
      "routeId" : "108",
      "seqNo" : "69"
   },
   {
      "GoBack" : "2",
      "longitude" : "120.67314",
      "outDis" : "50",
      "Id" : "5737",
      "oid" : "320660555",
      "districtId" : "1",
      "nameZh" : "曉明女中(中清路)",
      "pgp" : "0",
      "terminal" : "0",
      "latitude" : "24.16755",
      "inDis" : "50",
      "routeId" : "108",
      "seqNo" : "70"
   },
   {
      "GoBack" : "2",
      "longitude" : "120.67225",
      "outDis" : "50",
      "Id" : "1629",
      "oid" : "A19B9A6531364F6685DE0857F44C0D1F",
      "districtId" : "1",
      "nameZh" : "天津路商圈",
      "pgp" : "0",
      "terminal" : "0",
      "latitude" : "24.16994",
      "inDis" : "50",
      "routeId" : "108",
      "seqNo" : "71"
   },
   {
      "GoBack" : "2",
      "longitude" : "120.67156",
      "outDis" : "50",
      "Id" : "0805",
      "oid" : "7464",
      "districtId" : "1",
      "nameZh" : "頂賴厝",
      "pgp" : "0",
      "terminal" : "0",
      "latitude" : "24.17202",
      "inDis" : "50",
      "routeId" : "108",
      "seqNo" : "72"
   },
   {
      "GoBack" : "2",
      "longitude" : "120.67095",
      "outDis" : "50",
      "Id" : "0334",
      "oid" : "6B4F9E33C8B446F0B9B8A76F51303F0C",
      "districtId" : "1",
      "nameZh" : "下水湳",
      "pgp" : "0",
      "terminal" : "0",
      "latitude" : "24.17535",
      "inDis" : "50",
      "routeId" : "108",
      "seqNo" : "73"
   },
   {
      "GoBack" : "2",
      "longitude" : "120.67008",
      "outDis" : "30",
      "Id" : "0486",
      "oid" : "308022314",
      "districtId" : "1",
      "nameZh" : "水湳",
      "pgp" : "0",
      "terminal" : "0",
      "latitude" : "24.17636",
      "inDis" : "30",
      "routeId" : "108",
      "seqNo" : "74"
   },
   {
      "GoBack" : "2",
      "longitude" : "120.66916",
      "outDis" : "50",
      "Id" : "5100",
      "oid" : "319227555",
      "districtId" : "1",
      "nameZh" : "水湳市場(中清路)",
      "pgp" : "0",
      "terminal" : "0",
      "latitude" : "24.17756",
      "inDis" : "50",
      "routeId" : "108",
      "seqNo" : "75"
   },
   {
      "GoBack" : "2",
      "longitude" : "120.66818",
      "outDis" : "50",
      "Id" : "0385",
      "oid" : "7239",
      "districtId" : "1",
      "nameZh" : "大德國中",
      "pgp" : "0",
      "terminal" : "0",
      "latitude" : "24.17873",
      "inDis" : "50",
      "routeId" : "108",
      "seqNo" : "76"
   },
   {
      "GoBack" : "2",
      "longitude" : "120.66638",
      "outDis" : "50",
      "Id" : "0593",
      "oid" : "7059",
      "districtId" : "1",
      "nameZh" : "全民醫院",
      "pgp" : "0",
      "terminal" : "0",
      "latitude" : "24.18129",
      "inDis" : "50",
      "routeId" : "108",
      "seqNo" : "77"
   },
   {
      "GoBack" : "2",
      "longitude" : "120.66571",
      "outDis" : "50",
      "Id" : "0789",
      "oid" : "7452",
      "districtId" : "1",
      "nameZh" : "陳平",
      "pgp" : "0",
      "terminal" : "0",
      "latitude" : "24.18285",
      "inDis" : "50",
      "routeId" : "108",
      "seqNo" : "78"
   },
   {
      "GoBack" : "2",
      "longitude" : "120.66496",
      "outDis" : "50",
      "Id" : "0801",
      "oid" : "3679",
      "districtId" : "1",
      "nameZh" : "頂陳平",
      "pgp" : "0",
      "terminal" : "0",
      "latitude" : "24.18437",
      "inDis" : "50",
      "routeId" : "108",
      "seqNo" : "79"
   },
   {
      "GoBack" : "2",
      "longitude" : "120.66396",
      "outDis" : "50",
      "Id" : "2638",
      "oid" : "311087546",
      "districtId" : "1",
      "nameZh" : "后庄仔",
      "pgp" : "0",
      "terminal" : "0",
      "latitude" : "24.18601",
      "inDis" : "50",
      "routeId" : "108",
      "seqNo" : "80"
   },
   {
      "GoBack" : "2",
      "longitude" : "120.66282",
      "outDis" : "50",
      "Id" : "0989",
      "oid" : "3794",
      "districtId" : "1",
      "nameZh" : "中清后庄路口",
      "pgp" : "0",
      "terminal" : "0",
      "latitude" : "24.18802",
      "inDis" : "50",
      "routeId" : "108",
      "seqNo" : "81"
   },
   {
      "GoBack" : "2",
      "longitude" : "120.66161",
      "outDis" : "50",
      "Id" : "0708",
      "oid" : "3795",
      "districtId" : "1",
      "nameZh" : "后庄國宅",
      "pgp" : "0",
      "terminal" : "0",
      "latitude" : "24.1901",
      "inDis" : "50",
      "routeId" : "108",
      "seqNo" : "82"
   },
   {
      "GoBack" : "2",
      "longitude" : "120.65978",
      "outDis" : "50",
      "Id" : "3293",
      "oid" : "3675",
      "districtId" : "1",
      "nameZh" : "貿易三村",
      "pgp" : "0",
      "terminal" : "0",
      "latitude" : "24.19313",
      "inDis" : "50",
      "routeId" : "108",
      "seqNo" : "83"
   },
   {
      "GoBack" : "2",
      "longitude" : "120.65934",
      "outDis" : "50",
      "Id" : "2069",
      "oid" : "13480",
      "districtId" : "1",
      "nameZh" : "中清同榮路口",
      "pgp" : "0",
      "terminal" : "0",
      "latitude" : "24.19374",
      "inDis" : "50",
      "routeId" : "108",
      "seqNo" : "84"
   },
   {
      "GoBack" : "2",
      "longitude" : "120.6585",
      "outDis" : "50",
      "Id" : "0136",
      "oid" : "7207",
      "districtId" : "1",
      "nameZh" : "下港尾",
      "pgp" : "0",
      "terminal" : "0",
      "latitude" : "24.19522",
      "inDis" : "50",
      "routeId" : "108",
      "seqNo" : "85"
   },
   {
      "GoBack" : "2",
      "longitude" : "120.65619",
      "outDis" : "50",
      "Id" : "1475",
      "oid" : "0964360A5479493CAC91437973FCB313",
      "districtId" : "1",
      "nameZh" : "中清環中路口",
      "pgp" : "0",
      "terminal" : "0",
      "latitude" : "24.19898",
      "inDis" : "50",
      "routeId" : "108",
      "seqNo" : "86"
   },
   {
      "GoBack" : "2",
      "longitude" : "120.65481",
      "outDis" : "50",
      "Id" : "0827",
      "oid" : "7836",
      "districtId" : "1",
      "nameZh" : "港尾",
      "pgp" : "0",
      "terminal" : "0",
      "latitude" : "24.20105",
      "inDis" : "50",
      "routeId" : "108",
      "seqNo" : "87"
   }
]
