[
   {
      "GoBack" : "1",
      "longitude" : "120.72154",
      "outDis" : "70",
      "Id" : "3935",
      "oid" : "6693",
      "districtId" : "1",
      "nameZh" : "豐原",
      "pgp" : "0",
      "terminal" : "0",
      "latitude" : "24.2538",
      "inDis" : "70",
      "routeId" : "238",
      "seqNo" : "1"
   },
   {
      "GoBack" : "1",
      "longitude" : "120.71986",
      "outDis" : "50",
      "Id" : "2309",
      "oid" : "5835",
      "districtId" : "1",
      "nameZh" : "和平街",
      "pgp" : "0",
      "terminal" : "0",
      "latitude" : "24.25233",
      "inDis" : "50",
      "routeId" : "238",
      "seqNo" : "2"
   },
   {
      "GoBack" : "1",
      "longitude" : "120.71851",
      "outDis" : "50",
      "Id" : "3343",
      "oid" : "6397",
      "districtId" : "1",
      "nameZh" : "媽祖廟",
      "pgp" : "0",
      "terminal" : "0",
      "latitude" : "24.25157",
      "inDis" : "50",
      "routeId" : "238",
      "seqNo" : "3"
   },
   {
      "GoBack" : "1",
      "longitude" : "120.71526",
      "outDis" : "50",
      "Id" : "3939",
      "oid" : "6698",
      "districtId" : "1",
      "nameZh" : "豐原郵局",
      "pgp" : "0",
      "terminal" : "0",
      "latitude" : "24.25136",
      "inDis" : "50",
      "routeId" : "238",
      "seqNo" : "4"
   },
   {
      "GoBack" : "1",
      "longitude" : "120.712",
      "outDis" : "50",
      "Id" : "3357",
      "oid" : "6406",
      "districtId" : "1",
      "nameZh" : "慈龍寺",
      "pgp" : "0",
      "terminal" : "0",
      "latitude" : "24.25079",
      "inDis" : "50",
      "routeId" : "238",
      "seqNo" : "5"
   },
   {
      "GoBack" : "1",
      "longitude" : "120.70963",
      "outDis" : "50",
      "Id" : "4448",
      "oid" : "6688",
      "districtId" : "1",
      "nameZh" : "中正圓環西路口",
      "pgp" : "0",
      "terminal" : "0",
      "latitude" : "24.25039",
      "inDis" : "50",
      "routeId" : "238",
      "seqNo" : "6"
   },
   {
      "GoBack" : "1",
      "longitude" : "120.70672",
      "outDis" : "50",
      "Id" : "1065",
      "oid" : "5072",
      "districtId" : "1",
      "nameZh" : "三光新村",
      "pgp" : "0",
      "terminal" : "0",
      "latitude" : "24.24999",
      "inDis" : "50",
      "routeId" : "238",
      "seqNo" : "7"
   },
   {
      "GoBack" : "1",
      "longitude" : "120.70434",
      "outDis" : "50",
      "Id" : "2349",
      "oid" : "5856",
      "districtId" : "1",
      "nameZh" : "忠勤新村",
      "pgp" : "0",
      "terminal" : "0",
      "latitude" : "24.24962",
      "inDis" : "50",
      "routeId" : "238",
      "seqNo" : "8"
   },
   {
      "GoBack" : "1",
      "longitude" : "120.70229",
      "outDis" : "50",
      "Id" : "2489",
      "oid" : "5943",
      "districtId" : "1",
      "nameZh" : "社皮鐵路巷",
      "pgp" : "0",
      "terminal" : "0",
      "latitude" : "24.24951",
      "inDis" : "50",
      "routeId" : "238",
      "seqNo" : "9"
   },
   {
      "GoBack" : "1",
      "longitude" : "120.70003",
      "outDis" : "50",
      "Id" : "4498",
      "oid" : "13826",
      "districtId" : "1",
      "nameZh" : "臺豐社區",
      "pgp" : "0",
      "terminal" : "0",
      "latitude" : "24.249",
      "inDis" : "50",
      "routeId" : "238",
      "seqNo" : "10"
   },
   {
      "GoBack" : "1",
      "longitude" : "120.69799",
      "outDis" : "50",
      "Id" : "5438",
      "oid" : "5237",
      "districtId" : "1",
      "nameZh" : "岸裡國小",
      "pgp" : "0",
      "terminal" : "0",
      "latitude" : "24.2487",
      "inDis" : "50",
      "routeId" : "238",
      "seqNo" : "11"
   },
   {
      "GoBack" : "1",
      "longitude" : "120.69323",
      "outDis" : "50",
      "Id" : "2993",
      "oid" : "6203",
      "districtId" : "1",
      "nameZh" : "望寮",
      "pgp" : "0",
      "terminal" : "0",
      "latitude" : "24.24841",
      "inDis" : "50",
      "routeId" : "238",
      "seqNo" : "12"
   },
   {
      "GoBack" : "1",
      "longitude" : "120.6896",
      "outDis" : "50",
      "Id" : "2700",
      "oid" : "6056",
      "districtId" : "1",
      "nameZh" : "紅瓦厝口",
      "pgp" : "0",
      "terminal" : "0",
      "latitude" : "24.2476",
      "inDis" : "50",
      "routeId" : "238",
      "seqNo" : "13"
   },
   {
      "GoBack" : "1",
      "longitude" : "120.68563",
      "outDis" : "50",
      "Id" : "2486",
      "oid" : "5941",
      "districtId" : "1",
      "nameZh" : "社口",
      "pgp" : "0",
      "terminal" : "0",
      "latitude" : "24.24668",
      "inDis" : "50",
      "routeId" : "238",
      "seqNo" : "14"
   },
   {
      "GoBack" : "1",
      "longitude" : "120.68146",
      "outDis" : "50",
      "Id" : "2836",
      "oid" : "6140",
      "districtId" : "1",
      "nameZh" : "神岡國中",
      "pgp" : "0",
      "terminal" : "0",
      "latitude" : "24.24731",
      "inDis" : "50",
      "routeId" : "238",
      "seqNo" : "15"
   },
   {
      "GoBack" : "1",
      "longitude" : "120.67946",
      "outDis" : "50",
      "Id" : "3656",
      "oid" : "6553",
      "districtId" : "1",
      "nameZh" : "福隆新村",
      "pgp" : "0",
      "terminal" : "0",
      "latitude" : "24.24901",
      "inDis" : "50",
      "routeId" : "238",
      "seqNo" : "16"
   },
   {
      "GoBack" : "1",
      "longitude" : "120.67622",
      "outDis" : "50",
      "Id" : "3655",
      "oid" : "6552",
      "districtId" : "1",
      "nameZh" : "福華公司",
      "pgp" : "0",
      "terminal" : "0",
      "latitude" : "24.25099",
      "inDis" : "50",
      "routeId" : "238",
      "seqNo" : "17"
   },
   {
      "GoBack" : "1",
      "longitude" : "120.67368",
      "outDis" : "50",
      "Id" : "3556",
      "oid" : "13823",
      "districtId" : "1",
      "nameZh" : "電信局",
      "pgp" : "0",
      "terminal" : "0",
      "latitude" : "24.25317",
      "inDis" : "50",
      "routeId" : "238",
      "seqNo" : "18"
   },
   {
      "GoBack" : "1",
      "longitude" : "120.67224",
      "outDis" : "50",
      "Id" : "3460",
      "oid" : "6474",
      "districtId" : "1",
      "nameZh" : "中山溝心路口",
      "pgp" : "0",
      "terminal" : "0",
      "latitude" : "24.25521",
      "inDis" : "50",
      "routeId" : "238",
      "seqNo" : "19"
   },
   {
      "GoBack" : "1",
      "longitude" : "120.66832",
      "outDis" : "50",
      "Id" : "1783",
      "oid" : "5526",
      "districtId" : "1",
      "nameZh" : "北庄",
      "pgp" : "0",
      "terminal" : "0",
      "latitude" : "24.25732",
      "inDis" : "50",
      "routeId" : "238",
      "seqNo" : "20"
   },
   {
      "GoBack" : "1",
      "longitude" : "120.66294",
      "outDis" : "50",
      "Id" : "3066",
      "oid" : "6265",
      "districtId" : "1",
      "nameZh" : "庄頭",
      "pgp" : "0",
      "terminal" : "0",
      "latitude" : "24.25812",
      "inDis" : "50",
      "routeId" : "238",
      "seqNo" : "21"
   },
   {
      "GoBack" : "1",
      "longitude" : "120.66141",
      "outDis" : "50",
      "Id" : "2837",
      "oid" : "6141",
      "districtId" : "1",
      "nameZh" : "神岡區公所",
      "pgp" : "0",
      "terminal" : "0",
      "latitude" : "24.25771",
      "inDis" : "50",
      "routeId" : "238",
      "seqNo" : "22"
   },
   {
      "GoBack" : "1",
      "longitude" : "120.6593",
      "outDis" : "50",
      "Id" : "2835",
      "oid" : "6139",
      "districtId" : "1",
      "nameZh" : "神岡",
      "pgp" : "0",
      "terminal" : "0",
      "latitude" : "24.25703",
      "inDis" : "50",
      "routeId" : "238",
      "seqNo" : "23"
   },
   {
      "GoBack" : "1",
      "longitude" : "120.65605",
      "outDis" : "50",
      "Id" : "4445",
      "oid" : "13808",
      "districtId" : "1",
      "nameZh" : "中正中山路口",
      "pgp" : "0",
      "terminal" : "0",
      "latitude" : "24.25842",
      "inDis" : "50",
      "routeId" : "238",
      "seqNo" : "24"
   },
   {
      "GoBack" : "1",
      "longitude" : "120.6531",
      "outDis" : "50",
      "Id" : "3654",
      "oid" : "6551",
      "districtId" : "1",
      "nameZh" : "福連公司",
      "pgp" : "0",
      "terminal" : "0",
      "latitude" : "24.25852",
      "inDis" : "50",
      "routeId" : "238",
      "seqNo" : "25"
   },
   {
      "GoBack" : "1",
      "longitude" : "120.64935",
      "outDis" : "50",
      "Id" : "1392",
      "oid" : "5286",
      "districtId" : "1",
      "nameZh" : "山皮",
      "pgp" : "0",
      "terminal" : "0",
      "latitude" : "24.25824",
      "inDis" : "50",
      "routeId" : "238",
      "seqNo" : "26"
   },
   {
      "GoBack" : "1",
      "longitude" : "120.64411",
      "outDis" : "50",
      "Id" : "2282",
      "oid" : "5810",
      "districtId" : "1",
      "nameZh" : "車站前",
      "pgp" : "0",
      "terminal" : "0",
      "latitude" : "24.25339",
      "inDis" : "50",
      "routeId" : "238",
      "seqNo" : "27"
   },
   {
      "GoBack" : "1",
      "longitude" : "120.63801",
      "outDis" : "50",
      "Id" : "1118",
      "oid" : "5104",
      "districtId" : "1",
      "nameZh" : "下山皮",
      "pgp" : "0",
      "terminal" : "0",
      "latitude" : "24.24622",
      "inDis" : "50",
      "routeId" : "238",
      "seqNo" : "28"
   },
   {
      "GoBack" : "1",
      "longitude" : "120.63456",
      "outDis" : "50",
      "Id" : "5242",
      "oid" : "310787792",
      "districtId" : "1",
      "nameZh" : "和平清陽一路口",
      "pgp" : "0",
      "terminal" : "0",
      "latitude" : "24.24309",
      "inDis" : "50",
      "routeId" : "238",
      "seqNo" : "29"
   },
   {
      "GoBack" : "1",
      "longitude" : "120.63102",
      "outDis" : "50",
      "Id" : "4188",
      "oid" : "12263",
      "districtId" : "1",
      "nameZh" : "埔仔墘",
      "pgp" : "0",
      "terminal" : "0",
      "latitude" : "24.24095",
      "inDis" : "50",
      "routeId" : "238",
      "seqNo" : "30"
   },
   {
      "GoBack" : "1",
      "longitude" : "120.62673",
      "outDis" : "50",
      "Id" : "3663",
      "oid" : "00F44A45672A4A16994A287A6E61763B",
      "districtId" : "1",
      "nameZh" : "福樂新城",
      "pgp" : "0",
      "terminal" : "0",
      "latitude" : "24.24248",
      "inDis" : "50",
      "routeId" : "238",
      "seqNo" : "31"
   },
   {
      "GoBack" : "1",
      "longitude" : "120.6204",
      "outDis" : "50",
      "Id" : "4669",
      "oid" : "7425",
      "districtId" : "1",
      "nameZh" : "中清信義路口",
      "pgp" : "0",
      "terminal" : "0",
      "latitude" : "24.2425",
      "inDis" : "50",
      "routeId" : "238",
      "seqNo" : "32"
   },
   {
      "GoBack" : "1",
      "longitude" : "120.61466",
      "outDis" : "50",
      "Id" : "3023",
      "oid" : "6230",
      "districtId" : "1",
      "nameZh" : "清泉里",
      "pgp" : "0",
      "terminal" : "0",
      "latitude" : "24.24409",
      "inDis" : "50",
      "routeId" : "238",
      "seqNo" : "33"
   },
   {
      "GoBack" : "1",
      "longitude" : "120.61048",
      "outDis" : "50",
      "Id" : "0169",
      "oid" : "318241812",
      "districtId" : "1",
      "nameZh" : "清泉派出所",
      "pgp" : "0",
      "terminal" : "0",
      "latitude" : "24.24561",
      "inDis" : "50",
      "routeId" : "238",
      "seqNo" : "34"
   },
   {
      "GoBack" : "1",
      "longitude" : "120.60824",
      "outDis" : "50",
      "Id" : "1604",
      "oid" : "3E8D6863D7C6417AB4B68003C95F12DE",
      "districtId" : "1",
      "nameZh" : "公明里",
      "pgp" : "0",
      "terminal" : "0",
      "latitude" : "24.24655",
      "inDis" : "50",
      "routeId" : "238",
      "seqNo" : "35"
   },
   {
      "GoBack" : "1",
      "longitude" : "120.60567",
      "outDis" : "50",
      "Id" : "3738",
      "oid" : "5D3D303824DE44588FF28F594C522805",
      "districtId" : "1",
      "nameZh" : "樂群二村",
      "pgp" : "0",
      "terminal" : "0",
      "latitude" : "24.24772",
      "inDis" : "50",
      "routeId" : "238",
      "seqNo" : "36"
   },
   {
      "GoBack" : "1",
      "longitude" : "120.6018",
      "outDis" : "50",
      "Id" : "1556",
      "oid" : "0032883D9F1A4E049568D5607D04A15E",
      "districtId" : "1",
      "nameZh" : "中清仁愛巷口",
      "pgp" : "0",
      "terminal" : "0",
      "latitude" : "24.24946",
      "inDis" : "50",
      "routeId" : "238",
      "seqNo" : "37"
   },
   {
      "GoBack" : "1",
      "longitude" : "120.59881",
      "outDis" : "50",
      "Id" : "4713",
      "oid" : "310614301",
      "districtId" : "1",
      "nameZh" : "公明國中",
      "pgp" : "0",
      "terminal" : "0",
      "latitude" : "24.2501",
      "inDis" : "50",
      "routeId" : "238",
      "seqNo" : "38"
   },
   {
      "GoBack" : "1",
      "longitude" : "120.59899",
      "outDis" : "50",
      "Id" : "0135",
      "oid" : "312174380",
      "districtId" : "1",
      "nameZh" : "臺中航空站",
      "pgp" : "0",
      "terminal" : "0",
      "latitude" : "24.25348",
      "inDis" : "50",
      "routeId" : "238",
      "seqNo" : "39"
   },
   {
      "GoBack" : "1",
      "longitude" : "120.5984",
      "outDis" : "50",
      "Id" : "4982",
      "oid" : "306167896",
      "districtId" : "1",
      "nameZh" : "漢翔複材中心",
      "pgp" : "0",
      "terminal" : "0",
      "latitude" : "24.25234",
      "inDis" : "50",
      "routeId" : "238",
      "seqNo" : "40"
   },
   {
      "GoBack" : "1",
      "longitude" : "120.59626",
      "outDis" : "50",
      "Id" : "2202",
      "oid" : "5767",
      "districtId" : "1",
      "nameZh" : "西勢寮",
      "pgp" : "0",
      "terminal" : "0",
      "latitude" : "24.25027",
      "inDis" : "50",
      "routeId" : "238",
      "seqNo" : "41"
   },
   {
      "GoBack" : "1",
      "longitude" : "120.57118",
      "outDis" : "100",
      "Id" : "3035",
      "oid" : "6238",
      "districtId" : "1",
      "nameZh" : "犁份",
      "pgp" : "0",
      "terminal" : "0",
      "latitude" : "24.24204",
      "inDis" : "50",
      "routeId" : "238",
      "seqNo" : "42"
   },
   {
      "GoBack" : "1",
      "longitude" : "120.56918",
      "outDis" : "50",
      "Id" : "5221",
      "oid" : "310787748",
      "districtId" : "1",
      "nameZh" : "中山臺灣大道口",
      "pgp" : "0",
      "terminal" : "0",
      "latitude" : "24.2371",
      "inDis" : "50",
      "routeId" : "238",
      "seqNo" : "43"
   },
   {
      "GoBack" : "1",
      "longitude" : "120.56673",
      "outDis" : "50",
      "Id" : "5222",
      "oid" : "310787750",
      "districtId" : "1",
      "nameZh" : "中山鎮政路口",
      "pgp" : "0",
      "terminal" : "0",
      "latitude" : "24.23698",
      "inDis" : "50",
      "routeId" : "238",
      "seqNo" : "44"
   },
   {
      "GoBack" : "1",
      "longitude" : "120.56491",
      "outDis" : "50",
      "Id" : "4390",
      "oid" : "17385",
      "districtId" : "1",
      "nameZh" : "沙鹿高工(中山路)",
      "pgp" : "0",
      "terminal" : "0",
      "latitude" : "24.23726",
      "inDis" : "50",
      "routeId" : "238",
      "seqNo" : "45"
   },
   {
      "GoBack" : "1",
      "longitude" : "120.56252",
      "outDis" : "50",
      "Id" : "2682",
      "oid" : "6041",
      "districtId" : "1",
      "nameZh" : "洛泉里",
      "pgp" : "0",
      "terminal" : "0",
      "latitude" : "24.2376",
      "inDis" : "50",
      "routeId" : "238",
      "seqNo" : "46"
   },
   {
      "GoBack" : "1",
      "longitude" : "120.55967",
      "outDis" : "50",
      "Id" : "4681",
      "oid" : "14045",
      "districtId" : "1",
      "nameZh" : "沙鹿市場",
      "pgp" : "0",
      "terminal" : "0",
      "latitude" : "24.23737",
      "inDis" : "50",
      "routeId" : "238",
      "seqNo" : "47"
   },
   {
      "GoBack" : "1",
      "longitude" : "120.55931",
      "outDis" : "50",
      "Id" : "4815",
      "oid" : "15238",
      "districtId" : "1",
      "nameZh" : "沙鹿火車站",
      "pgp" : "0",
      "terminal" : "0",
      "latitude" : "24.23602",
      "inDis" : "50",
      "routeId" : "238",
      "seqNo" : "48"
   },
   {
      "GoBack" : "1",
      "longitude" : "120.55882",
      "outDis" : "50",
      "Id" : "4816",
      "oid" : "313222697",
      "districtId" : "1",
      "nameZh" : "沙鹿光田醫院",
      "pgp" : "0",
      "terminal" : "0",
      "latitude" : "24.23492",
      "inDis" : "50",
      "routeId" : "238",
      "seqNo" : "49"
   },
   {
      "GoBack" : "1",
      "longitude" : "120.5624",
      "outDis" : "50",
      "Id" : "5795",
      "oid" : "15241",
      "districtId" : "1",
      "nameZh" : "沙鹿國中(光華路)",
      "pgp" : "0",
      "terminal" : "0",
      "latitude" : "24.23362",
      "inDis" : "50",
      "routeId" : "238",
      "seqNo" : "50"
   },
   {
      "GoBack" : "1",
      "longitude" : "120.56297",
      "outDis" : "50",
      "Id" : "2335",
      "oid" : "5847",
      "districtId" : "1",
      "nameZh" : "居仁里",
      "pgp" : "0",
      "terminal" : "0",
      "latitude" : "24.24034",
      "inDis" : "50",
      "routeId" : "238",
      "seqNo" : "51"
   },
   {
      "GoBack" : "1",
      "longitude" : "120.5612",
      "outDis" : "50",
      "Id" : "5388",
      "oid" : "312690453",
      "districtId" : "1",
      "nameZh" : "臺灣大道中山路口",
      "pgp" : "0",
      "terminal" : "0",
      "latitude" : "24.24064",
      "inDis" : "50",
      "routeId" : "238",
      "seqNo" : "52"
   },
   {
      "GoBack" : "1",
      "longitude" : "120.55633",
      "outDis" : "50",
      "Id" : "1482",
      "oid" : "5340",
      "districtId" : "1",
      "nameZh" : "中港國小",
      "pgp" : "0",
      "terminal" : "0",
      "latitude" : "24.24274",
      "inDis" : "50",
      "routeId" : "238",
      "seqNo" : "53"
   },
   {
      "GoBack" : "1",
      "longitude" : "120.54909",
      "outDis" : "50",
      "Id" : "1088",
      "oid" : "5084",
      "districtId" : "1",
      "nameZh" : "三條圳",
      "pgp" : "0",
      "terminal" : "0",
      "latitude" : "24.24552",
      "inDis" : "50",
      "routeId" : "238",
      "seqNo" : "54"
   },
   {
      "GoBack" : "1",
      "longitude" : "120.54653",
      "outDis" : "50",
      "Id" : "4822",
      "oid" : "5876",
      "districtId" : "1",
      "nameZh" : "東大庄",
      "pgp" : "0",
      "terminal" : "0",
      "latitude" : "24.24643",
      "inDis" : "50",
      "routeId" : "238",
      "seqNo" : "55"
   },
   {
      "GoBack" : "1",
      "longitude" : "120.54319",
      "outDis" : "50",
      "Id" : "4041",
      "oid" : "17393",
      "districtId" : "1",
      "nameZh" : "童綜合醫院(梧棲院區)",
      "pgp" : "0",
      "terminal" : "0",
      "latitude" : "24.24757",
      "inDis" : "50",
      "routeId" : "238",
      "seqNo" : "56"
   },
   {
      "GoBack" : "1",
      "longitude" : "120.54117",
      "outDis" : "50",
      "Id" : "4824",
      "oid" : "14527",
      "districtId" : "1",
      "nameZh" : "邱厝庄",
      "pgp" : "0",
      "terminal" : "0",
      "latitude" : "24.24818",
      "inDis" : "50",
      "routeId" : "238",
      "seqNo" : "57"
   },
   {
      "GoBack" : "1",
      "longitude" : "120.53915",
      "outDis" : "50",
      "Id" : "1334",
      "oid" : "319559967",
      "districtId" : "1",
      "nameZh" : "大庄",
      "pgp" : "0",
      "terminal" : "0",
      "latitude" : "24.24887",
      "inDis" : "50",
      "routeId" : "238",
      "seqNo" : "58"
   },
   {
      "GoBack" : "1",
      "longitude" : "120.53423",
      "outDis" : "50",
      "Id" : "3250",
      "oid" : "6350",
      "districtId" : "1",
      "nameZh" : "臺灣大道港埠路口",
      "pgp" : "0",
      "terminal" : "0",
      "latitude" : "24.25087",
      "inDis" : "50",
      "routeId" : "238",
      "seqNo" : "59"
   },
   {
      "GoBack" : "1",
      "longitude" : "120.53036",
      "outDis" : "50",
      "Id" : "2999",
      "oid" : "6211",
      "districtId" : "1",
      "nameZh" : "梧棲國小",
      "pgp" : "0",
      "terminal" : "0",
      "latitude" : "24.25234",
      "inDis" : "50",
      "routeId" : "238",
      "seqNo" : "60"
   },
   {
      "GoBack" : "1",
      "longitude" : "120.52869",
      "outDis" : "50",
      "Id" : "2107",
      "oid" : "5718",
      "districtId" : "1",
      "nameZh" : "安仁里",
      "pgp" : "0",
      "terminal" : "0",
      "latitude" : "24.25412",
      "inDis" : "50",
      "routeId" : "238",
      "seqNo" : "61"
   },
   {
      "GoBack" : "1",
      "longitude" : "120.5291",
      "outDis" : "50",
      "Id" : "2997",
      "oid" : "6207",
      "districtId" : "1",
      "nameZh" : "梧棲(梧棲路)",
      "pgp" : "0",
      "terminal" : "0",
      "latitude" : "24.25525",
      "inDis" : "50",
      "routeId" : "238",
      "seqNo" : "62"
   },
   {
      "GoBack" : "1",
      "longitude" : "120.52986",
      "outDis" : "50",
      "Id" : "5057",
      "oid" : "310614304",
      "districtId" : "1",
      "nameZh" : "梧棲郵局",
      "pgp" : "0",
      "terminal" : "0",
      "latitude" : "24.25757",
      "inDis" : "50",
      "routeId" : "238",
      "seqNo" : "63"
   },
   {
      "GoBack" : "1",
      "longitude" : "120.53213",
      "outDis" : "50",
      "Id" : "4668",
      "oid" : "13518",
      "districtId" : "1",
      "nameZh" : "頂寮里",
      "pgp" : "0",
      "terminal" : "0",
      "latitude" : "24.26035",
      "inDis" : "50",
      "routeId" : "238",
      "seqNo" : "64"
   },
   {
      "GoBack" : "1",
      "longitude" : "120.53485",
      "outDis" : "50",
      "Id" : "4840",
      "oid" : "310614307",
      "districtId" : "1",
      "nameZh" : "國都飯店",
      "pgp" : "0",
      "terminal" : "0",
      "latitude" : "24.25942",
      "inDis" : "50",
      "routeId" : "238",
      "seqNo" : "65"
   },
   {
      "GoBack" : "1",
      "longitude" : "120.53645",
      "outDis" : "50",
      "Id" : "5065",
      "oid" : "309863815",
      "districtId" : "1",
      "nameZh" : "臺銀中港分行",
      "pgp" : "0",
      "terminal" : "0",
      "latitude" : "24.25985",
      "inDis" : "50",
      "routeId" : "238",
      "seqNo" : "66"
   },
   {
      "GoBack" : "1",
      "longitude" : "120.53737",
      "outDis" : "50",
      "Id" : "5064",
      "oid" : "309863814",
      "districtId" : "1",
      "nameZh" : "臺中港郵局",
      "pgp" : "0",
      "terminal" : "0",
      "latitude" : "24.26212",
      "inDis" : "50",
      "routeId" : "238",
      "seqNo" : "67"
   },
   {
      "GoBack" : "2",
      "longitude" : "120.53737",
      "outDis" : "50",
      "Id" : "5064",
      "oid" : "309863814",
      "districtId" : "1",
      "nameZh" : "臺中港郵局",
      "pgp" : "0",
      "terminal" : "0",
      "latitude" : "24.26212",
      "inDis" : "50",
      "routeId" : "238",
      "seqNo" : "1"
   },
   {
      "GoBack" : "2",
      "longitude" : "120.53645",
      "outDis" : "50",
      "Id" : "5065",
      "oid" : "309863815",
      "districtId" : "1",
      "nameZh" : "臺銀中港分行",
      "pgp" : "0",
      "terminal" : "0",
      "latitude" : "24.25985",
      "inDis" : "50",
      "routeId" : "238",
      "seqNo" : "2"
   },
   {
      "GoBack" : "2",
      "longitude" : "120.53485",
      "outDis" : "50",
      "Id" : "4840",
      "oid" : "310614307",
      "districtId" : "1",
      "nameZh" : "國都飯店",
      "pgp" : "0",
      "terminal" : "0",
      "latitude" : "24.25942",
      "inDis" : "50",
      "routeId" : "238",
      "seqNo" : "3"
   },
   {
      "GoBack" : "2",
      "longitude" : "120.53213",
      "outDis" : "50",
      "Id" : "4668",
      "oid" : "13518",
      "districtId" : "1",
      "nameZh" : "頂寮里",
      "pgp" : "0",
      "terminal" : "0",
      "latitude" : "24.26035",
      "inDis" : "50",
      "routeId" : "238",
      "seqNo" : "4"
   },
   {
      "GoBack" : "2",
      "longitude" : "120.52986",
      "outDis" : "50",
      "Id" : "5057",
      "oid" : "310614304",
      "districtId" : "1",
      "nameZh" : "梧棲郵局",
      "pgp" : "0",
      "terminal" : "0",
      "latitude" : "24.25757",
      "inDis" : "50",
      "routeId" : "238",
      "seqNo" : "5"
   },
   {
      "GoBack" : "2",
      "longitude" : "120.5291",
      "outDis" : "50",
      "Id" : "2997",
      "oid" : "6207",
      "districtId" : "1",
      "nameZh" : "梧棲(梧棲路)",
      "pgp" : "0",
      "terminal" : "0",
      "latitude" : "24.25525",
      "inDis" : "50",
      "routeId" : "238",
      "seqNo" : "6"
   },
   {
      "GoBack" : "2",
      "longitude" : "120.52869",
      "outDis" : "50",
      "Id" : "2107",
      "oid" : "5718",
      "districtId" : "1",
      "nameZh" : "安仁里",
      "pgp" : "0",
      "terminal" : "0",
      "latitude" : "24.25412",
      "inDis" : "50",
      "routeId" : "238",
      "seqNo" : "7"
   },
   {
      "GoBack" : "2",
      "longitude" : "120.53052",
      "outDis" : "50",
      "Id" : "2999",
      "oid" : "6212",
      "districtId" : "1",
      "nameZh" : "梧棲國小",
      "pgp" : "0",
      "terminal" : "0",
      "latitude" : "24.25197",
      "inDis" : "50",
      "routeId" : "238",
      "seqNo" : "8"
   },
   {
      "GoBack" : "2",
      "longitude" : "120.53423",
      "outDis" : "50",
      "Id" : "3250",
      "oid" : "6350",
      "districtId" : "1",
      "nameZh" : "臺灣大道港埠路口",
      "pgp" : "0",
      "terminal" : "0",
      "latitude" : "24.25087",
      "inDis" : "50",
      "routeId" : "238",
      "seqNo" : "9"
   },
   {
      "GoBack" : "2",
      "longitude" : "120.53911",
      "outDis" : "50",
      "Id" : "1334",
      "oid" : "319559968",
      "districtId" : "1",
      "nameZh" : "大庄",
      "pgp" : "0",
      "terminal" : "0",
      "latitude" : "24.24891",
      "inDis" : "50",
      "routeId" : "238",
      "seqNo" : "10"
   },
   {
      "GoBack" : "2",
      "longitude" : "120.54045",
      "outDis" : "50",
      "Id" : "2521",
      "oid" : "5956",
      "districtId" : "1",
      "nameZh" : "邱厝莊",
      "pgp" : "0",
      "terminal" : "0",
      "latitude" : "24.24867",
      "inDis" : "50",
      "routeId" : "238",
      "seqNo" : "11"
   },
   {
      "GoBack" : "2",
      "longitude" : "120.54319",
      "outDis" : "50",
      "Id" : "4041",
      "oid" : "17393",
      "districtId" : "1",
      "nameZh" : "童綜合醫院(梧棲院區)",
      "pgp" : "0",
      "terminal" : "0",
      "latitude" : "24.24757",
      "inDis" : "50",
      "routeId" : "238",
      "seqNo" : "12"
   },
   {
      "GoBack" : "2",
      "longitude" : "120.54653",
      "outDis" : "50",
      "Id" : "4822",
      "oid" : "5876",
      "districtId" : "1",
      "nameZh" : "東大庄",
      "pgp" : "0",
      "terminal" : "0",
      "latitude" : "24.24643",
      "inDis" : "50",
      "routeId" : "238",
      "seqNo" : "13"
   },
   {
      "GoBack" : "2",
      "longitude" : "120.54909",
      "outDis" : "50",
      "Id" : "1088",
      "oid" : "5084",
      "districtId" : "1",
      "nameZh" : "三條圳",
      "pgp" : "0",
      "terminal" : "0",
      "latitude" : "24.24552",
      "inDis" : "50",
      "routeId" : "238",
      "seqNo" : "14"
   },
   {
      "GoBack" : "2",
      "longitude" : "120.55633",
      "outDis" : "50",
      "Id" : "1482",
      "oid" : "5340",
      "districtId" : "1",
      "nameZh" : "中港國小",
      "pgp" : "0",
      "terminal" : "0",
      "latitude" : "24.24274",
      "inDis" : "50",
      "routeId" : "238",
      "seqNo" : "15"
   },
   {
      "GoBack" : "2",
      "longitude" : "120.5612",
      "outDis" : "50",
      "Id" : "5388",
      "oid" : "312690453",
      "districtId" : "1",
      "nameZh" : "臺灣大道中山路口",
      "pgp" : "0",
      "terminal" : "0",
      "latitude" : "24.24064",
      "inDis" : "50",
      "routeId" : "238",
      "seqNo" : "16"
   },
   {
      "GoBack" : "2",
      "longitude" : "120.56297",
      "outDis" : "50",
      "Id" : "2335",
      "oid" : "5847",
      "districtId" : "1",
      "nameZh" : "居仁里",
      "pgp" : "0",
      "terminal" : "0",
      "latitude" : "24.24034",
      "inDis" : "50",
      "routeId" : "238",
      "seqNo" : "17"
   },
   {
      "GoBack" : "2",
      "longitude" : "120.5624",
      "outDis" : "50",
      "Id" : "5795",
      "oid" : "15241",
      "districtId" : "1",
      "nameZh" : "沙鹿國中(光華路)",
      "pgp" : "0",
      "terminal" : "0",
      "latitude" : "24.23362",
      "inDis" : "50",
      "routeId" : "238",
      "seqNo" : "18"
   },
   {
      "GoBack" : "2",
      "longitude" : "120.55882",
      "outDis" : "50",
      "Id" : "4816",
      "oid" : "313222697",
      "districtId" : "1",
      "nameZh" : "沙鹿光田醫院",
      "pgp" : "0",
      "terminal" : "0",
      "latitude" : "24.23492",
      "inDis" : "50",
      "routeId" : "238",
      "seqNo" : "19"
   },
   {
      "GoBack" : "2",
      "longitude" : "120.55931",
      "outDis" : "50",
      "Id" : "4815",
      "oid" : "15238",
      "districtId" : "1",
      "nameZh" : "沙鹿火車站",
      "pgp" : "0",
      "terminal" : "0",
      "latitude" : "24.23602",
      "inDis" : "50",
      "routeId" : "238",
      "seqNo" : "20"
   },
   {
      "GoBack" : "2",
      "longitude" : "120.55967",
      "outDis" : "50",
      "Id" : "4681",
      "oid" : "14045",
      "districtId" : "1",
      "nameZh" : "沙鹿市場",
      "pgp" : "0",
      "terminal" : "0",
      "latitude" : "24.23737",
      "inDis" : "50",
      "routeId" : "238",
      "seqNo" : "21"
   },
   {
      "GoBack" : "2",
      "longitude" : "120.56252",
      "outDis" : "50",
      "Id" : "2682",
      "oid" : "6041",
      "districtId" : "1",
      "nameZh" : "洛泉里",
      "pgp" : "0",
      "terminal" : "0",
      "latitude" : "24.2376",
      "inDis" : "50",
      "routeId" : "238",
      "seqNo" : "22"
   },
   {
      "GoBack" : "2",
      "longitude" : "120.56494",
      "outDis" : "50",
      "Id" : "4390",
      "oid" : "17454",
      "districtId" : "1",
      "nameZh" : "沙鹿高工(中山路)",
      "pgp" : "0",
      "terminal" : "0",
      "latitude" : "24.23722",
      "inDis" : "50",
      "routeId" : "238",
      "seqNo" : "23"
   },
   {
      "GoBack" : "2",
      "longitude" : "120.56698",
      "outDis" : "50",
      "Id" : "5222",
      "oid" : "310787751",
      "districtId" : "1",
      "nameZh" : "中山鎮政路口",
      "pgp" : "0",
      "terminal" : "0",
      "latitude" : "24.23701",
      "inDis" : "50",
      "routeId" : "238",
      "seqNo" : "24"
   },
   {
      "GoBack" : "2",
      "longitude" : "120.56918",
      "outDis" : "50",
      "Id" : "5221",
      "oid" : "310787749",
      "districtId" : "1",
      "nameZh" : "中山臺灣大道口",
      "pgp" : "0",
      "terminal" : "0",
      "latitude" : "24.2371",
      "inDis" : "50",
      "routeId" : "238",
      "seqNo" : "25"
   },
   {
      "GoBack" : "2",
      "longitude" : "120.57118",
      "outDis" : "100",
      "Id" : "3035",
      "oid" : "6238",
      "districtId" : "1",
      "nameZh" : "犁份",
      "pgp" : "0",
      "terminal" : "0",
      "latitude" : "24.24204",
      "inDis" : "50",
      "routeId" : "238",
      "seqNo" : "26"
   },
   {
      "GoBack" : "2",
      "longitude" : "120.59626",
      "outDis" : "50",
      "Id" : "2202",
      "oid" : "5767",
      "districtId" : "1",
      "nameZh" : "西勢寮",
      "pgp" : "0",
      "terminal" : "0",
      "latitude" : "24.25027",
      "inDis" : "50",
      "routeId" : "238",
      "seqNo" : "27"
   },
   {
      "GoBack" : "2",
      "longitude" : "120.5984",
      "outDis" : "50",
      "Id" : "4982",
      "oid" : "306167896",
      "districtId" : "1",
      "nameZh" : "漢翔複材中心",
      "pgp" : "0",
      "terminal" : "0",
      "latitude" : "24.25234",
      "inDis" : "50",
      "routeId" : "238",
      "seqNo" : "28"
   },
   {
      "GoBack" : "2",
      "longitude" : "120.59899",
      "outDis" : "50",
      "Id" : "0135",
      "oid" : "312174380",
      "districtId" : "1",
      "nameZh" : "臺中航空站",
      "pgp" : "0",
      "terminal" : "0",
      "latitude" : "24.25348",
      "inDis" : "50",
      "routeId" : "238",
      "seqNo" : "29"
   },
   {
      "GoBack" : "2",
      "longitude" : "120.59881",
      "outDis" : "50",
      "Id" : "4713",
      "oid" : "310614301",
      "districtId" : "1",
      "nameZh" : "公明國中",
      "pgp" : "0",
      "terminal" : "0",
      "latitude" : "24.2501",
      "inDis" : "50",
      "routeId" : "238",
      "seqNo" : "30"
   },
   {
      "GoBack" : "2",
      "longitude" : "120.6018",
      "outDis" : "50",
      "Id" : "1556",
      "oid" : "0032883D9F1A4E049568D5607D04A15E",
      "districtId" : "1",
      "nameZh" : "中清仁愛巷口",
      "pgp" : "0",
      "terminal" : "0",
      "latitude" : "24.24946",
      "inDis" : "50",
      "routeId" : "238",
      "seqNo" : "31"
   },
   {
      "GoBack" : "2",
      "longitude" : "120.60567",
      "outDis" : "50",
      "Id" : "3738",
      "oid" : "5D3D303824DE44588FF28F594C522805",
      "districtId" : "1",
      "nameZh" : "樂群二村",
      "pgp" : "0",
      "terminal" : "0",
      "latitude" : "24.24772",
      "inDis" : "50",
      "routeId" : "238",
      "seqNo" : "32"
   },
   {
      "GoBack" : "2",
      "longitude" : "120.60824",
      "outDis" : "50",
      "Id" : "1604",
      "oid" : "3E8D6863D7C6417AB4B68003C95F12DE",
      "districtId" : "1",
      "nameZh" : "公明里",
      "pgp" : "0",
      "terminal" : "0",
      "latitude" : "24.24655",
      "inDis" : "50",
      "routeId" : "238",
      "seqNo" : "33"
   },
   {
      "GoBack" : "2",
      "longitude" : "120.61048",
      "outDis" : "50",
      "Id" : "0169",
      "oid" : "318241812",
      "districtId" : "1",
      "nameZh" : "清泉派出所",
      "pgp" : "0",
      "terminal" : "0",
      "latitude" : "24.24561",
      "inDis" : "50",
      "routeId" : "238",
      "seqNo" : "34"
   },
   {
      "GoBack" : "2",
      "longitude" : "120.61466",
      "outDis" : "50",
      "Id" : "3023",
      "oid" : "6230",
      "districtId" : "1",
      "nameZh" : "清泉里",
      "pgp" : "0",
      "terminal" : "0",
      "latitude" : "24.24409",
      "inDis" : "50",
      "routeId" : "238",
      "seqNo" : "35"
   },
   {
      "GoBack" : "2",
      "longitude" : "120.6204",
      "outDis" : "50",
      "Id" : "4669",
      "oid" : "7425",
      "districtId" : "1",
      "nameZh" : "中清信義路口",
      "pgp" : "0",
      "terminal" : "0",
      "latitude" : "24.2425",
      "inDis" : "50",
      "routeId" : "238",
      "seqNo" : "36"
   },
   {
      "GoBack" : "2",
      "longitude" : "120.62673",
      "outDis" : "50",
      "Id" : "3663",
      "oid" : "00F44A45672A4A16994A287A6E61763B",
      "districtId" : "1",
      "nameZh" : "福樂新城",
      "pgp" : "0",
      "terminal" : "0",
      "latitude" : "24.24248",
      "inDis" : "50",
      "routeId" : "238",
      "seqNo" : "37"
   },
   {
      "GoBack" : "2",
      "longitude" : "120.63102",
      "outDis" : "50",
      "Id" : "4188",
      "oid" : "12263",
      "districtId" : "1",
      "nameZh" : "埔仔墘",
      "pgp" : "0",
      "terminal" : "0",
      "latitude" : "24.24095",
      "inDis" : "50",
      "routeId" : "238",
      "seqNo" : "38"
   },
   {
      "GoBack" : "2",
      "longitude" : "120.63456",
      "outDis" : "50",
      "Id" : "5242",
      "oid" : "310787793",
      "districtId" : "1",
      "nameZh" : "和平清陽一路口",
      "pgp" : "0",
      "terminal" : "0",
      "latitude" : "24.24309",
      "inDis" : "50",
      "routeId" : "238",
      "seqNo" : "39"
   },
   {
      "GoBack" : "2",
      "longitude" : "120.63801",
      "outDis" : "50",
      "Id" : "1118",
      "oid" : "5104",
      "districtId" : "1",
      "nameZh" : "下山皮",
      "pgp" : "0",
      "terminal" : "0",
      "latitude" : "24.24622",
      "inDis" : "50",
      "routeId" : "238",
      "seqNo" : "40"
   },
   {
      "GoBack" : "2",
      "longitude" : "120.64411",
      "outDis" : "50",
      "Id" : "2282",
      "oid" : "5810",
      "districtId" : "1",
      "nameZh" : "車站前",
      "pgp" : "0",
      "terminal" : "0",
      "latitude" : "24.25339",
      "inDis" : "50",
      "routeId" : "238",
      "seqNo" : "41"
   },
   {
      "GoBack" : "2",
      "longitude" : "120.64935",
      "outDis" : "50",
      "Id" : "1392",
      "oid" : "5286",
      "districtId" : "1",
      "nameZh" : "山皮",
      "pgp" : "0",
      "terminal" : "0",
      "latitude" : "24.25824",
      "inDis" : "50",
      "routeId" : "238",
      "seqNo" : "42"
   },
   {
      "GoBack" : "2",
      "longitude" : "120.6531",
      "outDis" : "50",
      "Id" : "3654",
      "oid" : "6551",
      "districtId" : "1",
      "nameZh" : "福連公司",
      "pgp" : "0",
      "terminal" : "0",
      "latitude" : "24.25852",
      "inDis" : "50",
      "routeId" : "238",
      "seqNo" : "43"
   },
   {
      "GoBack" : "2",
      "longitude" : "120.65605",
      "outDis" : "50",
      "Id" : "4445",
      "oid" : "13808",
      "districtId" : "1",
      "nameZh" : "中正中山路口",
      "pgp" : "0",
      "terminal" : "0",
      "latitude" : "24.25842",
      "inDis" : "50",
      "routeId" : "238",
      "seqNo" : "44"
   },
   {
      "GoBack" : "2",
      "longitude" : "120.6593",
      "outDis" : "50",
      "Id" : "2835",
      "oid" : "6139",
      "districtId" : "1",
      "nameZh" : "神岡",
      "pgp" : "0",
      "terminal" : "0",
      "latitude" : "24.25703",
      "inDis" : "50",
      "routeId" : "238",
      "seqNo" : "45"
   },
   {
      "GoBack" : "2",
      "longitude" : "120.66141",
      "outDis" : "50",
      "Id" : "2837",
      "oid" : "6141",
      "districtId" : "1",
      "nameZh" : "神岡區公所",
      "pgp" : "0",
      "terminal" : "0",
      "latitude" : "24.25771",
      "inDis" : "50",
      "routeId" : "238",
      "seqNo" : "46"
   },
   {
      "GoBack" : "2",
      "longitude" : "120.66294",
      "outDis" : "50",
      "Id" : "3066",
      "oid" : "6265",
      "districtId" : "1",
      "nameZh" : "庄頭",
      "pgp" : "0",
      "terminal" : "0",
      "latitude" : "24.25812",
      "inDis" : "50",
      "routeId" : "238",
      "seqNo" : "47"
   },
   {
      "GoBack" : "2",
      "longitude" : "120.66832",
      "outDis" : "50",
      "Id" : "1783",
      "oid" : "5526",
      "districtId" : "1",
      "nameZh" : "北庄",
      "pgp" : "0",
      "terminal" : "0",
      "latitude" : "24.25732",
      "inDis" : "50",
      "routeId" : "238",
      "seqNo" : "48"
   },
   {
      "GoBack" : "2",
      "longitude" : "120.67224",
      "outDis" : "50",
      "Id" : "3460",
      "oid" : "6474",
      "districtId" : "1",
      "nameZh" : "中山溝心路口",
      "pgp" : "0",
      "terminal" : "0",
      "latitude" : "24.25521",
      "inDis" : "50",
      "routeId" : "238",
      "seqNo" : "49"
   },
   {
      "GoBack" : "2",
      "longitude" : "120.67368",
      "outDis" : "50",
      "Id" : "3556",
      "oid" : "13823",
      "districtId" : "1",
      "nameZh" : "電信局",
      "pgp" : "0",
      "terminal" : "0",
      "latitude" : "24.25317",
      "inDis" : "50",
      "routeId" : "238",
      "seqNo" : "50"
   },
   {
      "GoBack" : "2",
      "longitude" : "120.67622",
      "outDis" : "50",
      "Id" : "3655",
      "oid" : "6552",
      "districtId" : "1",
      "nameZh" : "福華公司",
      "pgp" : "0",
      "terminal" : "0",
      "latitude" : "24.25099",
      "inDis" : "50",
      "routeId" : "238",
      "seqNo" : "51"
   },
   {
      "GoBack" : "2",
      "longitude" : "120.67946",
      "outDis" : "50",
      "Id" : "3656",
      "oid" : "6553",
      "districtId" : "1",
      "nameZh" : "福隆新村",
      "pgp" : "0",
      "terminal" : "0",
      "latitude" : "24.24901",
      "inDis" : "50",
      "routeId" : "238",
      "seqNo" : "52"
   },
   {
      "GoBack" : "2",
      "longitude" : "120.68146",
      "outDis" : "50",
      "Id" : "2836",
      "oid" : "6140",
      "districtId" : "1",
      "nameZh" : "神岡國中",
      "pgp" : "0",
      "terminal" : "0",
      "latitude" : "24.24731",
      "inDis" : "50",
      "routeId" : "238",
      "seqNo" : "53"
   },
   {
      "GoBack" : "2",
      "longitude" : "120.68563",
      "outDis" : "50",
      "Id" : "2486",
      "oid" : "5941",
      "districtId" : "1",
      "nameZh" : "社口",
      "pgp" : "0",
      "terminal" : "0",
      "latitude" : "24.24668",
      "inDis" : "50",
      "routeId" : "238",
      "seqNo" : "54"
   },
   {
      "GoBack" : "2",
      "longitude" : "120.6896",
      "outDis" : "50",
      "Id" : "2700",
      "oid" : "6056",
      "districtId" : "1",
      "nameZh" : "紅瓦厝口",
      "pgp" : "0",
      "terminal" : "0",
      "latitude" : "24.2476",
      "inDis" : "50",
      "routeId" : "238",
      "seqNo" : "55"
   },
   {
      "GoBack" : "2",
      "longitude" : "120.69323",
      "outDis" : "50",
      "Id" : "2993",
      "oid" : "6203",
      "districtId" : "1",
      "nameZh" : "望寮",
      "pgp" : "0",
      "terminal" : "0",
      "latitude" : "24.24841",
      "inDis" : "50",
      "routeId" : "238",
      "seqNo" : "56"
   },
   {
      "GoBack" : "2",
      "longitude" : "120.69799",
      "outDis" : "50",
      "Id" : "5438",
      "oid" : "5237",
      "districtId" : "1",
      "nameZh" : "岸裡國小",
      "pgp" : "0",
      "terminal" : "0",
      "latitude" : "24.2487",
      "inDis" : "50",
      "routeId" : "238",
      "seqNo" : "57"
   },
   {
      "GoBack" : "2",
      "longitude" : "120.70003",
      "outDis" : "50",
      "Id" : "4498",
      "oid" : "13826",
      "districtId" : "1",
      "nameZh" : "臺豐社區",
      "pgp" : "0",
      "terminal" : "0",
      "latitude" : "24.249",
      "inDis" : "50",
      "routeId" : "238",
      "seqNo" : "58"
   },
   {
      "GoBack" : "2",
      "longitude" : "120.70229",
      "outDis" : "50",
      "Id" : "2489",
      "oid" : "5943",
      "districtId" : "1",
      "nameZh" : "社皮鐵路巷",
      "pgp" : "0",
      "terminal" : "0",
      "latitude" : "24.24951",
      "inDis" : "50",
      "routeId" : "238",
      "seqNo" : "59"
   },
   {
      "GoBack" : "2",
      "longitude" : "120.70434",
      "outDis" : "50",
      "Id" : "2349",
      "oid" : "5856",
      "districtId" : "1",
      "nameZh" : "忠勤新村",
      "pgp" : "0",
      "terminal" : "0",
      "latitude" : "24.24962",
      "inDis" : "50",
      "routeId" : "238",
      "seqNo" : "60"
   },
   {
      "GoBack" : "2",
      "longitude" : "120.70672",
      "outDis" : "50",
      "Id" : "1065",
      "oid" : "5072",
      "districtId" : "1",
      "nameZh" : "三光新村",
      "pgp" : "0",
      "terminal" : "0",
      "latitude" : "24.24999",
      "inDis" : "50",
      "routeId" : "238",
      "seqNo" : "61"
   },
   {
      "GoBack" : "2",
      "longitude" : "120.70963",
      "outDis" : "50",
      "Id" : "4448",
      "oid" : "6688",
      "districtId" : "1",
      "nameZh" : "中正圓環西路口",
      "pgp" : "0",
      "terminal" : "0",
      "latitude" : "24.25039",
      "inDis" : "50",
      "routeId" : "238",
      "seqNo" : "62"
   },
   {
      "GoBack" : "2",
      "longitude" : "120.712",
      "outDis" : "50",
      "Id" : "3357",
      "oid" : "6406",
      "districtId" : "1",
      "nameZh" : "慈龍寺",
      "pgp" : "0",
      "terminal" : "0",
      "latitude" : "24.25079",
      "inDis" : "50",
      "routeId" : "238",
      "seqNo" : "63"
   },
   {
      "GoBack" : "2",
      "longitude" : "120.71526",
      "outDis" : "50",
      "Id" : "3939",
      "oid" : "6698",
      "districtId" : "1",
      "nameZh" : "豐原郵局",
      "pgp" : "0",
      "terminal" : "0",
      "latitude" : "24.25136",
      "inDis" : "50",
      "routeId" : "238",
      "seqNo" : "64"
   },
   {
      "GoBack" : "2",
      "longitude" : "120.71851",
      "outDis" : "50",
      "Id" : "3343",
      "oid" : "6397",
      "districtId" : "1",
      "nameZh" : "媽祖廟",
      "pgp" : "0",
      "terminal" : "0",
      "latitude" : "24.25157",
      "inDis" : "50",
      "routeId" : "238",
      "seqNo" : "65"
   },
   {
      "GoBack" : "2",
      "longitude" : "120.71986",
      "outDis" : "50",
      "Id" : "2309",
      "oid" : "5835",
      "districtId" : "1",
      "nameZh" : "和平街",
      "pgp" : "0",
      "terminal" : "0",
      "latitude" : "24.25233",
      "inDis" : "50",
      "routeId" : "238",
      "seqNo" : "66"
   },
   {
      "GoBack" : "2",
      "longitude" : "120.72154",
      "outDis" : "70",
      "Id" : "3935",
      "oid" : "6693",
      "districtId" : "1",
      "nameZh" : "豐原",
      "pgp" : "0",
      "terminal" : "0",
      "latitude" : "24.2538",
      "inDis" : "70",
      "routeId" : "238",
      "seqNo" : "67"
   }
]
