[
   {
      "GoBack" : "1",
      "longitude" : "120.65828",
      "outDis" : "50",
      "Id" : "0136",
      "oid" : "13000",
      "districtId" : "1",
      "nameZh" : "下港尾",
      "pgp" : "0",
      "terminal" : "0",
      "latitude" : "24.19519",
      "inDis" : "50",
      "routeId" : "54",
      "seqNo" : "1"
   },
   {
      "GoBack" : "1",
      "longitude" : "120.65938",
      "outDis" : "50",
      "Id" : "2069",
      "oid" : "13001",
      "districtId" : "1",
      "nameZh" : "中清同榮路口",
      "pgp" : "0",
      "terminal" : "0",
      "latitude" : "24.19357",
      "inDis" : "50",
      "routeId" : "54",
      "seqNo" : "2"
   },
   {
      "GoBack" : "1",
      "longitude" : "120.6604",
      "outDis" : "50",
      "Id" : "3293",
      "oid" : "13002",
      "districtId" : "1",
      "nameZh" : "貿易三村",
      "pgp" : "0",
      "terminal" : "0",
      "latitude" : "24.19186",
      "inDis" : "50",
      "routeId" : "54",
      "seqNo" : "3"
   },
   {
      "GoBack" : "1",
      "longitude" : "120.66144",
      "outDis" : "50",
      "Id" : "0708",
      "oid" : "13003",
      "districtId" : "1",
      "nameZh" : "后庄國宅",
      "pgp" : "0",
      "terminal" : "0",
      "latitude" : "24.19024",
      "inDis" : "50",
      "routeId" : "54",
      "seqNo" : "4"
   },
   {
      "GoBack" : "1",
      "longitude" : "120.66264",
      "outDis" : "50",
      "Id" : "0989",
      "oid" : "13004",
      "districtId" : "1",
      "nameZh" : "中清后庄路口",
      "pgp" : "0",
      "terminal" : "0",
      "latitude" : "24.18803",
      "inDis" : "50",
      "routeId" : "54",
      "seqNo" : "5"
   },
   {
      "GoBack" : "1",
      "longitude" : "120.66333",
      "outDis" : "50",
      "Id" : "2638",
      "oid" : "13005",
      "districtId" : "1",
      "nameZh" : "后庄仔",
      "pgp" : "0",
      "terminal" : "0",
      "latitude" : "24.18675",
      "inDis" : "50",
      "routeId" : "54",
      "seqNo" : "6"
   },
   {
      "GoBack" : "1",
      "longitude" : "120.66466",
      "outDis" : "50",
      "Id" : "0801",
      "oid" : "13006",
      "districtId" : "1",
      "nameZh" : "頂陳平",
      "pgp" : "0",
      "terminal" : "0",
      "latitude" : "24.1846",
      "inDis" : "50",
      "routeId" : "54",
      "seqNo" : "7"
   },
   {
      "GoBack" : "1",
      "longitude" : "120.66619",
      "outDis" : "50",
      "Id" : "0789",
      "oid" : "13007",
      "districtId" : "1",
      "nameZh" : "陳平",
      "pgp" : "0",
      "terminal" : "0",
      "latitude" : "24.18201",
      "inDis" : "50",
      "routeId" : "54",
      "seqNo" : "8"
   },
   {
      "GoBack" : "1",
      "longitude" : "120.6668",
      "outDis" : "50",
      "Id" : "0593",
      "oid" : "13008",
      "districtId" : "1",
      "nameZh" : "全民醫院",
      "pgp" : "0",
      "terminal" : "0",
      "latitude" : "24.1805",
      "inDis" : "50",
      "routeId" : "54",
      "seqNo" : "9"
   },
   {
      "GoBack" : "1",
      "longitude" : "120.66768",
      "outDis" : "50",
      "Id" : "0385",
      "oid" : "13009",
      "districtId" : "1",
      "nameZh" : "大德國中",
      "pgp" : "0",
      "terminal" : "0",
      "latitude" : "24.17953",
      "inDis" : "50",
      "routeId" : "54",
      "seqNo" : "10"
   },
   {
      "GoBack" : "1",
      "longitude" : "120.66916",
      "outDis" : "50",
      "Id" : "5100",
      "oid" : "319227555",
      "districtId" : "1",
      "nameZh" : "水湳市場(中清路)",
      "pgp" : "0",
      "terminal" : "0",
      "latitude" : "24.17756",
      "inDis" : "50",
      "routeId" : "54",
      "seqNo" : "11"
   },
   {
      "GoBack" : "1",
      "longitude" : "120.67008",
      "outDis" : "30",
      "Id" : "0486",
      "oid" : "319227554",
      "districtId" : "1",
      "nameZh" : "水湳",
      "pgp" : "0",
      "terminal" : "0",
      "latitude" : "24.17636",
      "inDis" : "30",
      "routeId" : "54",
      "seqNo" : "12"
   },
   {
      "GoBack" : "1",
      "longitude" : "120.67078",
      "outDis" : "50",
      "Id" : "0334",
      "oid" : "13012",
      "districtId" : "1",
      "nameZh" : "下水湳",
      "pgp" : "0",
      "terminal" : "0",
      "latitude" : "24.17553",
      "inDis" : "50",
      "routeId" : "54",
      "seqNo" : "13"
   },
   {
      "GoBack" : "1",
      "longitude" : "120.66994",
      "outDis" : "50",
      "Id" : "5201",
      "oid" : "310787708",
      "districtId" : "1",
      "nameZh" : "文心中清西一街口",
      "pgp" : "0",
      "terminal" : "0",
      "latitude" : "24.17356",
      "inDis" : "50",
      "routeId" : "54",
      "seqNo" : "14"
   },
   {
      "GoBack" : "1",
      "longitude" : "120.66855",
      "outDis" : "50",
      "Id" : "0228",
      "oid" : "13013",
      "districtId" : "1",
      "nameZh" : "文心陜西路口",
      "pgp" : "0",
      "terminal" : "0",
      "latitude" : "24.17328",
      "inDis" : "50",
      "routeId" : "54",
      "seqNo" : "15"
   },
   {
      "GoBack" : "1",
      "longitude" : "120.66625",
      "outDis" : "50",
      "Id" : "0229",
      "oid" : "13014",
      "districtId" : "1",
      "nameZh" : "臺灣日報",
      "pgp" : "0",
      "terminal" : "0",
      "latitude" : "24.17307",
      "inDis" : "50",
      "routeId" : "54",
      "seqNo" : "16"
   },
   {
      "GoBack" : "1",
      "longitude" : "120.66355",
      "outDis" : "50",
      "Id" : "0230",
      "oid" : "13015",
      "districtId" : "1",
      "nameZh" : "重慶國小",
      "pgp" : "0",
      "terminal" : "0",
      "latitude" : "24.17224",
      "inDis" : "50",
      "routeId" : "54",
      "seqNo" : "17"
   },
   {
      "GoBack" : "1",
      "longitude" : "120.66078",
      "outDis" : "50",
      "Id" : "4332",
      "oid" : "13016",
      "districtId" : "1",
      "nameZh" : "河南長安路口",
      "pgp" : "0",
      "terminal" : "0",
      "latitude" : "24.17273",
      "inDis" : "50",
      "routeId" : "54",
      "seqNo" : "18"
   },
   {
      "GoBack" : "1",
      "longitude" : "120.65978",
      "outDis" : "50",
      "Id" : "4159",
      "oid" : "13017",
      "districtId" : "1",
      "nameZh" : "河南福上巷口",
      "pgp" : "0",
      "terminal" : "0",
      "latitude" : "24.17516",
      "inDis" : "50",
      "routeId" : "54",
      "seqNo" : "19"
   },
   {
      "GoBack" : "1",
      "longitude" : "120.65722",
      "outDis" : "50",
      "Id" : "0233",
      "oid" : "13018",
      "districtId" : "1",
      "nameZh" : "家扶發展學園",
      "pgp" : "0",
      "terminal" : "0",
      "latitude" : "24.17626",
      "inDis" : "50",
      "routeId" : "54",
      "seqNo" : "20"
   },
   {
      "GoBack" : "1",
      "longitude" : "120.6509",
      "outDis" : "50",
      "Id" : "0234",
      "oid" : "13019",
      "districtId" : "1",
      "nameZh" : "河南停車場",
      "pgp" : "0",
      "terminal" : "0",
      "latitude" : "24.17588",
      "inDis" : "50",
      "routeId" : "54",
      "seqNo" : "21"
   },
   {
      "GoBack" : "1",
      "longitude" : "120.64872",
      "outDis" : "50",
      "Id" : "4333",
      "oid" : "13020",
      "districtId" : "1",
      "nameZh" : "河南福星路口",
      "pgp" : "0",
      "terminal" : "0",
      "latitude" : "24.17444",
      "inDis" : "50",
      "routeId" : "54",
      "seqNo" : "22"
   },
   {
      "GoBack" : "1",
      "longitude" : "120.64583",
      "outDis" : "50",
      "Id" : "0112",
      "oid" : "13021",
      "districtId" : "1",
      "nameZh" : "福星停車場",
      "pgp" : "0",
      "terminal" : "0",
      "latitude" : "24.17543",
      "inDis" : "50",
      "routeId" : "54",
      "seqNo" : "23"
   },
   {
      "GoBack" : "1",
      "longitude" : "120.64506",
      "outDis" : "50",
      "Id" : "4586",
      "oid" : "13022",
      "districtId" : "1",
      "nameZh" : "逢甲大學(福星路)",
      "pgp" : "0",
      "terminal" : "0",
      "latitude" : "24.17904",
      "inDis" : "50",
      "routeId" : "54",
      "seqNo" : "24"
   },
   {
      "GoBack" : "1",
      "longitude" : "120.6449",
      "outDis" : "50",
      "Id" : "4334",
      "oid" : "13023",
      "districtId" : "1",
      "nameZh" : "福星西安街口",
      "pgp" : "0",
      "terminal" : "0",
      "latitude" : "24.18144",
      "inDis" : "50",
      "routeId" : "54",
      "seqNo" : "25"
   },
   {
      "GoBack" : "1",
      "longitude" : "120.64472",
      "outDis" : "50",
      "Id" : "5658",
      "oid" : "313222695",
      "districtId" : "1",
      "nameZh" : "漢翔公司(星享道)",
      "pgp" : "0",
      "terminal" : "0",
      "latitude" : "24.18421",
      "inDis" : "50",
      "routeId" : "54",
      "seqNo" : "26"
   },
   {
      "GoBack" : "1",
      "longitude" : "120.64451",
      "outDis" : "50",
      "Id" : "4327",
      "oid" : "13025",
      "districtId" : "1",
      "nameZh" : "僑光科技大學",
      "pgp" : "0",
      "terminal" : "0",
      "latitude" : "24.18662",
      "inDis" : "50",
      "routeId" : "54",
      "seqNo" : "27"
   },
   {
      "GoBack" : "1",
      "longitude" : "120.64035",
      "outDis" : "50",
      "Id" : "2192",
      "oid" : "13026",
      "districtId" : "1",
      "nameZh" : "西苑高中",
      "pgp" : "0",
      "terminal" : "0",
      "latitude" : "24.18632",
      "inDis" : "50",
      "routeId" : "54",
      "seqNo" : "28"
   },
   {
      "GoBack" : "1",
      "longitude" : "120.63813",
      "outDis" : "50",
      "Id" : "2175",
      "oid" : "13027",
      "districtId" : "1",
      "nameZh" : "西屯派出所",
      "pgp" : "0",
      "terminal" : "0",
      "latitude" : "24.18118",
      "inDis" : "50",
      "routeId" : "54",
      "seqNo" : "29"
   },
   {
      "GoBack" : "1",
      "longitude" : "120.63747",
      "outDis" : "50",
      "Id" : "0238",
      "oid" : "13028",
      "districtId" : "1",
      "nameZh" : "西屯郵局",
      "pgp" : "0",
      "terminal" : "0",
      "latitude" : "24.17667",
      "inDis" : "50",
      "routeId" : "54",
      "seqNo" : "30"
   },
   {
      "GoBack" : "1",
      "longitude" : "120.63697",
      "outDis" : "50",
      "Id" : "0013",
      "oid" : "311271352",
      "districtId" : "1",
      "nameZh" : "朝馬(黎明路)",
      "pgp" : "0",
      "terminal" : "0",
      "latitude" : "24.17187",
      "inDis" : "50",
      "routeId" : "54",
      "seqNo" : "31"
   },
   {
      "GoBack" : "1",
      "longitude" : "120.63526",
      "outDis" : "50",
      "Id" : "5158",
      "oid" : "13030",
      "districtId" : "1",
      "nameZh" : "黎明環河路口",
      "pgp" : "0",
      "terminal" : "0",
      "latitude" : "24.1667",
      "inDis" : "50",
      "routeId" : "54",
      "seqNo" : "32"
   },
   {
      "GoBack" : "1",
      "longitude" : "120.63418",
      "outDis" : "50",
      "Id" : "4645",
      "oid" : "13031",
      "districtId" : "1",
      "nameZh" : "西屯區公所",
      "pgp" : "0",
      "terminal" : "0",
      "latitude" : "24.16386",
      "inDis" : "50",
      "routeId" : "54",
      "seqNo" : "33"
   },
   {
      "GoBack" : "1",
      "longitude" : "120.63392",
      "outDis" : "50",
      "Id" : "5748",
      "oid" : "320349543",
      "districtId" : "1",
      "nameZh" : "黎明龍門路口",
      "pgp" : "0",
      "terminal" : "0",
      "latitude" : "24.16294",
      "inDis" : "50",
      "routeId" : "54",
      "seqNo" : "34"
   },
   {
      "GoBack" : "1",
      "longitude" : "120.63372",
      "outDis" : "50",
      "Id" : "5155",
      "oid" : "13032",
      "districtId" : "1",
      "nameZh" : "黎明市政路口",
      "pgp" : "0",
      "terminal" : "0",
      "latitude" : "24.16073",
      "inDis" : "50",
      "routeId" : "54",
      "seqNo" : "35"
   },
   {
      "GoBack" : "1",
      "longitude" : "120.63422",
      "outDis" : "50",
      "Id" : "0056",
      "oid" : "13033",
      "districtId" : "1",
      "nameZh" : "黎明國小",
      "pgp" : "0",
      "terminal" : "0",
      "latitude" : "24.15809",
      "inDis" : "50",
      "routeId" : "54",
      "seqNo" : "36"
   },
   {
      "GoBack" : "1",
      "longitude" : "120.6347",
      "outDis" : "50",
      "Id" : "3892",
      "oid" : "7607",
      "districtId" : "1",
      "nameZh" : "黎明新村(黎明路)",
      "pgp" : "0",
      "terminal" : "0",
      "latitude" : "24.15465",
      "inDis" : "50",
      "routeId" : "54",
      "seqNo" : "37"
   },
   {
      "GoBack" : "1",
      "longitude" : "120.63498",
      "outDis" : "50",
      "Id" : "4160",
      "oid" : "13035",
      "districtId" : "1",
      "nameZh" : "黎明大業路口",
      "pgp" : "0",
      "terminal" : "0",
      "latitude" : "24.15317",
      "inDis" : "50",
      "routeId" : "54",
      "seqNo" : "38"
   },
   {
      "GoBack" : "1",
      "longitude" : "120.63534",
      "outDis" : "50",
      "Id" : "0059",
      "oid" : "13036",
      "districtId" : "1",
      "nameZh" : "黎明公益路口",
      "pgp" : "0",
      "terminal" : "0",
      "latitude" : "24.15102",
      "inDis" : "50",
      "routeId" : "54",
      "seqNo" : "39"
   },
   {
      "GoBack" : "1",
      "longitude" : "120.63579",
      "outDis" : "50",
      "Id" : "0060",
      "oid" : "13037",
      "districtId" : "1",
      "nameZh" : "三厝里",
      "pgp" : "0",
      "terminal" : "0",
      "latitude" : "24.14812",
      "inDis" : "50",
      "routeId" : "54",
      "seqNo" : "40"
   },
   {
      "GoBack" : "1",
      "longitude" : "120.63735",
      "outDis" : "50",
      "Id" : "4245",
      "oid" : "13038",
      "districtId" : "1",
      "nameZh" : "黎明五權西路口",
      "pgp" : "0",
      "terminal" : "0",
      "latitude" : "24.1439",
      "inDis" : "50",
      "routeId" : "54",
      "seqNo" : "41"
   },
   {
      "GoBack" : "1",
      "longitude" : "120.63846",
      "outDis" : "50",
      "Id" : "5156",
      "oid" : "2695A880F67C4606B4D073B76CB90E75",
      "districtId" : "1",
      "nameZh" : "黎明南屯路口",
      "pgp" : "0",
      "terminal" : "0",
      "latitude" : "24.14044",
      "inDis" : "50",
      "routeId" : "54",
      "seqNo" : "42"
   },
   {
      "GoBack" : "1",
      "longitude" : "120.63709",
      "outDis" : "50",
      "Id" : "0695",
      "oid" : "13040",
      "districtId" : "1",
      "nameZh" : "南屯國小",
      "pgp" : "0",
      "terminal" : "0",
      "latitude" : "24.13688",
      "inDis" : "50",
      "routeId" : "54",
      "seqNo" : "43"
   },
   {
      "GoBack" : "1",
      "longitude" : "120.63656",
      "outDis" : "50",
      "Id" : "4643",
      "oid" : "13041",
      "districtId" : "1",
      "nameZh" : "黎明永春東路口",
      "pgp" : "0",
      "terminal" : "0",
      "latitude" : "24.13534",
      "inDis" : "50",
      "routeId" : "54",
      "seqNo" : "44"
   },
   {
      "GoBack" : "1",
      "longitude" : "120.63561",
      "outDis" : "50",
      "Id" : "0478",
      "oid" : "13042",
      "districtId" : "1",
      "nameZh" : "黎明文心南五路口",
      "pgp" : "0",
      "terminal" : "0",
      "latitude" : "24.13289",
      "inDis" : "50",
      "routeId" : "54",
      "seqNo" : "45"
   },
   {
      "GoBack" : "1",
      "longitude" : "120.63472",
      "outDis" : "50",
      "Id" : "0341",
      "oid" : "13043",
      "districtId" : "1",
      "nameZh" : "下豐樂里",
      "pgp" : "0",
      "terminal" : "0",
      "latitude" : "24.13062",
      "inDis" : "50",
      "routeId" : "54",
      "seqNo" : "46"
   },
   {
      "GoBack" : "1",
      "longitude" : "120.63351",
      "outDis" : "50",
      "Id" : "0953",
      "oid" : "13044",
      "districtId" : "1",
      "nameZh" : "鎮平里",
      "pgp" : "0",
      "terminal" : "0",
      "latitude" : "24.12862",
      "inDis" : "50",
      "routeId" : "54",
      "seqNo" : "47"
   },
   {
      "GoBack" : "1",
      "longitude" : "120.6314",
      "outDis" : "50",
      "Id" : "0955",
      "oid" : "13045",
      "districtId" : "1",
      "nameZh" : "鎮平環中路口",
      "pgp" : "0",
      "terminal" : "0",
      "latitude" : "24.12512",
      "inDis" : "50",
      "routeId" : "54",
      "seqNo" : "48"
   },
   {
      "GoBack" : "1",
      "longitude" : "120.62899",
      "outDis" : "50",
      "Id" : "0954",
      "oid" : "13046",
      "districtId" : "1",
      "nameZh" : "鎮平國小",
      "pgp" : "0",
      "terminal" : "0",
      "latitude" : "24.12115",
      "inDis" : "50",
      "routeId" : "54",
      "seqNo" : "49"
   },
   {
      "GoBack" : "1",
      "longitude" : "120.62779",
      "outDis" : "50",
      "Id" : "0421",
      "oid" : "13047",
      "districtId" : "1",
      "nameZh" : "中和",
      "pgp" : "0",
      "terminal" : "0",
      "latitude" : "24.11837",
      "inDis" : "50",
      "routeId" : "54",
      "seqNo" : "50"
   },
   {
      "GoBack" : "1",
      "longitude" : "120.62673",
      "outDis" : "50",
      "Id" : "0645",
      "oid" : "13048",
      "districtId" : "1",
      "nameZh" : "昌興新村",
      "pgp" : "0",
      "terminal" : "0",
      "latitude" : "24.11592",
      "inDis" : "50",
      "routeId" : "54",
      "seqNo" : "51"
   },
   {
      "GoBack" : "1",
      "longitude" : "120.62619",
      "outDis" : "50",
      "Id" : "0422",
      "oid" : "13049",
      "districtId" : "1",
      "nameZh" : "中和新村",
      "pgp" : "0",
      "terminal" : "0",
      "latitude" : "24.11387",
      "inDis" : "50",
      "routeId" : "54",
      "seqNo" : "52"
   },
   {
      "GoBack" : "1",
      "longitude" : "120.62575",
      "outDis" : "50",
      "Id" : "2819",
      "oid" : "13050",
      "districtId" : "1",
      "nameZh" : "烏日啤酒廠",
      "pgp" : "0",
      "terminal" : "0",
      "latitude" : "24.11095",
      "inDis" : "50",
      "routeId" : "54",
      "seqNo" : "53"
   },
   {
      "GoBack" : "1",
      "longitude" : "120.62481",
      "outDis" : "50",
      "Id" : "4340",
      "oid" : "303166987",
      "districtId" : "1",
      "nameZh" : "烏日區公所",
      "pgp" : "0",
      "terminal" : "0",
      "latitude" : "24.1054",
      "inDis" : "50",
      "routeId" : "54",
      "seqNo" : "54"
   },
   {
      "GoBack" : "1",
      "longitude" : "120.62453",
      "outDis" : "50",
      "Id" : "5277",
      "oid" : "310953048",
      "districtId" : "1",
      "nameZh" : "公園光日路口",
      "pgp" : "0",
      "terminal" : "0",
      "latitude" : "24.10251",
      "inDis" : "50",
      "routeId" : "54",
      "seqNo" : "55"
   },
   {
      "GoBack" : "1",
      "longitude" : "120.62698",
      "outDis" : "50",
      "Id" : "5278",
      "oid" : "310953050",
      "districtId" : "1",
      "nameZh" : "公園五光路口",
      "pgp" : "0",
      "terminal" : "0",
      "latitude" : "24.10192",
      "inDis" : "50",
      "routeId" : "54",
      "seqNo" : "56"
   },
   {
      "GoBack" : "1",
      "longitude" : "120.62807",
      "outDis" : "50",
      "Id" : "0040",
      "oid" : "313736919",
      "districtId" : "1",
      "nameZh" : "五光公園三街口",
      "pgp" : "0",
      "terminal" : "0",
      "latitude" : "24.10298",
      "inDis" : "50",
      "routeId" : "54",
      "seqNo" : "57"
   },
   {
      "GoBack" : "1",
      "longitude" : "120.62763",
      "outDis" : "50",
      "Id" : "4916",
      "oid" : "307333052",
      "districtId" : "1",
      "nameZh" : "新興五光路口",
      "pgp" : "0",
      "terminal" : "0",
      "latitude" : "24.10415",
      "inDis" : "50",
      "routeId" : "54",
      "seqNo" : "58"
   },
   {
      "GoBack" : "1",
      "longitude" : "120.63294",
      "outDis" : "50",
      "Id" : "2821",
      "oid" : "7377",
      "districtId" : "1",
      "nameZh" : "烏日橋",
      "pgp" : "0",
      "terminal" : "0",
      "latitude" : "24.10581",
      "inDis" : "50",
      "routeId" : "54",
      "seqNo" : "59"
   },
   {
      "GoBack" : "1",
      "longitude" : "120.63646",
      "outDis" : "50",
      "Id" : "2365",
      "oid" : "13051",
      "districtId" : "1",
      "nameZh" : "明道中學",
      "pgp" : "0",
      "terminal" : "0",
      "latitude" : "24.10734",
      "inDis" : "50",
      "routeId" : "54",
      "seqNo" : "60"
   },
   {
      "GoBack" : "1",
      "longitude" : "120.63859",
      "outDis" : "50",
      "Id" : "2366",
      "oid" : "3729",
      "districtId" : "1",
      "nameZh" : "明道花園城",
      "pgp" : "0",
      "terminal" : "0",
      "latitude" : "24.10799",
      "inDis" : "50",
      "routeId" : "54",
      "seqNo" : "61"
   },
   {
      "GoBack" : "1",
      "longitude" : "120.64137",
      "outDis" : "50",
      "Id" : "0994",
      "oid" : "92B24BAC1ECA49FB9D5A2EA1F2F516C7",
      "districtId" : "1",
      "nameZh" : "九張犁",
      "pgp" : "0",
      "terminal" : "0",
      "latitude" : "24.10873",
      "inDis" : "50",
      "routeId" : "54",
      "seqNo" : "62"
   },
   {
      "GoBack" : "1",
      "longitude" : "120.64234",
      "outDis" : "50",
      "Id" : "5464",
      "oid" : "317734407",
      "districtId" : "1",
      "nameZh" : "光德國中",
      "pgp" : "0",
      "terminal" : "0",
      "latitude" : "24.10583",
      "inDis" : "50",
      "routeId" : "54",
      "seqNo" : "63"
   },
   {
      "GoBack" : "1",
      "longitude" : "120.64536",
      "outDis" : "50",
      "Id" : "2818",
      "oid" : "FA8BC554E38E4AF6A135B4547126665E",
      "districtId" : "1",
      "nameZh" : "烏日停車場",
      "pgp" : "0",
      "terminal" : "0",
      "latitude" : "24.10401",
      "inDis" : "50",
      "routeId" : "54",
      "seqNo" : "64"
   },
   {
      "GoBack" : "2",
      "longitude" : "120.64544",
      "outDis" : "50",
      "Id" : "2818",
      "oid" : "7369E9D28C0948A08052AE1BBC27991A",
      "districtId" : "1",
      "nameZh" : "烏日停車場",
      "pgp" : "0",
      "terminal" : "0",
      "latitude" : "24.10404",
      "inDis" : "50",
      "routeId" : "54",
      "seqNo" : "1"
   },
   {
      "GoBack" : "2",
      "longitude" : "120.64234",
      "outDis" : "50",
      "Id" : "5464",
      "oid" : "317734407",
      "districtId" : "1",
      "nameZh" : "光德國中",
      "pgp" : "0",
      "terminal" : "0",
      "latitude" : "24.10583",
      "inDis" : "50",
      "routeId" : "54",
      "seqNo" : "2"
   },
   {
      "GoBack" : "2",
      "longitude" : "120.64138",
      "outDis" : "50",
      "Id" : "0994",
      "oid" : "6F8F8A7DF94A4D2E94A4C2662D22B76F",
      "districtId" : "1",
      "nameZh" : "九張犁",
      "pgp" : "0",
      "terminal" : "0",
      "latitude" : "24.10887",
      "inDis" : "50",
      "routeId" : "54",
      "seqNo" : "3"
   },
   {
      "GoBack" : "2",
      "longitude" : "120.6384",
      "outDis" : "50",
      "Id" : "2366",
      "oid" : "CAB262DF731B446CAFBF21C0AC89C11F",
      "districtId" : "1",
      "nameZh" : "明道花園城",
      "pgp" : "0",
      "terminal" : "0",
      "latitude" : "24.10795",
      "inDis" : "50",
      "routeId" : "54",
      "seqNo" : "4"
   },
   {
      "GoBack" : "2",
      "longitude" : "120.63646",
      "outDis" : "50",
      "Id" : "2365",
      "oid" : "13051",
      "districtId" : "1",
      "nameZh" : "明道中學",
      "pgp" : "0",
      "terminal" : "0",
      "latitude" : "24.10734",
      "inDis" : "50",
      "routeId" : "54",
      "seqNo" : "5"
   },
   {
      "GoBack" : "2",
      "longitude" : "120.63294",
      "outDis" : "50",
      "Id" : "2821",
      "oid" : "7794",
      "districtId" : "1",
      "nameZh" : "烏日橋",
      "pgp" : "0",
      "terminal" : "0",
      "latitude" : "24.10581",
      "inDis" : "50",
      "routeId" : "54",
      "seqNo" : "6"
   },
   {
      "GoBack" : "2",
      "longitude" : "120.62763",
      "outDis" : "50",
      "Id" : "4916",
      "oid" : "307333052",
      "districtId" : "1",
      "nameZh" : "新興五光路口",
      "pgp" : "0",
      "terminal" : "0",
      "latitude" : "24.10415",
      "inDis" : "50",
      "routeId" : "54",
      "seqNo" : "7"
   },
   {
      "GoBack" : "2",
      "longitude" : "120.62807",
      "outDis" : "50",
      "Id" : "0040",
      "oid" : "313736919",
      "districtId" : "1",
      "nameZh" : "五光公園三街口",
      "pgp" : "0",
      "terminal" : "0",
      "latitude" : "24.10298",
      "inDis" : "50",
      "routeId" : "54",
      "seqNo" : "8"
   },
   {
      "GoBack" : "2",
      "longitude" : "120.62698",
      "outDis" : "50",
      "Id" : "5278",
      "oid" : "310953051",
      "districtId" : "1",
      "nameZh" : "公園五光路口",
      "pgp" : "0",
      "terminal" : "0",
      "latitude" : "24.10192",
      "inDis" : "50",
      "routeId" : "54",
      "seqNo" : "9"
   },
   {
      "GoBack" : "2",
      "longitude" : "120.62453",
      "outDis" : "50",
      "Id" : "5277",
      "oid" : "310953049",
      "districtId" : "1",
      "nameZh" : "公園光日路口",
      "pgp" : "0",
      "terminal" : "0",
      "latitude" : "24.10251",
      "inDis" : "50",
      "routeId" : "54",
      "seqNo" : "10"
   },
   {
      "GoBack" : "2",
      "longitude" : "120.62481",
      "outDis" : "50",
      "Id" : "4340",
      "oid" : "303166987",
      "districtId" : "1",
      "nameZh" : "烏日區公所",
      "pgp" : "0",
      "terminal" : "0",
      "latitude" : "24.1054",
      "inDis" : "50",
      "routeId" : "54",
      "seqNo" : "11"
   },
   {
      "GoBack" : "2",
      "longitude" : "120.62575",
      "outDis" : "50",
      "Id" : "2819",
      "oid" : "13050",
      "districtId" : "1",
      "nameZh" : "烏日啤酒廠",
      "pgp" : "0",
      "terminal" : "0",
      "latitude" : "24.11095",
      "inDis" : "50",
      "routeId" : "54",
      "seqNo" : "12"
   },
   {
      "GoBack" : "2",
      "longitude" : "120.62619",
      "outDis" : "50",
      "Id" : "0422",
      "oid" : "13049",
      "districtId" : "1",
      "nameZh" : "中和新村",
      "pgp" : "0",
      "terminal" : "0",
      "latitude" : "24.11387",
      "inDis" : "50",
      "routeId" : "54",
      "seqNo" : "13"
   },
   {
      "GoBack" : "2",
      "longitude" : "120.62673",
      "outDis" : "50",
      "Id" : "0645",
      "oid" : "13048",
      "districtId" : "1",
      "nameZh" : "昌興新村",
      "pgp" : "0",
      "terminal" : "0",
      "latitude" : "24.11592",
      "inDis" : "50",
      "routeId" : "54",
      "seqNo" : "14"
   },
   {
      "GoBack" : "2",
      "longitude" : "120.62779",
      "outDis" : "50",
      "Id" : "0421",
      "oid" : "13047",
      "districtId" : "1",
      "nameZh" : "中和",
      "pgp" : "0",
      "terminal" : "0",
      "latitude" : "24.11837",
      "inDis" : "50",
      "routeId" : "54",
      "seqNo" : "15"
   },
   {
      "GoBack" : "2",
      "longitude" : "120.62899",
      "outDis" : "50",
      "Id" : "0954",
      "oid" : "13046",
      "districtId" : "1",
      "nameZh" : "鎮平國小",
      "pgp" : "0",
      "terminal" : "0",
      "latitude" : "24.12115",
      "inDis" : "50",
      "routeId" : "54",
      "seqNo" : "16"
   },
   {
      "GoBack" : "2",
      "longitude" : "120.6314",
      "outDis" : "50",
      "Id" : "0955",
      "oid" : "13045",
      "districtId" : "1",
      "nameZh" : "鎮平環中路口",
      "pgp" : "0",
      "terminal" : "0",
      "latitude" : "24.12512",
      "inDis" : "50",
      "routeId" : "54",
      "seqNo" : "17"
   },
   {
      "GoBack" : "2",
      "longitude" : "120.63351",
      "outDis" : "50",
      "Id" : "0953",
      "oid" : "13044",
      "districtId" : "1",
      "nameZh" : "鎮平里",
      "pgp" : "0",
      "terminal" : "0",
      "latitude" : "24.12862",
      "inDis" : "50",
      "routeId" : "54",
      "seqNo" : "18"
   },
   {
      "GoBack" : "2",
      "longitude" : "120.63472",
      "outDis" : "50",
      "Id" : "0341",
      "oid" : "13043",
      "districtId" : "1",
      "nameZh" : "下豐樂里",
      "pgp" : "0",
      "terminal" : "0",
      "latitude" : "24.13062",
      "inDis" : "50",
      "routeId" : "54",
      "seqNo" : "19"
   },
   {
      "GoBack" : "2",
      "longitude" : "120.63561",
      "outDis" : "50",
      "Id" : "0478",
      "oid" : "13042",
      "districtId" : "1",
      "nameZh" : "黎明文心南五路口",
      "pgp" : "0",
      "terminal" : "0",
      "latitude" : "24.13289",
      "inDis" : "50",
      "routeId" : "54",
      "seqNo" : "20"
   },
   {
      "GoBack" : "2",
      "longitude" : "120.63656",
      "outDis" : "50",
      "Id" : "4643",
      "oid" : "13041",
      "districtId" : "1",
      "nameZh" : "黎明永春東路口",
      "pgp" : "0",
      "terminal" : "0",
      "latitude" : "24.13534",
      "inDis" : "50",
      "routeId" : "54",
      "seqNo" : "21"
   },
   {
      "GoBack" : "2",
      "longitude" : "120.63709",
      "outDis" : "50",
      "Id" : "0695",
      "oid" : "13040",
      "districtId" : "1",
      "nameZh" : "南屯國小",
      "pgp" : "0",
      "terminal" : "0",
      "latitude" : "24.13688",
      "inDis" : "50",
      "routeId" : "54",
      "seqNo" : "22"
   },
   {
      "GoBack" : "2",
      "longitude" : "120.63846",
      "outDis" : "50",
      "Id" : "5156",
      "oid" : "2695A880F67C4606B4D073B76CB90E75",
      "districtId" : "1",
      "nameZh" : "黎明南屯路口",
      "pgp" : "0",
      "terminal" : "0",
      "latitude" : "24.14044",
      "inDis" : "50",
      "routeId" : "54",
      "seqNo" : "23"
   },
   {
      "GoBack" : "2",
      "longitude" : "120.63735",
      "outDis" : "50",
      "Id" : "4245",
      "oid" : "13038",
      "districtId" : "1",
      "nameZh" : "黎明五權西路口",
      "pgp" : "0",
      "terminal" : "0",
      "latitude" : "24.1439",
      "inDis" : "50",
      "routeId" : "54",
      "seqNo" : "24"
   },
   {
      "GoBack" : "2",
      "longitude" : "120.63579",
      "outDis" : "50",
      "Id" : "0060",
      "oid" : "13037",
      "districtId" : "1",
      "nameZh" : "三厝里",
      "pgp" : "0",
      "terminal" : "0",
      "latitude" : "24.14812",
      "inDis" : "50",
      "routeId" : "54",
      "seqNo" : "25"
   },
   {
      "GoBack" : "2",
      "longitude" : "120.63534",
      "outDis" : "50",
      "Id" : "0059",
      "oid" : "13036",
      "districtId" : "1",
      "nameZh" : "黎明公益路口",
      "pgp" : "0",
      "terminal" : "0",
      "latitude" : "24.15102",
      "inDis" : "50",
      "routeId" : "54",
      "seqNo" : "26"
   },
   {
      "GoBack" : "2",
      "longitude" : "120.63498",
      "outDis" : "50",
      "Id" : "4160",
      "oid" : "13035",
      "districtId" : "1",
      "nameZh" : "黎明大業路口",
      "pgp" : "0",
      "terminal" : "0",
      "latitude" : "24.15317",
      "inDis" : "50",
      "routeId" : "54",
      "seqNo" : "27"
   },
   {
      "GoBack" : "2",
      "longitude" : "120.6347",
      "outDis" : "50",
      "Id" : "3892",
      "oid" : "7607",
      "districtId" : "1",
      "nameZh" : "黎明新村(黎明路)",
      "pgp" : "0",
      "terminal" : "0",
      "latitude" : "24.15465",
      "inDis" : "50",
      "routeId" : "54",
      "seqNo" : "28"
   },
   {
      "GoBack" : "2",
      "longitude" : "120.63422",
      "outDis" : "50",
      "Id" : "0056",
      "oid" : "13033",
      "districtId" : "1",
      "nameZh" : "黎明國小",
      "pgp" : "0",
      "terminal" : "0",
      "latitude" : "24.15809",
      "inDis" : "50",
      "routeId" : "54",
      "seqNo" : "29"
   },
   {
      "GoBack" : "2",
      "longitude" : "120.63372",
      "outDis" : "50",
      "Id" : "5155",
      "oid" : "13032",
      "districtId" : "1",
      "nameZh" : "黎明市政路口",
      "pgp" : "0",
      "terminal" : "0",
      "latitude" : "24.16073",
      "inDis" : "50",
      "routeId" : "54",
      "seqNo" : "30"
   },
   {
      "GoBack" : "2",
      "longitude" : "120.63392",
      "outDis" : "50",
      "Id" : "5748",
      "oid" : "320349543",
      "districtId" : "1",
      "nameZh" : "黎明龍門路口",
      "pgp" : "0",
      "terminal" : "0",
      "latitude" : "24.16294",
      "inDis" : "50",
      "routeId" : "54",
      "seqNo" : "31"
   },
   {
      "GoBack" : "2",
      "longitude" : "120.63418",
      "outDis" : "50",
      "Id" : "4645",
      "oid" : "13031",
      "districtId" : "1",
      "nameZh" : "西屯區公所",
      "pgp" : "0",
      "terminal" : "0",
      "latitude" : "24.16386",
      "inDis" : "50",
      "routeId" : "54",
      "seqNo" : "32"
   },
   {
      "GoBack" : "2",
      "longitude" : "120.63526",
      "outDis" : "50",
      "Id" : "5158",
      "oid" : "13030",
      "districtId" : "1",
      "nameZh" : "黎明環河路口",
      "pgp" : "0",
      "terminal" : "0",
      "latitude" : "24.1667",
      "inDis" : "50",
      "routeId" : "54",
      "seqNo" : "33"
   },
   {
      "GoBack" : "2",
      "longitude" : "120.63697",
      "outDis" : "50",
      "Id" : "0013",
      "oid" : "311271352",
      "districtId" : "1",
      "nameZh" : "朝馬(黎明路)",
      "pgp" : "0",
      "terminal" : "0",
      "latitude" : "24.17187",
      "inDis" : "50",
      "routeId" : "54",
      "seqNo" : "34"
   },
   {
      "GoBack" : "2",
      "longitude" : "120.63747",
      "outDis" : "50",
      "Id" : "0238",
      "oid" : "13028",
      "districtId" : "1",
      "nameZh" : "西屯郵局",
      "pgp" : "0",
      "terminal" : "0",
      "latitude" : "24.17667",
      "inDis" : "50",
      "routeId" : "54",
      "seqNo" : "35"
   },
   {
      "GoBack" : "2",
      "longitude" : "120.63813",
      "outDis" : "50",
      "Id" : "2175",
      "oid" : "13027",
      "districtId" : "1",
      "nameZh" : "西屯派出所",
      "pgp" : "0",
      "terminal" : "0",
      "latitude" : "24.18118",
      "inDis" : "50",
      "routeId" : "54",
      "seqNo" : "36"
   },
   {
      "GoBack" : "2",
      "longitude" : "120.64035",
      "outDis" : "50",
      "Id" : "2192",
      "oid" : "13026",
      "districtId" : "1",
      "nameZh" : "西苑高中",
      "pgp" : "0",
      "terminal" : "0",
      "latitude" : "24.18632",
      "inDis" : "50",
      "routeId" : "54",
      "seqNo" : "37"
   },
   {
      "GoBack" : "2",
      "longitude" : "120.64451",
      "outDis" : "50",
      "Id" : "4327",
      "oid" : "13025",
      "districtId" : "1",
      "nameZh" : "僑光科技大學",
      "pgp" : "0",
      "terminal" : "0",
      "latitude" : "24.18662",
      "inDis" : "50",
      "routeId" : "54",
      "seqNo" : "38"
   },
   {
      "GoBack" : "2",
      "longitude" : "120.64472",
      "outDis" : "50",
      "Id" : "5658",
      "oid" : "313222695",
      "districtId" : "1",
      "nameZh" : "漢翔公司(星享道)",
      "pgp" : "0",
      "terminal" : "0",
      "latitude" : "24.18421",
      "inDis" : "50",
      "routeId" : "54",
      "seqNo" : "39"
   },
   {
      "GoBack" : "2",
      "longitude" : "120.6449",
      "outDis" : "50",
      "Id" : "4334",
      "oid" : "13023",
      "districtId" : "1",
      "nameZh" : "福星西安街口",
      "pgp" : "0",
      "terminal" : "0",
      "latitude" : "24.18144",
      "inDis" : "50",
      "routeId" : "54",
      "seqNo" : "40"
   },
   {
      "GoBack" : "2",
      "longitude" : "120.64506",
      "outDis" : "50",
      "Id" : "4586",
      "oid" : "13022",
      "districtId" : "1",
      "nameZh" : "逢甲大學(福星路)",
      "pgp" : "0",
      "terminal" : "0",
      "latitude" : "24.17904",
      "inDis" : "50",
      "routeId" : "54",
      "seqNo" : "41"
   },
   {
      "GoBack" : "2",
      "longitude" : "120.64583",
      "outDis" : "50",
      "Id" : "0112",
      "oid" : "13021",
      "districtId" : "1",
      "nameZh" : "福星停車場",
      "pgp" : "0",
      "terminal" : "0",
      "latitude" : "24.17543",
      "inDis" : "50",
      "routeId" : "54",
      "seqNo" : "42"
   },
   {
      "GoBack" : "2",
      "longitude" : "120.64872",
      "outDis" : "50",
      "Id" : "4333",
      "oid" : "13020",
      "districtId" : "1",
      "nameZh" : "河南福星路口",
      "pgp" : "0",
      "terminal" : "0",
      "latitude" : "24.17444",
      "inDis" : "50",
      "routeId" : "54",
      "seqNo" : "43"
   },
   {
      "GoBack" : "2",
      "longitude" : "120.6509",
      "outDis" : "50",
      "Id" : "0234",
      "oid" : "13019",
      "districtId" : "1",
      "nameZh" : "河南停車場",
      "pgp" : "0",
      "terminal" : "0",
      "latitude" : "24.17588",
      "inDis" : "50",
      "routeId" : "54",
      "seqNo" : "44"
   },
   {
      "GoBack" : "2",
      "longitude" : "120.65722",
      "outDis" : "50",
      "Id" : "0233",
      "oid" : "13018",
      "districtId" : "1",
      "nameZh" : "家扶發展學園",
      "pgp" : "0",
      "terminal" : "0",
      "latitude" : "24.17626",
      "inDis" : "50",
      "routeId" : "54",
      "seqNo" : "45"
   },
   {
      "GoBack" : "2",
      "longitude" : "120.65978",
      "outDis" : "50",
      "Id" : "4159",
      "oid" : "13017",
      "districtId" : "1",
      "nameZh" : "河南福上巷口",
      "pgp" : "0",
      "terminal" : "0",
      "latitude" : "24.17516",
      "inDis" : "50",
      "routeId" : "54",
      "seqNo" : "46"
   },
   {
      "GoBack" : "2",
      "longitude" : "120.66078",
      "outDis" : "50",
      "Id" : "4332",
      "oid" : "13016",
      "districtId" : "1",
      "nameZh" : "河南長安路口",
      "pgp" : "0",
      "terminal" : "0",
      "latitude" : "24.17273",
      "inDis" : "50",
      "routeId" : "54",
      "seqNo" : "47"
   },
   {
      "GoBack" : "2",
      "longitude" : "120.66355",
      "outDis" : "50",
      "Id" : "0230",
      "oid" : "13015",
      "districtId" : "1",
      "nameZh" : "重慶國小",
      "pgp" : "0",
      "terminal" : "0",
      "latitude" : "24.17224",
      "inDis" : "50",
      "routeId" : "54",
      "seqNo" : "48"
   },
   {
      "GoBack" : "2",
      "longitude" : "120.66625",
      "outDis" : "50",
      "Id" : "0229",
      "oid" : "13014",
      "districtId" : "1",
      "nameZh" : "臺灣日報",
      "pgp" : "0",
      "terminal" : "0",
      "latitude" : "24.17307",
      "inDis" : "50",
      "routeId" : "54",
      "seqNo" : "49"
   },
   {
      "GoBack" : "2",
      "longitude" : "120.66855",
      "outDis" : "50",
      "Id" : "0228",
      "oid" : "13013",
      "districtId" : "1",
      "nameZh" : "文心陜西路口",
      "pgp" : "0",
      "terminal" : "0",
      "latitude" : "24.17328",
      "inDis" : "50",
      "routeId" : "54",
      "seqNo" : "50"
   },
   {
      "GoBack" : "2",
      "longitude" : "120.67078",
      "outDis" : "50",
      "Id" : "0334",
      "oid" : "13012",
      "districtId" : "1",
      "nameZh" : "下水湳",
      "pgp" : "0",
      "terminal" : "0",
      "latitude" : "24.17553",
      "inDis" : "50",
      "routeId" : "54",
      "seqNo" : "51"
   },
   {
      "GoBack" : "2",
      "longitude" : "120.67008",
      "outDis" : "30",
      "Id" : "0486",
      "oid" : "308022314",
      "districtId" : "1",
      "nameZh" : "水湳",
      "pgp" : "0",
      "terminal" : "0",
      "latitude" : "24.17636",
      "inDis" : "30",
      "routeId" : "54",
      "seqNo" : "52"
   },
   {
      "GoBack" : "2",
      "longitude" : "120.66916",
      "outDis" : "50",
      "Id" : "5100",
      "oid" : "319227555",
      "districtId" : "1",
      "nameZh" : "水湳市場(中清路)",
      "pgp" : "0",
      "terminal" : "0",
      "latitude" : "24.17756",
      "inDis" : "50",
      "routeId" : "54",
      "seqNo" : "53"
   },
   {
      "GoBack" : "2",
      "longitude" : "120.66768",
      "outDis" : "50",
      "Id" : "0385",
      "oid" : "13009",
      "districtId" : "1",
      "nameZh" : "大德國中",
      "pgp" : "0",
      "terminal" : "0",
      "latitude" : "24.17953",
      "inDis" : "50",
      "routeId" : "54",
      "seqNo" : "54"
   },
   {
      "GoBack" : "2",
      "longitude" : "120.6668",
      "outDis" : "50",
      "Id" : "0593",
      "oid" : "13008",
      "districtId" : "1",
      "nameZh" : "全民醫院",
      "pgp" : "0",
      "terminal" : "0",
      "latitude" : "24.1805",
      "inDis" : "50",
      "routeId" : "54",
      "seqNo" : "55"
   },
   {
      "GoBack" : "2",
      "longitude" : "120.66619",
      "outDis" : "50",
      "Id" : "0789",
      "oid" : "13007",
      "districtId" : "1",
      "nameZh" : "陳平",
      "pgp" : "0",
      "terminal" : "0",
      "latitude" : "24.18201",
      "inDis" : "50",
      "routeId" : "54",
      "seqNo" : "56"
   },
   {
      "GoBack" : "2",
      "longitude" : "120.66466",
      "outDis" : "50",
      "Id" : "0801",
      "oid" : "13006",
      "districtId" : "1",
      "nameZh" : "頂陳平",
      "pgp" : "0",
      "terminal" : "0",
      "latitude" : "24.1846",
      "inDis" : "50",
      "routeId" : "54",
      "seqNo" : "57"
   },
   {
      "GoBack" : "2",
      "longitude" : "120.66333",
      "outDis" : "50",
      "Id" : "2638",
      "oid" : "13005",
      "districtId" : "1",
      "nameZh" : "后庄仔",
      "pgp" : "0",
      "terminal" : "0",
      "latitude" : "24.18675",
      "inDis" : "50",
      "routeId" : "54",
      "seqNo" : "58"
   },
   {
      "GoBack" : "2",
      "longitude" : "120.66264",
      "outDis" : "50",
      "Id" : "0989",
      "oid" : "13004",
      "districtId" : "1",
      "nameZh" : "中清后庄路口",
      "pgp" : "0",
      "terminal" : "0",
      "latitude" : "24.18803",
      "inDis" : "50",
      "routeId" : "54",
      "seqNo" : "59"
   },
   {
      "GoBack" : "2",
      "longitude" : "120.66144",
      "outDis" : "50",
      "Id" : "0708",
      "oid" : "13003",
      "districtId" : "1",
      "nameZh" : "后庄國宅",
      "pgp" : "0",
      "terminal" : "0",
      "latitude" : "24.19024",
      "inDis" : "50",
      "routeId" : "54",
      "seqNo" : "60"
   },
   {
      "GoBack" : "2",
      "longitude" : "120.6604",
      "outDis" : "50",
      "Id" : "3293",
      "oid" : "13002",
      "districtId" : "1",
      "nameZh" : "貿易三村",
      "pgp" : "0",
      "terminal" : "0",
      "latitude" : "24.19186",
      "inDis" : "50",
      "routeId" : "54",
      "seqNo" : "61"
   },
   {
      "GoBack" : "2",
      "longitude" : "120.65938",
      "outDis" : "50",
      "Id" : "2069",
      "oid" : "13001",
      "districtId" : "1",
      "nameZh" : "中清同榮路口",
      "pgp" : "0",
      "terminal" : "0",
      "latitude" : "24.19357",
      "inDis" : "50",
      "routeId" : "54",
      "seqNo" : "62"
   },
   {
      "GoBack" : "2",
      "longitude" : "120.65828",
      "outDis" : "50",
      "Id" : "0136",
      "oid" : "13000",
      "districtId" : "1",
      "nameZh" : "下港尾",
      "pgp" : "0",
      "terminal" : "0",
      "latitude" : "24.19519",
      "inDis" : "50",
      "routeId" : "54",
      "seqNo" : "63"
   }
]
