[
   {
      "GoBack" : "1",
      "longitude" : "120.56106",
      "outDis" : "50",
      "Id" : "2248",
      "oid" : "10784",
      "districtId" : "1",
      "nameZh" : "沙鹿站",
      "pgp" : "0",
      "terminal" : "0",
      "latitude" : "24.23783",
      "inDis" : "50",
      "routeId" : "168區2",
      "seqNo" : "1"
   },
   {
      "GoBack" : "1",
      "longitude" : "120.56",
      "outDis" : "50",
      "Id" : "5135",
      "oid" : "14046",
      "districtId" : "1",
      "nameZh" : "第一銀行(沙鹿分行)",
      "pgp" : "0",
      "terminal" : "0",
      "latitude" : "24.23932",
      "inDis" : "50",
      "routeId" : "168區2",
      "seqNo" : "2"
   },
   {
      "GoBack" : "1",
      "longitude" : "120.56127",
      "outDis" : "50",
      "Id" : "5140",
      "oid" : "10581",
      "districtId" : "1",
      "nameZh" : "童綜合醫院(沙鹿院區)",
      "pgp" : "0",
      "terminal" : "0",
      "latitude" : "24.24245",
      "inDis" : "50",
      "routeId" : "168區2",
      "seqNo" : "3"
   },
   {
      "GoBack" : "1",
      "longitude" : "120.56221",
      "outDis" : "50",
      "Id" : "4042",
      "oid" : "10582",
      "districtId" : "1",
      "nameZh" : "文化莊",
      "pgp" : "0",
      "terminal" : "0",
      "latitude" : "24.24518",
      "inDis" : "50",
      "routeId" : "168區2",
      "seqNo" : "4"
   },
   {
      "GoBack" : "1",
      "longitude" : "120.56269",
      "outDis" : "50",
      "Id" : "4110",
      "oid" : "10819",
      "districtId" : "1",
      "nameZh" : "家扶中心",
      "pgp" : "0",
      "terminal" : "0",
      "latitude" : "24.24674",
      "inDis" : "50",
      "routeId" : "168區2",
      "seqNo" : "5"
   },
   {
      "GoBack" : "1",
      "longitude" : "120.56484",
      "outDis" : "50",
      "Id" : "5138",
      "oid" : "14049",
      "districtId" : "1",
      "nameZh" : "鹿寮成衣商圈",
      "pgp" : "0",
      "terminal" : "0",
      "latitude" : "24.2489",
      "inDis" : "50",
      "routeId" : "168區2",
      "seqNo" : "6"
   },
   {
      "GoBack" : "1",
      "longitude" : "120.56679",
      "outDis" : "50",
      "Id" : "4044",
      "oid" : "10584",
      "districtId" : "1",
      "nameZh" : "鹿寮",
      "pgp" : "0",
      "terminal" : "0",
      "latitude" : "24.25177",
      "inDis" : "50",
      "routeId" : "168區2",
      "seqNo" : "7"
   },
   {
      "GoBack" : "1",
      "longitude" : "120.56786",
      "outDis" : "50",
      "Id" : "5392",
      "oid" : "312897794",
      "districtId" : "1",
      "nameZh" : "中山長春路口",
      "pgp" : "0",
      "terminal" : "0",
      "latitude" : "24.2537",
      "inDis" : "50",
      "routeId" : "168區2",
      "seqNo" : "8"
   },
   {
      "GoBack" : "1",
      "longitude" : "120.56885",
      "outDis" : "50",
      "Id" : "4045",
      "oid" : "10585",
      "districtId" : "1",
      "nameZh" : "中峰",
      "pgp" : "0",
      "terminal" : "0",
      "latitude" : "24.25542",
      "inDis" : "50",
      "routeId" : "168區2",
      "seqNo" : "9"
   },
   {
      "GoBack" : "1",
      "longitude" : "120.57005",
      "outDis" : "50",
      "Id" : "4471",
      "oid" : "14052",
      "districtId" : "1",
      "nameZh" : "勞工育樂中心",
      "pgp" : "0",
      "terminal" : "0",
      "latitude" : "24.25766",
      "inDis" : "50",
      "routeId" : "168區2",
      "seqNo" : "10"
   },
   {
      "GoBack" : "1",
      "longitude" : "120.57075",
      "outDis" : "50",
      "Id" : "4129",
      "oid" : "10864",
      "districtId" : "1",
      "nameZh" : "鹿峰里",
      "pgp" : "0",
      "terminal" : "0",
      "latitude" : "24.25885",
      "inDis" : "50",
      "routeId" : "168區2",
      "seqNo" : "11"
   },
   {
      "GoBack" : "1",
      "longitude" : "120.5714",
      "outDis" : "50",
      "Id" : "4441",
      "oid" : "307275657",
      "districtId" : "1",
      "nameZh" : "中山星河路口",
      "pgp" : "0",
      "terminal" : "0",
      "latitude" : "24.25997",
      "inDis" : "50",
      "routeId" : "168區2",
      "seqNo" : "12"
   },
   {
      "GoBack" : "1",
      "longitude" : "120.57262",
      "outDis" : "50",
      "Id" : "4121",
      "oid" : "2291",
      "districtId" : "1",
      "nameZh" : "清水電信局",
      "pgp" : "0",
      "terminal" : "0",
      "latitude" : "24.26214",
      "inDis" : "50",
      "routeId" : "168區2",
      "seqNo" : "13"
   },
   {
      "GoBack" : "1",
      "longitude" : "120.5743",
      "outDis" : "50",
      "Id" : "4119",
      "oid" : "10845",
      "districtId" : "1",
      "nameZh" : "清水高中",
      "pgp" : "0",
      "terminal" : "0",
      "latitude" : "24.26588",
      "inDis" : "50",
      "routeId" : "168區2",
      "seqNo" : "14"
   },
   {
      "GoBack" : "1",
      "longitude" : "120.57514",
      "outDis" : "50",
      "Id" : "5141",
      "oid" : "10882",
      "districtId" : "1",
      "nameZh" : "華南銀行(清水分行)",
      "pgp" : "0",
      "terminal" : "0",
      "latitude" : "24.26827",
      "inDis" : "50",
      "routeId" : "168區2",
      "seqNo" : "15"
   },
   {
      "GoBack" : "1",
      "longitude" : "120.57594",
      "outDis" : "50",
      "Id" : "3013",
      "oid" : "10843",
      "districtId" : "1",
      "nameZh" : "清水",
      "pgp" : "0",
      "terminal" : "0",
      "latitude" : "24.2703",
      "inDis" : "50",
      "routeId" : "168區2",
      "seqNo" : "16"
   },
   {
      "GoBack" : "1",
      "longitude" : "120.57687",
      "outDis" : "50",
      "Id" : "4521",
      "oid" : "305513525",
      "districtId" : "1",
      "nameZh" : "中山董公街口",
      "pgp" : "0",
      "terminal" : "0",
      "latitude" : "24.27284",
      "inDis" : "50",
      "routeId" : "168區2",
      "seqNo" : "17"
   },
   {
      "GoBack" : "1",
      "longitude" : "120.57725",
      "outDis" : "50",
      "Id" : "4442",
      "oid" : "10830",
      "districtId" : "1",
      "nameZh" : "中山高美路口",
      "pgp" : "0",
      "terminal" : "0",
      "latitude" : "24.27461",
      "inDis" : "50",
      "routeId" : "168區2",
      "seqNo" : "18"
   },
   {
      "GoBack" : "1",
      "longitude" : "120.57983",
      "outDis" : "50",
      "Id" : "4065",
      "oid" : "10699",
      "districtId" : "1",
      "nameZh" : "下湳加油站",
      "pgp" : "0",
      "terminal" : "0",
      "latitude" : "24.27912",
      "inDis" : "50",
      "routeId" : "168區2",
      "seqNo" : "19"
   },
   {
      "GoBack" : "1",
      "longitude" : "120.5807",
      "outDis" : "50",
      "Id" : "4130",
      "oid" : "10870",
      "districtId" : "1",
      "nameZh" : "朝興宮",
      "pgp" : "0",
      "terminal" : "0",
      "latitude" : "24.28013",
      "inDis" : "50",
      "routeId" : "168區2",
      "seqNo" : "20"
   },
   {
      "GoBack" : "1",
      "longitude" : "120.58299",
      "outDis" : "50",
      "Id" : "4063",
      "oid" : "10697",
      "districtId" : "1",
      "nameZh" : "下湳子",
      "pgp" : "0",
      "terminal" : "0",
      "latitude" : "24.28316",
      "inDis" : "50",
      "routeId" : "168區2",
      "seqNo" : "21"
   },
   {
      "GoBack" : "1",
      "longitude" : "120.58569",
      "outDis" : "50",
      "Id" : "4058",
      "oid" : "10688",
      "districtId" : "1",
      "nameZh" : "三田國小",
      "pgp" : "0",
      "terminal" : "0",
      "latitude" : "24.2878",
      "inDis" : "50",
      "routeId" : "168區2",
      "seqNo" : "22"
   },
   {
      "GoBack" : "1",
      "longitude" : "120.58698",
      "outDis" : "50",
      "Id" : "4139",
      "oid" : "10893",
      "districtId" : "1",
      "nameZh" : "福元批發",
      "pgp" : "0",
      "terminal" : "0",
      "latitude" : "24.29013",
      "inDis" : "50",
      "routeId" : "168區2",
      "seqNo" : "23"
   },
   {
      "GoBack" : "1",
      "longitude" : "120.58798",
      "outDis" : "50",
      "Id" : "4127",
      "oid" : "10861",
      "districtId" : "1",
      "nameZh" : "頂湳子",
      "pgp" : "0",
      "terminal" : "0",
      "latitude" : "24.29194",
      "inDis" : "50",
      "routeId" : "168區2",
      "seqNo" : "24"
   },
   {
      "GoBack" : "1",
      "longitude" : "120.59118",
      "outDis" : "50",
      "Id" : "4150",
      "oid" : "10917",
      "districtId" : "1",
      "nameZh" : "轉播站",
      "pgp" : "0",
      "terminal" : "0",
      "latitude" : "24.29611",
      "inDis" : "50",
      "routeId" : "168區2",
      "seqNo" : "25"
   },
   {
      "GoBack" : "1",
      "longitude" : "120.59315",
      "outDis" : "50",
      "Id" : "4144",
      "oid" : "10903",
      "districtId" : "1",
      "nameZh" : "震陽工廠",
      "pgp" : "0",
      "terminal" : "0",
      "latitude" : "24.29807",
      "inDis" : "50",
      "routeId" : "168區2",
      "seqNo" : "26"
   },
   {
      "GoBack" : "1",
      "longitude" : "120.59554",
      "outDis" : "50",
      "Id" : "4134",
      "oid" : "10881",
      "districtId" : "1",
      "nameZh" : "菁埔里",
      "pgp" : "0",
      "terminal" : "0",
      "latitude" : "24.30063",
      "inDis" : "50",
      "routeId" : "168區2",
      "seqNo" : "27"
   },
   {
      "GoBack" : "1",
      "longitude" : "120.60074",
      "outDis" : "50",
      "Id" : "1993",
      "oid" : "10765",
      "districtId" : "1",
      "nameZh" : "甲南",
      "pgp" : "0",
      "terminal" : "0",
      "latitude" : "24.30368",
      "inDis" : "50",
      "routeId" : "168區2",
      "seqNo" : "28"
   },
   {
      "GoBack" : "1",
      "longitude" : "120.60333",
      "outDis" : "50",
      "Id" : "4071",
      "oid" : "10707",
      "districtId" : "1",
      "nameZh" : "大甲溪橋",
      "pgp" : "0",
      "terminal" : "0",
      "latitude" : "24.31046",
      "inDis" : "50",
      "routeId" : "168區2",
      "seqNo" : "29"
   },
   {
      "GoBack" : "1",
      "longitude" : "120.60744",
      "outDis" : "50",
      "Id" : "1705",
      "oid" : "10748",
      "districtId" : "1",
      "nameZh" : "水汴頭",
      "pgp" : "0",
      "terminal" : "0",
      "latitude" : "24.32384",
      "inDis" : "50",
      "routeId" : "168區2",
      "seqNo" : "30"
   },
   {
      "GoBack" : "1",
      "longitude" : "120.61343",
      "outDis" : "50",
      "Id" : "4133",
      "oid" : "10880",
      "districtId" : "1",
      "nameZh" : "番子寮",
      "pgp" : "0",
      "terminal" : "0",
      "latitude" : "24.33218",
      "inDis" : "50",
      "routeId" : "168區2",
      "seqNo" : "31"
   },
   {
      "GoBack" : "1",
      "longitude" : "120.61743",
      "outDis" : "50",
      "Id" : "1859",
      "oid" : "10760",
      "districtId" : "1",
      "nameZh" : "外水尾",
      "pgp" : "0",
      "terminal" : "0",
      "latitude" : "24.3376",
      "inDis" : "50",
      "routeId" : "168區2",
      "seqNo" : "32"
   },
   {
      "GoBack" : "1",
      "longitude" : "120.61874",
      "outDis" : "50",
      "Id" : "5693",
      "oid" : "319916595",
      "districtId" : "1",
      "nameZh" : "水尾橋 ",
      "pgp" : "0",
      "terminal" : "0",
      "latitude" : "24.33972",
      "inDis" : "50",
      "routeId" : "168區2",
      "seqNo" : "33"
   },
   {
      "GoBack" : "1",
      "longitude" : "120.62143",
      "outDis" : "50",
      "Id" : "5048",
      "oid" : "309863798",
      "districtId" : "1",
      "nameZh" : "大甲高中(中山路)",
      "pgp" : "0",
      "terminal" : "0",
      "latitude" : "24.34212",
      "inDis" : "50",
      "routeId" : "168區2",
      "seqNo" : "34"
   },
   {
      "GoBack" : "1",
      "longitude" : "120.62445",
      "outDis" : "50",
      "Id" : "2609",
      "oid" : "14073",
      "districtId" : "1",
      "nameZh" : "南陽里",
      "pgp" : "0",
      "terminal" : "0",
      "latitude" : "24.34284",
      "inDis" : "50",
      "routeId" : "168區2",
      "seqNo" : "35"
   },
   {
      "GoBack" : "1",
      "longitude" : "120.62547",
      "outDis" : "150",
      "Id" : "4067",
      "oid" : "10703",
      "districtId" : "1",
      "nameZh" : "大甲站",
      "pgp" : "0",
      "terminal" : "0",
      "latitude" : "24.34377",
      "inDis" : "150",
      "routeId" : "168區2",
      "seqNo" : "36"
   },
   {
      "GoBack" : "2",
      "longitude" : "120.62547",
      "outDis" : "150",
      "Id" : "4067",
      "oid" : "10703",
      "districtId" : "1",
      "nameZh" : "大甲站",
      "pgp" : "0",
      "terminal" : "0",
      "latitude" : "24.34377",
      "inDis" : "150",
      "routeId" : "168區2",
      "seqNo" : "1"
   },
   {
      "GoBack" : "2",
      "longitude" : "120.6217",
      "outDis" : "50",
      "Id" : "2589",
      "oid" : "5995",
      "districtId" : "1",
      "nameZh" : "南門",
      "pgp" : "0",
      "terminal" : "0",
      "latitude" : "24.34371",
      "inDis" : "50",
      "routeId" : "168區2",
      "seqNo" : "2"
   },
   {
      "GoBack" : "2",
      "longitude" : "120.62034",
      "outDis" : "50",
      "Id" : "5361",
      "oid" : "311776166",
      "districtId" : "1",
      "nameZh" : "大甲高中(順天路)",
      "pgp" : "0",
      "terminal" : "0",
      "latitude" : "24.34218",
      "inDis" : "50",
      "routeId" : "168區2",
      "seqNo" : "3"
   },
   {
      "GoBack" : "2",
      "longitude" : "120.61874",
      "outDis" : "50",
      "Id" : "5693",
      "oid" : "319916595",
      "districtId" : "1",
      "nameZh" : "水尾橋 ",
      "pgp" : "0",
      "terminal" : "0",
      "latitude" : "24.33972",
      "inDis" : "50",
      "routeId" : "168區2",
      "seqNo" : "4"
   },
   {
      "GoBack" : "2",
      "longitude" : "120.61727",
      "outDis" : "50",
      "Id" : "1859",
      "oid" : "14071",
      "districtId" : "1",
      "nameZh" : "外水尾",
      "pgp" : "0",
      "terminal" : "0",
      "latitude" : "24.33744",
      "inDis" : "50",
      "routeId" : "168區2",
      "seqNo" : "5"
   },
   {
      "GoBack" : "2",
      "longitude" : "120.61521",
      "outDis" : "50",
      "Id" : "4133",
      "oid" : "14070",
      "districtId" : "1",
      "nameZh" : "番子寮",
      "pgp" : "0",
      "terminal" : "0",
      "latitude" : "24.33451",
      "inDis" : "50",
      "routeId" : "168區2",
      "seqNo" : "6"
   },
   {
      "GoBack" : "2",
      "longitude" : "120.60862",
      "outDis" : "50",
      "Id" : "1705",
      "oid" : "14069",
      "districtId" : "1",
      "nameZh" : "水汴頭",
      "pgp" : "0",
      "terminal" : "0",
      "latitude" : "24.32719",
      "inDis" : "50",
      "routeId" : "168區2",
      "seqNo" : "7"
   },
   {
      "GoBack" : "2",
      "longitude" : "120.60333",
      "outDis" : "50",
      "Id" : "4071",
      "oid" : "10707",
      "districtId" : "1",
      "nameZh" : "大甲溪橋",
      "pgp" : "0",
      "terminal" : "0",
      "latitude" : "24.31046",
      "inDis" : "50",
      "routeId" : "168區2",
      "seqNo" : "8"
   },
   {
      "GoBack" : "2",
      "longitude" : "120.60111",
      "outDis" : "50",
      "Id" : "1993",
      "oid" : "14068",
      "districtId" : "1",
      "nameZh" : "甲南",
      "pgp" : "0",
      "terminal" : "0",
      "latitude" : "24.30457",
      "inDis" : "50",
      "routeId" : "168區2",
      "seqNo" : "9"
   },
   {
      "GoBack" : "2",
      "longitude" : "120.59516",
      "outDis" : "50",
      "Id" : "4134",
      "oid" : "14067",
      "districtId" : "1",
      "nameZh" : "菁埔里",
      "pgp" : "0",
      "terminal" : "0",
      "latitude" : "24.30035",
      "inDis" : "50",
      "routeId" : "168區2",
      "seqNo" : "10"
   },
   {
      "GoBack" : "2",
      "longitude" : "120.59332",
      "outDis" : "50",
      "Id" : "4144",
      "oid" : "14066",
      "districtId" : "1",
      "nameZh" : "震陽工廠",
      "pgp" : "0",
      "terminal" : "0",
      "latitude" : "24.29818",
      "inDis" : "50",
      "routeId" : "168區2",
      "seqNo" : "11"
   },
   {
      "GoBack" : "2",
      "longitude" : "120.59263",
      "outDis" : "50",
      "Id" : "4150",
      "oid" : "14065",
      "districtId" : "1",
      "nameZh" : "轉播站",
      "pgp" : "0",
      "terminal" : "0",
      "latitude" : "24.29771",
      "inDis" : "50",
      "routeId" : "168區2",
      "seqNo" : "12"
   },
   {
      "GoBack" : "2",
      "longitude" : "120.58815",
      "outDis" : "50",
      "Id" : "4127",
      "oid" : "14064",
      "districtId" : "1",
      "nameZh" : "頂湳子",
      "pgp" : "0",
      "terminal" : "0",
      "latitude" : "24.29256",
      "inDis" : "50",
      "routeId" : "168區2",
      "seqNo" : "13"
   },
   {
      "GoBack" : "2",
      "longitude" : "120.58698",
      "outDis" : "50",
      "Id" : "4139",
      "oid" : "10893",
      "districtId" : "1",
      "nameZh" : "福元批發",
      "pgp" : "0",
      "terminal" : "0",
      "latitude" : "24.29013",
      "inDis" : "50",
      "routeId" : "168區2",
      "seqNo" : "14"
   },
   {
      "GoBack" : "2",
      "longitude" : "120.58574",
      "outDis" : "50",
      "Id" : "4058",
      "oid" : "14063",
      "districtId" : "1",
      "nameZh" : "三田國小",
      "pgp" : "0",
      "terminal" : "0",
      "latitude" : "24.2882",
      "inDis" : "50",
      "routeId" : "168區2",
      "seqNo" : "15"
   },
   {
      "GoBack" : "2",
      "longitude" : "120.58338",
      "outDis" : "50",
      "Id" : "4063",
      "oid" : "14062",
      "districtId" : "1",
      "nameZh" : "下湳子",
      "pgp" : "0",
      "terminal" : "0",
      "latitude" : "24.28403",
      "inDis" : "50",
      "routeId" : "168區2",
      "seqNo" : "16"
   },
   {
      "GoBack" : "2",
      "longitude" : "120.5806",
      "outDis" : "50",
      "Id" : "4130",
      "oid" : "14061",
      "districtId" : "1",
      "nameZh" : "朝興宮",
      "pgp" : "0",
      "terminal" : "0",
      "latitude" : "24.28013",
      "inDis" : "50",
      "routeId" : "168區2",
      "seqNo" : "17"
   },
   {
      "GoBack" : "2",
      "longitude" : "120.57858",
      "outDis" : "50",
      "Id" : "4065",
      "oid" : "14060",
      "districtId" : "1",
      "nameZh" : "下湳加油站",
      "pgp" : "0",
      "terminal" : "0",
      "latitude" : "24.2778",
      "inDis" : "50",
      "routeId" : "168區2",
      "seqNo" : "18"
   },
   {
      "GoBack" : "2",
      "longitude" : "120.57725",
      "outDis" : "50",
      "Id" : "4442",
      "oid" : "10830",
      "districtId" : "1",
      "nameZh" : "中山高美路口",
      "pgp" : "0",
      "terminal" : "0",
      "latitude" : "24.27461",
      "inDis" : "50",
      "routeId" : "168區2",
      "seqNo" : "19"
   },
   {
      "GoBack" : "2",
      "longitude" : "120.57712",
      "outDis" : "50",
      "Id" : "4521",
      "oid" : "305513527",
      "districtId" : "1",
      "nameZh" : "中山董公街口",
      "pgp" : "0",
      "terminal" : "0",
      "latitude" : "24.2732",
      "inDis" : "50",
      "routeId" : "168區2",
      "seqNo" : "20"
   },
   {
      "GoBack" : "2",
      "longitude" : "120.57594",
      "outDis" : "50",
      "Id" : "3013",
      "oid" : "10843",
      "districtId" : "1",
      "nameZh" : "清水",
      "pgp" : "0",
      "terminal" : "0",
      "latitude" : "24.2703",
      "inDis" : "50",
      "routeId" : "168區2",
      "seqNo" : "21"
   },
   {
      "GoBack" : "2",
      "longitude" : "120.57516",
      "outDis" : "50",
      "Id" : "5141",
      "oid" : "14057",
      "districtId" : "1",
      "nameZh" : "華南銀行(清水分行)",
      "pgp" : "0",
      "terminal" : "0",
      "latitude" : "24.2683",
      "inDis" : "50",
      "routeId" : "168區2",
      "seqNo" : "22"
   },
   {
      "GoBack" : "2",
      "longitude" : "120.57435",
      "outDis" : "50",
      "Id" : "4119",
      "oid" : "13526",
      "districtId" : "1",
      "nameZh" : "清水高中",
      "pgp" : "0",
      "terminal" : "0",
      "latitude" : "24.2661",
      "inDis" : "50",
      "routeId" : "168區2",
      "seqNo" : "23"
   },
   {
      "GoBack" : "2",
      "longitude" : "120.57262",
      "outDis" : "50",
      "Id" : "4121",
      "oid" : "2186",
      "districtId" : "1",
      "nameZh" : "清水電信局",
      "pgp" : "0",
      "terminal" : "0",
      "latitude" : "24.26214",
      "inDis" : "50",
      "routeId" : "168區2",
      "seqNo" : "24"
   },
   {
      "GoBack" : "2",
      "longitude" : "120.5714",
      "outDis" : "50",
      "Id" : "4441",
      "oid" : "307275658",
      "districtId" : "1",
      "nameZh" : "中山星河路口",
      "pgp" : "0",
      "terminal" : "0",
      "latitude" : "24.25997",
      "inDis" : "50",
      "routeId" : "168區2",
      "seqNo" : "25"
   },
   {
      "GoBack" : "2",
      "longitude" : "120.57075",
      "outDis" : "50",
      "Id" : "4129",
      "oid" : "2188",
      "districtId" : "1",
      "nameZh" : "鹿峰里",
      "pgp" : "0",
      "terminal" : "0",
      "latitude" : "24.25885",
      "inDis" : "50",
      "routeId" : "168區2",
      "seqNo" : "26"
   },
   {
      "GoBack" : "2",
      "longitude" : "120.57005",
      "outDis" : "50",
      "Id" : "4471",
      "oid" : "14052",
      "districtId" : "1",
      "nameZh" : "勞工育樂中心",
      "pgp" : "0",
      "terminal" : "0",
      "latitude" : "24.25766",
      "inDis" : "50",
      "routeId" : "168區2",
      "seqNo" : "27"
   },
   {
      "GoBack" : "2",
      "longitude" : "120.56873",
      "outDis" : "50",
      "Id" : "4045",
      "oid" : "10725",
      "districtId" : "1",
      "nameZh" : "中峰",
      "pgp" : "0",
      "terminal" : "0",
      "latitude" : "24.25538",
      "inDis" : "50",
      "routeId" : "168區2",
      "seqNo" : "28"
   },
   {
      "GoBack" : "2",
      "longitude" : "120.56786",
      "outDis" : "50",
      "Id" : "5392",
      "oid" : "312897794",
      "districtId" : "1",
      "nameZh" : "中山長春路口",
      "pgp" : "0",
      "terminal" : "0",
      "latitude" : "24.2537",
      "inDis" : "50",
      "routeId" : "168區2",
      "seqNo" : "29"
   },
   {
      "GoBack" : "2",
      "longitude" : "120.56624",
      "outDis" : "50",
      "Id" : "4044",
      "oid" : "10865",
      "districtId" : "1",
      "nameZh" : "鹿寮",
      "pgp" : "0",
      "terminal" : "0",
      "latitude" : "24.2507",
      "inDis" : "50",
      "routeId" : "168區2",
      "seqNo" : "30"
   },
   {
      "GoBack" : "2",
      "longitude" : "120.56484",
      "outDis" : "50",
      "Id" : "5138",
      "oid" : "14049",
      "districtId" : "1",
      "nameZh" : "鹿寮成衣商圈",
      "pgp" : "0",
      "terminal" : "0",
      "latitude" : "24.2489",
      "inDis" : "50",
      "routeId" : "168區2",
      "seqNo" : "31"
   },
   {
      "GoBack" : "2",
      "longitude" : "120.56269",
      "outDis" : "50",
      "Id" : "4110",
      "oid" : "10819",
      "districtId" : "1",
      "nameZh" : "家扶中心",
      "pgp" : "0",
      "terminal" : "0",
      "latitude" : "24.24674",
      "inDis" : "50",
      "routeId" : "168區2",
      "seqNo" : "32"
   },
   {
      "GoBack" : "2",
      "longitude" : "120.56221",
      "outDis" : "50",
      "Id" : "4042",
      "oid" : "14048",
      "districtId" : "1",
      "nameZh" : "文化莊",
      "pgp" : "0",
      "terminal" : "0",
      "latitude" : "24.24518",
      "inDis" : "50",
      "routeId" : "168區2",
      "seqNo" : "33"
   },
   {
      "GoBack" : "2",
      "longitude" : "120.56127",
      "outDis" : "50",
      "Id" : "5140",
      "oid" : "14047",
      "districtId" : "1",
      "nameZh" : "童綜合醫院(沙鹿院區)",
      "pgp" : "0",
      "terminal" : "0",
      "latitude" : "24.24245",
      "inDis" : "50",
      "routeId" : "168區2",
      "seqNo" : "34"
   },
   {
      "GoBack" : "2",
      "longitude" : "120.56",
      "outDis" : "50",
      "Id" : "5135",
      "oid" : "14046",
      "districtId" : "1",
      "nameZh" : "第一銀行(沙鹿分行)",
      "pgp" : "0",
      "terminal" : "0",
      "latitude" : "24.23932",
      "inDis" : "50",
      "routeId" : "168區2",
      "seqNo" : "35"
   },
   {
      "GoBack" : "2",
      "longitude" : "120.56103",
      "outDis" : "50",
      "Id" : "2248",
      "oid" : "7094",
      "districtId" : "1",
      "nameZh" : "沙鹿站",
      "pgp" : "0",
      "terminal" : "0",
      "latitude" : "24.23783",
      "inDis" : "50",
      "routeId" : "168區2",
      "seqNo" : "36"
   }
]
