[
   {
      "GoBack" : "1",
      "longitude" : "120.61564",
      "outDis" : "50",
      "Id" : "5487",
      "oid" : "314581889",
      "districtId" : "1",
      "nameZh" : "高鐵臺中站(21月台)",
      "pgp" : "0",
      "terminal" : "0",
      "latitude" : "24.11387",
      "inDis" : "50",
      "routeId" : "153副",
      "seqNo" : "1"
   },
   {
      "GoBack" : "1",
      "longitude" : "120.63822",
      "outDis" : "50",
      "Id" : "0294",
      "oid" : "318434404",
      "districtId" : "1",
      "nameZh" : "第六分局(市政路)",
      "pgp" : "0",
      "terminal" : "0",
      "latitude" : "24.15914",
      "inDis" : "50",
      "routeId" : "153副",
      "seqNo" : "2"
   },
   {
      "GoBack" : "1",
      "longitude" : "120.64323",
      "outDis" : "50",
      "Id" : "0295",
      "oid" : "318434402",
      "districtId" : "1",
      "nameZh" : "市政惠文路口",
      "pgp" : "0",
      "terminal" : "0",
      "latitude" : "24.15627",
      "inDis" : "50",
      "routeId" : "153副",
      "seqNo" : "3"
   },
   {
      "GoBack" : "1",
      "longitude" : "120.64759",
      "outDis" : "50",
      "Id" : "0019",
      "oid" : "599B953749374273BACF21BB110728F2",
      "districtId" : "1",
      "nameZh" : "市警局",
      "pgp" : "0",
      "terminal" : "0",
      "latitude" : "24.15935",
      "inDis" : "50",
      "routeId" : "153副",
      "seqNo" : "4"
   },
   {
      "GoBack" : "1",
      "longitude" : "120.64705",
      "outDis" : "50",
      "Id" : "0017",
      "oid" : "4E87D14817EC4D778D0A6AF5C6750AA6",
      "districtId" : "1",
      "nameZh" : "臺中市政府",
      "pgp" : "0",
      "terminal" : "0",
      "latitude" : "24.16438",
      "inDis" : "50",
      "routeId" : "153副",
      "seqNo" : "5"
   },
   {
      "GoBack" : "1",
      "longitude" : "120.64426",
      "outDis" : "50",
      "Id" : "0016",
      "oid" : "F33EC9CFEBA14AA4B0B9D9B1FD66BF75",
      "districtId" : "1",
      "nameZh" : "新光三越",
      "pgp" : "0",
      "terminal" : "0",
      "latitude" : "24.16589",
      "inDis" : "50",
      "routeId" : "153副",
      "seqNo" : "6"
   },
   {
      "GoBack" : "1",
      "longitude" : "120.63957",
      "outDis" : "50",
      "Id" : "0826",
      "oid" : "13543",
      "districtId" : "1",
      "nameZh" : "秋紅谷(朝陽橋)",
      "pgp" : "0",
      "terminal" : "0",
      "latitude" : "24.16865",
      "inDis" : "50",
      "routeId" : "153副",
      "seqNo" : "7"
   },
   {
      "GoBack" : "1",
      "longitude" : "120.63717",
      "outDis" : "50",
      "Id" : "0054",
      "oid" : "313524993",
      "districtId" : "1",
      "nameZh" : "朝馬(臺灣大道)",
      "pgp" : "0",
      "terminal" : "0",
      "latitude" : "24.17059",
      "inDis" : "50",
      "routeId" : "153副",
      "seqNo" : "8"
   },
   {
      "GoBack" : "1",
      "longitude" : "120.75175",
      "outDis" : "50",
      "Id" : "4412",
      "oid" : "304270264",
      "districtId" : "1",
      "nameZh" : "國家教育研究院",
      "pgp" : "0",
      "terminal" : "0",
      "latitude" : "24.27084",
      "inDis" : "50",
      "routeId" : "153副",
      "seqNo" : "9"
   },
   {
      "GoBack" : "1",
      "longitude" : "120.76675",
      "outDis" : "50",
      "Id" : "2005",
      "oid" : "5658",
      "districtId" : "1",
      "nameZh" : "石岡水壩",
      "pgp" : "0",
      "terminal" : "0",
      "latitude" : "24.27812",
      "inDis" : "50",
      "routeId" : "153副",
      "seqNo" : "10"
   },
   {
      "GoBack" : "1",
      "longitude" : "120.77635",
      "outDis" : "50",
      "Id" : "2004",
      "oid" : "5657",
      "districtId" : "1",
      "nameZh" : "石岡",
      "pgp" : "0",
      "terminal" : "0",
      "latitude" : "24.27653",
      "inDis" : "50",
      "routeId" : "153副",
      "seqNo" : "11"
   },
   {
      "GoBack" : "1",
      "longitude" : "120.78075",
      "outDis" : "50",
      "Id" : "4456",
      "oid" : "5659",
      "districtId" : "1",
      "nameZh" : "石岡區公所",
      "pgp" : "0",
      "terminal" : "0",
      "latitude" : "24.27492",
      "inDis" : "50",
      "routeId" : "153副",
      "seqNo" : "12"
   },
   {
      "GoBack" : "1",
      "longitude" : "120.78874",
      "outDis" : "50",
      "Id" : "2983",
      "oid" : "6194",
      "districtId" : "1",
      "nameZh" : "情人木橋",
      "pgp" : "0",
      "terminal" : "0",
      "latitude" : "24.27386",
      "inDis" : "50",
      "routeId" : "153副",
      "seqNo" : "13"
   },
   {
      "GoBack" : "1",
      "longitude" : "120.79172",
      "outDis" : "50",
      "Id" : "2496",
      "oid" : "13631",
      "districtId" : "1",
      "nameZh" : "社寮角",
      "pgp" : "0",
      "terminal" : "0",
      "latitude" : "24.2726",
      "inDis" : "50",
      "routeId" : "153副",
      "seqNo" : "14"
   },
   {
      "GoBack" : "1",
      "longitude" : "120.80127",
      "outDis" : "50",
      "Id" : "3003",
      "oid" : "13633",
      "districtId" : "1",
      "nameZh" : "梅子",
      "pgp" : "0",
      "terminal" : "0",
      "latitude" : "24.26864",
      "inDis" : "50",
      "routeId" : "153副",
      "seqNo" : "15"
   },
   {
      "GoBack" : "1",
      "longitude" : "120.80692",
      "outDis" : "50",
      "Id" : "1114",
      "oid" : "13635",
      "districtId" : "1",
      "nameZh" : "下土牛",
      "pgp" : "0",
      "terminal" : "0",
      "latitude" : "24.26608",
      "inDis" : "50",
      "routeId" : "153副",
      "seqNo" : "16"
   },
   {
      "GoBack" : "1",
      "longitude" : "120.81608",
      "outDis" : "50",
      "Id" : "4430",
      "oid" : "5198",
      "districtId" : "1",
      "nameZh" : "土牛(豐勢路)",
      "pgp" : "0",
      "terminal" : "0",
      "latitude" : "24.26021",
      "inDis" : "50",
      "routeId" : "153副",
      "seqNo" : "17"
   },
   {
      "GoBack" : "1",
      "longitude" : "120.82784",
      "outDis" : "80",
      "Id" : "2428",
      "oid" : "5899",
      "districtId" : "1",
      "nameZh" : "東勢",
      "pgp" : "0",
      "terminal" : "0",
      "latitude" : "24.25838",
      "inDis" : "50",
      "routeId" : "153副",
      "seqNo" : "18"
   },
   {
      "GoBack" : "1",
      "longitude" : "120.82934",
      "outDis" : "80",
      "Id" : "2570",
      "oid" : "5987",
      "districtId" : "1",
      "nameZh" : "南平里",
      "pgp" : "0",
      "terminal" : "0",
      "latitude" : "24.25515",
      "inDis" : "50",
      "routeId" : "153副",
      "seqNo" : "19"
   },
   {
      "GoBack" : "1",
      "longitude" : "120.83003",
      "outDis" : "80",
      "Id" : "1415",
      "oid" : "5302",
      "districtId" : "1",
      "nameZh" : "中嵙口",
      "pgp" : "0",
      "terminal" : "0",
      "latitude" : "24.25251",
      "inDis" : "50",
      "routeId" : "153副",
      "seqNo" : "20"
   },
   {
      "GoBack" : "1",
      "longitude" : "120.83063",
      "outDis" : "80",
      "Id" : "4409",
      "oid" : "5889",
      "districtId" : "1",
      "nameZh" : "東勢南站",
      "pgp" : "0",
      "terminal" : "0",
      "latitude" : "24.24998",
      "inDis" : "50",
      "routeId" : "153副",
      "seqNo" : "21"
   },
   {
      "GoBack" : "1",
      "longitude" : "120.83329",
      "outDis" : "50",
      "Id" : "0312",
      "oid" : "13647",
      "districtId" : "1",
      "nameZh" : "新盛里(東勢高工)",
      "pgp" : "0",
      "terminal" : "0",
      "latitude" : "24.24339",
      "inDis" : "50",
      "routeId" : "153副",
      "seqNo" : "22"
   },
   {
      "GoBack" : "1",
      "longitude" : "120.83439",
      "outDis" : "50",
      "Id" : "2229",
      "oid" : "13648",
      "districtId" : "1",
      "nameZh" : "尾社",
      "pgp" : "0",
      "terminal" : "0",
      "latitude" : "24.23876",
      "inDis" : "50",
      "routeId" : "153副",
      "seqNo" : "23"
   },
   {
      "GoBack" : "1",
      "longitude" : "120.83723",
      "outDis" : "50",
      "Id" : "3391",
      "oid" : "6427",
      "districtId" : "1",
      "nameZh" : "新伯公",
      "pgp" : "0",
      "terminal" : "0",
      "latitude" : "24.22845",
      "inDis" : "50",
      "routeId" : "153副",
      "seqNo" : "24"
   },
   {
      "GoBack" : "1",
      "longitude" : "120.83827",
      "outDis" : "50",
      "Id" : "3329",
      "oid" : "6389",
      "districtId" : "1",
      "nameZh" : "詒新",
      "pgp" : "0",
      "terminal" : "0",
      "latitude" : "24.22503",
      "inDis" : "50",
      "routeId" : "153副",
      "seqNo" : "25"
   },
   {
      "GoBack" : "1",
      "longitude" : "120.83849",
      "outDis" : "50",
      "Id" : "1167",
      "oid" : "13653",
      "districtId" : "1",
      "nameZh" : "下城里",
      "pgp" : "0",
      "terminal" : "0",
      "latitude" : "24.22229",
      "inDis" : "50",
      "routeId" : "153副",
      "seqNo" : "26"
   },
   {
      "GoBack" : "1",
      "longitude" : "120.83825",
      "outDis" : "50",
      "Id" : "1238",
      "oid" : "13654",
      "districtId" : "1",
      "nameZh" : "上城里",
      "pgp" : "0",
      "terminal" : "0",
      "latitude" : "24.21803",
      "inDis" : "50",
      "routeId" : "153副",
      "seqNo" : "27"
   },
   {
      "GoBack" : "1",
      "longitude" : "120.83965",
      "outDis" : "50",
      "Id" : "1326",
      "oid" : "5249",
      "districtId" : "1",
      "nameZh" : "大茅埔",
      "pgp" : "0",
      "terminal" : "0",
      "latitude" : "24.20401",
      "inDis" : "50",
      "routeId" : "153副",
      "seqNo" : "28"
   },
   {
      "GoBack" : "1",
      "longitude" : "120.83925",
      "outDis" : "50",
      "Id" : "3730",
      "oid" : "13658",
      "districtId" : "1",
      "nameZh" : "慶福里",
      "pgp" : "0",
      "terminal" : "0",
      "latitude" : "24.19282",
      "inDis" : "50",
      "routeId" : "153副",
      "seqNo" : "29"
   },
   {
      "GoBack" : "1",
      "longitude" : "120.84056",
      "outDis" : "50",
      "Id" : "1239",
      "oid" : "5184",
      "districtId" : "1",
      "nameZh" : "上段",
      "pgp" : "0",
      "terminal" : "0",
      "latitude" : "24.184",
      "inDis" : "50",
      "routeId" : "153副",
      "seqNo" : "30"
   },
   {
      "GoBack" : "1",
      "longitude" : "120.83959",
      "outDis" : "50",
      "Id" : "2902",
      "oid" : "6167",
      "districtId" : "1",
      "nameZh" : "馬鞍寮",
      "pgp" : "0",
      "terminal" : "0",
      "latitude" : "24.17144",
      "inDis" : "50",
      "routeId" : "153副",
      "seqNo" : "31"
   },
   {
      "GoBack" : "1",
      "longitude" : "120.8604",
      "outDis" : "50",
      "Id" : "1627",
      "oid" : "5432",
      "districtId" : "1",
      "nameZh" : "天冷",
      "pgp" : "0",
      "terminal" : "0",
      "latitude" : "24.16097",
      "inDis" : "50",
      "routeId" : "153副",
      "seqNo" : "32"
   },
   {
      "GoBack" : "1",
      "longitude" : "120.88207",
      "outDis" : "50",
      "Id" : "2307",
      "oid" : "5830",
      "districtId" : "1",
      "nameZh" : "和平",
      "pgp" : "0",
      "terminal" : "0",
      "latitude" : "24.17506",
      "inDis" : "50",
      "routeId" : "153副",
      "seqNo" : "33"
   },
   {
      "GoBack" : "1",
      "longitude" : "120.88386",
      "outDis" : "50",
      "Id" : "5043",
      "oid" : "13673",
      "districtId" : "1",
      "nameZh" : "和平區農會",
      "pgp" : "0",
      "terminal" : "0",
      "latitude" : "24.17472",
      "inDis" : "50",
      "routeId" : "153副",
      "seqNo" : "34"
   },
   {
      "GoBack" : "1",
      "longitude" : "120.88895",
      "outDis" : "50",
      "Id" : "4463",
      "oid" : "13798",
      "districtId" : "1",
      "nameZh" : "和平衛生所",
      "pgp" : "0",
      "terminal" : "0",
      "latitude" : "24.17389",
      "inDis" : "50",
      "routeId" : "153副",
      "seqNo" : "35"
   },
   {
      "GoBack" : "1",
      "longitude" : "120.89539",
      "outDis" : "50",
      "Id" : "0128",
      "oid" : "5833",
      "districtId" : "1",
      "nameZh" : "和平國小",
      "pgp" : "0",
      "terminal" : "0",
      "latitude" : "24.17177",
      "inDis" : "50",
      "routeId" : "153副",
      "seqNo" : "36"
   },
   {
      "GoBack" : "1",
      "longitude" : "120.89688",
      "outDis" : "50",
      "Id" : "2611",
      "oid" : "6013",
      "districtId" : "1",
      "nameZh" : "南勢(東關路)",
      "pgp" : "0",
      "terminal" : "0",
      "latitude" : "24.16919",
      "inDis" : "50",
      "routeId" : "153副",
      "seqNo" : "37"
   },
   {
      "GoBack" : "1",
      "longitude" : "120.90418",
      "outDis" : "50",
      "Id" : "1141",
      "oid" : "5121",
      "districtId" : "1",
      "nameZh" : "下白鹿",
      "pgp" : "0",
      "terminal" : "0",
      "latitude" : "24.16919",
      "inDis" : "50",
      "routeId" : "153副",
      "seqNo" : "38"
   },
   {
      "GoBack" : "1",
      "longitude" : "120.91257",
      "outDis" : "50",
      "Id" : "5747",
      "oid" : "320569662",
      "districtId" : "1",
      "nameZh" : "馬鞍壩",
      "pgp" : "0",
      "terminal" : "0",
      "latitude" : "24.18374",
      "inDis" : "50",
      "routeId" : "153副",
      "seqNo" : "39"
   },
   {
      "GoBack" : "1",
      "longitude" : "120.92502",
      "outDis" : "50",
      "Id" : "1997",
      "oid" : "5650",
      "districtId" : "1",
      "nameZh" : "白冷",
      "pgp" : "0",
      "terminal" : "0",
      "latitude" : "24.18316",
      "inDis" : "50",
      "routeId" : "153副",
      "seqNo" : "40"
   },
   {
      "GoBack" : "1",
      "longitude" : "120.9414",
      "outDis" : "50",
      "Id" : "1358",
      "oid" : "5272",
      "districtId" : "1",
      "nameZh" : "大道院",
      "pgp" : "0",
      "terminal" : "0",
      "latitude" : "24.17067",
      "inDis" : "50",
      "routeId" : "153副",
      "seqNo" : "41"
   },
   {
      "GoBack" : "1",
      "longitude" : "120.94867",
      "outDis" : "50",
      "Id" : "3564",
      "oid" : "6519",
      "districtId" : "1",
      "nameZh" : "裡冷",
      "pgp" : "0",
      "terminal" : "0",
      "latitude" : "24.16679",
      "inDis" : "50",
      "routeId" : "153副",
      "seqNo" : "42"
   },
   {
      "GoBack" : "1",
      "longitude" : "120.96393",
      "outDis" : "50",
      "Id" : "2477",
      "oid" : "12293",
      "districtId" : "1",
      "nameZh" : "武漢技訓中心",
      "pgp" : "0",
      "terminal" : "0",
      "latitude" : "24.17199",
      "inDis" : "50",
      "routeId" : "153副",
      "seqNo" : "43"
   },
   {
      "GoBack" : "1",
      "longitude" : "120.97911",
      "outDis" : "50",
      "Id" : "2468",
      "oid" : "5927",
      "districtId" : "1",
      "nameZh" : "松鶴",
      "pgp" : "0",
      "terminal" : "0",
      "latitude" : "24.17936",
      "inDis" : "50",
      "routeId" : "153副",
      "seqNo" : "44"
   },
   {
      "GoBack" : "1",
      "longitude" : "120.98943",
      "outDis" : "50",
      "Id" : "3984",
      "oid" : "6728",
      "districtId" : "1",
      "nameZh" : "麗陽",
      "pgp" : "0",
      "terminal" : "0",
      "latitude" : "24.18691",
      "inDis" : "50",
      "routeId" : "153副",
      "seqNo" : "45"
   },
   {
      "GoBack" : "1",
      "longitude" : "121.00015",
      "outDis" : "50",
      "Id" : "1041",
      "oid" : "7898",
      "districtId" : "1",
      "nameZh" : "十文溪",
      "pgp" : "0",
      "terminal" : "0",
      "latitude" : "24.19807",
      "inDis" : "50",
      "routeId" : "153副",
      "seqNo" : "46"
   },
   {
      "GoBack" : "1",
      "longitude" : "121.00157",
      "outDis" : "50",
      "Id" : "2290",
      "oid" : "5818",
      "districtId" : "1",
      "nameZh" : "佳保臺",
      "pgp" : "0",
      "terminal" : "0",
      "latitude" : "24.2009",
      "inDis" : "50",
      "routeId" : "153副",
      "seqNo" : "47"
   },
   {
      "GoBack" : "1",
      "longitude" : "121.00436",
      "outDis" : "50",
      "Id" : "3852",
      "oid" : "6655",
      "districtId" : "1",
      "nameZh" : "龍谷樂園",
      "pgp" : "0",
      "terminal" : "0",
      "latitude" : "24.20283",
      "inDis" : "50",
      "routeId" : "153副",
      "seqNo" : "48"
   },
   {
      "GoBack" : "1",
      "longitude" : "121.00817",
      "outDis" : "80",
      "Id" : "2274",
      "oid" : "5808",
      "districtId" : "1",
      "nameZh" : "谷關",
      "pgp" : "0",
      "terminal" : "0",
      "latitude" : "24.20299",
      "inDis" : "80",
      "routeId" : "153副",
      "seqNo" : "49"
   },
   {
      "GoBack" : "2",
      "longitude" : "121.00817",
      "outDis" : "80",
      "Id" : "2274",
      "oid" : "5808",
      "districtId" : "1",
      "nameZh" : "谷關",
      "pgp" : "0",
      "terminal" : "0",
      "latitude" : "24.20299",
      "inDis" : "80",
      "routeId" : "153副",
      "seqNo" : "1"
   },
   {
      "GoBack" : "2",
      "longitude" : "121.00436",
      "outDis" : "50",
      "Id" : "3852",
      "oid" : "6655",
      "districtId" : "1",
      "nameZh" : "龍谷樂園",
      "pgp" : "0",
      "terminal" : "0",
      "latitude" : "24.20283",
      "inDis" : "50",
      "routeId" : "153副",
      "seqNo" : "2"
   },
   {
      "GoBack" : "2",
      "longitude" : "121.00157",
      "outDis" : "50",
      "Id" : "2290",
      "oid" : "5818",
      "districtId" : "1",
      "nameZh" : "佳保臺",
      "pgp" : "0",
      "terminal" : "0",
      "latitude" : "24.2009",
      "inDis" : "50",
      "routeId" : "153副",
      "seqNo" : "3"
   },
   {
      "GoBack" : "2",
      "longitude" : "121.00015",
      "outDis" : "50",
      "Id" : "1041",
      "oid" : "7898",
      "districtId" : "1",
      "nameZh" : "十文溪",
      "pgp" : "0",
      "terminal" : "0",
      "latitude" : "24.19807",
      "inDis" : "50",
      "routeId" : "153副",
      "seqNo" : "4"
   },
   {
      "GoBack" : "2",
      "longitude" : "120.98943",
      "outDis" : "50",
      "Id" : "3984",
      "oid" : "6728",
      "districtId" : "1",
      "nameZh" : "麗陽",
      "pgp" : "0",
      "terminal" : "0",
      "latitude" : "24.18691",
      "inDis" : "50",
      "routeId" : "153副",
      "seqNo" : "5"
   },
   {
      "GoBack" : "2",
      "longitude" : "120.97911",
      "outDis" : "50",
      "Id" : "2468",
      "oid" : "5927",
      "districtId" : "1",
      "nameZh" : "松鶴",
      "pgp" : "0",
      "terminal" : "0",
      "latitude" : "24.17936",
      "inDis" : "50",
      "routeId" : "153副",
      "seqNo" : "6"
   },
   {
      "GoBack" : "2",
      "longitude" : "120.96393",
      "outDis" : "50",
      "Id" : "2477",
      "oid" : "12293",
      "districtId" : "1",
      "nameZh" : "武漢技訓中心",
      "pgp" : "0",
      "terminal" : "0",
      "latitude" : "24.17199",
      "inDis" : "50",
      "routeId" : "153副",
      "seqNo" : "7"
   },
   {
      "GoBack" : "2",
      "longitude" : "120.94867",
      "outDis" : "50",
      "Id" : "3564",
      "oid" : "6519",
      "districtId" : "1",
      "nameZh" : "裡冷",
      "pgp" : "0",
      "terminal" : "0",
      "latitude" : "24.16679",
      "inDis" : "50",
      "routeId" : "153副",
      "seqNo" : "8"
   },
   {
      "GoBack" : "2",
      "longitude" : "120.9414",
      "outDis" : "50",
      "Id" : "1358",
      "oid" : "5272",
      "districtId" : "1",
      "nameZh" : "大道院",
      "pgp" : "0",
      "terminal" : "0",
      "latitude" : "24.17067",
      "inDis" : "50",
      "routeId" : "153副",
      "seqNo" : "9"
   },
   {
      "GoBack" : "2",
      "longitude" : "120.92502",
      "outDis" : "50",
      "Id" : "1997",
      "oid" : "5650",
      "districtId" : "1",
      "nameZh" : "白冷",
      "pgp" : "0",
      "terminal" : "0",
      "latitude" : "24.18316",
      "inDis" : "50",
      "routeId" : "153副",
      "seqNo" : "10"
   },
   {
      "GoBack" : "2",
      "longitude" : "120.91257",
      "outDis" : "50",
      "Id" : "5747",
      "oid" : "320569662",
      "districtId" : "1",
      "nameZh" : "馬鞍壩",
      "pgp" : "0",
      "terminal" : "0",
      "latitude" : "24.18374",
      "inDis" : "50",
      "routeId" : "153副",
      "seqNo" : "11"
   },
   {
      "GoBack" : "2",
      "longitude" : "120.90418",
      "outDis" : "50",
      "Id" : "1141",
      "oid" : "5121",
      "districtId" : "1",
      "nameZh" : "下白鹿",
      "pgp" : "0",
      "terminal" : "0",
      "latitude" : "24.16919",
      "inDis" : "50",
      "routeId" : "153副",
      "seqNo" : "12"
   },
   {
      "GoBack" : "2",
      "longitude" : "120.89688",
      "outDis" : "50",
      "Id" : "2611",
      "oid" : "6013",
      "districtId" : "1",
      "nameZh" : "南勢(東關路)",
      "pgp" : "0",
      "terminal" : "0",
      "latitude" : "24.16919",
      "inDis" : "50",
      "routeId" : "153副",
      "seqNo" : "13"
   },
   {
      "GoBack" : "2",
      "longitude" : "120.89539",
      "outDis" : "50",
      "Id" : "0128",
      "oid" : "5833",
      "districtId" : "1",
      "nameZh" : "和平國小",
      "pgp" : "0",
      "terminal" : "0",
      "latitude" : "24.17177",
      "inDis" : "50",
      "routeId" : "153副",
      "seqNo" : "14"
   },
   {
      "GoBack" : "2",
      "longitude" : "120.88895",
      "outDis" : "50",
      "Id" : "4463",
      "oid" : "13798",
      "districtId" : "1",
      "nameZh" : "和平衛生所",
      "pgp" : "0",
      "terminal" : "0",
      "latitude" : "24.17389",
      "inDis" : "50",
      "routeId" : "153副",
      "seqNo" : "15"
   },
   {
      "GoBack" : "2",
      "longitude" : "120.88386",
      "outDis" : "50",
      "Id" : "5043",
      "oid" : "13673",
      "districtId" : "1",
      "nameZh" : "和平區農會",
      "pgp" : "0",
      "terminal" : "0",
      "latitude" : "24.17472",
      "inDis" : "50",
      "routeId" : "153副",
      "seqNo" : "16"
   },
   {
      "GoBack" : "2",
      "longitude" : "120.88207",
      "outDis" : "50",
      "Id" : "2307",
      "oid" : "5830",
      "districtId" : "1",
      "nameZh" : "和平",
      "pgp" : "0",
      "terminal" : "0",
      "latitude" : "24.17506",
      "inDis" : "50",
      "routeId" : "153副",
      "seqNo" : "17"
   },
   {
      "GoBack" : "2",
      "longitude" : "120.8604",
      "outDis" : "50",
      "Id" : "1627",
      "oid" : "5432",
      "districtId" : "1",
      "nameZh" : "天冷",
      "pgp" : "0",
      "terminal" : "0",
      "latitude" : "24.16097",
      "inDis" : "50",
      "routeId" : "153副",
      "seqNo" : "18"
   },
   {
      "GoBack" : "2",
      "longitude" : "120.83959",
      "outDis" : "50",
      "Id" : "2902",
      "oid" : "6167",
      "districtId" : "1",
      "nameZh" : "馬鞍寮",
      "pgp" : "0",
      "terminal" : "0",
      "latitude" : "24.17144",
      "inDis" : "50",
      "routeId" : "153副",
      "seqNo" : "19"
   },
   {
      "GoBack" : "2",
      "longitude" : "120.84056",
      "outDis" : "50",
      "Id" : "1239",
      "oid" : "5184",
      "districtId" : "1",
      "nameZh" : "上段",
      "pgp" : "0",
      "terminal" : "0",
      "latitude" : "24.184",
      "inDis" : "50",
      "routeId" : "153副",
      "seqNo" : "20"
   },
   {
      "GoBack" : "2",
      "longitude" : "120.83925",
      "outDis" : "50",
      "Id" : "3730",
      "oid" : "13658",
      "districtId" : "1",
      "nameZh" : "慶福里",
      "pgp" : "0",
      "terminal" : "0",
      "latitude" : "24.19282",
      "inDis" : "50",
      "routeId" : "153副",
      "seqNo" : "21"
   },
   {
      "GoBack" : "2",
      "longitude" : "120.83965",
      "outDis" : "50",
      "Id" : "1326",
      "oid" : "5249",
      "districtId" : "1",
      "nameZh" : "大茅埔",
      "pgp" : "0",
      "terminal" : "0",
      "latitude" : "24.20401",
      "inDis" : "50",
      "routeId" : "153副",
      "seqNo" : "22"
   },
   {
      "GoBack" : "2",
      "longitude" : "120.83825",
      "outDis" : "50",
      "Id" : "1238",
      "oid" : "13654",
      "districtId" : "1",
      "nameZh" : "上城里",
      "pgp" : "0",
      "terminal" : "0",
      "latitude" : "24.21803",
      "inDis" : "50",
      "routeId" : "153副",
      "seqNo" : "23"
   },
   {
      "GoBack" : "2",
      "longitude" : "120.83849",
      "outDis" : "50",
      "Id" : "1167",
      "oid" : "13653",
      "districtId" : "1",
      "nameZh" : "下城里",
      "pgp" : "0",
      "terminal" : "0",
      "latitude" : "24.22229",
      "inDis" : "50",
      "routeId" : "153副",
      "seqNo" : "24"
   },
   {
      "GoBack" : "2",
      "longitude" : "120.83827",
      "outDis" : "50",
      "Id" : "3329",
      "oid" : "6389",
      "districtId" : "1",
      "nameZh" : "詒新",
      "pgp" : "0",
      "terminal" : "0",
      "latitude" : "24.22503",
      "inDis" : "50",
      "routeId" : "153副",
      "seqNo" : "25"
   },
   {
      "GoBack" : "2",
      "longitude" : "120.83723",
      "outDis" : "50",
      "Id" : "3391",
      "oid" : "6427",
      "districtId" : "1",
      "nameZh" : "新伯公",
      "pgp" : "0",
      "terminal" : "0",
      "latitude" : "24.22845",
      "inDis" : "50",
      "routeId" : "153副",
      "seqNo" : "26"
   },
   {
      "GoBack" : "2",
      "longitude" : "120.83439",
      "outDis" : "50",
      "Id" : "2229",
      "oid" : "13648",
      "districtId" : "1",
      "nameZh" : "尾社",
      "pgp" : "0",
      "terminal" : "0",
      "latitude" : "24.23876",
      "inDis" : "50",
      "routeId" : "153副",
      "seqNo" : "27"
   },
   {
      "GoBack" : "2",
      "longitude" : "120.83329",
      "outDis" : "50",
      "Id" : "0312",
      "oid" : "13647",
      "districtId" : "1",
      "nameZh" : "新盛里(東勢高工)",
      "pgp" : "0",
      "terminal" : "0",
      "latitude" : "24.24339",
      "inDis" : "50",
      "routeId" : "153副",
      "seqNo" : "28"
   },
   {
      "GoBack" : "2",
      "longitude" : "120.83063",
      "outDis" : "80",
      "Id" : "4409",
      "oid" : "5889",
      "districtId" : "1",
      "nameZh" : "東勢南站",
      "pgp" : "0",
      "terminal" : "0",
      "latitude" : "24.24998",
      "inDis" : "50",
      "routeId" : "153副",
      "seqNo" : "29"
   },
   {
      "GoBack" : "2",
      "longitude" : "120.83003",
      "outDis" : "80",
      "Id" : "1415",
      "oid" : "5302",
      "districtId" : "1",
      "nameZh" : "中嵙口",
      "pgp" : "0",
      "terminal" : "0",
      "latitude" : "24.25251",
      "inDis" : "50",
      "routeId" : "153副",
      "seqNo" : "30"
   },
   {
      "GoBack" : "2",
      "longitude" : "120.82934",
      "outDis" : "80",
      "Id" : "2570",
      "oid" : "5987",
      "districtId" : "1",
      "nameZh" : "南平里",
      "pgp" : "0",
      "terminal" : "0",
      "latitude" : "24.25515",
      "inDis" : "50",
      "routeId" : "153副",
      "seqNo" : "31"
   },
   {
      "GoBack" : "2",
      "longitude" : "120.82784",
      "outDis" : "80",
      "Id" : "2428",
      "oid" : "5899",
      "districtId" : "1",
      "nameZh" : "東勢",
      "pgp" : "0",
      "terminal" : "0",
      "latitude" : "24.25838",
      "inDis" : "50",
      "routeId" : "153副",
      "seqNo" : "32"
   },
   {
      "GoBack" : "2",
      "longitude" : "120.81608",
      "outDis" : "50",
      "Id" : "4430",
      "oid" : "5198",
      "districtId" : "1",
      "nameZh" : "土牛(豐勢路)",
      "pgp" : "0",
      "terminal" : "0",
      "latitude" : "24.26021",
      "inDis" : "50",
      "routeId" : "153副",
      "seqNo" : "33"
   },
   {
      "GoBack" : "2",
      "longitude" : "120.80692",
      "outDis" : "50",
      "Id" : "1114",
      "oid" : "13635",
      "districtId" : "1",
      "nameZh" : "下土牛",
      "pgp" : "0",
      "terminal" : "0",
      "latitude" : "24.26608",
      "inDis" : "50",
      "routeId" : "153副",
      "seqNo" : "34"
   },
   {
      "GoBack" : "2",
      "longitude" : "120.80127",
      "outDis" : "50",
      "Id" : "3003",
      "oid" : "13633",
      "districtId" : "1",
      "nameZh" : "梅子",
      "pgp" : "0",
      "terminal" : "0",
      "latitude" : "24.26864",
      "inDis" : "50",
      "routeId" : "153副",
      "seqNo" : "35"
   },
   {
      "GoBack" : "2",
      "longitude" : "120.79172",
      "outDis" : "50",
      "Id" : "2496",
      "oid" : "13631",
      "districtId" : "1",
      "nameZh" : "社寮角",
      "pgp" : "0",
      "terminal" : "0",
      "latitude" : "24.2726",
      "inDis" : "50",
      "routeId" : "153副",
      "seqNo" : "36"
   },
   {
      "GoBack" : "2",
      "longitude" : "120.78874",
      "outDis" : "50",
      "Id" : "2983",
      "oid" : "6194",
      "districtId" : "1",
      "nameZh" : "情人木橋",
      "pgp" : "0",
      "terminal" : "0",
      "latitude" : "24.27386",
      "inDis" : "50",
      "routeId" : "153副",
      "seqNo" : "37"
   },
   {
      "GoBack" : "2",
      "longitude" : "120.78075",
      "outDis" : "50",
      "Id" : "4456",
      "oid" : "5659",
      "districtId" : "1",
      "nameZh" : "石岡區公所",
      "pgp" : "0",
      "terminal" : "0",
      "latitude" : "24.27492",
      "inDis" : "50",
      "routeId" : "153副",
      "seqNo" : "38"
   },
   {
      "GoBack" : "2",
      "longitude" : "120.77635",
      "outDis" : "50",
      "Id" : "2004",
      "oid" : "5657",
      "districtId" : "1",
      "nameZh" : "石岡",
      "pgp" : "0",
      "terminal" : "0",
      "latitude" : "24.27653",
      "inDis" : "50",
      "routeId" : "153副",
      "seqNo" : "39"
   },
   {
      "GoBack" : "2",
      "longitude" : "120.76675",
      "outDis" : "50",
      "Id" : "2005",
      "oid" : "5658",
      "districtId" : "1",
      "nameZh" : "石岡水壩",
      "pgp" : "0",
      "terminal" : "0",
      "latitude" : "24.27812",
      "inDis" : "50",
      "routeId" : "153副",
      "seqNo" : "40"
   },
   {
      "GoBack" : "2",
      "longitude" : "120.75175",
      "outDis" : "50",
      "Id" : "4412",
      "oid" : "304270264",
      "districtId" : "1",
      "nameZh" : "國家教育研究院",
      "pgp" : "0",
      "terminal" : "0",
      "latitude" : "24.27084",
      "inDis" : "50",
      "routeId" : "153副",
      "seqNo" : "41"
   },
   {
      "GoBack" : "2",
      "longitude" : "120.63717",
      "outDis" : "50",
      "Id" : "0054",
      "oid" : "313524993",
      "districtId" : "1",
      "nameZh" : "朝馬(臺灣大道)",
      "pgp" : "0",
      "terminal" : "0",
      "latitude" : "24.17059",
      "inDis" : "50",
      "routeId" : "153副",
      "seqNo" : "42"
   },
   {
      "GoBack" : "2",
      "longitude" : "120.63957",
      "outDis" : "50",
      "Id" : "0826",
      "oid" : "13543",
      "districtId" : "1",
      "nameZh" : "秋紅谷(朝陽橋)",
      "pgp" : "0",
      "terminal" : "0",
      "latitude" : "24.16865",
      "inDis" : "50",
      "routeId" : "153副",
      "seqNo" : "43"
   },
   {
      "GoBack" : "2",
      "longitude" : "120.64426",
      "outDis" : "50",
      "Id" : "0016",
      "oid" : "F33EC9CFEBA14AA4B0B9D9B1FD66BF75",
      "districtId" : "1",
      "nameZh" : "新光三越",
      "pgp" : "0",
      "terminal" : "0",
      "latitude" : "24.16589",
      "inDis" : "50",
      "routeId" : "153副",
      "seqNo" : "44"
   },
   {
      "GoBack" : "2",
      "longitude" : "120.64705",
      "outDis" : "50",
      "Id" : "0017",
      "oid" : "4E87D14817EC4D778D0A6AF5C6750AA6",
      "districtId" : "1",
      "nameZh" : "臺中市政府",
      "pgp" : "0",
      "terminal" : "0",
      "latitude" : "24.16438",
      "inDis" : "50",
      "routeId" : "153副",
      "seqNo" : "45"
   },
   {
      "GoBack" : "2",
      "longitude" : "120.64759",
      "outDis" : "50",
      "Id" : "0019",
      "oid" : "599B953749374273BACF21BB110728F2",
      "districtId" : "1",
      "nameZh" : "市警局",
      "pgp" : "0",
      "terminal" : "0",
      "latitude" : "24.15935",
      "inDis" : "50",
      "routeId" : "153副",
      "seqNo" : "46"
   },
   {
      "GoBack" : "2",
      "longitude" : "120.64323",
      "outDis" : "50",
      "Id" : "0295",
      "oid" : "318434402",
      "districtId" : "1",
      "nameZh" : "市政惠文路口",
      "pgp" : "0",
      "terminal" : "0",
      "latitude" : "24.15627",
      "inDis" : "50",
      "routeId" : "153副",
      "seqNo" : "47"
   },
   {
      "GoBack" : "2",
      "longitude" : "120.63822",
      "outDis" : "50",
      "Id" : "0294",
      "oid" : "318434404",
      "districtId" : "1",
      "nameZh" : "第六分局(市政路)",
      "pgp" : "0",
      "terminal" : "0",
      "latitude" : "24.15914",
      "inDis" : "50",
      "routeId" : "153副",
      "seqNo" : "48"
   },
   {
      "GoBack" : "2",
      "longitude" : "120.61564",
      "outDis" : "50",
      "Id" : "5487",
      "oid" : "314581889",
      "districtId" : "1",
      "nameZh" : "高鐵臺中站(21月台)",
      "pgp" : "0",
      "terminal" : "0",
      "latitude" : "24.11387",
      "inDis" : "50",
      "routeId" : "153副",
      "seqNo" : "49"
   }
]
