[
   {
      "GoBack" : "1",
      "longitude" : "120.73022",
      "outDis" : "50",
      "Id" : "2934",
      "oid" : "3866",
      "districtId" : "1",
      "nameZh" : "國軍臺中總醫院",
      "pgp" : "0",
      "terminal" : "0",
      "latitude" : "24.1504",
      "inDis" : "50",
      "routeId" : "287",
      "seqNo" : "1"
   },
   {
      "GoBack" : "1",
      "longitude" : "120.73265",
      "outDis" : "50",
      "Id" : "0346",
      "oid" : "1685BEC76E5D445895FC89C8EC21A0D3",
      "districtId" : "1",
      "nameZh" : "叉路口",
      "pgp" : "0",
      "terminal" : "0",
      "latitude" : "24.15062",
      "inDis" : "50",
      "routeId" : "287",
      "seqNo" : "2"
   },
   {
      "GoBack" : "1",
      "longitude" : "120.73435",
      "outDis" : "50",
      "Id" : "4350",
      "oid" : "13262",
      "districtId" : "1",
      "nameZh" : "太平國中",
      "pgp" : "0",
      "terminal" : "0",
      "latitude" : "24.1491",
      "inDis" : "50",
      "routeId" : "287",
      "seqNo" : "3"
   },
   {
      "GoBack" : "1",
      "longitude" : "120.73363",
      "outDis" : "50",
      "Id" : "0319",
      "oid" : "5067",
      "districtId" : "1",
      "nameZh" : "三中心",
      "pgp" : "0",
      "terminal" : "0",
      "latitude" : "24.14669",
      "inDis" : "50",
      "routeId" : "287",
      "seqNo" : "4"
   },
   {
      "GoBack" : "1",
      "longitude" : "120.73424",
      "outDis" : "50",
      "Id" : "0632",
      "oid" : "13309",
      "districtId" : "1",
      "nameZh" : "坪林",
      "pgp" : "0",
      "terminal" : "0",
      "latitude" : "24.14494",
      "inDis" : "50",
      "routeId" : "287",
      "seqNo" : "5"
   },
   {
      "GoBack" : "1",
      "longitude" : "120.73343",
      "outDis" : "50",
      "Id" : "4364",
      "oid" : "13225",
      "districtId" : "1",
      "nameZh" : "勤益科技大學",
      "pgp" : "0",
      "terminal" : "0",
      "latitude" : "24.14279",
      "inDis" : "50",
      "routeId" : "287",
      "seqNo" : "6"
   },
   {
      "GoBack" : "1",
      "longitude" : "120.73245",
      "outDis" : "50",
      "Id" : "1637",
      "oid" : "8E0118F37A774922B5D7562D1170B6D6",
      "districtId" : "1",
      "nameZh" : "太平分局",
      "pgp" : "0",
      "terminal" : "0",
      "latitude" : "24.14151",
      "inDis" : "50",
      "routeId" : "287",
      "seqNo" : "7"
   },
   {
      "GoBack" : "1",
      "longitude" : "120.73219",
      "outDis" : "50",
      "Id" : "0631",
      "oid" : "13168",
      "districtId" : "1",
      "nameZh" : "和平橋",
      "pgp" : "0",
      "terminal" : "0",
      "latitude" : "24.141",
      "inDis" : "50",
      "routeId" : "287",
      "seqNo" : "8"
   },
   {
      "GoBack" : "1",
      "longitude" : "120.73204",
      "outDis" : "50",
      "Id" : "5547",
      "oid" : "316462701",
      "districtId" : "1",
      "nameZh" : "洪厝庄",
      "pgp" : "0",
      "terminal" : "0",
      "latitude" : "24.13917",
      "inDis" : "50",
      "routeId" : "287",
      "seqNo" : "9"
   },
   {
      "GoBack" : "1",
      "longitude" : "120.7325",
      "outDis" : "50",
      "Id" : "4229",
      "oid" : "13164",
      "districtId" : "1",
      "nameZh" : "亞姆拉公司",
      "pgp" : "0",
      "terminal" : "0",
      "latitude" : "24.13701",
      "inDis" : "50",
      "routeId" : "287",
      "seqNo" : "10"
   },
   {
      "GoBack" : "1",
      "longitude" : "120.73561",
      "outDis" : "50",
      "Id" : "0977",
      "oid" : "7892",
      "districtId" : "1",
      "nameZh" : "一江橋",
      "pgp" : "0",
      "terminal" : "0",
      "latitude" : "24.13352",
      "inDis" : "50",
      "routeId" : "287",
      "seqNo" : "11"
   },
   {
      "GoBack" : "1",
      "longitude" : "120.73919",
      "outDis" : "50",
      "Id" : "5259",
      "oid" : "310787826",
      "districtId" : "1",
      "nameZh" : "腦館(長龍路)",
      "pgp" : "0",
      "terminal" : "0",
      "latitude" : "24.13102",
      "inDis" : "50",
      "routeId" : "287",
      "seqNo" : "12"
   },
   {
      "GoBack" : "1",
      "longitude" : "120.74155",
      "outDis" : "50",
      "Id" : "3677",
      "oid" : "6569",
      "districtId" : "1",
      "nameZh" : "福嚴寺",
      "pgp" : "0",
      "terminal" : "0",
      "latitude" : "24.13101",
      "inDis" : "50",
      "routeId" : "287",
      "seqNo" : "13"
   },
   {
      "GoBack" : "1",
      "longitude" : "120.74455",
      "outDis" : "50",
      "Id" : "2731",
      "oid" : "6084",
      "districtId" : "1",
      "nameZh" : "香蕉市場",
      "pgp" : "0",
      "terminal" : "0",
      "latitude" : "24.13078",
      "inDis" : "50",
      "routeId" : "287",
      "seqNo" : "14"
   },
   {
      "GoBack" : "1",
      "longitude" : "120.74783",
      "outDis" : "50",
      "Id" : "1569",
      "oid" : "5389",
      "districtId" : "1",
      "nameZh" : "內城橋",
      "pgp" : "0",
      "terminal" : "0",
      "latitude" : "24.12654",
      "inDis" : "50",
      "routeId" : "287",
      "seqNo" : "15"
   },
   {
      "GoBack" : "1",
      "longitude" : "120.74906",
      "outDis" : "50",
      "Id" : "3827",
      "oid" : "6640",
      "districtId" : "1",
      "nameZh" : "頭汴坑",
      "pgp" : "0",
      "terminal" : "0",
      "latitude" : "24.12462",
      "inDis" : "50",
      "routeId" : "287",
      "seqNo" : "16"
   },
   {
      "GoBack" : "1",
      "longitude" : "120.75052",
      "outDis" : "50",
      "Id" : "3830",
      "oid" : "6643",
      "districtId" : "1",
      "nameZh" : "頭汴國小",
      "pgp" : "0",
      "terminal" : "0",
      "latitude" : "24.12314",
      "inDis" : "50",
      "routeId" : "287",
      "seqNo" : "17"
   },
   {
      "GoBack" : "1",
      "longitude" : "120.75138",
      "outDis" : "50",
      "Id" : "3179",
      "oid" : "6316",
      "districtId" : "1",
      "nameZh" : "頂頭汴坑",
      "pgp" : "0",
      "terminal" : "0",
      "latitude" : "24.12213",
      "inDis" : "50",
      "routeId" : "287",
      "seqNo" : "18"
   },
   {
      "GoBack" : "1",
      "longitude" : "120.757",
      "outDis" : "50",
      "Id" : "3861",
      "oid" : "6659",
      "districtId" : "1",
      "nameZh" : "龍眼腳",
      "pgp" : "0",
      "terminal" : "0",
      "latitude" : "24.11995",
      "inDis" : "50",
      "routeId" : "287",
      "seqNo" : "19"
   },
   {
      "GoBack" : "1",
      "longitude" : "120.75857",
      "outDis" : "50",
      "Id" : "2538",
      "oid" : "5964",
      "districtId" : "1",
      "nameZh" : "長龍吊橋",
      "pgp" : "0",
      "terminal" : "0",
      "latitude" : "24.11763",
      "inDis" : "50",
      "routeId" : "287",
      "seqNo" : "20"
   },
   {
      "GoBack" : "1",
      "longitude" : "120.76243",
      "outDis" : "50",
      "Id" : "3641",
      "oid" : "6547",
      "districtId" : "1",
      "nameZh" : "福利社",
      "pgp" : "0",
      "terminal" : "0",
      "latitude" : "24.11509",
      "inDis" : "50",
      "routeId" : "287",
      "seqNo" : "21"
   },
   {
      "GoBack" : "1",
      "longitude" : "120.76286",
      "outDis" : "50",
      "Id" : "2076",
      "oid" : "5702",
      "districtId" : "1",
      "nameZh" : "吊橋頭",
      "pgp" : "0",
      "terminal" : "0",
      "latitude" : "24.11296",
      "inDis" : "50",
      "routeId" : "287",
      "seqNo" : "22"
   },
   {
      "GoBack" : "1",
      "longitude" : "120.76489",
      "outDis" : "50",
      "Id" : "1101",
      "oid" : "5094",
      "districtId" : "1",
      "nameZh" : "三號橋",
      "pgp" : "0",
      "terminal" : "0",
      "latitude" : "24.10992",
      "inDis" : "50",
      "routeId" : "287",
      "seqNo" : "23"
   },
   {
      "GoBack" : "1",
      "longitude" : "120.76612",
      "outDis" : "50",
      "Id" : "5251",
      "oid" : "310787810",
      "districtId" : "1",
      "nameZh" : "草嶺橋",
      "pgp" : "0",
      "terminal" : "0",
      "latitude" : "24.10671",
      "inDis" : "50",
      "routeId" : "287",
      "seqNo" : "24"
   },
   {
      "GoBack" : "1",
      "longitude" : "120.76944",
      "outDis" : "50",
      "Id" : "5290",
      "oid" : "311033697",
      "districtId" : "1",
      "nameZh" : "佛恩寺",
      "pgp" : "0",
      "terminal" : "0",
      "latitude" : "24.10442",
      "inDis" : "50",
      "routeId" : "287",
      "seqNo" : "25"
   },
   {
      "GoBack" : "1",
      "longitude" : "120.77255",
      "outDis" : "50",
      "Id" : "4204",
      "oid" : "12289",
      "districtId" : "1",
      "nameZh" : "土地公崁",
      "pgp" : "0",
      "terminal" : "0",
      "latitude" : "24.10297",
      "inDis" : "50",
      "routeId" : "287",
      "seqNo" : "26"
   },
   {
      "GoBack" : "1",
      "longitude" : "120.77432",
      "outDis" : "50",
      "Id" : "1189",
      "oid" : "5147",
      "districtId" : "1",
      "nameZh" : "下湖",
      "pgp" : "0",
      "terminal" : "0",
      "latitude" : "24.10311",
      "inDis" : "50",
      "routeId" : "287",
      "seqNo" : "27"
   },
   {
      "GoBack" : "1",
      "longitude" : "120.77481",
      "outDis" : "50",
      "Id" : "1853",
      "oid" : "5580",
      "districtId" : "1",
      "nameZh" : "四號橋",
      "pgp" : "0",
      "terminal" : "0",
      "latitude" : "24.10419",
      "inDis" : "50",
      "routeId" : "287",
      "seqNo" : "28"
   },
   {
      "GoBack" : "1",
      "longitude" : "120.77677",
      "outDis" : "50",
      "Id" : "3028",
      "oid" : "6235",
      "districtId" : "1",
      "nameZh" : "清涼寺",
      "pgp" : "0",
      "terminal" : "0",
      "latitude" : "24.10591",
      "inDis" : "50",
      "routeId" : "287",
      "seqNo" : "29"
   },
   {
      "GoBack" : "1",
      "longitude" : "120.77842",
      "outDis" : "50",
      "Id" : "1749",
      "oid" : "5505",
      "districtId" : "1",
      "nameZh" : "仙子洞",
      "pgp" : "0",
      "terminal" : "0",
      "latitude" : "24.10716",
      "inDis" : "50",
      "routeId" : "287",
      "seqNo" : "30"
   },
   {
      "GoBack" : "1",
      "longitude" : "120.78012",
      "outDis" : "50",
      "Id" : "1541",
      "oid" : "5375",
      "districtId" : "1",
      "nameZh" : "五號橋",
      "pgp" : "0",
      "terminal" : "0",
      "latitude" : "24.10863",
      "inDis" : "50",
      "routeId" : "287",
      "seqNo" : "31"
   },
   {
      "GoBack" : "1",
      "longitude" : "120.78042",
      "outDis" : "50",
      "Id" : "3757",
      "oid" : "6608",
      "districtId" : "1",
      "nameZh" : "蝙蝠洞",
      "pgp" : "0",
      "terminal" : "0",
      "latitude" : "24.10903",
      "inDis" : "50",
      "routeId" : "287",
      "seqNo" : "32"
   },
   {
      "GoBack" : "1",
      "longitude" : "120.78167",
      "outDis" : "50",
      "Id" : "2769",
      "oid" : "6098",
      "districtId" : "1",
      "nameZh" : "埔鹽林",
      "pgp" : "0",
      "terminal" : "0",
      "latitude" : "24.11171",
      "inDis" : "50",
      "routeId" : "287",
      "seqNo" : "33"
   },
   {
      "GoBack" : "1",
      "longitude" : "120.78335",
      "outDis" : "50",
      "Id" : "3138",
      "oid" : "6301",
      "districtId" : "1",
      "nameZh" : "頂埔鹽林",
      "pgp" : "0",
      "terminal" : "0",
      "latitude" : "24.11349",
      "inDis" : "50",
      "routeId" : "287",
      "seqNo" : "34"
   },
   {
      "GoBack" : "1",
      "longitude" : "120.78466",
      "outDis" : "50",
      "Id" : "1723",
      "oid" : "5492",
      "districtId" : "1",
      "nameZh" : "水壩頭",
      "pgp" : "0",
      "terminal" : "0",
      "latitude" : "24.11494",
      "inDis" : "50",
      "routeId" : "287",
      "seqNo" : "35"
   },
   {
      "GoBack" : "1",
      "longitude" : "120.78826",
      "outDis" : "50",
      "Id" : "2848",
      "oid" : "6148",
      "districtId" : "1",
      "nameZh" : "荔枝頭",
      "pgp" : "0",
      "terminal" : "0",
      "latitude" : "24.11577",
      "inDis" : "50",
      "routeId" : "287",
      "seqNo" : "36"
   },
   {
      "GoBack" : "1",
      "longitude" : "120.79118",
      "outDis" : "50",
      "Id" : "5245",
      "oid" : "310787798",
      "districtId" : "1",
      "nameZh" : "長興橋",
      "pgp" : "0",
      "terminal" : "0",
      "latitude" : "24.11799",
      "inDis" : "50",
      "routeId" : "287",
      "seqNo" : "37"
   },
   {
      "GoBack" : "1",
      "longitude" : "120.79467",
      "outDis" : "50",
      "Id" : "5243",
      "oid" : "310787794",
      "districtId" : "1",
      "nameZh" : "東汴社區",
      "pgp" : "0",
      "terminal" : "0",
      "latitude" : "24.11857",
      "inDis" : "50",
      "routeId" : "287",
      "seqNo" : "38"
   },
   {
      "GoBack" : "1",
      "longitude" : "120.79658",
      "outDis" : "50",
      "Id" : "2704",
      "oid" : "6061",
      "districtId" : "1",
      "nameZh" : "茅埔",
      "pgp" : "0",
      "terminal" : "0",
      "latitude" : "24.11746",
      "inDis" : "50",
      "routeId" : "287",
      "seqNo" : "39"
   },
   {
      "GoBack" : "1",
      "longitude" : "120.80203",
      "outDis" : "50",
      "Id" : "5475",
      "oid" : "314344304",
      "districtId" : "1",
      "nameZh" : "天圓彌勒院",
      "pgp" : "0",
      "terminal" : "0",
      "latitude" : "24.11798",
      "inDis" : "50",
      "routeId" : "287",
      "seqNo" : "40"
   },
   {
      "GoBack" : "2",
      "longitude" : "120.80203",
      "outDis" : "50",
      "Id" : "5475",
      "oid" : "314344304",
      "districtId" : "1",
      "nameZh" : "天圓彌勒院",
      "pgp" : "0",
      "terminal" : "0",
      "latitude" : "24.11798",
      "inDis" : "50",
      "routeId" : "287",
      "seqNo" : "1"
   },
   {
      "GoBack" : "2",
      "longitude" : "120.79658",
      "outDis" : "50",
      "Id" : "2704",
      "oid" : "6061",
      "districtId" : "1",
      "nameZh" : "茅埔",
      "pgp" : "0",
      "terminal" : "0",
      "latitude" : "24.11746",
      "inDis" : "50",
      "routeId" : "287",
      "seqNo" : "2"
   },
   {
      "GoBack" : "2",
      "longitude" : "120.79467",
      "outDis" : "50",
      "Id" : "5243",
      "oid" : "310787794",
      "districtId" : "1",
      "nameZh" : "東汴社區",
      "pgp" : "0",
      "terminal" : "0",
      "latitude" : "24.11857",
      "inDis" : "50",
      "routeId" : "287",
      "seqNo" : "3"
   },
   {
      "GoBack" : "2",
      "longitude" : "120.79118",
      "outDis" : "50",
      "Id" : "5245",
      "oid" : "310787798",
      "districtId" : "1",
      "nameZh" : "長興橋",
      "pgp" : "0",
      "terminal" : "0",
      "latitude" : "24.11799",
      "inDis" : "50",
      "routeId" : "287",
      "seqNo" : "4"
   },
   {
      "GoBack" : "2",
      "longitude" : "120.78826",
      "outDis" : "50",
      "Id" : "2848",
      "oid" : "6148",
      "districtId" : "1",
      "nameZh" : "荔枝頭",
      "pgp" : "0",
      "terminal" : "0",
      "latitude" : "24.11577",
      "inDis" : "50",
      "routeId" : "287",
      "seqNo" : "5"
   },
   {
      "GoBack" : "2",
      "longitude" : "120.78466",
      "outDis" : "50",
      "Id" : "1723",
      "oid" : "5492",
      "districtId" : "1",
      "nameZh" : "水壩頭",
      "pgp" : "0",
      "terminal" : "0",
      "latitude" : "24.11494",
      "inDis" : "50",
      "routeId" : "287",
      "seqNo" : "6"
   },
   {
      "GoBack" : "2",
      "longitude" : "120.78335",
      "outDis" : "50",
      "Id" : "3138",
      "oid" : "6301",
      "districtId" : "1",
      "nameZh" : "頂埔鹽林",
      "pgp" : "0",
      "terminal" : "0",
      "latitude" : "24.11349",
      "inDis" : "50",
      "routeId" : "287",
      "seqNo" : "7"
   },
   {
      "GoBack" : "2",
      "longitude" : "120.78167",
      "outDis" : "50",
      "Id" : "2769",
      "oid" : "6098",
      "districtId" : "1",
      "nameZh" : "埔鹽林",
      "pgp" : "0",
      "terminal" : "0",
      "latitude" : "24.11171",
      "inDis" : "50",
      "routeId" : "287",
      "seqNo" : "8"
   },
   {
      "GoBack" : "2",
      "longitude" : "120.78042",
      "outDis" : "50",
      "Id" : "3757",
      "oid" : "6608",
      "districtId" : "1",
      "nameZh" : "蝙蝠洞",
      "pgp" : "0",
      "terminal" : "0",
      "latitude" : "24.10903",
      "inDis" : "50",
      "routeId" : "287",
      "seqNo" : "9"
   },
   {
      "GoBack" : "2",
      "longitude" : "120.78012",
      "outDis" : "50",
      "Id" : "1541",
      "oid" : "5375",
      "districtId" : "1",
      "nameZh" : "五號橋",
      "pgp" : "0",
      "terminal" : "0",
      "latitude" : "24.10863",
      "inDis" : "50",
      "routeId" : "287",
      "seqNo" : "10"
   },
   {
      "GoBack" : "2",
      "longitude" : "120.77842",
      "outDis" : "50",
      "Id" : "1749",
      "oid" : "5505",
      "districtId" : "1",
      "nameZh" : "仙子洞",
      "pgp" : "0",
      "terminal" : "0",
      "latitude" : "24.10716",
      "inDis" : "50",
      "routeId" : "287",
      "seqNo" : "11"
   },
   {
      "GoBack" : "2",
      "longitude" : "120.77677",
      "outDis" : "50",
      "Id" : "3028",
      "oid" : "6235",
      "districtId" : "1",
      "nameZh" : "清涼寺",
      "pgp" : "0",
      "terminal" : "0",
      "latitude" : "24.10591",
      "inDis" : "50",
      "routeId" : "287",
      "seqNo" : "12"
   },
   {
      "GoBack" : "2",
      "longitude" : "120.77481",
      "outDis" : "50",
      "Id" : "1853",
      "oid" : "5580",
      "districtId" : "1",
      "nameZh" : "四號橋",
      "pgp" : "0",
      "terminal" : "0",
      "latitude" : "24.10419",
      "inDis" : "50",
      "routeId" : "287",
      "seqNo" : "13"
   },
   {
      "GoBack" : "2",
      "longitude" : "120.77432",
      "outDis" : "50",
      "Id" : "1189",
      "oid" : "5147",
      "districtId" : "1",
      "nameZh" : "下湖",
      "pgp" : "0",
      "terminal" : "0",
      "latitude" : "24.10311",
      "inDis" : "50",
      "routeId" : "287",
      "seqNo" : "14"
   },
   {
      "GoBack" : "2",
      "longitude" : "120.77255",
      "outDis" : "50",
      "Id" : "4204",
      "oid" : "12289",
      "districtId" : "1",
      "nameZh" : "土地公崁",
      "pgp" : "0",
      "terminal" : "0",
      "latitude" : "24.10297",
      "inDis" : "50",
      "routeId" : "287",
      "seqNo" : "15"
   },
   {
      "GoBack" : "2",
      "longitude" : "120.76944",
      "outDis" : "50",
      "Id" : "5290",
      "oid" : "311033697",
      "districtId" : "1",
      "nameZh" : "佛恩寺",
      "pgp" : "0",
      "terminal" : "0",
      "latitude" : "24.10442",
      "inDis" : "50",
      "routeId" : "287",
      "seqNo" : "16"
   },
   {
      "GoBack" : "2",
      "longitude" : "120.76612",
      "outDis" : "50",
      "Id" : "5251",
      "oid" : "310787810",
      "districtId" : "1",
      "nameZh" : "草嶺橋",
      "pgp" : "0",
      "terminal" : "0",
      "latitude" : "24.10671",
      "inDis" : "50",
      "routeId" : "287",
      "seqNo" : "17"
   },
   {
      "GoBack" : "2",
      "longitude" : "120.76489",
      "outDis" : "50",
      "Id" : "1101",
      "oid" : "5094",
      "districtId" : "1",
      "nameZh" : "三號橋",
      "pgp" : "0",
      "terminal" : "0",
      "latitude" : "24.10992",
      "inDis" : "50",
      "routeId" : "287",
      "seqNo" : "18"
   },
   {
      "GoBack" : "2",
      "longitude" : "120.76286",
      "outDis" : "50",
      "Id" : "2076",
      "oid" : "5702",
      "districtId" : "1",
      "nameZh" : "吊橋頭",
      "pgp" : "0",
      "terminal" : "0",
      "latitude" : "24.11296",
      "inDis" : "50",
      "routeId" : "287",
      "seqNo" : "19"
   },
   {
      "GoBack" : "2",
      "longitude" : "120.76243",
      "outDis" : "50",
      "Id" : "3641",
      "oid" : "6547",
      "districtId" : "1",
      "nameZh" : "福利社",
      "pgp" : "0",
      "terminal" : "0",
      "latitude" : "24.11509",
      "inDis" : "50",
      "routeId" : "287",
      "seqNo" : "20"
   },
   {
      "GoBack" : "2",
      "longitude" : "120.75857",
      "outDis" : "50",
      "Id" : "2538",
      "oid" : "5964",
      "districtId" : "1",
      "nameZh" : "長龍吊橋",
      "pgp" : "0",
      "terminal" : "0",
      "latitude" : "24.11763",
      "inDis" : "50",
      "routeId" : "287",
      "seqNo" : "21"
   },
   {
      "GoBack" : "2",
      "longitude" : "120.757",
      "outDis" : "50",
      "Id" : "3861",
      "oid" : "6659",
      "districtId" : "1",
      "nameZh" : "龍眼腳",
      "pgp" : "0",
      "terminal" : "0",
      "latitude" : "24.11995",
      "inDis" : "50",
      "routeId" : "287",
      "seqNo" : "22"
   },
   {
      "GoBack" : "2",
      "longitude" : "120.75138",
      "outDis" : "50",
      "Id" : "3179",
      "oid" : "6316",
      "districtId" : "1",
      "nameZh" : "頂頭汴坑",
      "pgp" : "0",
      "terminal" : "0",
      "latitude" : "24.12213",
      "inDis" : "50",
      "routeId" : "287",
      "seqNo" : "23"
   },
   {
      "GoBack" : "2",
      "longitude" : "120.75052",
      "outDis" : "50",
      "Id" : "3830",
      "oid" : "6643",
      "districtId" : "1",
      "nameZh" : "頭汴國小",
      "pgp" : "0",
      "terminal" : "0",
      "latitude" : "24.12314",
      "inDis" : "50",
      "routeId" : "287",
      "seqNo" : "24"
   },
   {
      "GoBack" : "2",
      "longitude" : "120.74906",
      "outDis" : "50",
      "Id" : "3827",
      "oid" : "6640",
      "districtId" : "1",
      "nameZh" : "頭汴坑",
      "pgp" : "0",
      "terminal" : "0",
      "latitude" : "24.12462",
      "inDis" : "50",
      "routeId" : "287",
      "seqNo" : "25"
   },
   {
      "GoBack" : "2",
      "longitude" : "120.74783",
      "outDis" : "50",
      "Id" : "1569",
      "oid" : "5389",
      "districtId" : "1",
      "nameZh" : "內城橋",
      "pgp" : "0",
      "terminal" : "0",
      "latitude" : "24.12654",
      "inDis" : "50",
      "routeId" : "287",
      "seqNo" : "26"
   },
   {
      "GoBack" : "2",
      "longitude" : "120.74455",
      "outDis" : "50",
      "Id" : "2731",
      "oid" : "6084",
      "districtId" : "1",
      "nameZh" : "香蕉市場",
      "pgp" : "0",
      "terminal" : "0",
      "latitude" : "24.13078",
      "inDis" : "50",
      "routeId" : "287",
      "seqNo" : "27"
   },
   {
      "GoBack" : "2",
      "longitude" : "120.74155",
      "outDis" : "50",
      "Id" : "3677",
      "oid" : "6569",
      "districtId" : "1",
      "nameZh" : "福嚴寺",
      "pgp" : "0",
      "terminal" : "0",
      "latitude" : "24.13101",
      "inDis" : "50",
      "routeId" : "287",
      "seqNo" : "28"
   },
   {
      "GoBack" : "2",
      "longitude" : "120.73919",
      "outDis" : "50",
      "Id" : "5259",
      "oid" : "310787826",
      "districtId" : "1",
      "nameZh" : "腦館(長龍路)",
      "pgp" : "0",
      "terminal" : "0",
      "latitude" : "24.13102",
      "inDis" : "50",
      "routeId" : "287",
      "seqNo" : "29"
   },
   {
      "GoBack" : "2",
      "longitude" : "120.73561",
      "outDis" : "50",
      "Id" : "0977",
      "oid" : "7892",
      "districtId" : "1",
      "nameZh" : "一江橋",
      "pgp" : "0",
      "terminal" : "0",
      "latitude" : "24.13352",
      "inDis" : "50",
      "routeId" : "287",
      "seqNo" : "30"
   },
   {
      "GoBack" : "2",
      "longitude" : "120.7325",
      "outDis" : "50",
      "Id" : "4229",
      "oid" : "13164",
      "districtId" : "1",
      "nameZh" : "亞姆拉公司",
      "pgp" : "0",
      "terminal" : "0",
      "latitude" : "24.13701",
      "inDis" : "50",
      "routeId" : "287",
      "seqNo" : "31"
   },
   {
      "GoBack" : "2",
      "longitude" : "120.73204",
      "outDis" : "50",
      "Id" : "5547",
      "oid" : "316462701",
      "districtId" : "1",
      "nameZh" : "洪厝庄",
      "pgp" : "0",
      "terminal" : "0",
      "latitude" : "24.13917",
      "inDis" : "50",
      "routeId" : "287",
      "seqNo" : "32"
   },
   {
      "GoBack" : "2",
      "longitude" : "120.73219",
      "outDis" : "50",
      "Id" : "0631",
      "oid" : "13168",
      "districtId" : "1",
      "nameZh" : "和平橋",
      "pgp" : "0",
      "terminal" : "0",
      "latitude" : "24.141",
      "inDis" : "50",
      "routeId" : "287",
      "seqNo" : "33"
   },
   {
      "GoBack" : "2",
      "longitude" : "120.73245",
      "outDis" : "50",
      "Id" : "1637",
      "oid" : "8E0118F37A774922B5D7562D1170B6D6",
      "districtId" : "1",
      "nameZh" : "太平分局",
      "pgp" : "0",
      "terminal" : "0",
      "latitude" : "24.14151",
      "inDis" : "50",
      "routeId" : "287",
      "seqNo" : "34"
   },
   {
      "GoBack" : "2",
      "longitude" : "120.73343",
      "outDis" : "50",
      "Id" : "4364",
      "oid" : "13225",
      "districtId" : "1",
      "nameZh" : "勤益科技大學",
      "pgp" : "0",
      "terminal" : "0",
      "latitude" : "24.14279",
      "inDis" : "50",
      "routeId" : "287",
      "seqNo" : "35"
   },
   {
      "GoBack" : "2",
      "longitude" : "120.73424",
      "outDis" : "50",
      "Id" : "0632",
      "oid" : "13309",
      "districtId" : "1",
      "nameZh" : "坪林",
      "pgp" : "0",
      "terminal" : "0",
      "latitude" : "24.14494",
      "inDis" : "50",
      "routeId" : "287",
      "seqNo" : "36"
   },
   {
      "GoBack" : "2",
      "longitude" : "120.73363",
      "outDis" : "50",
      "Id" : "0319",
      "oid" : "5067",
      "districtId" : "1",
      "nameZh" : "三中心",
      "pgp" : "0",
      "terminal" : "0",
      "latitude" : "24.14669",
      "inDis" : "50",
      "routeId" : "287",
      "seqNo" : "37"
   },
   {
      "GoBack" : "2",
      "longitude" : "120.73435",
      "outDis" : "50",
      "Id" : "4350",
      "oid" : "13262",
      "districtId" : "1",
      "nameZh" : "太平國中",
      "pgp" : "0",
      "terminal" : "0",
      "latitude" : "24.1491",
      "inDis" : "50",
      "routeId" : "287",
      "seqNo" : "38"
   },
   {
      "GoBack" : "2",
      "longitude" : "120.73265",
      "outDis" : "50",
      "Id" : "0346",
      "oid" : "1685BEC76E5D445895FC89C8EC21A0D3",
      "districtId" : "1",
      "nameZh" : "叉路口",
      "pgp" : "0",
      "terminal" : "0",
      "latitude" : "24.15062",
      "inDis" : "50",
      "routeId" : "287",
      "seqNo" : "39"
   },
   {
      "GoBack" : "2",
      "longitude" : "120.73022",
      "outDis" : "50",
      "Id" : "2934",
      "oid" : "3866",
      "districtId" : "1",
      "nameZh" : "國軍臺中總醫院",
      "pgp" : "0",
      "terminal" : "0",
      "latitude" : "24.1504",
      "inDis" : "50",
      "routeId" : "287",
      "seqNo" : "40"
   }
]
