[
   {
      "GoBack" : "1",
      "longitude" : "120.54379",
      "outDis" : "50",
      "Id" : "2144",
      "oid" : "14027",
      "districtId" : "1",
      "nameZh" : "竹坑口",
      "pgp" : "0",
      "terminal" : "0",
      "latitude" : "24.17549",
      "inDis" : "50",
      "routeId" : "199",
      "seqNo" : "1"
   },
   {
      "GoBack" : "1",
      "longitude" : "120.54461",
      "outDis" : "50",
      "Id" : "2242",
      "oid" : "7090",
      "districtId" : "1",
      "nameZh" : "村內入口",
      "pgp" : "0",
      "terminal" : "0",
      "latitude" : "24.17876",
      "inDis" : "50",
      "routeId" : "199",
      "seqNo" : "2"
   },
   {
      "GoBack" : "1",
      "longitude" : "120.54554",
      "outDis" : "50",
      "Id" : "3031",
      "oid" : "14029",
      "districtId" : "1",
      "nameZh" : "深水",
      "pgp" : "0",
      "terminal" : "0",
      "latitude" : "24.18257",
      "inDis" : "50",
      "routeId" : "199",
      "seqNo" : "3"
   },
   {
      "GoBack" : "1",
      "longitude" : "120.54549",
      "outDis" : "50",
      "Id" : "3853",
      "oid" : "14030",
      "districtId" : "1",
      "nameZh" : "龍崗",
      "pgp" : "0",
      "terminal" : "0",
      "latitude" : "24.18642",
      "inDis" : "50",
      "routeId" : "199",
      "seqNo" : "4"
   },
   {
      "GoBack" : "1",
      "longitude" : "120.54574",
      "outDis" : "50",
      "Id" : "3847",
      "oid" : "14031",
      "districtId" : "1",
      "nameZh" : "龍井加油站",
      "pgp" : "0",
      "terminal" : "0",
      "latitude" : "24.18898",
      "inDis" : "50",
      "routeId" : "199",
      "seqNo" : "5"
   },
   {
      "GoBack" : "1",
      "longitude" : "120.54608",
      "outDis" : "50",
      "Id" : "5160",
      "oid" : "14032",
      "districtId" : "1",
      "nameZh" : "龍井區公所",
      "pgp" : "0",
      "terminal" : "0",
      "latitude" : "24.19246",
      "inDis" : "50",
      "routeId" : "199",
      "seqNo" : "6"
   },
   {
      "GoBack" : "1",
      "longitude" : "120.54659",
      "outDis" : "50",
      "Id" : "3846",
      "oid" : "14033",
      "districtId" : "1",
      "nameZh" : "龍井火車站",
      "pgp" : "0",
      "terminal" : "0",
      "latitude" : "24.19687",
      "inDis" : "50",
      "routeId" : "199",
      "seqNo" : "7"
   },
   {
      "GoBack" : "1",
      "longitude" : "120.54714",
      "outDis" : "50",
      "Id" : "3855",
      "oid" : "14801",
      "districtId" : "1",
      "nameZh" : "龍泉",
      "pgp" : "0",
      "terminal" : "0",
      "latitude" : "24.19984",
      "inDis" : "50",
      "routeId" : "199",
      "seqNo" : "8"
   },
   {
      "GoBack" : "1",
      "longitude" : "120.54798",
      "outDis" : "50",
      "Id" : "3850",
      "oid" : "7601",
      "districtId" : "1",
      "nameZh" : "龍目井",
      "pgp" : "0",
      "terminal" : "0",
      "latitude" : "24.20249",
      "inDis" : "50",
      "routeId" : "199",
      "seqNo" : "9"
   },
   {
      "GoBack" : "1",
      "longitude" : "120.54923",
      "outDis" : "50",
      "Id" : "4010",
      "oid" : "7639",
      "districtId" : "1",
      "nameZh" : "鷺山",
      "pgp" : "0",
      "terminal" : "0",
      "latitude" : "24.20743",
      "inDis" : "50",
      "routeId" : "199",
      "seqNo" : "10"
   },
   {
      "GoBack" : "1",
      "longitude" : "120.55056",
      "outDis" : "50",
      "Id" : "2559",
      "oid" : "7147",
      "districtId" : "1",
      "nameZh" : "南山腳",
      "pgp" : "0",
      "terminal" : "0",
      "latitude" : "24.21022",
      "inDis" : "50",
      "routeId" : "199",
      "seqNo" : "11"
   },
   {
      "GoBack" : "1",
      "longitude" : "120.55157",
      "outDis" : "50",
      "Id" : "5159",
      "oid" : "14038",
      "districtId" : "1",
      "nameZh" : "龍山國小(山腳里)",
      "pgp" : "0",
      "terminal" : "0",
      "latitude" : "24.21255",
      "inDis" : "50",
      "routeId" : "199",
      "seqNo" : "12"
   },
   {
      "GoBack" : "1",
      "longitude" : "120.55659",
      "outDis" : "50",
      "Id" : "4076",
      "oid" : "309406811",
      "districtId" : "1",
      "nameZh" : "山隆加油站",
      "pgp" : "0",
      "terminal" : "0",
      "latitude" : "24.21234",
      "inDis" : "50",
      "routeId" : "199",
      "seqNo" : "13"
   },
   {
      "GoBack" : "1",
      "longitude" : "120.56443",
      "outDis" : "50",
      "Id" : "0397",
      "oid" : "309402671",
      "districtId" : "1",
      "nameZh" : "向上保寧路口",
      "pgp" : "0",
      "terminal" : "0",
      "latitude" : "24.2061",
      "inDis" : "50",
      "routeId" : "199",
      "seqNo" : "14"
   },
   {
      "GoBack" : "1",
      "longitude" : "120.56793",
      "outDis" : "50",
      "Id" : "5671",
      "oid" : "318982265",
      "districtId" : "1",
      "nameZh" : "向上自立路口",
      "pgp" : "0",
      "terminal" : "0",
      "latitude" : "24.20297",
      "inDis" : "50",
      "routeId" : "199",
      "seqNo" : "15"
   },
   {
      "GoBack" : "1",
      "longitude" : "120.57401",
      "outDis" : "50",
      "Id" : "0530",
      "oid" : "319549149",
      "districtId" : "1",
      "nameZh" : "向上中興路口",
      "pgp" : "0",
      "terminal" : "0",
      "latitude" : "24.18334",
      "inDis" : "50",
      "routeId" : "199",
      "seqNo" : "16"
   },
   {
      "GoBack" : "1",
      "longitude" : "120.57421",
      "outDis" : "50",
      "Id" : "0531",
      "oid" : "319549150",
      "districtId" : "1",
      "nameZh" : "向上南新路口",
      "pgp" : "0",
      "terminal" : "0",
      "latitude" : "24.1807",
      "inDis" : "50",
      "routeId" : "199",
      "seqNo" : "17"
   },
   {
      "GoBack" : "1",
      "longitude" : "120.57606",
      "outDis" : "50",
      "Id" : "0399",
      "oid" : "309402673",
      "districtId" : "1",
      "nameZh" : "向上中沙路口",
      "pgp" : "0",
      "terminal" : "0",
      "latitude" : "24.17743",
      "inDis" : "50",
      "routeId" : "199",
      "seqNo" : "18"
   },
   {
      "GoBack" : "1",
      "longitude" : "120.58204",
      "outDis" : "50",
      "Id" : "5672",
      "oid" : "309402674",
      "districtId" : "1",
      "nameZh" : "向上遊園路口",
      "pgp" : "0",
      "terminal" : "0",
      "latitude" : "24.17566",
      "inDis" : "50",
      "routeId" : "199",
      "seqNo" : "19"
   },
   {
      "GoBack" : "1",
      "longitude" : "120.58232",
      "outDis" : "50",
      "Id" : "5673",
      "oid" : "309402675",
      "districtId" : "1",
      "nameZh" : "向上工業28路口",
      "pgp" : "0",
      "terminal" : "0",
      "latitude" : "24.17168",
      "inDis" : "50",
      "routeId" : "199",
      "seqNo" : "20"
   },
   {
      "GoBack" : "1",
      "longitude" : "120.60851",
      "outDis" : "50",
      "Id" : "5327",
      "oid" : "313909886",
      "districtId" : "1",
      "nameZh" : "向上精科路口",
      "pgp" : "0",
      "terminal" : "0",
      "latitude" : "24.15134",
      "inDis" : "50",
      "routeId" : "199",
      "seqNo" : "21"
   },
   {
      "GoBack" : "1",
      "longitude" : "120.6123",
      "outDis" : "50",
      "Id" : "4992",
      "oid" : "309402676",
      "districtId" : "1",
      "nameZh" : "向上嶺東路口",
      "pgp" : "0",
      "terminal" : "0",
      "latitude" : "24.15035",
      "inDis" : "50",
      "routeId" : "199",
      "seqNo" : "22"
   },
   {
      "GoBack" : "1",
      "longitude" : "120.61452",
      "outDis" : "75",
      "Id" : "0161",
      "oid" : "10984",
      "districtId" : "1",
      "nameZh" : "文山國小(向上路)",
      "pgp" : "0",
      "terminal" : "0",
      "latitude" : "24.14797",
      "inDis" : "75",
      "routeId" : "199",
      "seqNo" : "23"
   },
   {
      "GoBack" : "1",
      "longitude" : "120.62383",
      "outDis" : "50",
      "Id" : "4993",
      "oid" : "309402677",
      "districtId" : "1",
      "nameZh" : "向上環中路口",
      "pgp" : "0",
      "terminal" : "0",
      "latitude" : "24.1451",
      "inDis" : "50",
      "routeId" : "199",
      "seqNo" : "24"
   },
   {
      "GoBack" : "1",
      "longitude" : "120.63147",
      "outDis" : "50",
      "Id" : "4338",
      "oid" : "302727320",
      "districtId" : "1",
      "nameZh" : "向上五權西路口",
      "pgp" : "0",
      "terminal" : "0",
      "latitude" : "24.14495",
      "inDis" : "50",
      "routeId" : "199",
      "seqNo" : "25"
   },
   {
      "GoBack" : "1",
      "longitude" : "120.63473",
      "outDis" : "50",
      "Id" : "4994",
      "oid" : "309402678",
      "districtId" : "1",
      "nameZh" : "向上永春東七路口",
      "pgp" : "0",
      "terminal" : "0",
      "latitude" : "24.14634",
      "inDis" : "50",
      "routeId" : "199",
      "seqNo" : "26"
   },
   {
      "GoBack" : "1",
      "longitude" : "120.63787",
      "outDis" : "50",
      "Id" : "4995",
      "oid" : "309402679",
      "districtId" : "1",
      "nameZh" : "河南向上路口",
      "pgp" : "0",
      "terminal" : "0",
      "latitude" : "24.14847",
      "inDis" : "50",
      "routeId" : "199",
      "seqNo" : "27"
   },
   {
      "GoBack" : "1",
      "longitude" : "120.63728",
      "outDis" : "50",
      "Id" : "4996",
      "oid" : "309402680",
      "districtId" : "1",
      "nameZh" : "河南公益路口",
      "pgp" : "0",
      "terminal" : "0",
      "latitude" : "24.15119",
      "inDis" : "50",
      "routeId" : "199",
      "seqNo" : "28"
   },
   {
      "GoBack" : "1",
      "longitude" : "120.63779",
      "outDis" : "50",
      "Id" : "0815",
      "oid" : "F708C57B1383444497BF3D672BB0FAE7",
      "districtId" : "1",
      "nameZh" : "惠文國小",
      "pgp" : "0",
      "terminal" : "0",
      "latitude" : "24.15155",
      "inDis" : "50",
      "routeId" : "199",
      "seqNo" : "29"
   },
   {
      "GoBack" : "1",
      "longitude" : "120.64064",
      "outDis" : "50",
      "Id" : "5656",
      "oid" : "309402682",
      "districtId" : "1",
      "nameZh" : "惠文高中(惠中路)",
      "pgp" : "0",
      "terminal" : "0",
      "latitude" : "24.15224",
      "inDis" : "50",
      "routeId" : "199",
      "seqNo" : "30"
   },
   {
      "GoBack" : "1",
      "longitude" : "120.64088",
      "outDis" : "50",
      "Id" : "0817",
      "oid" : "825712AFFA074AA4A2A89679BB06D7E3",
      "districtId" : "1",
      "nameZh" : "惠來公園",
      "pgp" : "0",
      "terminal" : "0",
      "latitude" : "24.15517",
      "inDis" : "50",
      "routeId" : "199",
      "seqNo" : "31"
   },
   {
      "GoBack" : "1",
      "longitude" : "120.64297",
      "outDis" : "50",
      "Id" : "1433",
      "oid" : "305746783",
      "districtId" : "1",
      "nameZh" : "中央健保局(惠中路)",
      "pgp" : "0",
      "terminal" : "0",
      "latitude" : "24.15893",
      "inDis" : "50",
      "routeId" : "199",
      "seqNo" : "32"
   },
   {
      "GoBack" : "1",
      "longitude" : "120.64378",
      "outDis" : "50",
      "Id" : "4999",
      "oid" : "309402683",
      "districtId" : "1",
      "nameZh" : "惠中市政北三路口",
      "pgp" : "0",
      "terminal" : "0",
      "latitude" : "24.16043",
      "inDis" : "50",
      "routeId" : "199",
      "seqNo" : "33"
   },
   {
      "GoBack" : "1",
      "longitude" : "120.64498",
      "outDis" : "50",
      "Id" : "5000",
      "oid" : "309402684",
      "districtId" : "1",
      "nameZh" : "大遠百",
      "pgp" : "0",
      "terminal" : "0",
      "latitude" : "24.16229",
      "inDis" : "50",
      "routeId" : "199",
      "seqNo" : "34"
   },
   {
      "GoBack" : "1",
      "longitude" : "120.64801",
      "outDis" : "50",
      "Id" : "0017",
      "oid" : "CA3EBC18499341899720B410363530C0",
      "districtId" : "1",
      "nameZh" : "臺中市政府",
      "pgp" : "0",
      "terminal" : "0",
      "latitude" : "24.1633",
      "inDis" : "50",
      "routeId" : "199",
      "seqNo" : "35"
   },
   {
      "GoBack" : "1",
      "longitude" : "120.65018",
      "outDis" : "50",
      "Id" : "4564",
      "oid" : "12165D2688784861B6AA449B30281489",
      "districtId" : "1",
      "nameZh" : "臺灣大道文心路口",
      "pgp" : "0",
      "terminal" : "0",
      "latitude" : "24.16206",
      "inDis" : "50",
      "routeId" : "199",
      "seqNo" : "36"
   },
   {
      "GoBack" : "1",
      "longitude" : "120.65636",
      "outDis" : "50",
      "Id" : "5659",
      "oid" : "319559966",
      "districtId" : "1",
      "nameZh" : "漢口臺灣大道口",
      "pgp" : "0",
      "terminal" : "0",
      "latitude" : "24.15996",
      "inDis" : "50",
      "routeId" : "199",
      "seqNo" : "37"
   },
   {
      "GoBack" : "1",
      "longitude" : "120.65669",
      "outDis" : "50",
      "Id" : "0119",
      "oid" : "4586D482AC8A4D2E8C7E8615AACF22A5",
      "districtId" : "1",
      "nameZh" : "漢口國中",
      "pgp" : "0",
      "terminal" : "0",
      "latitude" : "24.16139",
      "inDis" : "50",
      "routeId" : "199",
      "seqNo" : "38"
   },
   {
      "GoBack" : "1",
      "longitude" : "120.65928",
      "outDis" : "50",
      "Id" : "4983",
      "oid" : "309269466",
      "districtId" : "1",
      "nameZh" : "漢口西屯路口",
      "pgp" : "0",
      "terminal" : "0",
      "latitude" : "24.16388",
      "inDis" : "50",
      "routeId" : "199",
      "seqNo" : "39"
   },
   {
      "GoBack" : "1",
      "longitude" : "120.66137",
      "outDis" : "50",
      "Id" : "0358",
      "oid" : "5B3C72B34E2B421AB1AD3BE60CA056B6",
      "districtId" : "1",
      "nameZh" : "漢口大信街口",
      "pgp" : "0",
      "terminal" : "0",
      "latitude" : "24.16491",
      "inDis" : "50",
      "routeId" : "199",
      "seqNo" : "40"
   },
   {
      "GoBack" : "1",
      "longitude" : "120.66177",
      "outDis" : "50",
      "Id" : "5002",
      "oid" : "309402686",
      "districtId" : "1",
      "nameZh" : "寧夏東八街口",
      "pgp" : "0",
      "terminal" : "0",
      "latitude" : "24.16601",
      "inDis" : "50",
      "routeId" : "199",
      "seqNo" : "41"
   },
   {
      "GoBack" : "1",
      "longitude" : "120.66026",
      "outDis" : "50",
      "Id" : "0405",
      "oid" : "5BBCC137A8D54F8DA6C3A8609774B9A3",
      "districtId" : "1",
      "nameZh" : "中山國中",
      "pgp" : "0",
      "terminal" : "0",
      "latitude" : "24.16882",
      "inDis" : "50",
      "routeId" : "199",
      "seqNo" : "42"
   },
   {
      "GoBack" : "1",
      "longitude" : "120.65939",
      "outDis" : "50",
      "Id" : "4613",
      "oid" : "2698AAE08ACE4E96B569E71939C06CB7",
      "districtId" : "1",
      "nameZh" : "文華高中(寧夏路)",
      "pgp" : "0",
      "terminal" : "0",
      "latitude" : "24.17023",
      "inDis" : "50",
      "routeId" : "199",
      "seqNo" : "43"
   },
   {
      "GoBack" : "1",
      "longitude" : "120.66055",
      "outDis" : "50",
      "Id" : "4332",
      "oid" : "8B425412E4B547CD936855C571C63648",
      "districtId" : "1",
      "nameZh" : "河南長安路口",
      "pgp" : "0",
      "terminal" : "0",
      "latitude" : "24.17279",
      "inDis" : "50",
      "routeId" : "199",
      "seqNo" : "44"
   },
   {
      "GoBack" : "1",
      "longitude" : "120.65978",
      "outDis" : "50",
      "Id" : "4159",
      "oid" : "13017",
      "districtId" : "1",
      "nameZh" : "河南福上巷口",
      "pgp" : "0",
      "terminal" : "0",
      "latitude" : "24.17516",
      "inDis" : "50",
      "routeId" : "199",
      "seqNo" : "45"
   },
   {
      "GoBack" : "1",
      "longitude" : "120.65722",
      "outDis" : "50",
      "Id" : "0233",
      "oid" : "13018",
      "districtId" : "1",
      "nameZh" : "家扶發展學園",
      "pgp" : "0",
      "terminal" : "0",
      "latitude" : "24.17626",
      "inDis" : "50",
      "routeId" : "199",
      "seqNo" : "46"
   },
   {
      "GoBack" : "1",
      "longitude" : "120.6514",
      "outDis" : "50",
      "Id" : "0234",
      "oid" : "12388",
      "districtId" : "1",
      "nameZh" : "河南停車場",
      "pgp" : "0",
      "terminal" : "0",
      "latitude" : "24.17596",
      "inDis" : "50",
      "routeId" : "199",
      "seqNo" : "47"
   },
   {
      "GoBack" : "1",
      "longitude" : "120.64872",
      "outDis" : "50",
      "Id" : "4333",
      "oid" : "13020",
      "districtId" : "1",
      "nameZh" : "河南福星路口",
      "pgp" : "0",
      "terminal" : "0",
      "latitude" : "24.17444",
      "inDis" : "50",
      "routeId" : "199",
      "seqNo" : "48"
   },
   {
      "GoBack" : "1",
      "longitude" : "120.64597",
      "outDis" : "50",
      "Id" : "0112",
      "oid" : "929D8A30AF4842D6BBDA96C36EBD4DBD",
      "districtId" : "1",
      "nameZh" : "福星停車場",
      "pgp" : "0",
      "terminal" : "0",
      "latitude" : "24.17547",
      "inDis" : "50",
      "routeId" : "199",
      "seqNo" : "49"
   },
   {
      "GoBack" : "1",
      "longitude" : "120.64506",
      "outDis" : "50",
      "Id" : "4586",
      "oid" : "13022",
      "districtId" : "1",
      "nameZh" : "逢甲大學(福星路)",
      "pgp" : "0",
      "terminal" : "0",
      "latitude" : "24.17904",
      "inDis" : "50",
      "routeId" : "199",
      "seqNo" : "50"
   },
   {
      "GoBack" : "1",
      "longitude" : "120.64505",
      "outDis" : "50",
      "Id" : "4334",
      "oid" : "348F5950948E43129575D1622100E9C9",
      "districtId" : "1",
      "nameZh" : "福星西安街口",
      "pgp" : "0",
      "terminal" : "0",
      "latitude" : "24.18156",
      "inDis" : "50",
      "routeId" : "199",
      "seqNo" : "51"
   },
   {
      "GoBack" : "1",
      "longitude" : "120.64472",
      "outDis" : "50",
      "Id" : "5658",
      "oid" : "313222695",
      "districtId" : "1",
      "nameZh" : "漢翔公司(星享道)",
      "pgp" : "0",
      "terminal" : "0",
      "latitude" : "24.18421",
      "inDis" : "50",
      "routeId" : "199",
      "seqNo" : "52"
   },
   {
      "GoBack" : "1",
      "longitude" : "120.64435",
      "outDis" : "50",
      "Id" : "4327",
      "oid" : "46334AB15DB0474C8290C7D30E223985",
      "districtId" : "1",
      "nameZh" : "僑光科技大學",
      "pgp" : "0",
      "terminal" : "0",
      "latitude" : "24.18685",
      "inDis" : "50",
      "routeId" : "199",
      "seqNo" : "53"
   },
   {
      "GoBack" : "1",
      "longitude" : "120.64019",
      "outDis" : "50",
      "Id" : "2192",
      "oid" : "81821458532B434A951A6FAD2BC3A5E8",
      "districtId" : "1",
      "nameZh" : "西苑高中",
      "pgp" : "0",
      "terminal" : "0",
      "latitude" : "24.18633",
      "inDis" : "50",
      "routeId" : "199",
      "seqNo" : "54"
   },
   {
      "GoBack" : "1",
      "longitude" : "120.64166",
      "outDis" : "50",
      "Id" : "5409",
      "oid" : "313222698",
      "districtId" : "1",
      "nameZh" : "文修停車場",
      "pgp" : "0",
      "terminal" : "0",
      "latitude" : "24.18505",
      "inDis" : "50",
      "routeId" : "199",
      "seqNo" : "55"
   },
   {
      "GoBack" : "1",
      "longitude" : "120.64074",
      "outDis" : "50",
      "Id" : "4622",
      "oid" : "306628470",
      "districtId" : "1",
      "nameZh" : "福星同心路口",
      "pgp" : "0",
      "terminal" : "0",
      "latitude" : "24.18234",
      "inDis" : "50",
      "routeId" : "199",
      "seqNo" : "56"
   },
   {
      "GoBack" : "1",
      "longitude" : "120.63813",
      "outDis" : "50",
      "Id" : "2175",
      "oid" : "318982149",
      "districtId" : "1",
      "nameZh" : "西屯派出所",
      "pgp" : "0",
      "terminal" : "0",
      "latitude" : "24.18118",
      "inDis" : "50",
      "routeId" : "199",
      "seqNo" : "57"
   },
   {
      "GoBack" : "1",
      "longitude" : "120.63655",
      "outDis" : "50",
      "Id" : "4649",
      "oid" : "318982147",
      "districtId" : "1",
      "nameZh" : "福科環中路口",
      "pgp" : "0",
      "terminal" : "0",
      "latitude" : "24.17924",
      "inDis" : "50",
      "routeId" : "199",
      "seqNo" : "58"
   },
   {
      "GoBack" : "1",
      "longitude" : "120.62466",
      "outDis" : "50",
      "Id" : "0010",
      "oid" : "318992109",
      "districtId" : "1",
      "nameZh" : "福科安和路口",
      "pgp" : "0",
      "terminal" : "0",
      "latitude" : "24.18224",
      "inDis" : "50",
      "routeId" : "199",
      "seqNo" : "59"
   },
   {
      "GoBack" : "1",
      "longitude" : "120.62096",
      "outDis" : "50",
      "Id" : "0053",
      "oid" : "318992107",
      "districtId" : "1",
      "nameZh" : "福科永福路口",
      "pgp" : "0",
      "terminal" : "0",
      "latitude" : "24.18382",
      "inDis" : "50",
      "routeId" : "199",
      "seqNo" : "60"
   },
   {
      "GoBack" : "1",
      "longitude" : "120.61712",
      "outDis" : "50",
      "Id" : "0052",
      "oid" : "318992105",
      "districtId" : "1",
      "nameZh" : "福科福康路口",
      "pgp" : "0",
      "terminal" : "0",
      "latitude" : "24.18554",
      "inDis" : "50",
      "routeId" : "199",
      "seqNo" : "61"
   },
   {
      "GoBack" : "1",
      "longitude" : "120.61408",
      "outDis" : "50",
      "Id" : "5316",
      "oid" : "318992103",
      "districtId" : "1",
      "nameZh" : "福科福林路口",
      "pgp" : "0",
      "terminal" : "0",
      "latitude" : "24.18674",
      "inDis" : "50",
      "routeId" : "199",
      "seqNo" : "62"
   },
   {
      "GoBack" : "1",
      "longitude" : "120.60821",
      "outDis" : "50",
      "Id" : "0004",
      "oid" : "318992099",
      "districtId" : "1",
      "nameZh" : "普濟寺",
      "pgp" : "0",
      "terminal" : "0",
      "latitude" : "24.18422",
      "inDis" : "50",
      "routeId" : "199",
      "seqNo" : "63"
   },
   {
      "GoBack" : "1",
      "longitude" : "120.60633",
      "outDis" : "50",
      "Id" : "2378",
      "oid" : "318992097",
      "districtId" : "1",
      "nameZh" : "東大附中",
      "pgp" : "0",
      "terminal" : "0",
      "latitude" : "24.18371",
      "inDis" : "50",
      "routeId" : "199",
      "seqNo" : "64"
   },
   {
      "GoBack" : "1",
      "longitude" : "120.60491",
      "outDis" : "50",
      "Id" : "5386",
      "oid" : "318992095",
      "districtId" : "1",
      "nameZh" : "臺中榮總(臺灣大道)",
      "pgp" : "0",
      "terminal" : "0",
      "latitude" : "24.18349",
      "inDis" : "50",
      "routeId" : "199",
      "seqNo" : "65"
   },
   {
      "GoBack" : "2",
      "longitude" : "120.60491",
      "outDis" : "50",
      "Id" : "5386",
      "oid" : "318992193",
      "districtId" : "1",
      "nameZh" : "臺中榮總(臺灣大道)",
      "pgp" : "0",
      "terminal" : "0",
      "latitude" : "24.18349",
      "inDis" : "50",
      "routeId" : "199",
      "seqNo" : "1"
   },
   {
      "GoBack" : "2",
      "longitude" : "120.60686",
      "outDis" : "50",
      "Id" : "2378",
      "oid" : "318992191",
      "districtId" : "1",
      "nameZh" : "東大附中",
      "pgp" : "0",
      "terminal" : "0",
      "latitude" : "24.18365",
      "inDis" : "50",
      "routeId" : "199",
      "seqNo" : "2"
   },
   {
      "GoBack" : "2",
      "longitude" : "120.60898",
      "outDis" : "50",
      "Id" : "0004",
      "oid" : "318992189",
      "districtId" : "1",
      "nameZh" : "普濟寺",
      "pgp" : "0",
      "terminal" : "0",
      "latitude" : "24.18437",
      "inDis" : "50",
      "routeId" : "199",
      "seqNo" : "3"
   },
   {
      "GoBack" : "2",
      "longitude" : "120.6098",
      "outDis" : "50",
      "Id" : "5287",
      "oid" : "318992187",
      "districtId" : "1",
      "nameZh" : "玉門臺灣大道口",
      "pgp" : "0",
      "terminal" : "0",
      "latitude" : "24.18503",
      "inDis" : "50",
      "routeId" : "199",
      "seqNo" : "4"
   },
   {
      "GoBack" : "2",
      "longitude" : "120.61333",
      "outDis" : "50",
      "Id" : "5316",
      "oid" : "318992185",
      "districtId" : "1",
      "nameZh" : "福科福林路口",
      "pgp" : "0",
      "terminal" : "0",
      "latitude" : "24.18681",
      "inDis" : "50",
      "routeId" : "199",
      "seqNo" : "5"
   },
   {
      "GoBack" : "2",
      "longitude" : "120.61728",
      "outDis" : "50",
      "Id" : "0052",
      "oid" : "318992183",
      "districtId" : "1",
      "nameZh" : "福科福康路口",
      "pgp" : "0",
      "terminal" : "0",
      "latitude" : "24.18562",
      "inDis" : "50",
      "routeId" : "199",
      "seqNo" : "6"
   },
   {
      "GoBack" : "2",
      "longitude" : "120.62129",
      "outDis" : "50",
      "Id" : "0053",
      "oid" : "318992181",
      "districtId" : "1",
      "nameZh" : "福科永福路口",
      "pgp" : "0",
      "terminal" : "0",
      "latitude" : "24.18368",
      "inDis" : "50",
      "routeId" : "199",
      "seqNo" : "7"
   },
   {
      "GoBack" : "2",
      "longitude" : "120.62447",
      "outDis" : "50",
      "Id" : "0010",
      "oid" : "318992179",
      "districtId" : "1",
      "nameZh" : "福科安和路口",
      "pgp" : "0",
      "terminal" : "0",
      "latitude" : "24.18235",
      "inDis" : "50",
      "routeId" : "199",
      "seqNo" : "8"
   },
   {
      "GoBack" : "2",
      "longitude" : "120.63655",
      "outDis" : "50",
      "Id" : "4649",
      "oid" : "318982225",
      "districtId" : "1",
      "nameZh" : "福科環中路口",
      "pgp" : "0",
      "terminal" : "0",
      "latitude" : "24.17924",
      "inDis" : "50",
      "routeId" : "199",
      "seqNo" : "9"
   },
   {
      "GoBack" : "2",
      "longitude" : "120.63857",
      "outDis" : "50",
      "Id" : "2175",
      "oid" : "318982223",
      "districtId" : "1",
      "nameZh" : "西屯派出所",
      "pgp" : "0",
      "terminal" : "0",
      "latitude" : "24.18202",
      "inDis" : "50",
      "routeId" : "199",
      "seqNo" : "10"
   },
   {
      "GoBack" : "2",
      "longitude" : "120.64074",
      "outDis" : "50",
      "Id" : "4622",
      "oid" : "306628470",
      "districtId" : "1",
      "nameZh" : "福星同心路口",
      "pgp" : "0",
      "terminal" : "0",
      "latitude" : "24.18234",
      "inDis" : "50",
      "routeId" : "199",
      "seqNo" : "11"
   },
   {
      "GoBack" : "2",
      "longitude" : "120.64166",
      "outDis" : "50",
      "Id" : "5409",
      "oid" : "313222698",
      "districtId" : "1",
      "nameZh" : "文修停車場",
      "pgp" : "0",
      "terminal" : "0",
      "latitude" : "24.18505",
      "inDis" : "50",
      "routeId" : "199",
      "seqNo" : "12"
   },
   {
      "GoBack" : "2",
      "longitude" : "120.6403",
      "outDis" : "50",
      "Id" : "2192",
      "oid" : "C64B649F9E384121A6AED87F781EDEC7",
      "districtId" : "1",
      "nameZh" : "西苑高中",
      "pgp" : "0",
      "terminal" : "0",
      "latitude" : "24.18621",
      "inDis" : "50",
      "routeId" : "199",
      "seqNo" : "13"
   },
   {
      "GoBack" : "2",
      "longitude" : "120.64435",
      "outDis" : "50",
      "Id" : "4327",
      "oid" : "46334AB15DB0474C8290C7D30E223985",
      "districtId" : "1",
      "nameZh" : "僑光科技大學",
      "pgp" : "0",
      "terminal" : "0",
      "latitude" : "24.18685",
      "inDis" : "50",
      "routeId" : "199",
      "seqNo" : "14"
   },
   {
      "GoBack" : "2",
      "longitude" : "120.64451",
      "outDis" : "50",
      "Id" : "5658",
      "oid" : "313222696",
      "districtId" : "1",
      "nameZh" : "漢翔公司(星享道)",
      "pgp" : "0",
      "terminal" : "0",
      "latitude" : "24.18549",
      "inDis" : "50",
      "routeId" : "199",
      "seqNo" : "15"
   },
   {
      "GoBack" : "2",
      "longitude" : "120.64505",
      "outDis" : "50",
      "Id" : "4334",
      "oid" : "348F5950948E43129575D1622100E9C9",
      "districtId" : "1",
      "nameZh" : "福星西安街口",
      "pgp" : "0",
      "terminal" : "0",
      "latitude" : "24.18156",
      "inDis" : "50",
      "routeId" : "199",
      "seqNo" : "16"
   },
   {
      "GoBack" : "2",
      "longitude" : "120.64506",
      "outDis" : "50",
      "Id" : "4586",
      "oid" : "13022",
      "districtId" : "1",
      "nameZh" : "逢甲大學(福星路)",
      "pgp" : "0",
      "terminal" : "0",
      "latitude" : "24.17904",
      "inDis" : "50",
      "routeId" : "199",
      "seqNo" : "17"
   },
   {
      "GoBack" : "2",
      "longitude" : "120.64597",
      "outDis" : "50",
      "Id" : "0112",
      "oid" : "929D8A30AF4842D6BBDA96C36EBD4DBD",
      "districtId" : "1",
      "nameZh" : "福星停車場",
      "pgp" : "0",
      "terminal" : "0",
      "latitude" : "24.17547",
      "inDis" : "50",
      "routeId" : "199",
      "seqNo" : "18"
   },
   {
      "GoBack" : "2",
      "longitude" : "120.64872",
      "outDis" : "50",
      "Id" : "4333",
      "oid" : "13020",
      "districtId" : "1",
      "nameZh" : "河南福星路口",
      "pgp" : "0",
      "terminal" : "0",
      "latitude" : "24.17444",
      "inDis" : "50",
      "routeId" : "199",
      "seqNo" : "19"
   },
   {
      "GoBack" : "2",
      "longitude" : "120.6514",
      "outDis" : "50",
      "Id" : "0234",
      "oid" : "12388",
      "districtId" : "1",
      "nameZh" : "河南停車場",
      "pgp" : "0",
      "terminal" : "0",
      "latitude" : "24.17596",
      "inDis" : "50",
      "routeId" : "199",
      "seqNo" : "20"
   },
   {
      "GoBack" : "2",
      "longitude" : "120.65722",
      "outDis" : "50",
      "Id" : "0233",
      "oid" : "13018",
      "districtId" : "1",
      "nameZh" : "家扶發展學園",
      "pgp" : "0",
      "terminal" : "0",
      "latitude" : "24.17626",
      "inDis" : "50",
      "routeId" : "199",
      "seqNo" : "21"
   },
   {
      "GoBack" : "2",
      "longitude" : "120.65978",
      "outDis" : "50",
      "Id" : "4159",
      "oid" : "13017",
      "districtId" : "1",
      "nameZh" : "河南福上巷口",
      "pgp" : "0",
      "terminal" : "0",
      "latitude" : "24.17516",
      "inDis" : "50",
      "routeId" : "199",
      "seqNo" : "22"
   },
   {
      "GoBack" : "2",
      "longitude" : "120.66055",
      "outDis" : "50",
      "Id" : "4332",
      "oid" : "8B425412E4B547CD936855C571C63648",
      "districtId" : "1",
      "nameZh" : "河南長安路口",
      "pgp" : "0",
      "terminal" : "0",
      "latitude" : "24.17279",
      "inDis" : "50",
      "routeId" : "199",
      "seqNo" : "23"
   },
   {
      "GoBack" : "2",
      "longitude" : "120.66078",
      "outDis" : "50",
      "Id" : "4275",
      "oid" : "4BEDCF1F935245F68A5CA1992193DD96",
      "districtId" : "1",
      "nameZh" : "文心河南路口",
      "pgp" : "0",
      "terminal" : "0",
      "latitude" : "24.17142",
      "inDis" : "50",
      "routeId" : "199",
      "seqNo" : "24"
   },
   {
      "GoBack" : "2",
      "longitude" : "120.65939",
      "outDis" : "50",
      "Id" : "4613",
      "oid" : "2698AAE08ACE4E96B569E71939C06CB7",
      "districtId" : "1",
      "nameZh" : "文華高中(寧夏路)",
      "pgp" : "0",
      "terminal" : "0",
      "latitude" : "24.17023",
      "inDis" : "50",
      "routeId" : "199",
      "seqNo" : "25"
   },
   {
      "GoBack" : "2",
      "longitude" : "120.66026",
      "outDis" : "50",
      "Id" : "0405",
      "oid" : "5BBCC137A8D54F8DA6C3A8609774B9A3",
      "districtId" : "1",
      "nameZh" : "中山國中",
      "pgp" : "0",
      "terminal" : "0",
      "latitude" : "24.16882",
      "inDis" : "50",
      "routeId" : "199",
      "seqNo" : "26"
   },
   {
      "GoBack" : "2",
      "longitude" : "120.66177",
      "outDis" : "50",
      "Id" : "5002",
      "oid" : "309402686",
      "districtId" : "1",
      "nameZh" : "寧夏東八街口",
      "pgp" : "0",
      "terminal" : "0",
      "latitude" : "24.16601",
      "inDis" : "50",
      "routeId" : "199",
      "seqNo" : "27"
   },
   {
      "GoBack" : "2",
      "longitude" : "120.66137",
      "outDis" : "50",
      "Id" : "0358",
      "oid" : "5B3C72B34E2B421AB1AD3BE60CA056B6",
      "districtId" : "1",
      "nameZh" : "漢口大信街口",
      "pgp" : "0",
      "terminal" : "0",
      "latitude" : "24.16491",
      "inDis" : "50",
      "routeId" : "199",
      "seqNo" : "28"
   },
   {
      "GoBack" : "2",
      "longitude" : "120.65928",
      "outDis" : "50",
      "Id" : "4983",
      "oid" : "309269466",
      "districtId" : "1",
      "nameZh" : "漢口西屯路口",
      "pgp" : "0",
      "terminal" : "0",
      "latitude" : "24.16388",
      "inDis" : "50",
      "routeId" : "199",
      "seqNo" : "29"
   },
   {
      "GoBack" : "2",
      "longitude" : "120.65669",
      "outDis" : "50",
      "Id" : "0119",
      "oid" : "4586D482AC8A4D2E8C7E8615AACF22A5",
      "districtId" : "1",
      "nameZh" : "漢口國中",
      "pgp" : "0",
      "terminal" : "0",
      "latitude" : "24.16139",
      "inDis" : "50",
      "routeId" : "199",
      "seqNo" : "30"
   },
   {
      "GoBack" : "2",
      "longitude" : "120.65636",
      "outDis" : "50",
      "Id" : "5659",
      "oid" : "319559966",
      "districtId" : "1",
      "nameZh" : "漢口臺灣大道口",
      "pgp" : "0",
      "terminal" : "0",
      "latitude" : "24.15996",
      "inDis" : "50",
      "routeId" : "199",
      "seqNo" : "31"
   },
   {
      "GoBack" : "2",
      "longitude" : "120.64498",
      "outDis" : "50",
      "Id" : "5000",
      "oid" : "309402684",
      "districtId" : "1",
      "nameZh" : "大遠百",
      "pgp" : "0",
      "terminal" : "0",
      "latitude" : "24.16229",
      "inDis" : "50",
      "routeId" : "199",
      "seqNo" : "32"
   },
   {
      "GoBack" : "2",
      "longitude" : "120.64378",
      "outDis" : "50",
      "Id" : "4999",
      "oid" : "309402683",
      "districtId" : "1",
      "nameZh" : "惠中市政北三路口",
      "pgp" : "0",
      "terminal" : "0",
      "latitude" : "24.16043",
      "inDis" : "50",
      "routeId" : "199",
      "seqNo" : "33"
   },
   {
      "GoBack" : "2",
      "longitude" : "120.64297",
      "outDis" : "50",
      "Id" : "1433",
      "oid" : "305746783",
      "districtId" : "1",
      "nameZh" : "中央健保局(惠中路)",
      "pgp" : "0",
      "terminal" : "0",
      "latitude" : "24.15893",
      "inDis" : "50",
      "routeId" : "199",
      "seqNo" : "34"
   },
   {
      "GoBack" : "2",
      "longitude" : "120.64088",
      "outDis" : "50",
      "Id" : "0817",
      "oid" : "825712AFFA074AA4A2A89679BB06D7E3",
      "districtId" : "1",
      "nameZh" : "惠來公園",
      "pgp" : "0",
      "terminal" : "0",
      "latitude" : "24.15517",
      "inDis" : "50",
      "routeId" : "199",
      "seqNo" : "35"
   },
   {
      "GoBack" : "2",
      "longitude" : "120.64064",
      "outDis" : "50",
      "Id" : "5656",
      "oid" : "309402682",
      "districtId" : "1",
      "nameZh" : "惠文高中(惠中路)",
      "pgp" : "0",
      "terminal" : "0",
      "latitude" : "24.15224",
      "inDis" : "50",
      "routeId" : "199",
      "seqNo" : "36"
   },
   {
      "GoBack" : "2",
      "longitude" : "120.63976",
      "outDis" : "50",
      "Id" : "0814",
      "oid" : "309402681",
      "districtId" : "1",
      "nameZh" : "惠文高中(公益路)",
      "pgp" : "0",
      "terminal" : "0",
      "latitude" : "24.15131",
      "inDis" : "50",
      "routeId" : "199",
      "seqNo" : "37"
   },
   {
      "GoBack" : "2",
      "longitude" : "120.63728",
      "outDis" : "50",
      "Id" : "4996",
      "oid" : "309402680",
      "districtId" : "1",
      "nameZh" : "河南公益路口",
      "pgp" : "0",
      "terminal" : "0",
      "latitude" : "24.15119",
      "inDis" : "50",
      "routeId" : "199",
      "seqNo" : "38"
   },
   {
      "GoBack" : "2",
      "longitude" : "120.63787",
      "outDis" : "50",
      "Id" : "4995",
      "oid" : "309402679",
      "districtId" : "1",
      "nameZh" : "河南向上路口",
      "pgp" : "0",
      "terminal" : "0",
      "latitude" : "24.14847",
      "inDis" : "50",
      "routeId" : "199",
      "seqNo" : "39"
   },
   {
      "GoBack" : "2",
      "longitude" : "120.63473",
      "outDis" : "50",
      "Id" : "4994",
      "oid" : "309402678",
      "districtId" : "1",
      "nameZh" : "向上永春東七路口",
      "pgp" : "0",
      "terminal" : "0",
      "latitude" : "24.14634",
      "inDis" : "50",
      "routeId" : "199",
      "seqNo" : "40"
   },
   {
      "GoBack" : "2",
      "longitude" : "120.63147",
      "outDis" : "50",
      "Id" : "4338",
      "oid" : "302727320",
      "districtId" : "1",
      "nameZh" : "向上五權西路口",
      "pgp" : "0",
      "terminal" : "0",
      "latitude" : "24.14495",
      "inDis" : "50",
      "routeId" : "199",
      "seqNo" : "41"
   },
   {
      "GoBack" : "2",
      "longitude" : "120.62383",
      "outDis" : "50",
      "Id" : "4993",
      "oid" : "309402677",
      "districtId" : "1",
      "nameZh" : "向上環中路口",
      "pgp" : "0",
      "terminal" : "0",
      "latitude" : "24.1451",
      "inDis" : "50",
      "routeId" : "199",
      "seqNo" : "42"
   },
   {
      "GoBack" : "2",
      "longitude" : "120.6143",
      "outDis" : "75",
      "Id" : "0161",
      "oid" : "10985",
      "districtId" : "1",
      "nameZh" : "文山國小(向上路)",
      "pgp" : "0",
      "terminal" : "0",
      "latitude" : "24.1484",
      "inDis" : "75",
      "routeId" : "199",
      "seqNo" : "43"
   },
   {
      "GoBack" : "2",
      "longitude" : "120.6123",
      "outDis" : "50",
      "Id" : "4992",
      "oid" : "309402676",
      "districtId" : "1",
      "nameZh" : "向上嶺東路口",
      "pgp" : "0",
      "terminal" : "0",
      "latitude" : "24.15035",
      "inDis" : "50",
      "routeId" : "199",
      "seqNo" : "44"
   },
   {
      "GoBack" : "2",
      "longitude" : "120.60851",
      "outDis" : "50",
      "Id" : "5327",
      "oid" : "313909887",
      "districtId" : "1",
      "nameZh" : "向上精科路口",
      "pgp" : "0",
      "terminal" : "0",
      "latitude" : "24.15135",
      "inDis" : "50",
      "routeId" : "199",
      "seqNo" : "45"
   },
   {
      "GoBack" : "2",
      "longitude" : "120.58232",
      "outDis" : "50",
      "Id" : "5673",
      "oid" : "309402675",
      "districtId" : "1",
      "nameZh" : "向上工業28路口",
      "pgp" : "0",
      "terminal" : "0",
      "latitude" : "24.17168",
      "inDis" : "50",
      "routeId" : "199",
      "seqNo" : "46"
   },
   {
      "GoBack" : "2",
      "longitude" : "120.58204",
      "outDis" : "50",
      "Id" : "5672",
      "oid" : "309402674",
      "districtId" : "1",
      "nameZh" : "向上遊園路口",
      "pgp" : "0",
      "terminal" : "0",
      "latitude" : "24.17566",
      "inDis" : "50",
      "routeId" : "199",
      "seqNo" : "47"
   },
   {
      "GoBack" : "2",
      "longitude" : "120.57606",
      "outDis" : "50",
      "Id" : "0399",
      "oid" : "309402673",
      "districtId" : "1",
      "nameZh" : "向上中沙路口",
      "pgp" : "0",
      "terminal" : "0",
      "latitude" : "24.17743",
      "inDis" : "50",
      "routeId" : "199",
      "seqNo" : "48"
   },
   {
      "GoBack" : "2",
      "longitude" : "120.57457",
      "outDis" : "50",
      "Id" : "0531",
      "oid" : "319549152",
      "districtId" : "1",
      "nameZh" : "向上南新路口",
      "pgp" : "0",
      "terminal" : "0",
      "latitude" : "24.18083",
      "inDis" : "50",
      "routeId" : "199",
      "seqNo" : "49"
   },
   {
      "GoBack" : "2",
      "longitude" : "120.57438",
      "outDis" : "50",
      "Id" : "0530",
      "oid" : "319549151",
      "districtId" : "1",
      "nameZh" : "向上中興路口",
      "pgp" : "0",
      "terminal" : "0",
      "latitude" : "24.18373",
      "inDis" : "50",
      "routeId" : "199",
      "seqNo" : "50"
   },
   {
      "GoBack" : "2",
      "longitude" : "120.56739",
      "outDis" : "50",
      "Id" : "5671",
      "oid" : "318982105",
      "districtId" : "1",
      "nameZh" : "向上自立路口",
      "pgp" : "0",
      "terminal" : "0",
      "latitude" : "24.20365",
      "inDis" : "50",
      "routeId" : "199",
      "seqNo" : "51"
   },
   {
      "GoBack" : "2",
      "longitude" : "120.56443",
      "outDis" : "50",
      "Id" : "0397",
      "oid" : "309402671",
      "districtId" : "1",
      "nameZh" : "向上保寧路口",
      "pgp" : "0",
      "terminal" : "0",
      "latitude" : "24.2061",
      "inDis" : "50",
      "routeId" : "199",
      "seqNo" : "52"
   },
   {
      "GoBack" : "2",
      "longitude" : "120.55659",
      "outDis" : "50",
      "Id" : "4076",
      "oid" : "309406811",
      "districtId" : "1",
      "nameZh" : "山隆加油站",
      "pgp" : "0",
      "terminal" : "0",
      "latitude" : "24.21234",
      "inDis" : "50",
      "routeId" : "199",
      "seqNo" : "53"
   },
   {
      "GoBack" : "2",
      "longitude" : "120.55157",
      "outDis" : "50",
      "Id" : "5159",
      "oid" : "14038",
      "districtId" : "1",
      "nameZh" : "龍山國小(山腳里)",
      "pgp" : "0",
      "terminal" : "0",
      "latitude" : "24.21255",
      "inDis" : "50",
      "routeId" : "199",
      "seqNo" : "54"
   },
   {
      "GoBack" : "2",
      "longitude" : "120.55056",
      "outDis" : "50",
      "Id" : "2559",
      "oid" : "7147",
      "districtId" : "1",
      "nameZh" : "南山腳",
      "pgp" : "0",
      "terminal" : "0",
      "latitude" : "24.21022",
      "inDis" : "50",
      "routeId" : "199",
      "seqNo" : "55"
   },
   {
      "GoBack" : "2",
      "longitude" : "120.54923",
      "outDis" : "50",
      "Id" : "4010",
      "oid" : "7639",
      "districtId" : "1",
      "nameZh" : "鷺山",
      "pgp" : "0",
      "terminal" : "0",
      "latitude" : "24.20743",
      "inDis" : "50",
      "routeId" : "199",
      "seqNo" : "56"
   },
   {
      "GoBack" : "2",
      "longitude" : "120.54798",
      "outDis" : "50",
      "Id" : "3850",
      "oid" : "7601",
      "districtId" : "1",
      "nameZh" : "龍目井",
      "pgp" : "0",
      "terminal" : "0",
      "latitude" : "24.20249",
      "inDis" : "50",
      "routeId" : "199",
      "seqNo" : "57"
   },
   {
      "GoBack" : "2",
      "longitude" : "120.54714",
      "outDis" : "50",
      "Id" : "3855",
      "oid" : "14801",
      "districtId" : "1",
      "nameZh" : "龍泉",
      "pgp" : "0",
      "terminal" : "0",
      "latitude" : "24.19984",
      "inDis" : "50",
      "routeId" : "199",
      "seqNo" : "58"
   },
   {
      "GoBack" : "2",
      "longitude" : "120.54659",
      "outDis" : "50",
      "Id" : "3846",
      "oid" : "14033",
      "districtId" : "1",
      "nameZh" : "龍井火車站",
      "pgp" : "0",
      "terminal" : "0",
      "latitude" : "24.19687",
      "inDis" : "50",
      "routeId" : "199",
      "seqNo" : "59"
   },
   {
      "GoBack" : "2",
      "longitude" : "120.54608",
      "outDis" : "50",
      "Id" : "5160",
      "oid" : "14032",
      "districtId" : "1",
      "nameZh" : "龍井區公所",
      "pgp" : "0",
      "terminal" : "0",
      "latitude" : "24.19246",
      "inDis" : "50",
      "routeId" : "199",
      "seqNo" : "60"
   },
   {
      "GoBack" : "2",
      "longitude" : "120.54574",
      "outDis" : "50",
      "Id" : "3847",
      "oid" : "14798",
      "districtId" : "1",
      "nameZh" : "龍井加油站",
      "pgp" : "0",
      "terminal" : "0",
      "latitude" : "24.18898",
      "inDis" : "50",
      "routeId" : "199",
      "seqNo" : "61"
   },
   {
      "GoBack" : "2",
      "longitude" : "120.54549",
      "outDis" : "50",
      "Id" : "3853",
      "oid" : "14797",
      "districtId" : "1",
      "nameZh" : "龍崗",
      "pgp" : "0",
      "terminal" : "0",
      "latitude" : "24.18642",
      "inDis" : "50",
      "routeId" : "199",
      "seqNo" : "62"
   },
   {
      "GoBack" : "2",
      "longitude" : "120.54554",
      "outDis" : "50",
      "Id" : "3031",
      "oid" : "14796",
      "districtId" : "1",
      "nameZh" : "深水",
      "pgp" : "0",
      "terminal" : "0",
      "latitude" : "24.18257",
      "inDis" : "50",
      "routeId" : "199",
      "seqNo" : "63"
   },
   {
      "GoBack" : "2",
      "longitude" : "120.54461",
      "outDis" : "50",
      "Id" : "2242",
      "oid" : "7090",
      "districtId" : "1",
      "nameZh" : "村內入口",
      "pgp" : "0",
      "terminal" : "0",
      "latitude" : "24.17876",
      "inDis" : "50",
      "routeId" : "199",
      "seqNo" : "64"
   },
   {
      "GoBack" : "2",
      "longitude" : "120.54379",
      "outDis" : "50",
      "Id" : "2144",
      "oid" : "14794",
      "districtId" : "1",
      "nameZh" : "竹坑口",
      "pgp" : "0",
      "terminal" : "0",
      "latitude" : "24.17549",
      "inDis" : "50",
      "routeId" : "199",
      "seqNo" : "65"
   }
]
