[
   {
      "GoBack" : "1",
      "longitude" : "120.52527",
      "outDis" : "50",
      "Id" : "4394",
      "oid" : "13525",
      "districtId" : "1",
      "nameZh" : "梧棲觀光漁港",
      "pgp" : "0",
      "terminal" : "0",
      "latitude" : "24.2923",
      "inDis" : "50",
      "routeId" : "57",
      "seqNo" : "1"
   },
   {
      "GoBack" : "1",
      "longitude" : "120.53974",
      "outDis" : "50",
      "Id" : "5063",
      "oid" : "309863813",
      "districtId" : "1",
      "nameZh" : "臺中港北堤",
      "pgp" : "0",
      "terminal" : "0",
      "latitude" : "24.28838",
      "inDis" : "50",
      "routeId" : "57",
      "seqNo" : "2"
   },
   {
      "GoBack" : "1",
      "longitude" : "120.53681",
      "outDis" : "50",
      "Id" : "2180",
      "oid" : "13489",
      "districtId" : "1",
      "nameZh" : "西瓜寮",
      "pgp" : "0",
      "terminal" : "0",
      "latitude" : "24.28245",
      "inDis" : "50",
      "routeId" : "57",
      "seqNo" : "3"
   },
   {
      "GoBack" : "1",
      "longitude" : "120.53535",
      "outDis" : "50",
      "Id" : "2657",
      "oid" : "13508",
      "districtId" : "1",
      "nameZh" : "後營門口",
      "pgp" : "0",
      "terminal" : "0",
      "latitude" : "24.279",
      "inDis" : "50",
      "routeId" : "57",
      "seqNo" : "4"
   },
   {
      "GoBack" : "1",
      "longitude" : "120.53443",
      "outDis" : "50",
      "Id" : "2996",
      "oid" : "13519",
      "districtId" : "1",
      "nameZh" : "梧棟",
      "pgp" : "0",
      "terminal" : "0",
      "latitude" : "24.27683",
      "inDis" : "50",
      "routeId" : "57",
      "seqNo" : "5"
   },
   {
      "GoBack" : "1",
      "longitude" : "120.5331",
      "outDis" : "50",
      "Id" : "5066",
      "oid" : "309863816",
      "districtId" : "1",
      "nameZh" : "環球大樓",
      "pgp" : "0",
      "terminal" : "0",
      "latitude" : "24.27372",
      "inDis" : "50",
      "routeId" : "57",
      "seqNo" : "6"
   },
   {
      "GoBack" : "1",
      "longitude" : "120.53229",
      "outDis" : "50",
      "Id" : "5058",
      "oid" : "309863808",
      "districtId" : "1",
      "nameZh" : "舶來品商圈",
      "pgp" : "0",
      "terminal" : "0",
      "latitude" : "24.27162",
      "inDis" : "50",
      "routeId" : "57",
      "seqNo" : "7"
   },
   {
      "GoBack" : "1",
      "longitude" : "120.53144",
      "outDis" : "50",
      "Id" : "4397",
      "oid" : "13547",
      "districtId" : "1",
      "nameZh" : "港灣技術中心",
      "pgp" : "0",
      "terminal" : "0",
      "latitude" : "24.26981",
      "inDis" : "50",
      "routeId" : "57",
      "seqNo" : "8"
   },
   {
      "GoBack" : "1",
      "longitude" : "120.52999",
      "outDis" : "50",
      "Id" : "4374",
      "oid" : "13423",
      "districtId" : "1",
      "nameZh" : "大智梧北路口",
      "pgp" : "0",
      "terminal" : "0",
      "latitude" : "24.26117",
      "inDis" : "50",
      "routeId" : "57",
      "seqNo" : "9"
   },
   {
      "GoBack" : "1",
      "longitude" : "120.53213",
      "outDis" : "50",
      "Id" : "4668",
      "oid" : "13518",
      "districtId" : "1",
      "nameZh" : "頂寮里",
      "pgp" : "0",
      "terminal" : "0",
      "latitude" : "24.26035",
      "inDis" : "50",
      "routeId" : "57",
      "seqNo" : "10"
   },
   {
      "GoBack" : "1",
      "longitude" : "120.53155",
      "outDis" : "50",
      "Id" : "2997",
      "oid" : "13520",
      "districtId" : "1",
      "nameZh" : "梧棲(文化路)",
      "pgp" : "0",
      "terminal" : "0",
      "latitude" : "24.2572",
      "inDis" : "50",
      "routeId" : "57",
      "seqNo" : "11"
   },
   {
      "GoBack" : "1",
      "longitude" : "120.53029",
      "outDis" : "50",
      "Id" : "4393",
      "oid" : "13524",
      "districtId" : "1",
      "nameZh" : "梧棲農會",
      "pgp" : "0",
      "terminal" : "0",
      "latitude" : "24.25433",
      "inDis" : "50",
      "routeId" : "57",
      "seqNo" : "12"
   },
   {
      "GoBack" : "1",
      "longitude" : "120.53075",
      "outDis" : "50",
      "Id" : "2999",
      "oid" : "13522",
      "districtId" : "1",
      "nameZh" : "梧棲國小",
      "pgp" : "0",
      "terminal" : "0",
      "latitude" : "24.25184",
      "inDis" : "50",
      "routeId" : "57",
      "seqNo" : "13"
   },
   {
      "GoBack" : "1",
      "longitude" : "120.53254",
      "outDis" : "50",
      "Id" : "3250",
      "oid" : "13544",
      "districtId" : "1",
      "nameZh" : "臺灣大道港埠路口",
      "pgp" : "0",
      "terminal" : "0",
      "latitude" : "24.2513",
      "inDis" : "50",
      "routeId" : "57",
      "seqNo" : "14"
   },
   {
      "GoBack" : "1",
      "longitude" : "120.53906",
      "outDis" : "50",
      "Id" : "1334",
      "oid" : "13422",
      "districtId" : "1",
      "nameZh" : "大庄",
      "pgp" : "0",
      "terminal" : "0",
      "latitude" : "24.24893",
      "inDis" : "50",
      "routeId" : "57",
      "seqNo" : "15"
   },
   {
      "GoBack" : "1",
      "longitude" : "120.54117",
      "outDis" : "50",
      "Id" : "4824",
      "oid" : "17445",
      "districtId" : "1",
      "nameZh" : "邱厝庄",
      "pgp" : "0",
      "terminal" : "0",
      "latitude" : "24.24818",
      "inDis" : "50",
      "routeId" : "57",
      "seqNo" : "16"
   },
   {
      "GoBack" : "1",
      "longitude" : "120.5426",
      "outDis" : "50",
      "Id" : "4041",
      "oid" : "13556",
      "districtId" : "1",
      "nameZh" : "童綜合醫院(梧棲院區)",
      "pgp" : "0",
      "terminal" : "0",
      "latitude" : "24.24763",
      "inDis" : "50",
      "routeId" : "57",
      "seqNo" : "17"
   },
   {
      "GoBack" : "1",
      "longitude" : "120.54472",
      "outDis" : "50",
      "Id" : "4007",
      "oid" : "17447",
      "districtId" : "1",
      "nameZh" : "體育館前",
      "pgp" : "0",
      "terminal" : "0",
      "latitude" : "24.2471",
      "inDis" : "50",
      "routeId" : "57",
      "seqNo" : "18"
   },
   {
      "GoBack" : "1",
      "longitude" : "120.54645",
      "outDis" : "50",
      "Id" : "2380",
      "oid" : "13503",
      "districtId" : "1",
      "nameZh" : "東大庄",
      "pgp" : "0",
      "terminal" : "0",
      "latitude" : "24.24624",
      "inDis" : "50",
      "routeId" : "57",
      "seqNo" : "19"
   },
   {
      "GoBack" : "1",
      "longitude" : "120.54926",
      "outDis" : "50",
      "Id" : "1088",
      "oid" : "13410",
      "districtId" : "1",
      "nameZh" : "三條圳",
      "pgp" : "0",
      "terminal" : "0",
      "latitude" : "24.24518",
      "inDis" : "50",
      "routeId" : "57",
      "seqNo" : "20"
   },
   {
      "GoBack" : "1",
      "longitude" : "120.55632",
      "outDis" : "50",
      "Id" : "1482",
      "oid" : "13441",
      "districtId" : "1",
      "nameZh" : "中港國小",
      "pgp" : "0",
      "terminal" : "0",
      "latitude" : "24.24264",
      "inDis" : "50",
      "routeId" : "57",
      "seqNo" : "21"
   },
   {
      "GoBack" : "1",
      "longitude" : "120.5612",
      "outDis" : "50",
      "Id" : "5388",
      "oid" : "312690453",
      "districtId" : "1",
      "nameZh" : "臺灣大道中山路口",
      "pgp" : "0",
      "terminal" : "0",
      "latitude" : "24.24064",
      "inDis" : "50",
      "routeId" : "57",
      "seqNo" : "22"
   },
   {
      "GoBack" : "1",
      "longitude" : "120.56346",
      "outDis" : "50",
      "Id" : "2335",
      "oid" : "13498",
      "districtId" : "1",
      "nameZh" : "居仁里",
      "pgp" : "0",
      "terminal" : "0",
      "latitude" : "24.24007",
      "inDis" : "50",
      "routeId" : "57",
      "seqNo" : "23"
   },
   {
      "GoBack" : "1",
      "longitude" : "120.56535",
      "outDis" : "50",
      "Id" : "0005",
      "oid" : "13493",
      "districtId" : "1",
      "nameZh" : "沙鹿高工(臺灣大道)",
      "pgp" : "0",
      "terminal" : "0",
      "latitude" : "24.23926",
      "inDis" : "50",
      "routeId" : "57",
      "seqNo" : "24"
   },
   {
      "GoBack" : "1",
      "longitude" : "120.56774",
      "outDis" : "50",
      "Id" : "2147",
      "oid" : "13487",
      "districtId" : "1",
      "nameZh" : "竹林國小",
      "pgp" : "0",
      "terminal" : "0",
      "latitude" : "24.23847",
      "inDis" : "50",
      "routeId" : "57",
      "seqNo" : "25"
   },
   {
      "GoBack" : "1",
      "longitude" : "120.57013",
      "outDis" : "50",
      "Id" : "4389",
      "oid" : "13483",
      "districtId" : "1",
      "nameZh" : "竹林里",
      "pgp" : "0",
      "terminal" : "0",
      "latitude" : "24.23609",
      "inDis" : "50",
      "routeId" : "57",
      "seqNo" : "26"
   },
   {
      "GoBack" : "1",
      "longitude" : "120.57198",
      "outDis" : "100",
      "Id" : "4392",
      "oid" : "13510",
      "districtId" : "1",
      "nameZh" : "紅竹巷",
      "pgp" : "0",
      "terminal" : "0",
      "latitude" : "24.23325",
      "inDis" : "50",
      "routeId" : "57",
      "seqNo" : "27"
   },
   {
      "GoBack" : "1",
      "longitude" : "120.57389",
      "outDis" : "50",
      "Id" : "4086",
      "oid" : "13456",
      "districtId" : "1",
      "nameZh" : "臺灣大道北勢路口",
      "pgp" : "0",
      "terminal" : "0",
      "latitude" : "24.23028",
      "inDis" : "50",
      "routeId" : "57",
      "seqNo" : "28"
   },
   {
      "GoBack" : "1",
      "longitude" : "120.57674",
      "outDis" : "50",
      "Id" : "4147",
      "oid" : "13568",
      "districtId" : "1",
      "nameZh" : "靜宜大學",
      "pgp" : "0",
      "terminal" : "0",
      "latitude" : "24.22583",
      "inDis" : "50",
      "routeId" : "57",
      "seqNo" : "29"
   },
   {
      "GoBack" : "1",
      "longitude" : "120.57829",
      "outDis" : "50",
      "Id" : "4062",
      "oid" : "13417",
      "districtId" : "1",
      "nameZh" : "下晉江",
      "pgp" : "0",
      "terminal" : "0",
      "latitude" : "24.22342",
      "inDis" : "50",
      "routeId" : "57",
      "seqNo" : "30"
   },
   {
      "GoBack" : "1",
      "longitude" : "120.57956",
      "outDis" : "50",
      "Id" : "4111",
      "oid" : "13515",
      "districtId" : "1",
      "nameZh" : "晉江里",
      "pgp" : "0",
      "terminal" : "0",
      "latitude" : "24.22143",
      "inDis" : "50",
      "routeId" : "57",
      "seqNo" : "31"
   },
   {
      "GoBack" : "1",
      "longitude" : "120.58041",
      "outDis" : "50",
      "Id" : "4386",
      "oid" : "13477",
      "districtId" : "1",
      "nameZh" : "弘光科技大學",
      "pgp" : "0",
      "terminal" : "0",
      "latitude" : "24.21743",
      "inDis" : "50",
      "routeId" : "57",
      "seqNo" : "32"
   },
   {
      "GoBack" : "1",
      "longitude" : "120.58096",
      "outDis" : "50",
      "Id" : "4124",
      "oid" : "13535",
      "districtId" : "1",
      "nameZh" : "頂六路",
      "pgp" : "0",
      "terminal" : "0",
      "latitude" : "24.21314",
      "inDis" : "50",
      "routeId" : "57",
      "seqNo" : "33"
   },
   {
      "GoBack" : "1",
      "longitude" : "120.58144",
      "outDis" : "50",
      "Id" : "4136",
      "oid" : "13558",
      "districtId" : "1",
      "nameZh" : "祿清宮",
      "pgp" : "0",
      "terminal" : "0",
      "latitude" : "24.209",
      "inDis" : "50",
      "routeId" : "57",
      "seqNo" : "34"
   },
   {
      "GoBack" : "1",
      "longitude" : "120.58065",
      "outDis" : "50",
      "Id" : "4388",
      "oid" : "13482",
      "districtId" : "1",
      "nameZh" : "后厝仔",
      "pgp" : "0",
      "terminal" : "0",
      "latitude" : "24.19911",
      "inDis" : "50",
      "routeId" : "57",
      "seqNo" : "35"
   },
   {
      "GoBack" : "1",
      "longitude" : "120.58253",
      "outDis" : "50",
      "Id" : "4061",
      "oid" : "13415",
      "districtId" : "1",
      "nameZh" : "下坪頂",
      "pgp" : "0",
      "terminal" : "0",
      "latitude" : "24.18754",
      "inDis" : "50",
      "routeId" : "57",
      "seqNo" : "36"
   },
   {
      "GoBack" : "1",
      "longitude" : "120.58603",
      "outDis" : "50",
      "Id" : "2325",
      "oid" : "7104",
      "districtId" : "1",
      "nameZh" : "坪頂",
      "pgp" : "0",
      "terminal" : "0",
      "latitude" : "24.186",
      "inDis" : "50",
      "routeId" : "57",
      "seqNo" : "37"
   },
   {
      "GoBack" : "1",
      "longitude" : "120.58788",
      "outDis" : "50",
      "Id" : "5304",
      "oid" : "311234408",
      "districtId" : "1",
      "nameZh" : "東海街口",
      "pgp" : "0",
      "terminal" : "0",
      "latitude" : "24.1853",
      "inDis" : "50",
      "routeId" : "57",
      "seqNo" : "38"
   },
   {
      "GoBack" : "1",
      "longitude" : "120.59125",
      "outDis" : "50",
      "Id" : "4383",
      "oid" : "13471",
      "districtId" : "1",
      "nameZh" : "臺糖公營學苑",
      "pgp" : "0",
      "terminal" : "0",
      "latitude" : "24.18367",
      "inDis" : "50",
      "routeId" : "57",
      "seqNo" : "39"
   },
   {
      "GoBack" : "1",
      "longitude" : "120.59349",
      "outDis" : "50",
      "Id" : "0240",
      "oid" : "13506",
      "districtId" : "1",
      "nameZh" : "東海別墅",
      "pgp" : "0",
      "terminal" : "0",
      "latitude" : "24.18288",
      "inDis" : "50",
      "routeId" : "57",
      "seqNo" : "40"
   },
   {
      "GoBack" : "1",
      "longitude" : "120.5973",
      "outDis" : "50",
      "Id" : "0526",
      "oid" : "13469",
      "districtId" : "1",
      "nameZh" : "台中精機",
      "pgp" : "0",
      "terminal" : "0",
      "latitude" : "24.18208",
      "inDis" : "50",
      "routeId" : "57",
      "seqNo" : "41"
   },
   {
      "GoBack" : "1",
      "longitude" : "120.60491",
      "outDis" : "50",
      "Id" : "5386",
      "oid" : "7553",
      "districtId" : "1",
      "nameZh" : "臺中榮總(臺灣大道)",
      "pgp" : "0",
      "terminal" : "0",
      "latitude" : "24.18349",
      "inDis" : "50",
      "routeId" : "57",
      "seqNo" : "42"
   },
   {
      "GoBack" : "1",
      "longitude" : "120.60686",
      "outDis" : "50",
      "Id" : "2378",
      "oid" : "7624",
      "districtId" : "1",
      "nameZh" : "東大附中",
      "pgp" : "0",
      "terminal" : "0",
      "latitude" : "24.18365",
      "inDis" : "50",
      "routeId" : "57",
      "seqNo" : "43"
   },
   {
      "GoBack" : "1",
      "longitude" : "120.60839",
      "outDis" : "50",
      "Id" : "0004",
      "oid" : "7475",
      "districtId" : "1",
      "nameZh" : "普濟寺",
      "pgp" : "0",
      "terminal" : "0",
      "latitude" : "24.18408",
      "inDis" : "50",
      "routeId" : "57",
      "seqNo" : "44"
   },
   {
      "GoBack" : "1",
      "longitude" : "120.61064",
      "outDis" : "50",
      "Id" : "4335",
      "oid" : "319048655",
      "districtId" : "1",
      "nameZh" : "臺灣大道玉門路口",
      "pgp" : "0",
      "terminal" : "0",
      "latitude" : "24.18473",
      "inDis" : "50",
      "routeId" : "57",
      "seqNo" : "45"
   },
   {
      "GoBack" : "1",
      "longitude" : "120.61316",
      "outDis" : "50",
      "Id" : "0006",
      "oid" : "13462",
      "districtId" : "1",
      "nameZh" : "臺中捐血中心",
      "pgp" : "0",
      "terminal" : "0",
      "latitude" : "24.184",
      "inDis" : "50",
      "routeId" : "57",
      "seqNo" : "46"
   },
   {
      "GoBack" : "1",
      "longitude" : "120.61597",
      "outDis" : "50",
      "Id" : "0430",
      "oid" : "13445",
      "districtId" : "1",
      "nameZh" : "中港澄清醫院",
      "pgp" : "0",
      "terminal" : "0",
      "latitude" : "24.18267",
      "inDis" : "50",
      "routeId" : "57",
      "seqNo" : "47"
   },
   {
      "GoBack" : "1",
      "longitude" : "120.6183",
      "outDis" : "50",
      "Id" : "0008",
      "oid" : "320062561",
      "districtId" : "1",
      "nameZh" : "中港新城",
      "pgp" : "0",
      "terminal" : "0",
      "latitude" : "24.18145",
      "inDis" : "50",
      "routeId" : "57",
      "seqNo" : "48"
   },
   {
      "GoBack" : "1",
      "longitude" : "120.62116",
      "outDis" : "50",
      "Id" : "3060",
      "oid" : "13534",
      "districtId" : "1",
      "nameZh" : "統聯轉運站",
      "pgp" : "0",
      "terminal" : "0",
      "latitude" : "24.18006",
      "inDis" : "50",
      "routeId" : "57",
      "seqNo" : "49"
   },
   {
      "GoBack" : "1",
      "longitude" : "120.62374",
      "outDis" : "50",
      "Id" : "5149",
      "oid" : "319908747",
      "districtId" : "1",
      "nameZh" : "福安里(臺灣大道)",
      "pgp" : "0",
      "terminal" : "0",
      "latitude" : "24.1787",
      "inDis" : "50",
      "routeId" : "57",
      "seqNo" : "50"
   },
   {
      "GoBack" : "1",
      "longitude" : "120.63717",
      "outDis" : "50",
      "Id" : "0054",
      "oid" : "313524993",
      "districtId" : "1",
      "nameZh" : "朝馬(臺灣大道)",
      "pgp" : "0",
      "terminal" : "0",
      "latitude" : "24.17059",
      "inDis" : "50",
      "routeId" : "57",
      "seqNo" : "51"
   },
   {
      "GoBack" : "1",
      "longitude" : "120.63957",
      "outDis" : "50",
      "Id" : "0826",
      "oid" : "13543",
      "districtId" : "1",
      "nameZh" : "秋紅谷(朝陽橋)",
      "pgp" : "0",
      "terminal" : "0",
      "latitude" : "24.16865",
      "inDis" : "50",
      "routeId" : "57",
      "seqNo" : "52"
   },
   {
      "GoBack" : "1",
      "longitude" : "120.64186",
      "outDis" : "50",
      "Id" : "0015",
      "oid" : "7412",
      "districtId" : "1",
      "nameZh" : "教師新村",
      "pgp" : "0",
      "terminal" : "0",
      "latitude" : "24.1671",
      "inDis" : "50",
      "routeId" : "57",
      "seqNo" : "53"
   },
   {
      "GoBack" : "1",
      "longitude" : "120.64429",
      "outDis" : "50",
      "Id" : "0016",
      "oid" : "7512",
      "districtId" : "1",
      "nameZh" : "新光三越",
      "pgp" : "0",
      "terminal" : "0",
      "latitude" : "24.16551",
      "inDis" : "50",
      "routeId" : "57",
      "seqNo" : "54"
   },
   {
      "GoBack" : "1",
      "longitude" : "120.64806",
      "outDis" : "50",
      "Id" : "0017",
      "oid" : "7473",
      "districtId" : "1",
      "nameZh" : "臺中市政府",
      "pgp" : "0",
      "terminal" : "0",
      "latitude" : "24.16349",
      "inDis" : "50",
      "routeId" : "57",
      "seqNo" : "55"
   },
   {
      "GoBack" : "1",
      "longitude" : "120.65061",
      "outDis" : "50",
      "Id" : "4564",
      "oid" : "7323",
      "districtId" : "1",
      "nameZh" : "臺灣大道文心路口",
      "pgp" : "0",
      "terminal" : "0",
      "latitude" : "24.16212",
      "inDis" : "50",
      "routeId" : "57",
      "seqNo" : "56"
   },
   {
      "GoBack" : "1",
      "longitude" : "120.65407",
      "outDis" : "50",
      "Id" : "4566",
      "oid" : "7088",
      "districtId" : "1",
      "nameZh" : "何厝(臺灣大道)",
      "pgp" : "0",
      "terminal" : "0",
      "latitude" : "24.16046",
      "inDis" : "50",
      "routeId" : "57",
      "seqNo" : "57"
   },
   {
      "GoBack" : "1",
      "longitude" : "120.65638",
      "outDis" : "50",
      "Id" : "4569",
      "oid" : "7455",
      "districtId" : "1",
      "nameZh" : "頂何厝(臺灣大道)",
      "pgp" : "0",
      "terminal" : "0",
      "latitude" : "24.15891",
      "inDis" : "50",
      "routeId" : "57",
      "seqNo" : "58"
   },
   {
      "GoBack" : "1",
      "longitude" : "120.65849",
      "outDis" : "50",
      "Id" : "0087",
      "oid" : "7112",
      "districtId" : "1",
      "nameZh" : "忠明國小",
      "pgp" : "0",
      "terminal" : "0",
      "latitude" : "24.15776",
      "inDis" : "50",
      "routeId" : "57",
      "seqNo" : "59"
   },
   {
      "GoBack" : "1",
      "longitude" : "120.66313",
      "outDis" : "50",
      "Id" : "0320",
      "oid" : "319472665",
      "districtId" : "1",
      "nameZh" : "科學博物館(臺灣大道)",
      "pgp" : "0",
      "terminal" : "0",
      "latitude" : "24.1552",
      "inDis" : "50",
      "routeId" : "57",
      "seqNo" : "60"
   },
   {
      "GoBack" : "1",
      "longitude" : "120.66725",
      "outDis" : "50",
      "Id" : "0419",
      "oid" : "7258",
      "districtId" : "1",
      "nameZh" : "中正國小",
      "pgp" : "0",
      "terminal" : "0",
      "latitude" : "24.15291",
      "inDis" : "50",
      "routeId" : "57",
      "seqNo" : "61"
   },
   {
      "GoBack" : "1",
      "longitude" : "120.66933",
      "outDis" : "50",
      "Id" : "4619",
      "oid" : "7040",
      "districtId" : "1",
      "nameZh" : "臺灣大道民權路口",
      "pgp" : "0",
      "terminal" : "0",
      "latitude" : "24.15143",
      "inDis" : "50",
      "routeId" : "57",
      "seqNo" : "62"
   },
   {
      "GoBack" : "1",
      "longitude" : "120.66969",
      "outDis" : "50",
      "Id" : "0262",
      "oid" : "319047933",
      "districtId" : "1",
      "nameZh" : "民權路口",
      "pgp" : "0",
      "terminal" : "0",
      "latitude" : "24.14932",
      "inDis" : "50",
      "routeId" : "57",
      "seqNo" : "63"
   },
   {
      "GoBack" : "1",
      "longitude" : "120.67153",
      "outDis" : "50",
      "Id" : "0513",
      "oid" : "319048627",
      "districtId" : "1",
      "nameZh" : "臺中教育大學",
      "pgp" : "0",
      "terminal" : "0",
      "latitude" : "24.14517",
      "inDis" : "50",
      "routeId" : "57",
      "seqNo" : "64"
   },
   {
      "GoBack" : "1",
      "longitude" : "120.67464",
      "outDis" : "50",
      "Id" : "4623",
      "oid" : "319048628",
      "districtId" : "1",
      "nameZh" : "民權中華路口",
      "pgp" : "0",
      "terminal" : "0",
      "latitude" : "24.14257",
      "inDis" : "50",
      "routeId" : "57",
      "seqNo" : "65"
   },
   {
      "GoBack" : "1",
      "longitude" : "120.6765",
      "outDis" : "50",
      "Id" : "0208",
      "oid" : "319048629",
      "districtId" : "1",
      "nameZh" : "臺中醫院",
      "pgp" : "0",
      "terminal" : "0",
      "latitude" : "24.14097",
      "inDis" : "50",
      "routeId" : "57",
      "seqNo" : "66"
   },
   {
      "GoBack" : "1",
      "longitude" : "120.67842",
      "outDis" : "50",
      "Id" : "4416",
      "oid" : "319048630",
      "districtId" : "1",
      "nameZh" : "臺中州廳",
      "pgp" : "0",
      "terminal" : "0",
      "latitude" : "24.13896",
      "inDis" : "50",
      "routeId" : "57",
      "seqNo" : "67"
   },
   {
      "GoBack" : "1",
      "longitude" : "120.68095",
      "outDis" : "50",
      "Id" : "4284",
      "oid" : "319048631",
      "districtId" : "1",
      "nameZh" : "民權繼光街口",
      "pgp" : "0",
      "terminal" : "0",
      "latitude" : "24.13706",
      "inDis" : "50",
      "routeId" : "57",
      "seqNo" : "68"
   },
   {
      "GoBack" : "1",
      "longitude" : "120.6846",
      "outDis" : "50",
      "Id" : "1824",
      "oid" : "7358",
      "districtId" : "1",
      "nameZh" : "臺中火車站",
      "pgp" : "0",
      "terminal" : "0",
      "latitude" : "24.13726",
      "inDis" : "50",
      "routeId" : "57",
      "seqNo" : "69"
   },
   {
      "GoBack" : "1",
      "longitude" : "120.68576",
      "outDis" : "50",
      "Id" : "0402",
      "oid" : "300262027",
      "districtId" : "1",
      "nameZh" : "干城站",
      "pgp" : "0",
      "terminal" : "0",
      "latitude" : "24.14087",
      "inDis" : "50",
      "routeId" : "57",
      "seqNo" : "70"
   },
   {
      "GoBack" : "1",
      "longitude" : "120.68582",
      "outDis" : "50",
      "Id" : "4561",
      "oid" : "4C0F8426770D41898B45F60F2EFB829E",
      "districtId" : "1",
      "nameZh" : "立體停車場(雙十路)",
      "pgp" : "0",
      "terminal" : "0",
      "latitude" : "24.14248",
      "inDis" : "50",
      "routeId" : "57",
      "seqNo" : "71"
   },
   {
      "GoBack" : "1",
      "longitude" : "120.68606",
      "outDis" : "50",
      "Id" : "4544",
      "oid" : "300262031",
      "districtId" : "1",
      "nameZh" : "臺中公園(雙十路)",
      "pgp" : "0",
      "terminal" : "0",
      "latitude" : "24.14416",
      "inDis" : "50",
      "routeId" : "57",
      "seqNo" : "72"
   },
   {
      "GoBack" : "1",
      "longitude" : "120.68448",
      "outDis" : "50",
      "Id" : "1513",
      "oid" : "15989",
      "districtId" : "1",
      "nameZh" : "中興堂",
      "pgp" : "0",
      "terminal" : "0",
      "latitude" : "24.14626",
      "inDis" : "50",
      "routeId" : "57",
      "seqNo" : "73"
   },
   {
      "GoBack" : "1",
      "longitude" : "120.68398",
      "outDis" : "50",
      "Id" : "0045",
      "oid" : "13460",
      "districtId" : "1",
      "nameZh" : "國立臺中科技大學",
      "pgp" : "0",
      "terminal" : "0",
      "latitude" : "24.1495",
      "inDis" : "50",
      "routeId" : "57",
      "seqNo" : "74"
   },
   {
      "GoBack" : "1",
      "longitude" : "120.68517",
      "outDis" : "50",
      "Id" : "0046",
      "oid" : "13430",
      "districtId" : "1",
      "nameZh" : "中友百貨",
      "pgp" : "0",
      "terminal" : "0",
      "latitude" : "24.15223",
      "inDis" : "50",
      "routeId" : "57",
      "seqNo" : "75"
   },
   {
      "GoBack" : "1",
      "longitude" : "120.68548",
      "outDis" : "50",
      "Id" : "0203",
      "oid" : "13474",
      "districtId" : "1",
      "nameZh" : "市立殯儀館",
      "pgp" : "0",
      "terminal" : "0",
      "latitude" : "24.15637",
      "inDis" : "50",
      "routeId" : "57",
      "seqNo" : "76"
   },
   {
      "GoBack" : "1",
      "longitude" : "120.68724",
      "outDis" : "50",
      "Id" : "4400",
      "oid" : "13554",
      "districtId" : "1",
      "nameZh" : "新民高中(健行路)",
      "pgp" : "0",
      "terminal" : "0",
      "latitude" : "24.15902",
      "inDis" : "50",
      "routeId" : "57",
      "seqNo" : "77"
   },
   {
      "GoBack" : "2",
      "longitude" : "120.68724",
      "outDis" : "50",
      "Id" : "4400",
      "oid" : "13554",
      "districtId" : "1",
      "nameZh" : "新民高中(健行路)",
      "pgp" : "0",
      "terminal" : "0",
      "latitude" : "24.15902",
      "inDis" : "50",
      "routeId" : "57",
      "seqNo" : "1"
   },
   {
      "GoBack" : "2",
      "longitude" : "120.68961",
      "outDis" : "50",
      "Id" : "0960",
      "oid" : "13570",
      "districtId" : "1",
      "nameZh" : "寶覺寺",
      "pgp" : "0",
      "terminal" : "0",
      "latitude" : "24.15797",
      "inDis" : "50",
      "routeId" : "57",
      "seqNo" : "2"
   },
   {
      "GoBack" : "2",
      "longitude" : "120.688",
      "outDis" : "50",
      "Id" : "4399",
      "oid" : "13553",
      "districtId" : "1",
      "nameZh" : "新民高中(三民路)",
      "pgp" : "0",
      "terminal" : "0",
      "latitude" : "24.1564",
      "inDis" : "50",
      "routeId" : "57",
      "seqNo" : "3"
   },
   {
      "GoBack" : "2",
      "longitude" : "120.68565",
      "outDis" : "50",
      "Id" : "0047",
      "oid" : "D06DECEA5FE547D7A164228B2052AAE3",
      "districtId" : "1",
      "nameZh" : "一心市場",
      "pgp" : "0",
      "terminal" : "0",
      "latitude" : "24.1539",
      "inDis" : "50",
      "routeId" : "57",
      "seqNo" : "4"
   },
   {
      "GoBack" : "2",
      "longitude" : "120.68517",
      "outDis" : "50",
      "Id" : "0046",
      "oid" : "13430",
      "districtId" : "1",
      "nameZh" : "中友百貨",
      "pgp" : "0",
      "terminal" : "0",
      "latitude" : "24.15223",
      "inDis" : "50",
      "routeId" : "57",
      "seqNo" : "5"
   },
   {
      "GoBack" : "2",
      "longitude" : "120.68398",
      "outDis" : "50",
      "Id" : "0045",
      "oid" : "13460",
      "districtId" : "1",
      "nameZh" : "國立臺中科技大學",
      "pgp" : "0",
      "terminal" : "0",
      "latitude" : "24.1495",
      "inDis" : "50",
      "routeId" : "57",
      "seqNo" : "6"
   },
   {
      "GoBack" : "2",
      "longitude" : "120.68463",
      "outDis" : "50",
      "Id" : "1513",
      "oid" : "16096",
      "districtId" : "1",
      "nameZh" : "中興堂",
      "pgp" : "0",
      "terminal" : "0",
      "latitude" : "24.14621",
      "inDis" : "50",
      "routeId" : "57",
      "seqNo" : "7"
   },
   {
      "GoBack" : "2",
      "longitude" : "120.68606",
      "outDis" : "50",
      "Id" : "4544",
      "oid" : "300262031",
      "districtId" : "1",
      "nameZh" : "臺中公園(雙十路)",
      "pgp" : "0",
      "terminal" : "0",
      "latitude" : "24.14416",
      "inDis" : "50",
      "routeId" : "57",
      "seqNo" : "8"
   },
   {
      "GoBack" : "2",
      "longitude" : "120.68576",
      "outDis" : "50",
      "Id" : "0402",
      "oid" : "300262027",
      "districtId" : "1",
      "nameZh" : "干城站",
      "pgp" : "0",
      "terminal" : "0",
      "latitude" : "24.14087",
      "inDis" : "50",
      "routeId" : "57",
      "seqNo" : "9"
   },
   {
      "GoBack" : "2",
      "longitude" : "120.6846",
      "outDis" : "50",
      "Id" : "1824",
      "oid" : "7358",
      "districtId" : "1",
      "nameZh" : "臺中火車站",
      "pgp" : "0",
      "terminal" : "0",
      "latitude" : "24.13726",
      "inDis" : "50",
      "routeId" : "57",
      "seqNo" : "10"
   },
   {
      "GoBack" : "2",
      "longitude" : "120.68095",
      "outDis" : "50",
      "Id" : "4284",
      "oid" : "319048631",
      "districtId" : "1",
      "nameZh" : "民權繼光街口",
      "pgp" : "0",
      "terminal" : "0",
      "latitude" : "24.13706",
      "inDis" : "50",
      "routeId" : "57",
      "seqNo" : "11"
   },
   {
      "GoBack" : "2",
      "longitude" : "120.67847",
      "outDis" : "50",
      "Id" : "4416",
      "oid" : "319048632",
      "districtId" : "1",
      "nameZh" : "臺中州廳",
      "pgp" : "0",
      "terminal" : "0",
      "latitude" : "24.13918",
      "inDis" : "50",
      "routeId" : "57",
      "seqNo" : "12"
   },
   {
      "GoBack" : "2",
      "longitude" : "120.6765",
      "outDis" : "50",
      "Id" : "0208",
      "oid" : "319048629",
      "districtId" : "1",
      "nameZh" : "臺中醫院",
      "pgp" : "0",
      "terminal" : "0",
      "latitude" : "24.14097",
      "inDis" : "50",
      "routeId" : "57",
      "seqNo" : "13"
   },
   {
      "GoBack" : "2",
      "longitude" : "120.67464",
      "outDis" : "50",
      "Id" : "4623",
      "oid" : "319048628",
      "districtId" : "1",
      "nameZh" : "民權中華路口",
      "pgp" : "0",
      "terminal" : "0",
      "latitude" : "24.14257",
      "inDis" : "50",
      "routeId" : "57",
      "seqNo" : "14"
   },
   {
      "GoBack" : "2",
      "longitude" : "120.67153",
      "outDis" : "50",
      "Id" : "0513",
      "oid" : "319048627",
      "districtId" : "1",
      "nameZh" : "臺中教育大學",
      "pgp" : "0",
      "terminal" : "0",
      "latitude" : "24.14517",
      "inDis" : "50",
      "routeId" : "57",
      "seqNo" : "15"
   },
   {
      "GoBack" : "2",
      "longitude" : "120.66969",
      "outDis" : "50",
      "Id" : "0262",
      "oid" : "319047933",
      "districtId" : "1",
      "nameZh" : "民權路口",
      "pgp" : "0",
      "terminal" : "0",
      "latitude" : "24.14932",
      "inDis" : "50",
      "routeId" : "57",
      "seqNo" : "16"
   },
   {
      "GoBack" : "2",
      "longitude" : "120.66931",
      "outDis" : "50",
      "Id" : "4619",
      "oid" : "13478",
      "districtId" : "1",
      "nameZh" : "臺灣大道民權路口",
      "pgp" : "0",
      "terminal" : "0",
      "latitude" : "24.15165",
      "inDis" : "50",
      "routeId" : "57",
      "seqNo" : "17"
   },
   {
      "GoBack" : "2",
      "longitude" : "120.66729",
      "outDis" : "50",
      "Id" : "0419",
      "oid" : "7256",
      "districtId" : "1",
      "nameZh" : "中正國小",
      "pgp" : "0",
      "terminal" : "0",
      "latitude" : "24.1531",
      "inDis" : "50",
      "routeId" : "57",
      "seqNo" : "18"
   },
   {
      "GoBack" : "2",
      "longitude" : "120.66313",
      "outDis" : "50",
      "Id" : "0320",
      "oid" : "319472665",
      "districtId" : "1",
      "nameZh" : "科學博物館(臺灣大道)",
      "pgp" : "0",
      "terminal" : "0",
      "latitude" : "24.1552",
      "inDis" : "50",
      "routeId" : "57",
      "seqNo" : "19"
   },
   {
      "GoBack" : "2",
      "longitude" : "120.65875",
      "outDis" : "50",
      "Id" : "0087",
      "oid" : "13500",
      "districtId" : "1",
      "nameZh" : "忠明國小",
      "pgp" : "0",
      "terminal" : "0",
      "latitude" : "24.15787",
      "inDis" : "50",
      "routeId" : "57",
      "seqNo" : "21"
   },
   {
      "GoBack" : "2",
      "longitude" : "120.65635",
      "outDis" : "50",
      "Id" : "4569",
      "oid" : "7456",
      "districtId" : "1",
      "nameZh" : "頂何厝(臺灣大道)",
      "pgp" : "0",
      "terminal" : "0",
      "latitude" : "24.1592",
      "inDis" : "50",
      "routeId" : "57",
      "seqNo" : "22"
   },
   {
      "GoBack" : "2",
      "longitude" : "120.65407",
      "outDis" : "50",
      "Id" : "4566",
      "oid" : "7088",
      "districtId" : "1",
      "nameZh" : "何厝(臺灣大道)",
      "pgp" : "0",
      "terminal" : "0",
      "latitude" : "24.16046",
      "inDis" : "50",
      "routeId" : "57",
      "seqNo" : "23"
   },
   {
      "GoBack" : "2",
      "longitude" : "120.65095",
      "outDis" : "50",
      "Id" : "4564",
      "oid" : "13452",
      "districtId" : "1",
      "nameZh" : "臺灣大道文心路口",
      "pgp" : "0",
      "terminal" : "0",
      "latitude" : "24.16218",
      "inDis" : "50",
      "routeId" : "57",
      "seqNo" : "24"
   },
   {
      "GoBack" : "2",
      "longitude" : "120.64686",
      "outDis" : "50",
      "Id" : "0017",
      "oid" : "7472",
      "districtId" : "1",
      "nameZh" : "臺中市政府",
      "pgp" : "0",
      "terminal" : "0",
      "latitude" : "24.16416",
      "inDis" : "50",
      "routeId" : "57",
      "seqNo" : "25"
   },
   {
      "GoBack" : "2",
      "longitude" : "120.64428",
      "outDis" : "50",
      "Id" : "0016",
      "oid" : "13555",
      "districtId" : "1",
      "nameZh" : "新光三越",
      "pgp" : "0",
      "terminal" : "0",
      "latitude" : "24.16578",
      "inDis" : "50",
      "routeId" : "57",
      "seqNo" : "26"
   },
   {
      "GoBack" : "2",
      "longitude" : "120.64194",
      "outDis" : "50",
      "Id" : "0015",
      "oid" : "7411",
      "districtId" : "1",
      "nameZh" : "教師新村",
      "pgp" : "0",
      "terminal" : "0",
      "latitude" : "24.16733",
      "inDis" : "50",
      "routeId" : "57",
      "seqNo" : "27"
   },
   {
      "GoBack" : "2",
      "longitude" : "120.63957",
      "outDis" : "50",
      "Id" : "0826",
      "oid" : "13543",
      "districtId" : "1",
      "nameZh" : "秋紅谷(朝陽橋)",
      "pgp" : "0",
      "terminal" : "0",
      "latitude" : "24.16865",
      "inDis" : "50",
      "routeId" : "57",
      "seqNo" : "28"
   },
   {
      "GoBack" : "2",
      "longitude" : "120.63717",
      "outDis" : "50",
      "Id" : "0054",
      "oid" : "313524993",
      "districtId" : "1",
      "nameZh" : "朝馬(臺灣大道)",
      "pgp" : "0",
      "terminal" : "0",
      "latitude" : "24.17059",
      "inDis" : "50",
      "routeId" : "57",
      "seqNo" : "29"
   },
   {
      "GoBack" : "2",
      "longitude" : "120.62485",
      "outDis" : "50",
      "Id" : "5149",
      "oid" : "12822",
      "districtId" : "1",
      "nameZh" : "福安里(臺灣大道)",
      "pgp" : "0",
      "terminal" : "0",
      "latitude" : "24.17849",
      "inDis" : "50",
      "routeId" : "57",
      "seqNo" : "30"
   },
   {
      "GoBack" : "2",
      "longitude" : "120.62116",
      "outDis" : "50",
      "Id" : "3060",
      "oid" : "13534",
      "districtId" : "1",
      "nameZh" : "統聯轉運站",
      "pgp" : "0",
      "terminal" : "0",
      "latitude" : "24.18006",
      "inDis" : "50",
      "routeId" : "57",
      "seqNo" : "31"
   },
   {
      "GoBack" : "2",
      "longitude" : "120.61946",
      "outDis" : "50",
      "Id" : "0008",
      "oid" : "12823",
      "districtId" : "1",
      "nameZh" : "中港新城",
      "pgp" : "0",
      "terminal" : "0",
      "latitude" : "24.18099",
      "inDis" : "50",
      "routeId" : "57",
      "seqNo" : "32"
   },
   {
      "GoBack" : "2",
      "longitude" : "120.61584",
      "outDis" : "50",
      "Id" : "0430",
      "oid" : "13446",
      "districtId" : "1",
      "nameZh" : "中港澄清醫院",
      "pgp" : "0",
      "terminal" : "0",
      "latitude" : "24.18298",
      "inDis" : "50",
      "routeId" : "57",
      "seqNo" : "33"
   },
   {
      "GoBack" : "2",
      "longitude" : "120.61262",
      "outDis" : "50",
      "Id" : "0006",
      "oid" : "13463",
      "districtId" : "1",
      "nameZh" : "臺中捐血中心",
      "pgp" : "0",
      "terminal" : "0",
      "latitude" : "24.18444",
      "inDis" : "50",
      "routeId" : "57",
      "seqNo" : "34"
   },
   {
      "GoBack" : "2",
      "longitude" : "120.6102",
      "outDis" : "50",
      "Id" : "4335",
      "oid" : "13438",
      "districtId" : "1",
      "nameZh" : "臺灣大道玉門路口",
      "pgp" : "0",
      "terminal" : "0",
      "latitude" : "24.18466",
      "inDis" : "50",
      "routeId" : "57",
      "seqNo" : "35"
   },
   {
      "GoBack" : "2",
      "longitude" : "120.60821",
      "outDis" : "50",
      "Id" : "0004",
      "oid" : "7474",
      "districtId" : "1",
      "nameZh" : "普濟寺",
      "pgp" : "0",
      "terminal" : "0",
      "latitude" : "24.18422",
      "inDis" : "50",
      "routeId" : "57",
      "seqNo" : "36"
   },
   {
      "GoBack" : "2",
      "longitude" : "120.60633",
      "outDis" : "50",
      "Id" : "2378",
      "oid" : "7623",
      "districtId" : "1",
      "nameZh" : "東大附中",
      "pgp" : "0",
      "terminal" : "0",
      "latitude" : "24.18371",
      "inDis" : "50",
      "routeId" : "57",
      "seqNo" : "37"
   },
   {
      "GoBack" : "2",
      "longitude" : "120.60491",
      "outDis" : "50",
      "Id" : "5386",
      "oid" : "313588801",
      "districtId" : "1",
      "nameZh" : "臺中榮總(臺灣大道)",
      "pgp" : "0",
      "terminal" : "0",
      "latitude" : "24.18349",
      "inDis" : "50",
      "routeId" : "57",
      "seqNo" : "38"
   },
   {
      "GoBack" : "2",
      "longitude" : "120.5973",
      "outDis" : "50",
      "Id" : "0526",
      "oid" : "13469",
      "districtId" : "1",
      "nameZh" : "台中精機",
      "pgp" : "0",
      "terminal" : "0",
      "latitude" : "24.18208",
      "inDis" : "50",
      "routeId" : "57",
      "seqNo" : "39"
   },
   {
      "GoBack" : "2",
      "longitude" : "120.59349",
      "outDis" : "50",
      "Id" : "0240",
      "oid" : "13506",
      "districtId" : "1",
      "nameZh" : "東海別墅",
      "pgp" : "0",
      "terminal" : "0",
      "latitude" : "24.18288",
      "inDis" : "50",
      "routeId" : "57",
      "seqNo" : "40"
   },
   {
      "GoBack" : "2",
      "longitude" : "120.59125",
      "outDis" : "50",
      "Id" : "4383",
      "oid" : "13471",
      "districtId" : "1",
      "nameZh" : "臺糖公營學苑",
      "pgp" : "0",
      "terminal" : "0",
      "latitude" : "24.18367",
      "inDis" : "50",
      "routeId" : "57",
      "seqNo" : "41"
   },
   {
      "GoBack" : "2",
      "longitude" : "120.58788",
      "outDis" : "50",
      "Id" : "5304",
      "oid" : "311234408",
      "districtId" : "1",
      "nameZh" : "東海街口",
      "pgp" : "0",
      "terminal" : "0",
      "latitude" : "24.1853",
      "inDis" : "50",
      "routeId" : "57",
      "seqNo" : "42"
   },
   {
      "GoBack" : "2",
      "longitude" : "120.58603",
      "outDis" : "50",
      "Id" : "2325",
      "oid" : "7104",
      "districtId" : "1",
      "nameZh" : "坪頂",
      "pgp" : "0",
      "terminal" : "0",
      "latitude" : "24.186",
      "inDis" : "50",
      "routeId" : "57",
      "seqNo" : "43"
   },
   {
      "GoBack" : "2",
      "longitude" : "120.58253",
      "outDis" : "50",
      "Id" : "4061",
      "oid" : "13415",
      "districtId" : "1",
      "nameZh" : "下坪頂",
      "pgp" : "0",
      "terminal" : "0",
      "latitude" : "24.18754",
      "inDis" : "50",
      "routeId" : "57",
      "seqNo" : "44"
   },
   {
      "GoBack" : "2",
      "longitude" : "120.58065",
      "outDis" : "50",
      "Id" : "4388",
      "oid" : "13482",
      "districtId" : "1",
      "nameZh" : "后厝仔",
      "pgp" : "0",
      "terminal" : "0",
      "latitude" : "24.19911",
      "inDis" : "50",
      "routeId" : "57",
      "seqNo" : "45"
   },
   {
      "GoBack" : "2",
      "longitude" : "120.58144",
      "outDis" : "50",
      "Id" : "4136",
      "oid" : "13558",
      "districtId" : "1",
      "nameZh" : "祿清宮",
      "pgp" : "0",
      "terminal" : "0",
      "latitude" : "24.209",
      "inDis" : "50",
      "routeId" : "57",
      "seqNo" : "46"
   },
   {
      "GoBack" : "2",
      "longitude" : "120.58096",
      "outDis" : "50",
      "Id" : "4124",
      "oid" : "13535",
      "districtId" : "1",
      "nameZh" : "頂六路",
      "pgp" : "0",
      "terminal" : "0",
      "latitude" : "24.21314",
      "inDis" : "50",
      "routeId" : "57",
      "seqNo" : "47"
   },
   {
      "GoBack" : "2",
      "longitude" : "120.58041",
      "outDis" : "50",
      "Id" : "4386",
      "oid" : "13477",
      "districtId" : "1",
      "nameZh" : "弘光科技大學",
      "pgp" : "0",
      "terminal" : "0",
      "latitude" : "24.21743",
      "inDis" : "50",
      "routeId" : "57",
      "seqNo" : "48"
   },
   {
      "GoBack" : "2",
      "longitude" : "120.57956",
      "outDis" : "50",
      "Id" : "4111",
      "oid" : "13515",
      "districtId" : "1",
      "nameZh" : "晉江里",
      "pgp" : "0",
      "terminal" : "0",
      "latitude" : "24.22143",
      "inDis" : "50",
      "routeId" : "57",
      "seqNo" : "49"
   },
   {
      "GoBack" : "2",
      "longitude" : "120.57829",
      "outDis" : "50",
      "Id" : "4062",
      "oid" : "13417",
      "districtId" : "1",
      "nameZh" : "下晉江",
      "pgp" : "0",
      "terminal" : "0",
      "latitude" : "24.22342",
      "inDis" : "50",
      "routeId" : "57",
      "seqNo" : "50"
   },
   {
      "GoBack" : "2",
      "longitude" : "120.57674",
      "outDis" : "50",
      "Id" : "4147",
      "oid" : "13568",
      "districtId" : "1",
      "nameZh" : "靜宜大學",
      "pgp" : "0",
      "terminal" : "0",
      "latitude" : "24.22583",
      "inDis" : "50",
      "routeId" : "57",
      "seqNo" : "51"
   },
   {
      "GoBack" : "2",
      "longitude" : "120.57389",
      "outDis" : "50",
      "Id" : "4086",
      "oid" : "13456",
      "districtId" : "1",
      "nameZh" : "臺灣大道北勢路口",
      "pgp" : "0",
      "terminal" : "0",
      "latitude" : "24.23028",
      "inDis" : "50",
      "routeId" : "57",
      "seqNo" : "52"
   },
   {
      "GoBack" : "2",
      "longitude" : "120.57198",
      "outDis" : "100",
      "Id" : "4392",
      "oid" : "13510",
      "districtId" : "1",
      "nameZh" : "紅竹巷",
      "pgp" : "0",
      "terminal" : "0",
      "latitude" : "24.23325",
      "inDis" : "50",
      "routeId" : "57",
      "seqNo" : "53"
   },
   {
      "GoBack" : "2",
      "longitude" : "120.57013",
      "outDis" : "50",
      "Id" : "4389",
      "oid" : "13483",
      "districtId" : "1",
      "nameZh" : "竹林里",
      "pgp" : "0",
      "terminal" : "0",
      "latitude" : "24.23609",
      "inDis" : "50",
      "routeId" : "57",
      "seqNo" : "54"
   },
   {
      "GoBack" : "2",
      "longitude" : "120.56774",
      "outDis" : "50",
      "Id" : "2147",
      "oid" : "13487",
      "districtId" : "1",
      "nameZh" : "竹林國小",
      "pgp" : "0",
      "terminal" : "0",
      "latitude" : "24.23847",
      "inDis" : "50",
      "routeId" : "57",
      "seqNo" : "55"
   },
   {
      "GoBack" : "2",
      "longitude" : "120.56535",
      "outDis" : "50",
      "Id" : "0005",
      "oid" : "13493",
      "districtId" : "1",
      "nameZh" : "沙鹿高工(臺灣大道)",
      "pgp" : "0",
      "terminal" : "0",
      "latitude" : "24.23926",
      "inDis" : "50",
      "routeId" : "57",
      "seqNo" : "56"
   },
   {
      "GoBack" : "2",
      "longitude" : "120.56346",
      "outDis" : "50",
      "Id" : "2335",
      "oid" : "13498",
      "districtId" : "1",
      "nameZh" : "居仁里",
      "pgp" : "0",
      "terminal" : "0",
      "latitude" : "24.24007",
      "inDis" : "50",
      "routeId" : "57",
      "seqNo" : "57"
   },
   {
      "GoBack" : "2",
      "longitude" : "120.5612",
      "outDis" : "50",
      "Id" : "5388",
      "oid" : "312690453",
      "districtId" : "1",
      "nameZh" : "臺灣大道中山路口",
      "pgp" : "0",
      "terminal" : "0",
      "latitude" : "24.24064",
      "inDis" : "50",
      "routeId" : "57",
      "seqNo" : "58"
   },
   {
      "GoBack" : "2",
      "longitude" : "120.55632",
      "outDis" : "50",
      "Id" : "1482",
      "oid" : "13441",
      "districtId" : "1",
      "nameZh" : "中港國小",
      "pgp" : "0",
      "terminal" : "0",
      "latitude" : "24.24264",
      "inDis" : "50",
      "routeId" : "57",
      "seqNo" : "59"
   },
   {
      "GoBack" : "2",
      "longitude" : "120.54926",
      "outDis" : "50",
      "Id" : "1088",
      "oid" : "13410",
      "districtId" : "1",
      "nameZh" : "三條圳",
      "pgp" : "0",
      "terminal" : "0",
      "latitude" : "24.24518",
      "inDis" : "50",
      "routeId" : "57",
      "seqNo" : "60"
   },
   {
      "GoBack" : "2",
      "longitude" : "120.54645",
      "outDis" : "50",
      "Id" : "2380",
      "oid" : "13503",
      "districtId" : "1",
      "nameZh" : "東大庄",
      "pgp" : "0",
      "terminal" : "0",
      "latitude" : "24.24624",
      "inDis" : "50",
      "routeId" : "57",
      "seqNo" : "61"
   },
   {
      "GoBack" : "2",
      "longitude" : "120.54472",
      "outDis" : "50",
      "Id" : "4007",
      "oid" : "17392",
      "districtId" : "1",
      "nameZh" : "體育館前",
      "pgp" : "0",
      "terminal" : "0",
      "latitude" : "24.2471",
      "inDis" : "50",
      "routeId" : "57",
      "seqNo" : "62"
   },
   {
      "GoBack" : "2",
      "longitude" : "120.5426",
      "outDis" : "50",
      "Id" : "4041",
      "oid" : "13556",
      "districtId" : "1",
      "nameZh" : "童綜合醫院(梧棲院區)",
      "pgp" : "0",
      "terminal" : "0",
      "latitude" : "24.24763",
      "inDis" : "50",
      "routeId" : "57",
      "seqNo" : "63"
   },
   {
      "GoBack" : "2",
      "longitude" : "120.54117",
      "outDis" : "50",
      "Id" : "4824",
      "oid" : "17394",
      "districtId" : "1",
      "nameZh" : "邱厝庄",
      "pgp" : "0",
      "terminal" : "0",
      "latitude" : "24.24818",
      "inDis" : "50",
      "routeId" : "57",
      "seqNo" : "64"
   },
   {
      "GoBack" : "2",
      "longitude" : "120.53906",
      "outDis" : "50",
      "Id" : "1334",
      "oid" : "13422",
      "districtId" : "1",
      "nameZh" : "大庄",
      "pgp" : "0",
      "terminal" : "0",
      "latitude" : "24.24893",
      "inDis" : "50",
      "routeId" : "57",
      "seqNo" : "65"
   },
   {
      "GoBack" : "2",
      "longitude" : "120.53254",
      "outDis" : "50",
      "Id" : "3250",
      "oid" : "13544",
      "districtId" : "1",
      "nameZh" : "臺灣大道港埠路口",
      "pgp" : "0",
      "terminal" : "0",
      "latitude" : "24.2513",
      "inDis" : "50",
      "routeId" : "57",
      "seqNo" : "66"
   },
   {
      "GoBack" : "2",
      "longitude" : "120.53075",
      "outDis" : "50",
      "Id" : "2999",
      "oid" : "13522",
      "districtId" : "1",
      "nameZh" : "梧棲國小",
      "pgp" : "0",
      "terminal" : "0",
      "latitude" : "24.25184",
      "inDis" : "50",
      "routeId" : "57",
      "seqNo" : "67"
   },
   {
      "GoBack" : "2",
      "longitude" : "120.53029",
      "outDis" : "50",
      "Id" : "4393",
      "oid" : "13524",
      "districtId" : "1",
      "nameZh" : "梧棲農會",
      "pgp" : "0",
      "terminal" : "0",
      "latitude" : "24.25433",
      "inDis" : "50",
      "routeId" : "57",
      "seqNo" : "68"
   },
   {
      "GoBack" : "2",
      "longitude" : "120.53155",
      "outDis" : "50",
      "Id" : "2997",
      "oid" : "13520",
      "districtId" : "1",
      "nameZh" : "梧棲(文化路)",
      "pgp" : "0",
      "terminal" : "0",
      "latitude" : "24.2572",
      "inDis" : "50",
      "routeId" : "57",
      "seqNo" : "69"
   },
   {
      "GoBack" : "2",
      "longitude" : "120.53213",
      "outDis" : "50",
      "Id" : "4668",
      "oid" : "13518",
      "districtId" : "1",
      "nameZh" : "頂寮里",
      "pgp" : "0",
      "terminal" : "0",
      "latitude" : "24.26035",
      "inDis" : "50",
      "routeId" : "57",
      "seqNo" : "70"
   },
   {
      "GoBack" : "2",
      "longitude" : "120.52999",
      "outDis" : "50",
      "Id" : "4374",
      "oid" : "13423",
      "districtId" : "1",
      "nameZh" : "大智梧北路口",
      "pgp" : "0",
      "terminal" : "0",
      "latitude" : "24.26117",
      "inDis" : "50",
      "routeId" : "57",
      "seqNo" : "71"
   },
   {
      "GoBack" : "2",
      "longitude" : "120.53144",
      "outDis" : "50",
      "Id" : "4397",
      "oid" : "13547",
      "districtId" : "1",
      "nameZh" : "港灣技術中心",
      "pgp" : "0",
      "terminal" : "0",
      "latitude" : "24.26981",
      "inDis" : "50",
      "routeId" : "57",
      "seqNo" : "72"
   },
   {
      "GoBack" : "2",
      "longitude" : "120.53229",
      "outDis" : "50",
      "Id" : "5058",
      "oid" : "309863808",
      "districtId" : "1",
      "nameZh" : "舶來品商圈",
      "pgp" : "0",
      "terminal" : "0",
      "latitude" : "24.27162",
      "inDis" : "50",
      "routeId" : "57",
      "seqNo" : "73"
   },
   {
      "GoBack" : "2",
      "longitude" : "120.5331",
      "outDis" : "50",
      "Id" : "5066",
      "oid" : "309863816",
      "districtId" : "1",
      "nameZh" : "環球大樓",
      "pgp" : "0",
      "terminal" : "0",
      "latitude" : "24.27372",
      "inDis" : "50",
      "routeId" : "57",
      "seqNo" : "74"
   },
   {
      "GoBack" : "2",
      "longitude" : "120.53443",
      "outDis" : "50",
      "Id" : "2996",
      "oid" : "13519",
      "districtId" : "1",
      "nameZh" : "梧棟",
      "pgp" : "0",
      "terminal" : "0",
      "latitude" : "24.27683",
      "inDis" : "50",
      "routeId" : "57",
      "seqNo" : "75"
   },
   {
      "GoBack" : "2",
      "longitude" : "120.53535",
      "outDis" : "50",
      "Id" : "2657",
      "oid" : "13508",
      "districtId" : "1",
      "nameZh" : "後營門口",
      "pgp" : "0",
      "terminal" : "0",
      "latitude" : "24.279",
      "inDis" : "50",
      "routeId" : "57",
      "seqNo" : "76"
   },
   {
      "GoBack" : "2",
      "longitude" : "120.53681",
      "outDis" : "50",
      "Id" : "2180",
      "oid" : "13489",
      "districtId" : "1",
      "nameZh" : "西瓜寮",
      "pgp" : "0",
      "terminal" : "0",
      "latitude" : "24.28245",
      "inDis" : "50",
      "routeId" : "57",
      "seqNo" : "77"
   },
   {
      "GoBack" : "2",
      "longitude" : "120.53974",
      "outDis" : "50",
      "Id" : "5063",
      "oid" : "309863813",
      "districtId" : "1",
      "nameZh" : "臺中港北堤",
      "pgp" : "0",
      "terminal" : "0",
      "latitude" : "24.28838",
      "inDis" : "50",
      "routeId" : "57",
      "seqNo" : "78"
   },
   {
      "GoBack" : "2",
      "longitude" : "120.52527",
      "outDis" : "50",
      "Id" : "4394",
      "oid" : "13525",
      "districtId" : "1",
      "nameZh" : "梧棲觀光漁港",
      "pgp" : "0",
      "terminal" : "0",
      "latitude" : "24.2923",
      "inDis" : "50",
      "routeId" : "57",
      "seqNo" : "79"
   }
]
