[
   {
      "GoBack" : "1",
      "longitude" : "120.64759",
      "outDis" : "50",
      "Id" : "0019",
      "oid" : "599B953749374273BACF21BB110728F2",
      "districtId" : "1",
      "nameZh" : "市警局",
      "pgp" : "0",
      "terminal" : "0",
      "latitude" : "24.15935",
      "inDis" : "50",
      "routeId" : "151副",
      "seqNo" : "1"
   },
   {
      "GoBack" : "1",
      "longitude" : "120.64692",
      "outDis" : "50",
      "Id" : "0017",
      "oid" : "15008",
      "districtId" : "1",
      "nameZh" : "臺中市政府",
      "pgp" : "0",
      "terminal" : "0",
      "latitude" : "24.16435",
      "inDis" : "50",
      "routeId" : "151副",
      "seqNo" : "2"
   },
   {
      "GoBack" : "1",
      "longitude" : "120.64418",
      "outDis" : "50",
      "Id" : "0016",
      "oid" : "15009",
      "districtId" : "1",
      "nameZh" : "新光三越",
      "pgp" : "0",
      "terminal" : "0",
      "latitude" : "24.1658",
      "inDis" : "50",
      "routeId" : "151副",
      "seqNo" : "3"
   },
   {
      "GoBack" : "1",
      "longitude" : "120.63968",
      "outDis" : "50",
      "Id" : "0826",
      "oid" : "15011",
      "districtId" : "1",
      "nameZh" : "秋紅谷(朝陽橋)",
      "pgp" : "0",
      "terminal" : "0",
      "latitude" : "24.16892",
      "inDis" : "50",
      "routeId" : "151副",
      "seqNo" : "4"
   },
   {
      "GoBack" : "1",
      "longitude" : "120.63717",
      "outDis" : "50",
      "Id" : "0054",
      "oid" : "313524993",
      "districtId" : "1",
      "nameZh" : "朝馬(臺灣大道)",
      "pgp" : "0",
      "terminal" : "0",
      "latitude" : "24.17059",
      "inDis" : "50",
      "routeId" : "151副",
      "seqNo" : "5"
   },
   {
      "GoBack" : "1",
      "longitude" : "120.62008",
      "outDis" : "150",
      "Id" : "5486",
      "oid" : "314581888",
      "districtId" : "1",
      "nameZh" : "高鐵臺中站(14月台)",
      "pgp" : "0",
      "terminal" : "0",
      "latitude" : "24.10974",
      "inDis" : "150",
      "routeId" : "151副",
      "seqNo" : "13"
   },
   {
      "GoBack" : "1",
      "longitude" : "120.6942",
      "outDis" : "50",
      "Id" : "1026",
      "oid" : "13057",
      "districtId" : "1",
      "nameZh" : "八德橋",
      "pgp" : "0",
      "terminal" : "0",
      "latitude" : "24.05028",
      "inDis" : "50",
      "routeId" : "151副",
      "seqNo" : "24"
   },
   {
      "GoBack" : "1",
      "longitude" : "120.69213",
      "outDis" : "50",
      "Id" : "2048",
      "oid" : "13153",
      "districtId" : "1",
      "nameZh" : "光復新村",
      "pgp" : "0",
      "terminal" : "0",
      "latitude" : "24.04513",
      "inDis" : "50",
      "routeId" : "151副",
      "seqNo" : "25"
   },
   {
      "GoBack" : "1",
      "longitude" : "120.68868",
      "outDis" : "50",
      "Id" : "4629",
      "oid" : "304270268",
      "districtId" : "1",
      "nameZh" : "光復國中小(柳豐路)",
      "pgp" : "0",
      "terminal" : "0",
      "latitude" : "24.04362",
      "inDis" : "50",
      "routeId" : "151副",
      "seqNo" : "26"
   },
   {
      "GoBack" : "1",
      "longitude" : "120.6886",
      "outDis" : "50",
      "Id" : "4413",
      "oid" : "304270266",
      "districtId" : "1",
      "nameZh" : "王厝",
      "pgp" : "0",
      "terminal" : "0",
      "latitude" : "24.04377",
      "inDis" : "50",
      "routeId" : "151副",
      "seqNo" : "27"
   },
   {
      "GoBack" : "1",
      "longitude" : "120.6866",
      "outDis" : "50",
      "Id" : "5529",
      "oid" : "316065552",
      "districtId" : "1",
      "nameZh" : "亞洲大學安藤館",
      "pgp" : "0",
      "terminal" : "0",
      "latitude" : "24.04907",
      "inDis" : "50",
      "routeId" : "151副",
      "seqNo" : "28"
   },
   {
      "GoBack" : "2",
      "longitude" : "120.6866",
      "outDis" : "50",
      "Id" : "5529",
      "oid" : "316065552",
      "districtId" : "1",
      "nameZh" : "亞洲大學安藤館",
      "pgp" : "0",
      "terminal" : "0",
      "latitude" : "24.04907",
      "inDis" : "50",
      "routeId" : "151副",
      "seqNo" : "1"
   },
   {
      "GoBack" : "2",
      "longitude" : "120.6886",
      "outDis" : "50",
      "Id" : "4413",
      "oid" : "304270266",
      "districtId" : "1",
      "nameZh" : "王厝",
      "pgp" : "0",
      "terminal" : "0",
      "latitude" : "24.04377",
      "inDis" : "50",
      "routeId" : "151副",
      "seqNo" : "2"
   },
   {
      "GoBack" : "2",
      "longitude" : "120.68868",
      "outDis" : "50",
      "Id" : "4629",
      "oid" : "304270268",
      "districtId" : "1",
      "nameZh" : "光復國中小(柳豐路)",
      "pgp" : "0",
      "terminal" : "0",
      "latitude" : "24.04362",
      "inDis" : "50",
      "routeId" : "151副",
      "seqNo" : "3"
   },
   {
      "GoBack" : "2",
      "longitude" : "120.6924",
      "outDis" : "50",
      "Id" : "2048",
      "oid" : "13154",
      "districtId" : "1",
      "nameZh" : "光復新村",
      "pgp" : "0",
      "terminal" : "0",
      "latitude" : "24.04548",
      "inDis" : "50",
      "routeId" : "151副",
      "seqNo" : "4"
   },
   {
      "GoBack" : "2",
      "longitude" : "120.69462",
      "outDis" : "50",
      "Id" : "1026",
      "oid" : "13058",
      "districtId" : "1",
      "nameZh" : "八德橋",
      "pgp" : "0",
      "terminal" : "0",
      "latitude" : "24.05077",
      "inDis" : "50",
      "routeId" : "151副",
      "seqNo" : "5"
   },
   {
      "GoBack" : "2",
      "longitude" : "120.62008",
      "outDis" : "150",
      "Id" : "5486",
      "oid" : "314581888",
      "districtId" : "1",
      "nameZh" : "高鐵臺中站(14月台)",
      "pgp" : "0",
      "terminal" : "0",
      "latitude" : "24.10974",
      "inDis" : "150",
      "routeId" : "151副",
      "seqNo" : "18"
   },
   {
      "GoBack" : "2",
      "longitude" : "120.63717",
      "outDis" : "50",
      "Id" : "0054",
      "oid" : "313524993",
      "districtId" : "1",
      "nameZh" : "朝馬(臺灣大道)",
      "pgp" : "0",
      "terminal" : "0",
      "latitude" : "24.17059",
      "inDis" : "50",
      "routeId" : "151副",
      "seqNo" : "24"
   },
   {
      "GoBack" : "2",
      "longitude" : "120.63957",
      "outDis" : "50",
      "Id" : "0826",
      "oid" : "15002",
      "districtId" : "1",
      "nameZh" : "秋紅谷(朝陽橋)",
      "pgp" : "0",
      "terminal" : "0",
      "latitude" : "24.16852",
      "inDis" : "50",
      "routeId" : "151副",
      "seqNo" : "25"
   },
   {
      "GoBack" : "2",
      "longitude" : "120.64431",
      "outDis" : "50",
      "Id" : "0016",
      "oid" : "15004",
      "districtId" : "1",
      "nameZh" : "新光三越",
      "pgp" : "0",
      "terminal" : "0",
      "latitude" : "24.16537",
      "inDis" : "50",
      "routeId" : "151副",
      "seqNo" : "26"
   },
   {
      "GoBack" : "2",
      "longitude" : "120.64738",
      "outDis" : "50",
      "Id" : "0017",
      "oid" : "15005",
      "districtId" : "1",
      "nameZh" : "臺中市政府",
      "pgp" : "0",
      "terminal" : "0",
      "latitude" : "24.16364",
      "inDis" : "50",
      "routeId" : "151副",
      "seqNo" : "27"
   },
   {
      "GoBack" : "2",
      "longitude" : "120.64759",
      "outDis" : "50",
      "Id" : "0019",
      "oid" : "599B953749374273BACF21BB110728F2",
      "districtId" : "1",
      "nameZh" : "市警局",
      "pgp" : "0",
      "terminal" : "0",
      "latitude" : "24.15935",
      "inDis" : "50",
      "routeId" : "151副",
      "seqNo" : "28"
   }
]
