[
   {
      "GoBack" : "1",
      "longitude" : "120.82862",
      "outDis" : "50",
      "Id" : "2428",
      "oid" : "5900",
      "districtId" : "1",
      "nameZh" : "東勢",
      "pgp" : "0",
      "terminal" : "0",
      "latitude" : "24.25742",
      "inDis" : "50",
      "routeId" : "253",
      "seqNo" : "1"
   },
   {
      "GoBack" : "1",
      "longitude" : "120.82936",
      "outDis" : "50",
      "Id" : "2570",
      "oid" : "5988",
      "districtId" : "1",
      "nameZh" : "南平里",
      "pgp" : "0",
      "terminal" : "0",
      "latitude" : "24.25511",
      "inDis" : "50",
      "routeId" : "253",
      "seqNo" : "2"
   },
   {
      "GoBack" : "1",
      "longitude" : "120.82985",
      "outDis" : "50",
      "Id" : "1415",
      "oid" : "5303",
      "districtId" : "1",
      "nameZh" : "中嵙口",
      "pgp" : "0",
      "terminal" : "0",
      "latitude" : "24.25249",
      "inDis" : "50",
      "routeId" : "253",
      "seqNo" : "3"
   },
   {
      "GoBack" : "1",
      "longitude" : "120.83057",
      "outDis" : "50",
      "Id" : "0108",
      "oid" : "310787796",
      "districtId" : "1",
      "nameZh" : "第一橫三民街口",
      "pgp" : "0",
      "terminal" : "0",
      "latitude" : "24.2516",
      "inDis" : "50",
      "routeId" : "253",
      "seqNo" : "4"
   },
   {
      "GoBack" : "1",
      "longitude" : "120.83662",
      "outDis" : "50",
      "Id" : "2795",
      "oid" : "6112",
      "districtId" : "1",
      "nameZh" : "泰昌里",
      "pgp" : "0",
      "terminal" : "0",
      "latitude" : "24.25106",
      "inDis" : "50",
      "routeId" : "253",
      "seqNo" : "5"
   },
   {
      "GoBack" : "1",
      "longitude" : "120.83947",
      "outDis" : "50",
      "Id" : "3334",
      "oid" : "6392",
      "districtId" : "1",
      "nameZh" : "圓通精舍",
      "pgp" : "0",
      "terminal" : "0",
      "latitude" : "24.25097",
      "inDis" : "50",
      "routeId" : "253",
      "seqNo" : "6"
   },
   {
      "GoBack" : "1",
      "longitude" : "120.8423",
      "outDis" : "50",
      "Id" : "5233",
      "oid" : "310787772",
      "districtId" : "1",
      "nameZh" : "玉山高中",
      "pgp" : "0",
      "terminal" : "0",
      "latitude" : "24.25171",
      "inDis" : "50",
      "routeId" : "253",
      "seqNo" : "7"
   },
   {
      "GoBack" : "1",
      "longitude" : "120.84574",
      "outDis" : "50",
      "Id" : "1971",
      "oid" : "5631",
      "districtId" : "1",
      "nameZh" : "瓦斯中心",
      "pgp" : "0",
      "terminal" : "0",
      "latitude" : "24.25288",
      "inDis" : "50",
      "routeId" : "253",
      "seqNo" : "8"
   },
   {
      "GoBack" : "1",
      "longitude" : "120.85031",
      "outDis" : "50",
      "Id" : "1414",
      "oid" : "5301",
      "districtId" : "1",
      "nameZh" : "中嵙",
      "pgp" : "0",
      "terminal" : "0",
      "latitude" : "24.25527",
      "inDis" : "50",
      "routeId" : "253",
      "seqNo" : "9"
   },
   {
      "GoBack" : "1",
      "longitude" : "120.85232",
      "outDis" : "50",
      "Id" : "5220",
      "oid" : "310787746",
      "districtId" : "1",
      "nameZh" : "大願寺",
      "pgp" : "0",
      "terminal" : "0",
      "latitude" : "24.25867",
      "inDis" : "50",
      "routeId" : "253",
      "seqNo" : "10"
   },
   {
      "GoBack" : "1",
      "longitude" : "120.85231",
      "outDis" : "50",
      "Id" : "3098",
      "oid" : "6283",
      "districtId" : "1",
      "nameZh" : "頂中嵙",
      "pgp" : "0",
      "terminal" : "0",
      "latitude" : "24.25855",
      "inDis" : "50",
      "routeId" : "253",
      "seqNo" : "11"
   },
   {
      "GoBack" : "1",
      "longitude" : "120.86362",
      "outDis" : "50",
      "Id" : "1211",
      "oid" : "5161",
      "districtId" : "1",
      "nameZh" : "下橫龍",
      "pgp" : "0",
      "terminal" : "0",
      "latitude" : "24.2601",
      "inDis" : "50",
      "routeId" : "253",
      "seqNo" : "13"
   },
   {
      "GoBack" : "1",
      "longitude" : "120.86695",
      "outDis" : "50",
      "Id" : "3784",
      "oid" : "6624",
      "districtId" : "1",
      "nameZh" : "橫龍",
      "pgp" : "0",
      "terminal" : "0",
      "latitude" : "24.25904",
      "inDis" : "50",
      "routeId" : "253",
      "seqNo" : "14"
   },
   {
      "GoBack" : "1",
      "longitude" : "120.87059",
      "outDis" : "50",
      "Id" : "1379",
      "oid" : "5283",
      "districtId" : "1",
      "nameZh" : "大彎",
      "pgp" : "0",
      "terminal" : "0",
      "latitude" : "24.26094",
      "inDis" : "50",
      "routeId" : "253",
      "seqNo" : "15"
   },
   {
      "GoBack" : "1",
      "longitude" : "120.87377",
      "outDis" : "50",
      "Id" : "3965",
      "oid" : "6714",
      "districtId" : "1",
      "nameZh" : "羅厝",
      "pgp" : "0",
      "terminal" : "0",
      "latitude" : "24.25876",
      "inDis" : "50",
      "routeId" : "253",
      "seqNo" : "16"
   },
   {
      "GoBack" : "1",
      "longitude" : "120.87613",
      "outDis" : "50",
      "Id" : "1739",
      "oid" : "5501",
      "districtId" : "1",
      "nameZh" : "牛欄坑",
      "pgp" : "0",
      "terminal" : "0",
      "latitude" : "24.25811",
      "inDis" : "50",
      "routeId" : "253",
      "seqNo" : "17"
   },
   {
      "GoBack" : "1",
      "longitude" : "120.88024",
      "outDis" : "50",
      "Id" : "5224",
      "oid" : "310787754",
      "districtId" : "1",
      "nameZh" : "中嵙溪",
      "pgp" : "0",
      "terminal" : "0",
      "latitude" : "24.26027",
      "inDis" : "50",
      "routeId" : "253",
      "seqNo" : "18"
   },
   {
      "GoBack" : "1",
      "longitude" : "120.88473",
      "outDis" : "50",
      "Id" : "1110",
      "oid" : "5099",
      "districtId" : "1",
      "nameZh" : "下三叉坑",
      "pgp" : "0",
      "terminal" : "0",
      "latitude" : "24.26789",
      "inDis" : "50",
      "routeId" : "253",
      "seqNo" : "19"
   },
   {
      "GoBack" : "1",
      "longitude" : "120.88687",
      "outDis" : "50",
      "Id" : "1057",
      "oid" : "5065",
      "districtId" : "1",
      "nameZh" : "三叉坑",
      "pgp" : "0",
      "terminal" : "0",
      "latitude" : "24.27107",
      "inDis" : "50",
      "routeId" : "253",
      "seqNo" : "20"
   },
   {
      "GoBack" : "1",
      "longitude" : "120.89042",
      "outDis" : "50",
      "Id" : "1585",
      "oid" : "5402",
      "districtId" : "1",
      "nameZh" : "六十甲",
      "pgp" : "0",
      "terminal" : "0",
      "latitude" : "24.27265",
      "inDis" : "50",
      "routeId" : "253",
      "seqNo" : "21"
   },
   {
      "GoBack" : "1",
      "longitude" : "120.89171",
      "outDis" : "50",
      "Id" : "1240",
      "oid" : "5185",
      "districtId" : "1",
      "nameZh" : "上穿龍",
      "pgp" : "0",
      "terminal" : "0",
      "latitude" : "24.27505",
      "inDis" : "50",
      "routeId" : "253",
      "seqNo" : "22"
   },
   {
      "GoBack" : "1",
      "longitude" : "120.89408",
      "outDis" : "50",
      "Id" : "0411",
      "oid" : "318809841",
      "districtId" : "1",
      "nameZh" : "穿龍橋",
      "pgp" : "0",
      "terminal" : "0",
      "latitude" : "24.27756",
      "inDis" : "50",
      "routeId" : "253",
      "seqNo" : "23"
   },
   {
      "GoBack" : "1",
      "longitude" : "120.90081",
      "outDis" : "50",
      "Id" : "2698",
      "oid" : "6055",
      "districtId" : "1",
      "nameZh" : "穿龍",
      "pgp" : "0",
      "terminal" : "0",
      "latitude" : "24.2812",
      "inDis" : "50",
      "routeId" : "253",
      "seqNo" : "26"
   },
   {
      "GoBack" : "1",
      "longitude" : "120.90226",
      "outDis" : "50",
      "Id" : "5208",
      "oid" : "310787722",
      "districtId" : "1",
      "nameZh" : "下穿龍",
      "pgp" : "0",
      "terminal" : "0",
      "latitude" : "24.28293",
      "inDis" : "50",
      "routeId" : "253",
      "seqNo" : "27"
   },
   {
      "GoBack" : "1",
      "longitude" : "120.905",
      "outDis" : "50",
      "Id" : "4017",
      "oid" : "6745",
      "districtId" : "1",
      "nameZh" : "觀音橋",
      "pgp" : "0",
      "terminal" : "0",
      "latitude" : "24.28532",
      "inDis" : "50",
      "routeId" : "253",
      "seqNo" : "28"
   },
   {
      "GoBack" : "1",
      "longitude" : "120.90447",
      "outDis" : "50",
      "Id" : "1217",
      "oid" : "5167",
      "districtId" : "1",
      "nameZh" : "下雙崎",
      "pgp" : "0",
      "terminal" : "0",
      "latitude" : "24.28824",
      "inDis" : "50",
      "routeId" : "253",
      "seqNo" : "29"
   },
   {
      "GoBack" : "1",
      "longitude" : "120.90889",
      "outDis" : "50",
      "Id" : "3954",
      "oid" : "6708",
      "districtId" : "1",
      "nameZh" : "雙崎",
      "pgp" : "0",
      "terminal" : "0",
      "latitude" : "24.2918",
      "inDis" : "50",
      "routeId" : "253",
      "seqNo" : "30"
   },
   {
      "GoBack" : "1",
      "longitude" : "120.92395",
      "outDis" : "50",
      "Id" : "2823",
      "oid" : "6133",
      "districtId" : "1",
      "nameZh" : "烏石坑",
      "pgp" : "0",
      "terminal" : "0",
      "latitude" : "24.29658",
      "inDis" : "50",
      "routeId" : "253",
      "seqNo" : "32"
   },
   {
      "GoBack" : "1",
      "longitude" : "120.92435",
      "outDis" : "50",
      "Id" : "2145",
      "oid" : "5739",
      "districtId" : "1",
      "nameZh" : "竹林",
      "pgp" : "0",
      "terminal" : "0",
      "latitude" : "24.30625",
      "inDis" : "50",
      "routeId" : "253",
      "seqNo" : "34"
   },
   {
      "GoBack" : "1",
      "longitude" : "120.92265",
      "outDis" : "50",
      "Id" : "1230",
      "oid" : "5177",
      "districtId" : "1",
      "nameZh" : "上竹林",
      "pgp" : "0",
      "terminal" : "0",
      "latitude" : "24.31012",
      "inDis" : "50",
      "routeId" : "253",
      "seqNo" : "35"
   },
   {
      "GoBack" : "1",
      "longitude" : "120.92283",
      "outDis" : "50",
      "Id" : "3969",
      "oid" : "6715",
      "districtId" : "1",
      "nameZh" : "蟾蜍石",
      "pgp" : "0",
      "terminal" : "0",
      "latitude" : "24.31592",
      "inDis" : "50",
      "routeId" : "253",
      "seqNo" : "36"
   },
   {
      "GoBack" : "1",
      "longitude" : "120.924",
      "outDis" : "50",
      "Id" : "3731",
      "oid" : "6599",
      "districtId" : "1",
      "nameZh" : "摩天嶺口",
      "pgp" : "0",
      "terminal" : "0",
      "latitude" : "24.3189",
      "inDis" : "50",
      "routeId" : "253",
      "seqNo" : "37"
   },
   {
      "GoBack" : "1",
      "longitude" : "120.9233",
      "outDis" : "50",
      "Id" : "2730",
      "oid" : "6083",
      "districtId" : "1",
      "nameZh" : "香川",
      "pgp" : "0",
      "terminal" : "0",
      "latitude" : "24.32032",
      "inDis" : "50",
      "routeId" : "253",
      "seqNo" : "38"
   },
   {
      "GoBack" : "1",
      "longitude" : "120.92166",
      "outDis" : "50",
      "Id" : "1207",
      "oid" : "5158",
      "districtId" : "1",
      "nameZh" : "下達觀",
      "pgp" : "0",
      "terminal" : "0",
      "latitude" : "24.32491",
      "inDis" : "50",
      "routeId" : "253",
      "seqNo" : "39"
   },
   {
      "GoBack" : "1",
      "longitude" : "120.92009",
      "outDis" : "50",
      "Id" : "3545",
      "oid" : "6511",
      "districtId" : "1",
      "nameZh" : "達觀",
      "pgp" : "0",
      "terminal" : "0",
      "latitude" : "24.32757",
      "inDis" : "50",
      "routeId" : "253",
      "seqNo" : "40"
   },
   {
      "GoBack" : "1",
      "longitude" : "120.92695",
      "outDis" : "50",
      "Id" : "2113",
      "oid" : "5723",
      "districtId" : "1",
      "nameZh" : "安壁口",
      "pgp" : "0",
      "terminal" : "0",
      "latitude" : "24.3351",
      "inDis" : "50",
      "routeId" : "253",
      "seqNo" : "42"
   },
   {
      "GoBack" : "1",
      "longitude" : "120.92842",
      "outDis" : "50",
      "Id" : "1244",
      "oid" : "5188",
      "districtId" : "1",
      "nameZh" : "上雪山坑",
      "pgp" : "0",
      "terminal" : "0",
      "latitude" : "24.33609",
      "inDis" : "50",
      "routeId" : "253",
      "seqNo" : "43"
   },
   {
      "GoBack" : "1",
      "longitude" : "120.93334",
      "outDis" : "50",
      "Id" : "3085",
      "oid" : "6277",
      "districtId" : "1",
      "nameZh" : "雪山橋頭",
      "pgp" : "0",
      "terminal" : "0",
      "latitude" : "24.33461",
      "inDis" : "50",
      "routeId" : "253",
      "seqNo" : "44"
   },
   {
      "GoBack" : "1",
      "longitude" : "120.93412",
      "outDis" : "50",
      "Id" : "2792",
      "oid" : "6110",
      "districtId" : "1",
      "nameZh" : "桃園",
      "pgp" : "0",
      "terminal" : "0",
      "latitude" : "24.33687",
      "inDis" : "50",
      "routeId" : "253",
      "seqNo" : "45"
   },
   {
      "GoBack" : "1",
      "longitude" : "120.93452",
      "outDis" : "50",
      "Id" : "3084",
      "oid" : "6276",
      "districtId" : "1",
      "nameZh" : "雪山坑",
      "pgp" : "0",
      "terminal" : "0",
      "latitude" : "24.3389",
      "inDis" : "50",
      "routeId" : "253",
      "seqNo" : "46"
   },
   {
      "GoBack" : "1",
      "longitude" : "120.9339",
      "outDis" : "50",
      "Id" : "5212",
      "oid" : "310787730",
      "districtId" : "1",
      "nameZh" : "上士林",
      "pgp" : "0",
      "terminal" : "0",
      "latitude" : "24.34596",
      "inDis" : "50",
      "routeId" : "253",
      "seqNo" : "48"
   },
   {
      "GoBack" : "1",
      "longitude" : "120.92735",
      "outDis" : "50",
      "Id" : "1266",
      "oid" : "5209",
      "districtId" : "1",
      "nameZh" : "士林村",
      "pgp" : "0",
      "terminal" : "0",
      "latitude" : "24.34462",
      "inDis" : "50",
      "routeId" : "253",
      "seqNo" : "49"
   },
   {
      "GoBack" : "2",
      "longitude" : "120.92735",
      "outDis" : "50",
      "Id" : "1266",
      "oid" : "5209",
      "districtId" : "1",
      "nameZh" : "士林村",
      "pgp" : "0",
      "terminal" : "0",
      "latitude" : "24.34462",
      "inDis" : "50",
      "routeId" : "253",
      "seqNo" : "1"
   },
   {
      "GoBack" : "2",
      "longitude" : "120.9339",
      "outDis" : "50",
      "Id" : "5212",
      "oid" : "310787730",
      "districtId" : "1",
      "nameZh" : "上士林",
      "pgp" : "0",
      "terminal" : "0",
      "latitude" : "24.34596",
      "inDis" : "50",
      "routeId" : "253",
      "seqNo" : "2"
   },
   {
      "GoBack" : "2",
      "longitude" : "120.93452",
      "outDis" : "50",
      "Id" : "3084",
      "oid" : "6276",
      "districtId" : "1",
      "nameZh" : "雪山坑",
      "pgp" : "0",
      "terminal" : "0",
      "latitude" : "24.3389",
      "inDis" : "50",
      "routeId" : "253",
      "seqNo" : "4"
   },
   {
      "GoBack" : "2",
      "longitude" : "120.93412",
      "outDis" : "50",
      "Id" : "2792",
      "oid" : "6110",
      "districtId" : "1",
      "nameZh" : "桃園",
      "pgp" : "0",
      "terminal" : "0",
      "latitude" : "24.33687",
      "inDis" : "50",
      "routeId" : "253",
      "seqNo" : "5"
   },
   {
      "GoBack" : "2",
      "longitude" : "120.93334",
      "outDis" : "50",
      "Id" : "3085",
      "oid" : "6277",
      "districtId" : "1",
      "nameZh" : "雪山橋頭",
      "pgp" : "0",
      "terminal" : "0",
      "latitude" : "24.33461",
      "inDis" : "50",
      "routeId" : "253",
      "seqNo" : "6"
   },
   {
      "GoBack" : "2",
      "longitude" : "120.92842",
      "outDis" : "50",
      "Id" : "1244",
      "oid" : "5188",
      "districtId" : "1",
      "nameZh" : "上雪山坑",
      "pgp" : "0",
      "terminal" : "0",
      "latitude" : "24.33609",
      "inDis" : "50",
      "routeId" : "253",
      "seqNo" : "7"
   },
   {
      "GoBack" : "2",
      "longitude" : "120.92695",
      "outDis" : "50",
      "Id" : "2113",
      "oid" : "5723",
      "districtId" : "1",
      "nameZh" : "安壁口",
      "pgp" : "0",
      "terminal" : "0",
      "latitude" : "24.3351",
      "inDis" : "50",
      "routeId" : "253",
      "seqNo" : "8"
   },
   {
      "GoBack" : "2",
      "longitude" : "120.92009",
      "outDis" : "50",
      "Id" : "3545",
      "oid" : "6511",
      "districtId" : "1",
      "nameZh" : "達觀",
      "pgp" : "0",
      "terminal" : "0",
      "latitude" : "24.32757",
      "inDis" : "50",
      "routeId" : "253",
      "seqNo" : "10"
   },
   {
      "GoBack" : "2",
      "longitude" : "120.92166",
      "outDis" : "50",
      "Id" : "1207",
      "oid" : "5158",
      "districtId" : "1",
      "nameZh" : "下達觀",
      "pgp" : "0",
      "terminal" : "0",
      "latitude" : "24.32491",
      "inDis" : "50",
      "routeId" : "253",
      "seqNo" : "11"
   },
   {
      "GoBack" : "2",
      "longitude" : "120.9233",
      "outDis" : "50",
      "Id" : "2730",
      "oid" : "6083",
      "districtId" : "1",
      "nameZh" : "香川",
      "pgp" : "0",
      "terminal" : "0",
      "latitude" : "24.32032",
      "inDis" : "50",
      "routeId" : "253",
      "seqNo" : "12"
   },
   {
      "GoBack" : "2",
      "longitude" : "120.924",
      "outDis" : "50",
      "Id" : "3731",
      "oid" : "6599",
      "districtId" : "1",
      "nameZh" : "摩天嶺口",
      "pgp" : "0",
      "terminal" : "0",
      "latitude" : "24.3189",
      "inDis" : "50",
      "routeId" : "253",
      "seqNo" : "13"
   },
   {
      "GoBack" : "2",
      "longitude" : "120.92283",
      "outDis" : "50",
      "Id" : "3969",
      "oid" : "6715",
      "districtId" : "1",
      "nameZh" : "蟾蜍石",
      "pgp" : "0",
      "terminal" : "0",
      "latitude" : "24.31592",
      "inDis" : "50",
      "routeId" : "253",
      "seqNo" : "14"
   },
   {
      "GoBack" : "2",
      "longitude" : "120.92265",
      "outDis" : "50",
      "Id" : "1230",
      "oid" : "5177",
      "districtId" : "1",
      "nameZh" : "上竹林",
      "pgp" : "0",
      "terminal" : "0",
      "latitude" : "24.31012",
      "inDis" : "50",
      "routeId" : "253",
      "seqNo" : "15"
   },
   {
      "GoBack" : "2",
      "longitude" : "120.92435",
      "outDis" : "50",
      "Id" : "2145",
      "oid" : "5739",
      "districtId" : "1",
      "nameZh" : "竹林",
      "pgp" : "0",
      "terminal" : "0",
      "latitude" : "24.30625",
      "inDis" : "50",
      "routeId" : "253",
      "seqNo" : "16"
   },
   {
      "GoBack" : "2",
      "longitude" : "120.92395",
      "outDis" : "50",
      "Id" : "2823",
      "oid" : "6133",
      "districtId" : "1",
      "nameZh" : "烏石坑",
      "pgp" : "0",
      "terminal" : "0",
      "latitude" : "24.29658",
      "inDis" : "50",
      "routeId" : "253",
      "seqNo" : "18"
   },
   {
      "GoBack" : "2",
      "longitude" : "120.90889",
      "outDis" : "50",
      "Id" : "3954",
      "oid" : "6708",
      "districtId" : "1",
      "nameZh" : "雙崎",
      "pgp" : "0",
      "terminal" : "0",
      "latitude" : "24.2918",
      "inDis" : "50",
      "routeId" : "253",
      "seqNo" : "20"
   },
   {
      "GoBack" : "2",
      "longitude" : "120.90447",
      "outDis" : "50",
      "Id" : "1217",
      "oid" : "5167",
      "districtId" : "1",
      "nameZh" : "下雙崎",
      "pgp" : "0",
      "terminal" : "0",
      "latitude" : "24.28824",
      "inDis" : "50",
      "routeId" : "253",
      "seqNo" : "21"
   },
   {
      "GoBack" : "2",
      "longitude" : "120.905",
      "outDis" : "50",
      "Id" : "4017",
      "oid" : "6745",
      "districtId" : "1",
      "nameZh" : "觀音橋",
      "pgp" : "0",
      "terminal" : "0",
      "latitude" : "24.28532",
      "inDis" : "50",
      "routeId" : "253",
      "seqNo" : "22"
   },
   {
      "GoBack" : "2",
      "longitude" : "120.90226",
      "outDis" : "50",
      "Id" : "5208",
      "oid" : "310787722",
      "districtId" : "1",
      "nameZh" : "下穿龍",
      "pgp" : "0",
      "terminal" : "0",
      "latitude" : "24.28293",
      "inDis" : "50",
      "routeId" : "253",
      "seqNo" : "23"
   },
   {
      "GoBack" : "2",
      "longitude" : "120.90081",
      "outDis" : "50",
      "Id" : "2698",
      "oid" : "6055",
      "districtId" : "1",
      "nameZh" : "穿龍",
      "pgp" : "0",
      "terminal" : "0",
      "latitude" : "24.2812",
      "inDis" : "50",
      "routeId" : "253",
      "seqNo" : "24"
   },
   {
      "GoBack" : "2",
      "longitude" : "120.89408",
      "outDis" : "50",
      "Id" : "0411",
      "oid" : "318809841",
      "districtId" : "1",
      "nameZh" : "穿龍橋",
      "pgp" : "0",
      "terminal" : "0",
      "latitude" : "24.27756",
      "inDis" : "50",
      "routeId" : "253",
      "seqNo" : "27"
   },
   {
      "GoBack" : "2",
      "longitude" : "120.89171",
      "outDis" : "50",
      "Id" : "1240",
      "oid" : "5185",
      "districtId" : "1",
      "nameZh" : "上穿龍",
      "pgp" : "0",
      "terminal" : "0",
      "latitude" : "24.27505",
      "inDis" : "50",
      "routeId" : "253",
      "seqNo" : "28"
   },
   {
      "GoBack" : "2",
      "longitude" : "120.89042",
      "outDis" : "50",
      "Id" : "1585",
      "oid" : "5402",
      "districtId" : "1",
      "nameZh" : "六十甲",
      "pgp" : "0",
      "terminal" : "0",
      "latitude" : "24.27265",
      "inDis" : "50",
      "routeId" : "253",
      "seqNo" : "29"
   },
   {
      "GoBack" : "2",
      "longitude" : "120.88687",
      "outDis" : "50",
      "Id" : "1057",
      "oid" : "5065",
      "districtId" : "1",
      "nameZh" : "三叉坑",
      "pgp" : "0",
      "terminal" : "0",
      "latitude" : "24.27107",
      "inDis" : "50",
      "routeId" : "253",
      "seqNo" : "30"
   },
   {
      "GoBack" : "2",
      "longitude" : "120.88473",
      "outDis" : "50",
      "Id" : "1110",
      "oid" : "5099",
      "districtId" : "1",
      "nameZh" : "下三叉坑",
      "pgp" : "0",
      "terminal" : "0",
      "latitude" : "24.26789",
      "inDis" : "50",
      "routeId" : "253",
      "seqNo" : "31"
   },
   {
      "GoBack" : "2",
      "longitude" : "120.88024",
      "outDis" : "50",
      "Id" : "5224",
      "oid" : "310787754",
      "districtId" : "1",
      "nameZh" : "中嵙溪",
      "pgp" : "0",
      "terminal" : "0",
      "latitude" : "24.26027",
      "inDis" : "50",
      "routeId" : "253",
      "seqNo" : "32"
   },
   {
      "GoBack" : "2",
      "longitude" : "120.87613",
      "outDis" : "50",
      "Id" : "1739",
      "oid" : "5501",
      "districtId" : "1",
      "nameZh" : "牛欄坑",
      "pgp" : "0",
      "terminal" : "0",
      "latitude" : "24.25811",
      "inDis" : "50",
      "routeId" : "253",
      "seqNo" : "33"
   },
   {
      "GoBack" : "2",
      "longitude" : "120.87377",
      "outDis" : "50",
      "Id" : "3965",
      "oid" : "6714",
      "districtId" : "1",
      "nameZh" : "羅厝",
      "pgp" : "0",
      "terminal" : "0",
      "latitude" : "24.25876",
      "inDis" : "50",
      "routeId" : "253",
      "seqNo" : "34"
   },
   {
      "GoBack" : "2",
      "longitude" : "120.87059",
      "outDis" : "50",
      "Id" : "1379",
      "oid" : "5283",
      "districtId" : "1",
      "nameZh" : "大彎",
      "pgp" : "0",
      "terminal" : "0",
      "latitude" : "24.26094",
      "inDis" : "50",
      "routeId" : "253",
      "seqNo" : "35"
   },
   {
      "GoBack" : "2",
      "longitude" : "120.86695",
      "outDis" : "50",
      "Id" : "3784",
      "oid" : "6624",
      "districtId" : "1",
      "nameZh" : "橫龍",
      "pgp" : "0",
      "terminal" : "0",
      "latitude" : "24.25904",
      "inDis" : "50",
      "routeId" : "253",
      "seqNo" : "36"
   },
   {
      "GoBack" : "2",
      "longitude" : "120.86362",
      "outDis" : "50",
      "Id" : "1211",
      "oid" : "5161",
      "districtId" : "1",
      "nameZh" : "下橫龍",
      "pgp" : "0",
      "terminal" : "0",
      "latitude" : "24.2601",
      "inDis" : "50",
      "routeId" : "253",
      "seqNo" : "37"
   },
   {
      "GoBack" : "2",
      "longitude" : "120.85231",
      "outDis" : "50",
      "Id" : "3098",
      "oid" : "6283",
      "districtId" : "1",
      "nameZh" : "頂中嵙",
      "pgp" : "0",
      "terminal" : "0",
      "latitude" : "24.25855",
      "inDis" : "50",
      "routeId" : "253",
      "seqNo" : "39"
   },
   {
      "GoBack" : "2",
      "longitude" : "120.85232",
      "outDis" : "50",
      "Id" : "5220",
      "oid" : "310787746",
      "districtId" : "1",
      "nameZh" : "大願寺",
      "pgp" : "0",
      "terminal" : "0",
      "latitude" : "24.25867",
      "inDis" : "50",
      "routeId" : "253",
      "seqNo" : "40"
   },
   {
      "GoBack" : "2",
      "longitude" : "120.85031",
      "outDis" : "50",
      "Id" : "1414",
      "oid" : "5301",
      "districtId" : "1",
      "nameZh" : "中嵙",
      "pgp" : "0",
      "terminal" : "0",
      "latitude" : "24.25527",
      "inDis" : "50",
      "routeId" : "253",
      "seqNo" : "41"
   },
   {
      "GoBack" : "2",
      "longitude" : "120.84574",
      "outDis" : "50",
      "Id" : "1971",
      "oid" : "5631",
      "districtId" : "1",
      "nameZh" : "瓦斯中心",
      "pgp" : "0",
      "terminal" : "0",
      "latitude" : "24.25288",
      "inDis" : "50",
      "routeId" : "253",
      "seqNo" : "42"
   },
   {
      "GoBack" : "2",
      "longitude" : "120.8423",
      "outDis" : "50",
      "Id" : "5233",
      "oid" : "310787772",
      "districtId" : "1",
      "nameZh" : "玉山高中",
      "pgp" : "0",
      "terminal" : "0",
      "latitude" : "24.25171",
      "inDis" : "50",
      "routeId" : "253",
      "seqNo" : "43"
   },
   {
      "GoBack" : "2",
      "longitude" : "120.83947",
      "outDis" : "50",
      "Id" : "3334",
      "oid" : "6392",
      "districtId" : "1",
      "nameZh" : "圓通精舍",
      "pgp" : "0",
      "terminal" : "0",
      "latitude" : "24.25097",
      "inDis" : "50",
      "routeId" : "253",
      "seqNo" : "44"
   },
   {
      "GoBack" : "2",
      "longitude" : "120.83662",
      "outDis" : "50",
      "Id" : "2795",
      "oid" : "6112",
      "districtId" : "1",
      "nameZh" : "泰昌里",
      "pgp" : "0",
      "terminal" : "0",
      "latitude" : "24.25106",
      "inDis" : "50",
      "routeId" : "253",
      "seqNo" : "45"
   },
   {
      "GoBack" : "2",
      "longitude" : "120.82985",
      "outDis" : "50",
      "Id" : "1415",
      "oid" : "5303",
      "districtId" : "1",
      "nameZh" : "中嵙口",
      "pgp" : "0",
      "terminal" : "0",
      "latitude" : "24.25249",
      "inDis" : "50",
      "routeId" : "253",
      "seqNo" : "46"
   },
   {
      "GoBack" : "2",
      "longitude" : "120.82936",
      "outDis" : "50",
      "Id" : "2570",
      "oid" : "5988",
      "districtId" : "1",
      "nameZh" : "南平里",
      "pgp" : "0",
      "terminal" : "0",
      "latitude" : "24.25511",
      "inDis" : "50",
      "routeId" : "253",
      "seqNo" : "47"
   },
   {
      "GoBack" : "2",
      "longitude" : "120.82862",
      "outDis" : "50",
      "Id" : "2428",
      "oid" : "5900",
      "districtId" : "1",
      "nameZh" : "東勢",
      "pgp" : "0",
      "terminal" : "0",
      "latitude" : "24.25742",
      "inDis" : "50",
      "routeId" : "253",
      "seqNo" : "48"
   }
]
