[
   {
      "GoBack" : "1",
      "longitude" : "120.64786",
      "outDis" : "50",
      "Id" : "4032",
      "oid" : "318989265",
      "districtId" : "1",
      "nameZh" : "大慶火車站",
      "pgp" : "0",
      "terminal" : "0",
      "latitude" : "24.11912",
      "inDis" : "50",
      "routeId" : "藍10",
      "seqNo" : "1"
   },
   {
      "GoBack" : "1",
      "longitude" : "120.64848",
      "outDis" : "50",
      "Id" : "4034",
      "oid" : "318989267",
      "districtId" : "1",
      "nameZh" : "中山醫學大學",
      "pgp" : "0",
      "terminal" : "0",
      "latitude" : "24.12297",
      "inDis" : "50",
      "routeId" : "藍10",
      "seqNo" : "2"
   },
   {
      "GoBack" : "1",
      "longitude" : "120.64655",
      "outDis" : "50",
      "Id" : "0027",
      "oid" : "318989269",
      "districtId" : "1",
      "nameZh" : "文心南三民西路口",
      "pgp" : "0",
      "terminal" : "0",
      "latitude" : "24.12611",
      "inDis" : "50",
      "routeId" : "藍10",
      "seqNo" : "3"
   },
   {
      "GoBack" : "1",
      "longitude" : "120.64634",
      "outDis" : "50",
      "Id" : "0026",
      "oid" : "318989271",
      "districtId" : "1",
      "nameZh" : "豐樂公園",
      "pgp" : "0",
      "terminal" : "0",
      "latitude" : "24.13032",
      "inDis" : "50",
      "routeId" : "藍10",
      "seqNo" : "4"
   },
   {
      "GoBack" : "1",
      "longitude" : "120.64853",
      "outDis" : "50",
      "Id" : "4030",
      "oid" : "318989273",
      "districtId" : "1",
      "nameZh" : "好市多",
      "pgp" : "0",
      "terminal" : "0",
      "latitude" : "24.13201",
      "inDis" : "50",
      "routeId" : "藍10",
      "seqNo" : "5"
   },
   {
      "GoBack" : "1",
      "longitude" : "120.6511",
      "outDis" : "50",
      "Id" : "4970",
      "oid" : "318989275",
      "districtId" : "1",
      "nameZh" : "文心南五路260巷口",
      "pgp" : "0",
      "terminal" : "0",
      "latitude" : "24.13208",
      "inDis" : "50",
      "routeId" : "藍10",
      "seqNo" : "6"
   },
   {
      "GoBack" : "1",
      "longitude" : "120.65312",
      "outDis" : "50",
      "Id" : "4029",
      "oid" : "318989277",
      "districtId" : "1",
      "nameZh" : "愛心家園",
      "pgp" : "0",
      "terminal" : "0",
      "latitude" : "24.13231",
      "inDis" : "50",
      "routeId" : "藍10",
      "seqNo" : "7"
   },
   {
      "GoBack" : "1",
      "longitude" : "120.65317",
      "outDis" : "50",
      "Id" : "0664",
      "oid" : "318989279",
      "districtId" : "1",
      "nameZh" : "東興南屯路口",
      "pgp" : "0",
      "terminal" : "0",
      "latitude" : "24.13627",
      "inDis" : "50",
      "routeId" : "藍10",
      "seqNo" : "8"
   },
   {
      "GoBack" : "1",
      "longitude" : "120.65303",
      "outDis" : "50",
      "Id" : "1367",
      "oid" : "318989281",
      "districtId" : "1",
      "nameZh" : "東興大墩二街口",
      "pgp" : "0",
      "terminal" : "0",
      "latitude" : "24.1388",
      "inDis" : "50",
      "routeId" : "藍10",
      "seqNo" : "9"
   },
   {
      "GoBack" : "1",
      "longitude" : "120.65306",
      "outDis" : "50",
      "Id" : "1368",
      "oid" : "318989283",
      "districtId" : "1",
      "nameZh" : "東興大墩五街口",
      "pgp" : "0",
      "terminal" : "0",
      "latitude" : "24.14245",
      "inDis" : "50",
      "routeId" : "藍10",
      "seqNo" : "10"
   },
   {
      "GoBack" : "1",
      "longitude" : "120.65307",
      "outDis" : "50",
      "Id" : "0870",
      "oid" : "318989285",
      "districtId" : "1",
      "nameZh" : "萬壽棒球場(東興路)",
      "pgp" : "0",
      "terminal" : "0",
      "latitude" : "24.14526",
      "inDis" : "50",
      "routeId" : "藍10",
      "seqNo" : "11"
   },
   {
      "GoBack" : "1",
      "longitude" : "120.65268",
      "outDis" : "50",
      "Id" : "4554",
      "oid" : "318989287",
      "districtId" : "1",
      "nameZh" : "向上東興路口",
      "pgp" : "0",
      "terminal" : "0",
      "latitude" : "24.14679",
      "inDis" : "50",
      "routeId" : "藍10",
      "seqNo" : "12"
   },
   {
      "GoBack" : "1",
      "longitude" : "120.64937",
      "outDis" : "50",
      "Id" : "0139",
      "oid" : "318989289",
      "districtId" : "1",
      "nameZh" : "向上大墩路口",
      "pgp" : "0",
      "terminal" : "0",
      "latitude" : "24.14674",
      "inDis" : "50",
      "routeId" : "藍10",
      "seqNo" : "13"
   },
   {
      "GoBack" : "1",
      "longitude" : "120.64744",
      "outDis" : "50",
      "Id" : "5654",
      "oid" : "318989291",
      "districtId" : "1",
      "nameZh" : "文心森林公園(向上路)",
      "pgp" : "0",
      "terminal" : "0",
      "latitude" : "24.14679",
      "inDis" : "50",
      "routeId" : "藍10",
      "seqNo" : "14"
   },
   {
      "GoBack" : "1",
      "longitude" : "120.64342",
      "outDis" : "50",
      "Id" : "0170",
      "oid" : "318989293",
      "districtId" : "1",
      "nameZh" : "向上惠文路口",
      "pgp" : "0",
      "terminal" : "0",
      "latitude" : "24.1469",
      "inDis" : "50",
      "routeId" : "藍10",
      "seqNo" : "15"
   },
   {
      "GoBack" : "1",
      "longitude" : "120.64115",
      "outDis" : "50",
      "Id" : "4601",
      "oid" : "318989295",
      "districtId" : "1",
      "nameZh" : "林新醫院(向上路)",
      "pgp" : "0",
      "terminal" : "0",
      "latitude" : "24.14689",
      "inDis" : "50",
      "routeId" : "藍10",
      "seqNo" : "16"
   },
   {
      "GoBack" : "1",
      "longitude" : "120.63792",
      "outDis" : "50",
      "Id" : "0168",
      "oid" : "318989297",
      "districtId" : "1",
      "nameZh" : "向上河南路口",
      "pgp" : "0",
      "terminal" : "0",
      "latitude" : "24.14714",
      "inDis" : "50",
      "routeId" : "藍10",
      "seqNo" : "17"
   },
   {
      "GoBack" : "1",
      "longitude" : "120.63579",
      "outDis" : "50",
      "Id" : "0060",
      "oid" : "318989299",
      "districtId" : "1",
      "nameZh" : "三厝里",
      "pgp" : "0",
      "terminal" : "0",
      "latitude" : "24.14812",
      "inDis" : "50",
      "routeId" : "藍10",
      "seqNo" : "18"
   },
   {
      "GoBack" : "1",
      "longitude" : "120.63534",
      "outDis" : "50",
      "Id" : "0059",
      "oid" : "318989301",
      "districtId" : "1",
      "nameZh" : "黎明公益路口",
      "pgp" : "0",
      "terminal" : "0",
      "latitude" : "24.15102",
      "inDis" : "50",
      "routeId" : "藍10",
      "seqNo" : "19"
   },
   {
      "GoBack" : "1",
      "longitude" : "120.63498",
      "outDis" : "50",
      "Id" : "4160",
      "oid" : "318989303",
      "districtId" : "1",
      "nameZh" : "黎明大業路口",
      "pgp" : "0",
      "terminal" : "0",
      "latitude" : "24.15317",
      "inDis" : "50",
      "routeId" : "藍10",
      "seqNo" : "20"
   },
   {
      "GoBack" : "1",
      "longitude" : "120.6347",
      "outDis" : "50",
      "Id" : "3892",
      "oid" : "318989305",
      "districtId" : "1",
      "nameZh" : "黎明新村(黎明路)",
      "pgp" : "0",
      "terminal" : "0",
      "latitude" : "24.15465",
      "inDis" : "50",
      "routeId" : "藍10",
      "seqNo" : "21"
   },
   {
      "GoBack" : "1",
      "longitude" : "120.63422",
      "outDis" : "50",
      "Id" : "0056",
      "oid" : "318989307",
      "districtId" : "1",
      "nameZh" : "黎明國小",
      "pgp" : "0",
      "terminal" : "0",
      "latitude" : "24.15809",
      "inDis" : "50",
      "routeId" : "藍10",
      "seqNo" : "22"
   },
   {
      "GoBack" : "1",
      "longitude" : "120.63372",
      "outDis" : "50",
      "Id" : "5155",
      "oid" : "318989309",
      "districtId" : "1",
      "nameZh" : "黎明市政路口",
      "pgp" : "0",
      "terminal" : "0",
      "latitude" : "24.16073",
      "inDis" : "50",
      "routeId" : "藍10",
      "seqNo" : "23"
   },
   {
      "GoBack" : "1",
      "longitude" : "120.63392",
      "outDis" : "50",
      "Id" : "5748",
      "oid" : "320349543",
      "districtId" : "1",
      "nameZh" : "黎明龍門路口",
      "pgp" : "0",
      "terminal" : "0",
      "latitude" : "24.16294",
      "inDis" : "50",
      "routeId" : "藍10",
      "seqNo" : "24"
   },
   {
      "GoBack" : "1",
      "longitude" : "120.63418",
      "outDis" : "50",
      "Id" : "4645",
      "oid" : "318989311",
      "districtId" : "1",
      "nameZh" : "西屯區公所",
      "pgp" : "0",
      "terminal" : "0",
      "latitude" : "24.16386",
      "inDis" : "50",
      "routeId" : "藍10",
      "seqNo" : "25"
   },
   {
      "GoBack" : "1",
      "longitude" : "120.63526",
      "outDis" : "50",
      "Id" : "5158",
      "oid" : "318989313",
      "districtId" : "1",
      "nameZh" : "黎明環河路口",
      "pgp" : "0",
      "terminal" : "0",
      "latitude" : "24.1667",
      "inDis" : "50",
      "routeId" : "藍10",
      "seqNo" : "26"
   },
   {
      "GoBack" : "1",
      "longitude" : "120.6353",
      "outDis" : "50",
      "Id" : "4642",
      "oid" : "318989315",
      "districtId" : "1",
      "nameZh" : "朝馬黎明路口",
      "pgp" : "0",
      "terminal" : "0",
      "latitude" : "24.16952",
      "inDis" : "50",
      "routeId" : "藍10",
      "seqNo" : "27"
   },
   {
      "GoBack" : "1",
      "longitude" : "120.63312",
      "outDis" : "50",
      "Id" : "4648",
      "oid" : "318989317",
      "districtId" : "1",
      "nameZh" : "朝馬環中路口",
      "pgp" : "0",
      "terminal" : "0",
      "latitude" : "24.17008",
      "inDis" : "50",
      "routeId" : "藍10",
      "seqNo" : "28"
   },
   {
      "GoBack" : "1",
      "longitude" : "120.62252",
      "outDis" : "50",
      "Id" : "5106",
      "oid" : "318989319",
      "districtId" : "1",
      "nameZh" : "安和朝馬路口",
      "pgp" : "0",
      "terminal" : "0",
      "latitude" : "24.17466",
      "inDis" : "50",
      "routeId" : "藍10",
      "seqNo" : "29"
   },
   {
      "GoBack" : "1",
      "longitude" : "120.62353",
      "outDis" : "50",
      "Id" : "0285",
      "oid" : "319311016",
      "districtId" : "1",
      "nameZh" : "安和福玄路口",
      "pgp" : "0",
      "terminal" : "0",
      "latitude" : "24.1767",
      "inDis" : "50",
      "routeId" : "藍10",
      "seqNo" : "30"
   },
   {
      "GoBack" : "1",
      "longitude" : "120.62115",
      "outDis" : "50",
      "Id" : "3060",
      "oid" : "318989323",
      "districtId" : "1",
      "nameZh" : "統聯轉運站",
      "pgp" : "0",
      "terminal" : "0",
      "latitude" : "24.18",
      "inDis" : "50",
      "routeId" : "藍10",
      "seqNo" : "31"
   },
   {
      "GoBack" : "1",
      "longitude" : "120.61982",
      "outDis" : "50",
      "Id" : "0008",
      "oid" : "318989325",
      "districtId" : "1",
      "nameZh" : "中港新城",
      "pgp" : "0",
      "terminal" : "0",
      "latitude" : "24.18097",
      "inDis" : "50",
      "routeId" : "藍10",
      "seqNo" : "32"
   },
   {
      "GoBack" : "1",
      "longitude" : "120.616",
      "outDis" : "50",
      "Id" : "0430",
      "oid" : "318989327",
      "districtId" : "1",
      "nameZh" : "中港澄清醫院",
      "pgp" : "0",
      "terminal" : "0",
      "latitude" : "24.18292",
      "inDis" : "50",
      "routeId" : "藍10",
      "seqNo" : "33"
   },
   {
      "GoBack" : "1",
      "longitude" : "120.61287",
      "outDis" : "50",
      "Id" : "0006",
      "oid" : "318989329",
      "districtId" : "1",
      "nameZh" : "臺中捐血中心",
      "pgp" : "0",
      "terminal" : "0",
      "latitude" : "24.1844",
      "inDis" : "50",
      "routeId" : "藍10",
      "seqNo" : "34"
   },
   {
      "GoBack" : "1",
      "longitude" : "120.6106",
      "outDis" : "50",
      "Id" : "4335",
      "oid" : "318989331",
      "districtId" : "1",
      "nameZh" : "臺灣大道玉門路口",
      "pgp" : "0",
      "terminal" : "0",
      "latitude" : "24.18471",
      "inDis" : "50",
      "routeId" : "藍10",
      "seqNo" : "35"
   },
   {
      "GoBack" : "1",
      "longitude" : "120.60837",
      "outDis" : "50",
      "Id" : "0004",
      "oid" : "318989333",
      "districtId" : "1",
      "nameZh" : "普濟寺",
      "pgp" : "0",
      "terminal" : "0",
      "latitude" : "24.1843",
      "inDis" : "50",
      "routeId" : "藍10",
      "seqNo" : "36"
   },
   {
      "GoBack" : "1",
      "longitude" : "120.60646",
      "outDis" : "50",
      "Id" : "2378",
      "oid" : "318989335",
      "districtId" : "1",
      "nameZh" : "東大附中",
      "pgp" : "0",
      "terminal" : "0",
      "latitude" : "24.18385",
      "inDis" : "50",
      "routeId" : "藍10",
      "seqNo" : "37"
   },
   {
      "GoBack" : "1",
      "longitude" : "120.60491",
      "outDis" : "50",
      "Id" : "5386",
      "oid" : "318989337",
      "districtId" : "1",
      "nameZh" : "臺中榮總(臺灣大道)",
      "pgp" : "0",
      "terminal" : "0",
      "latitude" : "24.18349",
      "inDis" : "50",
      "routeId" : "藍10",
      "seqNo" : "38"
   },
   {
      "GoBack" : "1",
      "longitude" : "120.59743",
      "outDis" : "50",
      "Id" : "0526",
      "oid" : "318989339",
      "districtId" : "1",
      "nameZh" : "台中精機",
      "pgp" : "0",
      "terminal" : "0",
      "latitude" : "24.18214",
      "inDis" : "50",
      "routeId" : "藍10",
      "seqNo" : "39"
   },
   {
      "GoBack" : "1",
      "longitude" : "120.59365",
      "outDis" : "50",
      "Id" : "0240",
      "oid" : "318989341",
      "districtId" : "1",
      "nameZh" : "東海別墅",
      "pgp" : "0",
      "terminal" : "0",
      "latitude" : "24.18294",
      "inDis" : "50",
      "routeId" : "藍10",
      "seqNo" : "40"
   },
   {
      "GoBack" : "1",
      "longitude" : "120.59555",
      "outDis" : "50",
      "Id" : "0757",
      "oid" : "318989343",
      "districtId" : "1",
      "nameZh" : "國際藝術街口",
      "pgp" : "0",
      "terminal" : "0",
      "latitude" : "24.18713",
      "inDis" : "50",
      "routeId" : "藍10",
      "seqNo" : "41"
   },
   {
      "GoBack" : "1",
      "longitude" : "120.5964",
      "outDis" : "50",
      "Id" : "0756",
      "oid" : "318989345",
      "districtId" : "1",
      "nameZh" : "國際遠東街口",
      "pgp" : "0",
      "terminal" : "0",
      "latitude" : "24.18842",
      "inDis" : "50",
      "routeId" : "藍10",
      "seqNo" : "42"
   },
   {
      "GoBack" : "1",
      "longitude" : "120.59436",
      "outDis" : "50",
      "Id" : "0908",
      "oid" : "318989347",
      "districtId" : "1",
      "nameZh" : "遠東街165巷口",
      "pgp" : "0",
      "terminal" : "0",
      "latitude" : "24.18952",
      "inDis" : "50",
      "routeId" : "藍10",
      "seqNo" : "43"
   },
   {
      "GoBack" : "1",
      "longitude" : "120.58879",
      "outDis" : "50",
      "Id" : "0909",
      "oid" : "318989349",
      "districtId" : "1",
      "nameZh" : "遠東街",
      "pgp" : "0",
      "terminal" : "0",
      "latitude" : "24.19082",
      "inDis" : "50",
      "routeId" : "藍10",
      "seqNo" : "44"
   },
   {
      "GoBack" : "1",
      "longitude" : "120.59018",
      "outDis" : "50",
      "Id" : "5630",
      "oid" : "318989351",
      "districtId" : "1",
      "nameZh" : "東海一站",
      "pgp" : "0",
      "terminal" : "0",
      "latitude" : "24.19136",
      "inDis" : "50",
      "routeId" : "藍10",
      "seqNo" : "45"
   },
   {
      "GoBack" : "1",
      "longitude" : "120.59293",
      "outDis" : "50",
      "Id" : "5631",
      "oid" : "318989353",
      "districtId" : "1",
      "nameZh" : "東海里",
      "pgp" : "0",
      "terminal" : "0",
      "latitude" : "24.19084",
      "inDis" : "50",
      "routeId" : "藍10",
      "seqNo" : "46"
   },
   {
      "GoBack" : "1",
      "longitude" : "120.59454",
      "outDis" : "50",
      "Id" : "5326",
      "oid" : "318989355",
      "districtId" : "1",
      "nameZh" : "都會園西屯路口",
      "pgp" : "0",
      "terminal" : "0",
      "latitude" : "24.19259",
      "inDis" : "50",
      "routeId" : "藍10",
      "seqNo" : "47"
   },
   {
      "GoBack" : "1",
      "longitude" : "120.59523",
      "outDis" : "50",
      "Id" : "5759",
      "oid" : "320297743",
      "districtId" : "1",
      "nameZh" : "牛頂頭",
      "pgp" : "0",
      "terminal" : "0",
      "latitude" : "24.19717",
      "inDis" : "50",
      "routeId" : "藍10",
      "seqNo" : "48"
   },
   {
      "GoBack" : "1",
      "longitude" : "120.59807",
      "outDis" : "50",
      "Id" : "5526",
      "oid" : "318989357",
      "districtId" : "1",
      "nameZh" : "臺中都會公園一站",
      "pgp" : "0",
      "terminal" : "0",
      "latitude" : "24.20395",
      "inDis" : "50",
      "routeId" : "藍10",
      "seqNo" : "49"
   },
   {
      "GoBack" : "1",
      "longitude" : "120.59911",
      "outDis" : "50",
      "Id" : "0522",
      "oid" : "318989359",
      "districtId" : "1",
      "nameZh" : "臺中都會公園",
      "pgp" : "0",
      "terminal" : "0",
      "latitude" : "24.20621",
      "inDis" : "50",
      "routeId" : "藍10",
      "seqNo" : "50"
   },
   {
      "GoBack" : "2",
      "longitude" : "120.59911",
      "outDis" : "50",
      "Id" : "0522",
      "oid" : "318989171",
      "districtId" : "1",
      "nameZh" : "臺中都會公園",
      "pgp" : "0",
      "terminal" : "0",
      "latitude" : "24.20621",
      "inDis" : "50",
      "routeId" : "藍10",
      "seqNo" : "1"
   },
   {
      "GoBack" : "2",
      "longitude" : "120.59807",
      "outDis" : "50",
      "Id" : "5526",
      "oid" : "318989173",
      "districtId" : "1",
      "nameZh" : "臺中都會公園一站",
      "pgp" : "0",
      "terminal" : "0",
      "latitude" : "24.20395",
      "inDis" : "50",
      "routeId" : "藍10",
      "seqNo" : "2"
   },
   {
      "GoBack" : "2",
      "longitude" : "120.59504",
      "outDis" : "50",
      "Id" : "5759",
      "oid" : "320297744",
      "districtId" : "1",
      "nameZh" : "牛頂頭",
      "pgp" : "0",
      "terminal" : "0",
      "latitude" : "24.19726",
      "inDis" : "50",
      "routeId" : "藍10",
      "seqNo" : "3"
   },
   {
      "GoBack" : "2",
      "longitude" : "120.59454",
      "outDis" : "50",
      "Id" : "5326",
      "oid" : "318989175",
      "districtId" : "1",
      "nameZh" : "都會園西屯路口",
      "pgp" : "0",
      "terminal" : "0",
      "latitude" : "24.19259",
      "inDis" : "50",
      "routeId" : "藍10",
      "seqNo" : "4"
   },
   {
      "GoBack" : "2",
      "longitude" : "120.59284",
      "outDis" : "50",
      "Id" : "5631",
      "oid" : "318989177",
      "districtId" : "1",
      "nameZh" : "東海里",
      "pgp" : "0",
      "terminal" : "0",
      "latitude" : "24.19093",
      "inDis" : "50",
      "routeId" : "藍10",
      "seqNo" : "5"
   },
   {
      "GoBack" : "2",
      "longitude" : "120.5902",
      "outDis" : "50",
      "Id" : "5630",
      "oid" : "318989179",
      "districtId" : "1",
      "nameZh" : "東海一站",
      "pgp" : "0",
      "terminal" : "0",
      "latitude" : "24.19141",
      "inDis" : "50",
      "routeId" : "藍10",
      "seqNo" : "6"
   },
   {
      "GoBack" : "2",
      "longitude" : "120.58828",
      "outDis" : "50",
      "Id" : "0909",
      "oid" : "318989181",
      "districtId" : "1",
      "nameZh" : "遠東街",
      "pgp" : "0",
      "terminal" : "0",
      "latitude" : "24.19097",
      "inDis" : "50",
      "routeId" : "藍10",
      "seqNo" : "7"
   },
   {
      "GoBack" : "2",
      "longitude" : "120.59448",
      "outDis" : "50",
      "Id" : "0908",
      "oid" : "318989183",
      "districtId" : "1",
      "nameZh" : "遠東街165巷口",
      "pgp" : "0",
      "terminal" : "0",
      "latitude" : "24.18957",
      "inDis" : "50",
      "routeId" : "藍10",
      "seqNo" : "8"
   },
   {
      "GoBack" : "2",
      "longitude" : "120.59649",
      "outDis" : "50",
      "Id" : "0756",
      "oid" : "318989185",
      "districtId" : "1",
      "nameZh" : "國際遠東街口",
      "pgp" : "0",
      "terminal" : "0",
      "latitude" : "24.18857",
      "inDis" : "50",
      "routeId" : "藍10",
      "seqNo" : "9"
   },
   {
      "GoBack" : "2",
      "longitude" : "120.5956",
      "outDis" : "50",
      "Id" : "0757",
      "oid" : "318989187",
      "districtId" : "1",
      "nameZh" : "國際藝術街口",
      "pgp" : "0",
      "terminal" : "0",
      "latitude" : "24.18719",
      "inDis" : "50",
      "routeId" : "藍10",
      "seqNo" : "10"
   },
   {
      "GoBack" : "2",
      "longitude" : "120.5935",
      "outDis" : "50",
      "Id" : "0240",
      "oid" : "318989189",
      "districtId" : "1",
      "nameZh" : "東海別墅",
      "pgp" : "0",
      "terminal" : "0",
      "latitude" : "24.18268",
      "inDis" : "50",
      "routeId" : "藍10",
      "seqNo" : "11"
   },
   {
      "GoBack" : "2",
      "longitude" : "120.5973",
      "outDis" : "50",
      "Id" : "0526",
      "oid" : "318989191",
      "districtId" : "1",
      "nameZh" : "台中精機",
      "pgp" : "0",
      "terminal" : "0",
      "latitude" : "24.18183",
      "inDis" : "50",
      "routeId" : "藍10",
      "seqNo" : "12"
   },
   {
      "GoBack" : "2",
      "longitude" : "120.60491",
      "outDis" : "50",
      "Id" : "5386",
      "oid" : "318989193",
      "districtId" : "1",
      "nameZh" : "臺中榮總(臺灣大道)",
      "pgp" : "0",
      "terminal" : "0",
      "latitude" : "24.18349",
      "inDis" : "50",
      "routeId" : "藍10",
      "seqNo" : "13"
   },
   {
      "GoBack" : "2",
      "longitude" : "120.60658",
      "outDis" : "50",
      "Id" : "2378",
      "oid" : "318989195",
      "districtId" : "1",
      "nameZh" : "東大附中",
      "pgp" : "0",
      "terminal" : "0",
      "latitude" : "24.18357",
      "inDis" : "50",
      "routeId" : "藍10",
      "seqNo" : "14"
   },
   {
      "GoBack" : "2",
      "longitude" : "120.60833",
      "outDis" : "50",
      "Id" : "0004",
      "oid" : "318989197",
      "districtId" : "1",
      "nameZh" : "普濟寺",
      "pgp" : "0",
      "terminal" : "0",
      "latitude" : "24.18398",
      "inDis" : "50",
      "routeId" : "藍10",
      "seqNo" : "15"
   },
   {
      "GoBack" : "2",
      "longitude" : "120.6106",
      "outDis" : "50",
      "Id" : "4335",
      "oid" : "318989331",
      "districtId" : "1",
      "nameZh" : "臺灣大道玉門路口",
      "pgp" : "0",
      "terminal" : "0",
      "latitude" : "24.18471",
      "inDis" : "50",
      "routeId" : "藍10",
      "seqNo" : "16"
   },
   {
      "GoBack" : "2",
      "longitude" : "120.61256",
      "outDis" : "50",
      "Id" : "0006",
      "oid" : "318989199",
      "districtId" : "1",
      "nameZh" : "臺中捐血中心",
      "pgp" : "0",
      "terminal" : "0",
      "latitude" : "24.18421",
      "inDis" : "50",
      "routeId" : "藍10",
      "seqNo" : "17"
   },
   {
      "GoBack" : "2",
      "longitude" : "120.61577",
      "outDis" : "50",
      "Id" : "0430",
      "oid" : "318989201",
      "districtId" : "1",
      "nameZh" : "中港澄清醫院",
      "pgp" : "0",
      "terminal" : "0",
      "latitude" : "24.18273",
      "inDis" : "50",
      "routeId" : "藍10",
      "seqNo" : "18"
   },
   {
      "GoBack" : "2",
      "longitude" : "120.6183",
      "outDis" : "50",
      "Id" : "0008",
      "oid" : "320062561",
      "districtId" : "1",
      "nameZh" : "中港新城",
      "pgp" : "0",
      "terminal" : "0",
      "latitude" : "24.18145",
      "inDis" : "50",
      "routeId" : "藍10",
      "seqNo" : "19"
   },
   {
      "GoBack" : "2",
      "longitude" : "120.62115",
      "outDis" : "50",
      "Id" : "3060",
      "oid" : "318989205",
      "districtId" : "1",
      "nameZh" : "統聯轉運站",
      "pgp" : "0",
      "terminal" : "0",
      "latitude" : "24.18014",
      "inDis" : "50",
      "routeId" : "藍10",
      "seqNo" : "20"
   },
   {
      "GoBack" : "2",
      "longitude" : "120.62438",
      "outDis" : "50",
      "Id" : "1481",
      "oid" : "318989207",
      "districtId" : "1",
      "nameZh" : "安和臺灣大道口",
      "pgp" : "0",
      "terminal" : "0",
      "latitude" : "24.17838",
      "inDis" : "50",
      "routeId" : "藍10",
      "seqNo" : "21"
   },
   {
      "GoBack" : "2",
      "longitude" : "120.623",
      "outDis" : "50",
      "Id" : "0285",
      "oid" : "319311017",
      "districtId" : "1",
      "nameZh" : "安和福玄路口",
      "pgp" : "0",
      "terminal" : "0",
      "latitude" : "24.1768",
      "inDis" : "50",
      "routeId" : "藍10",
      "seqNo" : "22"
   },
   {
      "GoBack" : "2",
      "longitude" : "120.62243",
      "outDis" : "50",
      "Id" : "5106",
      "oid" : "318989209",
      "districtId" : "1",
      "nameZh" : "安和朝馬路口",
      "pgp" : "0",
      "terminal" : "0",
      "latitude" : "24.1748",
      "inDis" : "50",
      "routeId" : "藍10",
      "seqNo" : "23"
   },
   {
      "GoBack" : "2",
      "longitude" : "120.63201",
      "outDis" : "50",
      "Id" : "4648",
      "oid" : "318989211",
      "districtId" : "1",
      "nameZh" : "朝馬環中路口",
      "pgp" : "0",
      "terminal" : "0",
      "latitude" : "24.17035",
      "inDis" : "50",
      "routeId" : "藍10",
      "seqNo" : "24"
   },
   {
      "GoBack" : "2",
      "longitude" : "120.63523",
      "outDis" : "50",
      "Id" : "4642",
      "oid" : "318989213",
      "districtId" : "1",
      "nameZh" : "朝馬黎明路口",
      "pgp" : "0",
      "terminal" : "0",
      "latitude" : "24.16944",
      "inDis" : "50",
      "routeId" : "藍10",
      "seqNo" : "25"
   },
   {
      "GoBack" : "2",
      "longitude" : "120.63526",
      "outDis" : "50",
      "Id" : "5158",
      "oid" : "318989215",
      "districtId" : "1",
      "nameZh" : "黎明環河路口",
      "pgp" : "0",
      "terminal" : "0",
      "latitude" : "24.1667",
      "inDis" : "50",
      "routeId" : "藍10",
      "seqNo" : "26"
   },
   {
      "GoBack" : "2",
      "longitude" : "120.63418",
      "outDis" : "50",
      "Id" : "4645",
      "oid" : "318989217",
      "districtId" : "1",
      "nameZh" : "西屯區公所",
      "pgp" : "0",
      "terminal" : "0",
      "latitude" : "24.16386",
      "inDis" : "50",
      "routeId" : "藍10",
      "seqNo" : "27"
   },
   {
      "GoBack" : "2",
      "longitude" : "120.63392",
      "outDis" : "50",
      "Id" : "5748",
      "oid" : "320349543",
      "districtId" : "1",
      "nameZh" : "黎明龍門路口",
      "pgp" : "0",
      "terminal" : "0",
      "latitude" : "24.16294",
      "inDis" : "50",
      "routeId" : "藍10",
      "seqNo" : "28"
   },
   {
      "GoBack" : "2",
      "longitude" : "120.63372",
      "outDis" : "50",
      "Id" : "5155",
      "oid" : "318989219",
      "districtId" : "1",
      "nameZh" : "黎明市政路口",
      "pgp" : "0",
      "terminal" : "0",
      "latitude" : "24.16073",
      "inDis" : "50",
      "routeId" : "藍10",
      "seqNo" : "29"
   },
   {
      "GoBack" : "2",
      "longitude" : "120.63422",
      "outDis" : "50",
      "Id" : "0056",
      "oid" : "318989221",
      "districtId" : "1",
      "nameZh" : "黎明國小",
      "pgp" : "0",
      "terminal" : "0",
      "latitude" : "24.15809",
      "inDis" : "50",
      "routeId" : "藍10",
      "seqNo" : "30"
   },
   {
      "GoBack" : "2",
      "longitude" : "120.6347",
      "outDis" : "50",
      "Id" : "3892",
      "oid" : "318989223",
      "districtId" : "1",
      "nameZh" : "黎明新村(黎明路)",
      "pgp" : "0",
      "terminal" : "0",
      "latitude" : "24.15465",
      "inDis" : "50",
      "routeId" : "藍10",
      "seqNo" : "31"
   },
   {
      "GoBack" : "2",
      "longitude" : "120.63498",
      "outDis" : "50",
      "Id" : "4160",
      "oid" : "318989225",
      "districtId" : "1",
      "nameZh" : "黎明大業路口",
      "pgp" : "0",
      "terminal" : "0",
      "latitude" : "24.15317",
      "inDis" : "50",
      "routeId" : "藍10",
      "seqNo" : "32"
   },
   {
      "GoBack" : "2",
      "longitude" : "120.63534",
      "outDis" : "50",
      "Id" : "0059",
      "oid" : "318989227",
      "districtId" : "1",
      "nameZh" : "黎明公益路口",
      "pgp" : "0",
      "terminal" : "0",
      "latitude" : "24.15102",
      "inDis" : "50",
      "routeId" : "藍10",
      "seqNo" : "33"
   },
   {
      "GoBack" : "2",
      "longitude" : "120.63579",
      "outDis" : "50",
      "Id" : "0060",
      "oid" : "318989229",
      "districtId" : "1",
      "nameZh" : "三厝里",
      "pgp" : "0",
      "terminal" : "0",
      "latitude" : "24.14812",
      "inDis" : "50",
      "routeId" : "藍10",
      "seqNo" : "34"
   },
   {
      "GoBack" : "2",
      "longitude" : "120.63797",
      "outDis" : "50",
      "Id" : "0168",
      "oid" : "318989231",
      "districtId" : "1",
      "nameZh" : "向上河南路口",
      "pgp" : "0",
      "terminal" : "0",
      "latitude" : "24.14708",
      "inDis" : "50",
      "routeId" : "藍10",
      "seqNo" : "35"
   },
   {
      "GoBack" : "2",
      "longitude" : "120.64109",
      "outDis" : "50",
      "Id" : "4601",
      "oid" : "318989233",
      "districtId" : "1",
      "nameZh" : "林新醫院(向上路)",
      "pgp" : "0",
      "terminal" : "0",
      "latitude" : "24.14687",
      "inDis" : "50",
      "routeId" : "藍10",
      "seqNo" : "36"
   },
   {
      "GoBack" : "2",
      "longitude" : "120.64344",
      "outDis" : "50",
      "Id" : "0170",
      "oid" : "318989235",
      "districtId" : "1",
      "nameZh" : "向上惠文路口",
      "pgp" : "0",
      "terminal" : "0",
      "latitude" : "24.14683",
      "inDis" : "50",
      "routeId" : "藍10",
      "seqNo" : "37"
   },
   {
      "GoBack" : "2",
      "longitude" : "120.64762",
      "outDis" : "50",
      "Id" : "5654",
      "oid" : "318989237",
      "districtId" : "1",
      "nameZh" : "文心森林公園(向上路)",
      "pgp" : "0",
      "terminal" : "0",
      "latitude" : "24.14676",
      "inDis" : "50",
      "routeId" : "藍10",
      "seqNo" : "38"
   },
   {
      "GoBack" : "2",
      "longitude" : "120.64923",
      "outDis" : "50",
      "Id" : "0139",
      "oid" : "318989239",
      "districtId" : "1",
      "nameZh" : "向上大墩路口",
      "pgp" : "0",
      "terminal" : "0",
      "latitude" : "24.14679",
      "inDis" : "50",
      "routeId" : "藍10",
      "seqNo" : "39"
   },
   {
      "GoBack" : "2",
      "longitude" : "120.65268",
      "outDis" : "50",
      "Id" : "4554",
      "oid" : "318989241",
      "districtId" : "1",
      "nameZh" : "向上東興路口",
      "pgp" : "0",
      "terminal" : "0",
      "latitude" : "24.14676",
      "inDis" : "50",
      "routeId" : "藍10",
      "seqNo" : "40"
   },
   {
      "GoBack" : "2",
      "longitude" : "120.65302",
      "outDis" : "50",
      "Id" : "0870",
      "oid" : "318989243",
      "districtId" : "1",
      "nameZh" : "萬壽棒球場(東興路)",
      "pgp" : "0",
      "terminal" : "0",
      "latitude" : "24.14551",
      "inDis" : "50",
      "routeId" : "藍10",
      "seqNo" : "41"
   },
   {
      "GoBack" : "2",
      "longitude" : "120.65306",
      "outDis" : "50",
      "Id" : "1368",
      "oid" : "318989245",
      "districtId" : "1",
      "nameZh" : "東興大墩五街口",
      "pgp" : "0",
      "terminal" : "0",
      "latitude" : "24.14245",
      "inDis" : "50",
      "routeId" : "藍10",
      "seqNo" : "42"
   },
   {
      "GoBack" : "2",
      "longitude" : "120.65303",
      "outDis" : "50",
      "Id" : "1367",
      "oid" : "318989247",
      "districtId" : "1",
      "nameZh" : "東興大墩二街口",
      "pgp" : "0",
      "terminal" : "0",
      "latitude" : "24.1388",
      "inDis" : "50",
      "routeId" : "藍10",
      "seqNo" : "43"
   },
   {
      "GoBack" : "2",
      "longitude" : "120.65308",
      "outDis" : "50",
      "Id" : "0664",
      "oid" : "318989249",
      "districtId" : "1",
      "nameZh" : "東興南屯路口",
      "pgp" : "0",
      "terminal" : "0",
      "latitude" : "24.13622",
      "inDis" : "50",
      "routeId" : "藍10",
      "seqNo" : "44"
   },
   {
      "GoBack" : "2",
      "longitude" : "120.65312",
      "outDis" : "50",
      "Id" : "4029",
      "oid" : "318989251",
      "districtId" : "1",
      "nameZh" : "愛心家園",
      "pgp" : "0",
      "terminal" : "0",
      "latitude" : "24.13231",
      "inDis" : "50",
      "routeId" : "藍10",
      "seqNo" : "45"
   },
   {
      "GoBack" : "2",
      "longitude" : "120.6511",
      "outDis" : "50",
      "Id" : "4970",
      "oid" : "318989253",
      "districtId" : "1",
      "nameZh" : "文心南五路260巷口",
      "pgp" : "0",
      "terminal" : "0",
      "latitude" : "24.13208",
      "inDis" : "50",
      "routeId" : "藍10",
      "seqNo" : "46"
   },
   {
      "GoBack" : "2",
      "longitude" : "120.64853",
      "outDis" : "50",
      "Id" : "4030",
      "oid" : "318989255",
      "districtId" : "1",
      "nameZh" : "好市多",
      "pgp" : "0",
      "terminal" : "0",
      "latitude" : "24.13201",
      "inDis" : "50",
      "routeId" : "藍10",
      "seqNo" : "47"
   },
   {
      "GoBack" : "2",
      "longitude" : "120.64634",
      "outDis" : "50",
      "Id" : "0026",
      "oid" : "318989257",
      "districtId" : "1",
      "nameZh" : "豐樂公園",
      "pgp" : "0",
      "terminal" : "0",
      "latitude" : "24.13032",
      "inDis" : "50",
      "routeId" : "藍10",
      "seqNo" : "48"
   },
   {
      "GoBack" : "2",
      "longitude" : "120.64848",
      "outDis" : "50",
      "Id" : "4034",
      "oid" : "318989261",
      "districtId" : "1",
      "nameZh" : "中山醫學大學",
      "pgp" : "0",
      "terminal" : "0",
      "latitude" : "24.12297",
      "inDis" : "50",
      "routeId" : "藍10",
      "seqNo" : "50"
   },
   {
      "GoBack" : "2",
      "longitude" : "120.64786",
      "outDis" : "50",
      "Id" : "4032",
      "oid" : "318989263",
      "districtId" : "1",
      "nameZh" : "大慶火車站",
      "pgp" : "0",
      "terminal" : "0",
      "latitude" : "24.11912",
      "inDis" : "50",
      "routeId" : "藍10",
      "seqNo" : "51"
   }
]
