[
   {
      "GoBack" : "1",
      "longitude" : "120.61757",
      "outDis" : "100",
      "Id" : "2907",
      "oid" : "10645",
      "districtId" : "1",
      "nameZh" : "高鐵臺中站",
      "pgp" : "0",
      "terminal" : "0",
      "latitude" : "24.11969",
      "inDis" : "100",
      "routeId" : "160",
      "seqNo" : "3"
   },
   {
      "GoBack" : "1",
      "longitude" : "120.62327",
      "outDis" : "100",
      "Id" : "4337",
      "oid" : "302727319",
      "districtId" : "1",
      "nameZh" : "環中向上路口",
      "pgp" : "0",
      "terminal" : "0",
      "latitude" : "24.14395",
      "inDis" : "100",
      "routeId" : "160",
      "seqNo" : "8"
   },
   {
      "GoBack" : "1",
      "longitude" : "120.63473",
      "outDis" : "50",
      "Id" : "4994",
      "oid" : "309402678",
      "districtId" : "1",
      "nameZh" : "向上永春東七路口",
      "pgp" : "0",
      "terminal" : "0",
      "latitude" : "24.14634",
      "inDis" : "50",
      "routeId" : "160",
      "seqNo" : "11"
   },
   {
      "GoBack" : "1",
      "longitude" : "120.6347",
      "outDis" : "50",
      "Id" : "3892",
      "oid" : "10667",
      "districtId" : "1",
      "nameZh" : "黎明新村(黎明路)",
      "pgp" : "0",
      "terminal" : "0",
      "latitude" : "24.15475",
      "inDis" : "50",
      "routeId" : "160",
      "seqNo" : "13"
   },
   {
      "GoBack" : "1",
      "longitude" : "120.63804",
      "outDis" : "50",
      "Id" : "3059",
      "oid" : "30670191484F4700825D064225592A96",
      "districtId" : "1",
      "nameZh" : "朝馬轉運站(朝富路)",
      "pgp" : "0",
      "terminal" : "0",
      "latitude" : "24.16725",
      "inDis" : "50",
      "routeId" : "160",
      "seqNo" : "16"
   },
   {
      "GoBack" : "1",
      "longitude" : "120.64376",
      "outDis" : "50",
      "Id" : "0237",
      "oid" : "300985695",
      "districtId" : "1",
      "nameZh" : "青海路口",
      "pgp" : "0",
      "terminal" : "0",
      "latitude" : "24.17087",
      "inDis" : "50",
      "routeId" : "160",
      "seqNo" : "20"
   },
   {
      "GoBack" : "1",
      "longitude" : "120.64503",
      "outDis" : "50",
      "Id" : "4586",
      "oid" : "10652",
      "districtId" : "1",
      "nameZh" : "逢甲大學(福星路)",
      "pgp" : "0",
      "terminal" : "0",
      "latitude" : "24.1794",
      "inDis" : "50",
      "routeId" : "160",
      "seqNo" : "24"
   },
   {
      "GoBack" : "1",
      "longitude" : "120.64438",
      "outDis" : "100",
      "Id" : "4327",
      "oid" : "10658",
      "districtId" : "1",
      "nameZh" : "僑光科技大學",
      "pgp" : "0",
      "terminal" : "0",
      "latitude" : "24.18634",
      "inDis" : "100",
      "routeId" : "160",
      "seqNo" : "26"
   },
   {
      "GoBack" : "1",
      "longitude" : "120.64166",
      "outDis" : "50",
      "Id" : "5409",
      "oid" : "313222698",
      "districtId" : "1",
      "nameZh" : "文修停車場",
      "pgp" : "0",
      "terminal" : "0",
      "latitude" : "24.18505",
      "inDis" : "50",
      "routeId" : "160",
      "seqNo" : "27"
   },
   {
      "GoBack" : "2",
      "longitude" : "120.64166",
      "outDis" : "50",
      "Id" : "5409",
      "oid" : "313222698",
      "districtId" : "1",
      "nameZh" : "文修停車場",
      "pgp" : "0",
      "terminal" : "0",
      "latitude" : "24.18505",
      "inDis" : "50",
      "routeId" : "160",
      "seqNo" : "1"
   },
   {
      "GoBack" : "2",
      "longitude" : "120.64436",
      "outDis" : "50",
      "Id" : "4327",
      "oid" : "10657",
      "districtId" : "1",
      "nameZh" : "僑光科技大學",
      "pgp" : "0",
      "terminal" : "0",
      "latitude" : "24.1864",
      "inDis" : "50",
      "routeId" : "160",
      "seqNo" : "2"
   },
   {
      "GoBack" : "2",
      "longitude" : "120.64525",
      "outDis" : "50",
      "Id" : "4586",
      "oid" : "10653",
      "districtId" : "1",
      "nameZh" : "逢甲大學(福星路)",
      "pgp" : "0",
      "terminal" : "0",
      "latitude" : "24.17928",
      "inDis" : "50",
      "routeId" : "160",
      "seqNo" : "4"
   },
   {
      "GoBack" : "2",
      "longitude" : "120.64361",
      "outDis" : "50",
      "Id" : "0237",
      "oid" : "300985696",
      "districtId" : "1",
      "nameZh" : "青海路口",
      "pgp" : "0",
      "terminal" : "0",
      "latitude" : "24.17066",
      "inDis" : "50",
      "routeId" : "160",
      "seqNo" : "8"
   },
   {
      "GoBack" : "2",
      "longitude" : "120.63755",
      "outDis" : "50",
      "Id" : "0012",
      "oid" : "313599269",
      "districtId" : "1",
      "nameZh" : "朝馬轉運站",
      "pgp" : "0",
      "terminal" : "0",
      "latitude" : "24.16821",
      "inDis" : "50",
      "routeId" : "160",
      "seqNo" : "12"
   },
   {
      "GoBack" : "2",
      "longitude" : "120.63458",
      "outDis" : "50",
      "Id" : "3892",
      "oid" : "10666",
      "districtId" : "1",
      "nameZh" : "黎明新村(黎明路)",
      "pgp" : "0",
      "terminal" : "0",
      "latitude" : "24.15475",
      "inDis" : "50",
      "routeId" : "160",
      "seqNo" : "17"
   },
   {
      "GoBack" : "2",
      "longitude" : "120.63473",
      "outDis" : "50",
      "Id" : "4994",
      "oid" : "309402678",
      "districtId" : "1",
      "nameZh" : "向上永春東七路口",
      "pgp" : "0",
      "terminal" : "0",
      "latitude" : "24.14634",
      "inDis" : "50",
      "routeId" : "160",
      "seqNo" : "20"
   },
   {
      "GoBack" : "2",
      "longitude" : "120.62327",
      "outDis" : "100",
      "Id" : "4337",
      "oid" : "302727319",
      "districtId" : "1",
      "nameZh" : "環中向上路口",
      "pgp" : "0",
      "terminal" : "0",
      "latitude" : "24.14395",
      "inDis" : "100",
      "routeId" : "160",
      "seqNo" : "24"
   },
   {
      "GoBack" : "2",
      "longitude" : "120.61757",
      "outDis" : "200",
      "Id" : "2907",
      "oid" : "10647",
      "districtId" : "1",
      "nameZh" : "高鐵臺中站",
      "pgp" : "0",
      "terminal" : "0",
      "latitude" : "24.11969",
      "inDis" : "200",
      "routeId" : "160",
      "seqNo" : "29"
   }
]
