[
   {
      "GoBack" : "1",
      "longitude" : "120.64759",
      "outDis" : "50",
      "Id" : "0019",
      "oid" : "599B953749374273BACF21BB110728F2",
      "districtId" : "1",
      "nameZh" : "市警局",
      "pgp" : "0",
      "terminal" : "0",
      "latitude" : "24.15935",
      "inDis" : "50",
      "routeId" : "151",
      "seqNo" : "1"
   },
   {
      "GoBack" : "1",
      "longitude" : "120.64692",
      "outDis" : "50",
      "Id" : "0017",
      "oid" : "15008",
      "districtId" : "1",
      "nameZh" : "臺中市政府",
      "pgp" : "0",
      "terminal" : "0",
      "latitude" : "24.16435",
      "inDis" : "50",
      "routeId" : "151",
      "seqNo" : "2"
   },
   {
      "GoBack" : "1",
      "longitude" : "120.64418",
      "outDis" : "50",
      "Id" : "0016",
      "oid" : "15009",
      "districtId" : "1",
      "nameZh" : "新光三越",
      "pgp" : "0",
      "terminal" : "0",
      "latitude" : "24.1658",
      "inDis" : "50",
      "routeId" : "151",
      "seqNo" : "3"
   },
   {
      "GoBack" : "1",
      "longitude" : "120.63968",
      "outDis" : "50",
      "Id" : "0826",
      "oid" : "15011",
      "districtId" : "1",
      "nameZh" : "秋紅谷(朝陽橋)",
      "pgp" : "0",
      "terminal" : "0",
      "latitude" : "24.16892",
      "inDis" : "50",
      "routeId" : "151",
      "seqNo" : "4"
   },
   {
      "GoBack" : "1",
      "longitude" : "120.63717",
      "outDis" : "50",
      "Id" : "0054",
      "oid" : "313524993",
      "districtId" : "1",
      "nameZh" : "朝馬(臺灣大道)",
      "pgp" : "0",
      "terminal" : "0",
      "latitude" : "24.17059",
      "inDis" : "50",
      "routeId" : "151",
      "seqNo" : "5"
   },
   {
      "GoBack" : "1",
      "longitude" : "120.61552",
      "outDis" : "150",
      "Id" : "5486",
      "oid" : "318644616",
      "districtId" : "1",
      "nameZh" : "高鐵臺中站(14月台)",
      "pgp" : "0",
      "terminal" : "0",
      "latitude" : "24.11184",
      "inDis" : "150",
      "routeId" : "151",
      "seqNo" : "13"
   },
   {
      "GoBack" : "1",
      "longitude" : "120.69721",
      "outDis" : "50",
      "Id" : "2692",
      "oid" : "7176",
      "districtId" : "1",
      "nameZh" : "省議會",
      "pgp" : "0",
      "terminal" : "0",
      "latitude" : "24.05548",
      "inDis" : "50",
      "routeId" : "151",
      "seqNo" : "24"
   },
   {
      "GoBack" : "1",
      "longitude" : "120.69793",
      "outDis" : "50",
      "Id" : "3976",
      "oid" : "7630",
      "districtId" : "1",
      "nameZh" : "霧峰國小",
      "pgp" : "0",
      "terminal" : "0",
      "latitude" : "24.05764",
      "inDis" : "50",
      "routeId" : "151",
      "seqNo" : "25"
   },
   {
      "GoBack" : "1",
      "longitude" : "120.69807",
      "outDis" : "50",
      "Id" : "5546",
      "oid" : "316462698",
      "districtId" : "1",
      "nameZh" : "教育部國教署",
      "pgp" : "0",
      "terminal" : "0",
      "latitude" : "24.05974",
      "inDis" : "50",
      "routeId" : "151",
      "seqNo" : "26"
   },
   {
      "GoBack" : "1",
      "longitude" : "120.69847",
      "outDis" : "50",
      "Id" : "3978",
      "oid" : "10370",
      "districtId" : "1",
      "nameZh" : "霧峰郵局",
      "pgp" : "0",
      "terminal" : "0",
      "latitude" : "24.06252",
      "inDis" : "50",
      "routeId" : "151",
      "seqNo" : "27"
   },
   {
      "GoBack" : "1",
      "longitude" : "120.69867",
      "outDis" : "50",
      "Id" : "3972",
      "oid" : "7626",
      "districtId" : "1",
      "nameZh" : "霧峰",
      "pgp" : "0",
      "terminal" : "0",
      "latitude" : "24.0641",
      "inDis" : "50",
      "routeId" : "151",
      "seqNo" : "28"
   },
   {
      "GoBack" : "1",
      "longitude" : "120.6989",
      "outDis" : "50",
      "Id" : "4972",
      "oid" : "7027",
      "districtId" : "1",
      "nameZh" : "中正草湖路口",
      "pgp" : "0",
      "terminal" : "0",
      "latitude" : "24.067",
      "inDis" : "50",
      "routeId" : "151",
      "seqNo" : "29"
   },
   {
      "GoBack" : "1",
      "longitude" : "120.69928",
      "outDis" : "50",
      "Id" : "1994",
      "oid" : "311784445",
      "districtId" : "1",
      "nameZh" : "甲寅",
      "pgp" : "0",
      "terminal" : "0",
      "latitude" : "24.0697",
      "inDis" : "50",
      "routeId" : "151",
      "seqNo" : "30"
   },
   {
      "GoBack" : "1",
      "longitude" : "120.69986",
      "outDis" : "50",
      "Id" : "3980",
      "oid" : "7632",
      "districtId" : "1",
      "nameZh" : "霧峰農工",
      "pgp" : "0",
      "terminal" : "0",
      "latitude" : "24.07332",
      "inDis" : "50",
      "routeId" : "151",
      "seqNo" : "31"
   },
   {
      "GoBack" : "1",
      "longitude" : "120.69952",
      "outDis" : "50",
      "Id" : "2062",
      "oid" : "7066",
      "districtId" : "1",
      "nameZh" : "中正吉峰路口",
      "pgp" : "0",
      "terminal" : "0",
      "latitude" : "24.07654",
      "inDis" : "50",
      "routeId" : "151",
      "seqNo" : "32"
   },
   {
      "GoBack" : "1",
      "longitude" : "120.69827",
      "outDis" : "50",
      "Id" : "4349",
      "oid" : "7386",
      "districtId" : "1",
      "nameZh" : "中興東南路口",
      "pgp" : "0",
      "terminal" : "0",
      "latitude" : "24.08061",
      "inDis" : "50",
      "routeId" : "151",
      "seqNo" : "33"
   },
   {
      "GoBack" : "1",
      "longitude" : "120.69707",
      "outDis" : "50",
      "Id" : "2866",
      "oid" : "7383",
      "districtId" : "1",
      "nameZh" : "草湖",
      "pgp" : "0",
      "terminal" : "0",
      "latitude" : "24.08409",
      "inDis" : "50",
      "routeId" : "151",
      "seqNo" : "34"
   },
   {
      "GoBack" : "1",
      "longitude" : "120.69635",
      "outDis" : "50",
      "Id" : "5034",
      "oid" : "309557183",
      "districtId" : "1",
      "nameZh" : "財政部印刷廠",
      "pgp" : "0",
      "terminal" : "0",
      "latitude" : "24.08663",
      "inDis" : "50",
      "routeId" : "151",
      "seqNo" : "35"
   },
   {
      "GoBack" : "1",
      "longitude" : "120.69536",
      "outDis" : "50",
      "Id" : "4253",
      "oid" : "13072",
      "districtId" : "1",
      "nameZh" : "大里圖書館(中興路)",
      "pgp" : "0",
      "terminal" : "0",
      "latitude" : "24.08867",
      "inDis" : "50",
      "routeId" : "151",
      "seqNo" : "36"
   },
   {
      "GoBack" : "1",
      "longitude" : "120.69371",
      "outDis" : "50",
      "Id" : "4286",
      "oid" : "7143",
      "districtId" : "1",
      "nameZh" : "青年高中",
      "pgp" : "0",
      "terminal" : "0",
      "latitude" : "24.08994",
      "inDis" : "50",
      "routeId" : "151",
      "seqNo" : "37"
   },
   {
      "GoBack" : "1",
      "longitude" : "120.69146",
      "outDis" : "50",
      "Id" : "4661",
      "oid" : "7291",
      "districtId" : "1",
      "nameZh" : "中興仁化路口",
      "pgp" : "0",
      "terminal" : "0",
      "latitude" : "24.09192",
      "inDis" : "50",
      "routeId" : "151",
      "seqNo" : "38"
   },
   {
      "GoBack" : "1",
      "longitude" : "120.68528",
      "outDis" : "50",
      "Id" : "4291",
      "oid" : "13203",
      "districtId" : "1",
      "nameZh" : "國光中興路口",
      "pgp" : "0",
      "terminal" : "0",
      "latitude" : "24.09675",
      "inDis" : "50",
      "routeId" : "151",
      "seqNo" : "39"
   },
   {
      "GoBack" : "1",
      "longitude" : "120.68268",
      "outDis" : "50",
      "Id" : "4254",
      "oid" : "310175396",
      "districtId" : "1",
      "nameZh" : "大里運動公園",
      "pgp" : "0",
      "terminal" : "0",
      "latitude" : "24.10003",
      "inDis" : "50",
      "routeId" : "151",
      "seqNo" : "40"
   },
   {
      "GoBack" : "1",
      "longitude" : "120.6863",
      "outDis" : "50",
      "Id" : "5616",
      "oid" : "317119960",
      "districtId" : "1",
      "nameZh" : "兒童藝術館(勝利二路)",
      "pgp" : "0",
      "terminal" : "0",
      "latitude" : "24.1004",
      "inDis" : "50",
      "routeId" : "151",
      "seqNo" : "41"
   },
   {
      "GoBack" : "2",
      "longitude" : "120.6879",
      "outDis" : "50",
      "Id" : "5151",
      "oid" : "12581",
      "districtId" : "1",
      "nameZh" : "兒童藝術館(中興路)",
      "pgp" : "0",
      "terminal" : "0",
      "latitude" : "24.10002",
      "inDis" : "50",
      "routeId" : "151",
      "seqNo" : "1"
   },
   {
      "GoBack" : "2",
      "longitude" : "120.68694",
      "outDis" : "50",
      "Id" : "1322",
      "oid" : "309974047",
      "districtId" : "1",
      "nameZh" : "大突寮(中興路)",
      "pgp" : "0",
      "terminal" : "0",
      "latitude" : "24.09735",
      "inDis" : "50",
      "routeId" : "151",
      "seqNo" : "2"
   },
   {
      "GoBack" : "2",
      "longitude" : "120.69146",
      "outDis" : "50",
      "Id" : "4661",
      "oid" : "7291",
      "districtId" : "1",
      "nameZh" : "中興仁化路口",
      "pgp" : "0",
      "terminal" : "0",
      "latitude" : "24.09192",
      "inDis" : "50",
      "routeId" : "151",
      "seqNo" : "3"
   },
   {
      "GoBack" : "2",
      "longitude" : "120.69371",
      "outDis" : "50",
      "Id" : "4286",
      "oid" : "7143",
      "districtId" : "1",
      "nameZh" : "青年高中",
      "pgp" : "0",
      "terminal" : "0",
      "latitude" : "24.08994",
      "inDis" : "50",
      "routeId" : "151",
      "seqNo" : "4"
   },
   {
      "GoBack" : "2",
      "longitude" : "120.69593",
      "outDis" : "50",
      "Id" : "4253",
      "oid" : "13071",
      "districtId" : "1",
      "nameZh" : "大里圖書館(中興路)",
      "pgp" : "0",
      "terminal" : "0",
      "latitude" : "24.08743",
      "inDis" : "50",
      "routeId" : "151",
      "seqNo" : "5"
   },
   {
      "GoBack" : "2",
      "longitude" : "120.69707",
      "outDis" : "50",
      "Id" : "2866",
      "oid" : "7383",
      "districtId" : "1",
      "nameZh" : "草湖",
      "pgp" : "0",
      "terminal" : "0",
      "latitude" : "24.08409",
      "inDis" : "50",
      "routeId" : "151",
      "seqNo" : "6"
   },
   {
      "GoBack" : "2",
      "longitude" : "120.69827",
      "outDis" : "50",
      "Id" : "4349",
      "oid" : "7386",
      "districtId" : "1",
      "nameZh" : "中興東南路口",
      "pgp" : "0",
      "terminal" : "0",
      "latitude" : "24.08061",
      "inDis" : "50",
      "routeId" : "151",
      "seqNo" : "7"
   },
   {
      "GoBack" : "2",
      "longitude" : "120.69952",
      "outDis" : "50",
      "Id" : "2062",
      "oid" : "7066",
      "districtId" : "1",
      "nameZh" : "中正吉峰路口",
      "pgp" : "0",
      "terminal" : "0",
      "latitude" : "24.07654",
      "inDis" : "50",
      "routeId" : "151",
      "seqNo" : "8"
   },
   {
      "GoBack" : "2",
      "longitude" : "120.69986",
      "outDis" : "50",
      "Id" : "3980",
      "oid" : "7632",
      "districtId" : "1",
      "nameZh" : "霧峰農工",
      "pgp" : "0",
      "terminal" : "0",
      "latitude" : "24.07332",
      "inDis" : "50",
      "routeId" : "151",
      "seqNo" : "9"
   },
   {
      "GoBack" : "2",
      "longitude" : "120.69928",
      "outDis" : "50",
      "Id" : "1994",
      "oid" : "311784445",
      "districtId" : "1",
      "nameZh" : "甲寅",
      "pgp" : "0",
      "terminal" : "0",
      "latitude" : "24.0697",
      "inDis" : "50",
      "routeId" : "151",
      "seqNo" : "10"
   },
   {
      "GoBack" : "2",
      "longitude" : "120.6989",
      "outDis" : "50",
      "Id" : "4972",
      "oid" : "7027",
      "districtId" : "1",
      "nameZh" : "中正草湖路口",
      "pgp" : "0",
      "terminal" : "0",
      "latitude" : "24.067",
      "inDis" : "50",
      "routeId" : "151",
      "seqNo" : "11"
   },
   {
      "GoBack" : "2",
      "longitude" : "120.69867",
      "outDis" : "50",
      "Id" : "3972",
      "oid" : "7626",
      "districtId" : "1",
      "nameZh" : "霧峰",
      "pgp" : "0",
      "terminal" : "0",
      "latitude" : "24.0641",
      "inDis" : "50",
      "routeId" : "151",
      "seqNo" : "12"
   },
   {
      "GoBack" : "2",
      "longitude" : "120.69847",
      "outDis" : "50",
      "Id" : "3978",
      "oid" : "10370",
      "districtId" : "1",
      "nameZh" : "霧峰郵局",
      "pgp" : "0",
      "terminal" : "0",
      "latitude" : "24.06252",
      "inDis" : "50",
      "routeId" : "151",
      "seqNo" : "13"
   },
   {
      "GoBack" : "2",
      "longitude" : "120.69807",
      "outDis" : "50",
      "Id" : "5546",
      "oid" : "316462698",
      "districtId" : "1",
      "nameZh" : "教育部國教署",
      "pgp" : "0",
      "terminal" : "0",
      "latitude" : "24.05974",
      "inDis" : "50",
      "routeId" : "151",
      "seqNo" : "14"
   },
   {
      "GoBack" : "2",
      "longitude" : "120.69793",
      "outDis" : "50",
      "Id" : "3976",
      "oid" : "7630",
      "districtId" : "1",
      "nameZh" : "霧峰國小",
      "pgp" : "0",
      "terminal" : "0",
      "latitude" : "24.05764",
      "inDis" : "50",
      "routeId" : "151",
      "seqNo" : "15"
   },
   {
      "GoBack" : "2",
      "longitude" : "120.69721",
      "outDis" : "50",
      "Id" : "2692",
      "oid" : "7176",
      "districtId" : "1",
      "nameZh" : "省議會",
      "pgp" : "0",
      "terminal" : "0",
      "latitude" : "24.05548",
      "inDis" : "50",
      "routeId" : "151",
      "seqNo" : "16"
   },
   {
      "GoBack" : "2",
      "longitude" : "120.61552",
      "outDis" : "1400",
      "Id" : "2908",
      "oid" : "318644617",
      "districtId" : "1",
      "nameZh" : "高鐵臺中站(16月台)",
      "pgp" : "0",
      "terminal" : "0",
      "latitude" : "24.11184",
      "inDis" : "300",
      "routeId" : "151",
      "seqNo" : "29"
   },
   {
      "GoBack" : "2",
      "longitude" : "120.63717",
      "outDis" : "50",
      "Id" : "0054",
      "oid" : "313524993",
      "districtId" : "1",
      "nameZh" : "朝馬(臺灣大道)",
      "pgp" : "0",
      "terminal" : "0",
      "latitude" : "24.17059",
      "inDis" : "50",
      "routeId" : "151",
      "seqNo" : "35"
   },
   {
      "GoBack" : "2",
      "longitude" : "120.63957",
      "outDis" : "50",
      "Id" : "0826",
      "oid" : "15002",
      "districtId" : "1",
      "nameZh" : "秋紅谷(朝陽橋)",
      "pgp" : "0",
      "terminal" : "0",
      "latitude" : "24.16852",
      "inDis" : "50",
      "routeId" : "151",
      "seqNo" : "36"
   },
   {
      "GoBack" : "2",
      "longitude" : "120.64431",
      "outDis" : "50",
      "Id" : "0016",
      "oid" : "15004",
      "districtId" : "1",
      "nameZh" : "新光三越",
      "pgp" : "0",
      "terminal" : "0",
      "latitude" : "24.16537",
      "inDis" : "50",
      "routeId" : "151",
      "seqNo" : "37"
   },
   {
      "GoBack" : "2",
      "longitude" : "120.64738",
      "outDis" : "50",
      "Id" : "0017",
      "oid" : "15005",
      "districtId" : "1",
      "nameZh" : "臺中市政府",
      "pgp" : "0",
      "terminal" : "0",
      "latitude" : "24.16364",
      "inDis" : "50",
      "routeId" : "151",
      "seqNo" : "38"
   },
   {
      "GoBack" : "2",
      "longitude" : "120.64759",
      "outDis" : "50",
      "Id" : "0019",
      "oid" : "599B953749374273BACF21BB110728F2",
      "districtId" : "1",
      "nameZh" : "市警局",
      "pgp" : "0",
      "terminal" : "0",
      "latitude" : "24.15935",
      "inDis" : "50",
      "routeId" : "151",
      "seqNo" : "39"
   }
]
