[
   {
      "GoBack" : "1",
      "longitude" : "120.72154",
      "outDis" : "70",
      "Id" : "3935",
      "oid" : "6693",
      "districtId" : "1",
      "nameZh" : "豐原",
      "pgp" : "0",
      "terminal" : "0",
      "latitude" : "24.2538",
      "inDis" : "70",
      "routeId" : "227",
      "seqNo" : "1"
   },
   {
      "GoBack" : "1",
      "longitude" : "120.71612",
      "outDis" : "50",
      "Id" : "2097",
      "oid" : "5712",
      "districtId" : "1",
      "nameZh" : "圳寮口",
      "pgp" : "0",
      "terminal" : "0",
      "latitude" : "24.25276",
      "inDis" : "50",
      "routeId" : "227",
      "seqNo" : "2"
   },
   {
      "GoBack" : "1",
      "longitude" : "120.71526",
      "outDis" : "50",
      "Id" : "3939",
      "oid" : "6698",
      "districtId" : "1",
      "nameZh" : "豐原郵局",
      "pgp" : "0",
      "terminal" : "0",
      "latitude" : "24.25136",
      "inDis" : "50",
      "routeId" : "227",
      "seqNo" : "3"
   },
   {
      "GoBack" : "1",
      "longitude" : "120.71851",
      "outDis" : "50",
      "Id" : "3343",
      "oid" : "6397",
      "districtId" : "1",
      "nameZh" : "媽祖廟",
      "pgp" : "0",
      "terminal" : "0",
      "latitude" : "24.25157",
      "inDis" : "50",
      "routeId" : "227",
      "seqNo" : "4"
   },
   {
      "GoBack" : "1",
      "longitude" : "120.72365",
      "outDis" : "50",
      "Id" : "4203",
      "oid" : "6448",
      "districtId" : "1",
      "nameZh" : "新都酒店",
      "pgp" : "0",
      "terminal" : "0",
      "latitude" : "24.25229",
      "inDis" : "50",
      "routeId" : "227",
      "seqNo" : "5"
   },
   {
      "GoBack" : "1",
      "longitude" : "120.72414",
      "outDis" : "50",
      "Id" : "3238",
      "oid" : "6341",
      "districtId" : "1",
      "nameZh" : "惠陽中陽路口",
      "pgp" : "0",
      "terminal" : "0",
      "latitude" : "24.25075",
      "inDis" : "50",
      "routeId" : "227",
      "seqNo" : "6"
   },
   {
      "GoBack" : "1",
      "longitude" : "120.7227",
      "outDis" : "50",
      "Id" : "2607",
      "oid" : "6007",
      "districtId" : "1",
      "nameZh" : "南陽國小",
      "pgp" : "0",
      "terminal" : "0",
      "latitude" : "24.24911",
      "inDis" : "50",
      "routeId" : "227",
      "seqNo" : "7"
   },
   {
      "GoBack" : "1",
      "longitude" : "120.72343",
      "outDis" : "50",
      "Id" : "2269",
      "oid" : "5804",
      "districtId" : "1",
      "nameZh" : "育樂新村",
      "pgp" : "0",
      "terminal" : "0",
      "latitude" : "24.24764",
      "inDis" : "50",
      "routeId" : "227",
      "seqNo" : "8"
   },
   {
      "GoBack" : "1",
      "longitude" : "120.72278",
      "outDis" : "50",
      "Id" : "5142",
      "oid" : "6629",
      "districtId" : "1",
      "nameZh" : "陽明自強南街口",
      "pgp" : "0",
      "terminal" : "0",
      "latitude" : "24.24603",
      "inDis" : "50",
      "routeId" : "227",
      "seqNo" : "9"
   },
   {
      "GoBack" : "1",
      "longitude" : "120.7254",
      "outDis" : "50",
      "Id" : "4966",
      "oid" : "308875007",
      "districtId" : "1",
      "nameZh" : "豐原醫院",
      "pgp" : "0",
      "terminal" : "0",
      "latitude" : "24.24326",
      "inDis" : "50",
      "routeId" : "227",
      "seqNo" : "10"
   },
   {
      "GoBack" : "1",
      "longitude" : "120.72749",
      "outDis" : "50",
      "Id" : "1946",
      "oid" : "5618",
      "districtId" : "1",
      "nameZh" : "永康南陽路口",
      "pgp" : "0",
      "terminal" : "0",
      "latitude" : "24.24384",
      "inDis" : "50",
      "routeId" : "227",
      "seqNo" : "11"
   },
   {
      "GoBack" : "1",
      "longitude" : "120.72918",
      "outDis" : "50",
      "Id" : "1611",
      "oid" : "5418",
      "districtId" : "1",
      "nameZh" : "廣福宮",
      "pgp" : "0",
      "terminal" : "0",
      "latitude" : "24.24407",
      "inDis" : "50",
      "routeId" : "227",
      "seqNo" : "12"
   },
   {
      "GoBack" : "1",
      "longitude" : "120.73049",
      "outDis" : "50",
      "Id" : "2610",
      "oid" : "6010",
      "districtId" : "1",
      "nameZh" : "南陽橋",
      "pgp" : "0",
      "terminal" : "0",
      "latitude" : "24.24258",
      "inDis" : "50",
      "routeId" : "227",
      "seqNo" : "13"
   },
   {
      "GoBack" : "1",
      "longitude" : "120.73244",
      "outDis" : "50",
      "Id" : "1524",
      "oid" : "5364",
      "districtId" : "1",
      "nameZh" : "南陽綠山巷口",
      "pgp" : "0",
      "terminal" : "0",
      "latitude" : "24.24185",
      "inDis" : "50",
      "routeId" : "227",
      "seqNo" : "14"
   },
   {
      "GoBack" : "1",
      "longitude" : "120.73512",
      "outDis" : "100",
      "Id" : "5593",
      "oid" : "88893385",
      "districtId" : "1",
      "nameZh" : "福陽國小",
      "pgp" : "0",
      "terminal" : "0",
      "latitude" : "24.24168",
      "inDis" : "100",
      "routeId" : "227",
      "seqNo" : "15"
   },
   {
      "GoBack" : "1",
      "longitude" : "120.73307",
      "outDis" : "50",
      "Id" : "3687",
      "oid" : "6576",
      "districtId" : "1",
      "nameZh" : "綠山莊口",
      "pgp" : "0",
      "terminal" : "0",
      "latitude" : "24.24059",
      "inDis" : "50",
      "routeId" : "227",
      "seqNo" : "16"
   },
   {
      "GoBack" : "1",
      "longitude" : "120.73458",
      "outDis" : "50",
      "Id" : "2471",
      "oid" : "5930",
      "districtId" : "1",
      "nameZh" : "武明山",
      "pgp" : "0",
      "terminal" : "0",
      "latitude" : "24.23797",
      "inDis" : "50",
      "routeId" : "227",
      "seqNo" : "17"
   },
   {
      "GoBack" : "1",
      "longitude" : "120.73504",
      "outDis" : "50",
      "Id" : "2283",
      "oid" : "5812",
      "districtId" : "1",
      "nameZh" : "車程",
      "pgp" : "0",
      "terminal" : "0",
      "latitude" : "24.23681",
      "inDis" : "50",
      "routeId" : "227",
      "seqNo" : "18"
   },
   {
      "GoBack" : "1",
      "longitude" : "120.73683",
      "outDis" : "50",
      "Id" : "2427",
      "oid" : "5897",
      "districtId" : "1",
      "nameZh" : "東陽橋",
      "pgp" : "0",
      "terminal" : "0",
      "latitude" : "24.23593",
      "inDis" : "50",
      "routeId" : "227",
      "seqNo" : "19"
   },
   {
      "GoBack" : "1",
      "longitude" : "120.73833",
      "outDis" : "50",
      "Id" : "2076",
      "oid" : "5701",
      "districtId" : "1",
      "nameZh" : "吊橋頭",
      "pgp" : "0",
      "terminal" : "0",
      "latitude" : "24.23515",
      "inDis" : "50",
      "routeId" : "227",
      "seqNo" : "20"
   },
   {
      "GoBack" : "1",
      "longitude" : "120.73971",
      "outDis" : "50",
      "Id" : "3987",
      "oid" : "6729",
      "districtId" : "1",
      "nameZh" : "寶泉犬舍",
      "pgp" : "0",
      "terminal" : "0",
      "latitude" : "24.23689",
      "inDis" : "50",
      "routeId" : "227",
      "seqNo" : "21"
   },
   {
      "GoBack" : "1",
      "longitude" : "120.74192",
      "outDis" : "50",
      "Id" : "1013",
      "oid" : "5036",
      "districtId" : "1",
      "nameZh" : "二號橋",
      "pgp" : "0",
      "terminal" : "0",
      "latitude" : "24.23622",
      "inDis" : "50",
      "routeId" : "227",
      "seqNo" : "22"
   },
   {
      "GoBack" : "1",
      "longitude" : "120.74395",
      "outDis" : "50",
      "Id" : "2675",
      "oid" : "6035",
      "districtId" : "1",
      "nameZh" : "活動中心",
      "pgp" : "0",
      "terminal" : "0",
      "latitude" : "24.23456",
      "inDis" : "50",
      "routeId" : "227",
      "seqNo" : "23"
   },
   {
      "GoBack" : "1",
      "longitude" : "120.74662",
      "outDis" : "50",
      "Id" : "3695",
      "oid" : "6583",
      "districtId" : "1",
      "nameZh" : "豪傑山莊",
      "pgp" : "0",
      "terminal" : "0",
      "latitude" : "24.23398",
      "inDis" : "50",
      "routeId" : "227",
      "seqNo" : "24"
   },
   {
      "GoBack" : "1",
      "longitude" : "120.74757",
      "outDis" : "50",
      "Id" : "2259",
      "oid" : "5798",
      "districtId" : "1",
      "nameZh" : "東陽泉洲巷口",
      "pgp" : "0",
      "terminal" : "0",
      "latitude" : "24.23319",
      "inDis" : "50",
      "routeId" : "227",
      "seqNo" : "25"
   },
   {
      "GoBack" : "1",
      "longitude" : "120.75248",
      "outDis" : "50",
      "Id" : "1740",
      "oid" : "5502",
      "districtId" : "1",
      "nameZh" : "東陽太坑巷口",
      "pgp" : "0",
      "terminal" : "0",
      "latitude" : "24.23008",
      "inDis" : "50",
      "routeId" : "227",
      "seqNo" : "27"
   },
   {
      "GoBack" : "1",
      "longitude" : "120.75431",
      "outDis" : "50",
      "Id" : "2426",
      "oid" : "5896",
      "districtId" : "1",
      "nameZh" : "東陽里",
      "pgp" : "0",
      "terminal" : "0",
      "latitude" : "24.22667",
      "inDis" : "50",
      "routeId" : "227",
      "seqNo" : "28"
   },
   {
      "GoBack" : "2",
      "longitude" : "120.75431",
      "outDis" : "50",
      "Id" : "2426",
      "oid" : "5896",
      "districtId" : "1",
      "nameZh" : "東陽里",
      "pgp" : "0",
      "terminal" : "0",
      "latitude" : "24.22667",
      "inDis" : "50",
      "routeId" : "227",
      "seqNo" : "1"
   },
   {
      "GoBack" : "2",
      "longitude" : "120.75248",
      "outDis" : "50",
      "Id" : "1740",
      "oid" : "5502",
      "districtId" : "1",
      "nameZh" : "東陽太坑巷口",
      "pgp" : "0",
      "terminal" : "0",
      "latitude" : "24.23008",
      "inDis" : "50",
      "routeId" : "227",
      "seqNo" : "2"
   },
   {
      "GoBack" : "2",
      "longitude" : "120.74757",
      "outDis" : "50",
      "Id" : "2259",
      "oid" : "5798",
      "districtId" : "1",
      "nameZh" : "東陽泉洲巷口",
      "pgp" : "0",
      "terminal" : "0",
      "latitude" : "24.23319",
      "inDis" : "50",
      "routeId" : "227",
      "seqNo" : "4"
   },
   {
      "GoBack" : "2",
      "longitude" : "120.74662",
      "outDis" : "50",
      "Id" : "3695",
      "oid" : "6583",
      "districtId" : "1",
      "nameZh" : "豪傑山莊",
      "pgp" : "0",
      "terminal" : "0",
      "latitude" : "24.23398",
      "inDis" : "50",
      "routeId" : "227",
      "seqNo" : "5"
   },
   {
      "GoBack" : "2",
      "longitude" : "120.74395",
      "outDis" : "50",
      "Id" : "2675",
      "oid" : "6035",
      "districtId" : "1",
      "nameZh" : "活動中心",
      "pgp" : "0",
      "terminal" : "0",
      "latitude" : "24.23456",
      "inDis" : "50",
      "routeId" : "227",
      "seqNo" : "6"
   },
   {
      "GoBack" : "2",
      "longitude" : "120.74192",
      "outDis" : "50",
      "Id" : "1013",
      "oid" : "5036",
      "districtId" : "1",
      "nameZh" : "二號橋",
      "pgp" : "0",
      "terminal" : "0",
      "latitude" : "24.23622",
      "inDis" : "50",
      "routeId" : "227",
      "seqNo" : "7"
   },
   {
      "GoBack" : "2",
      "longitude" : "120.73971",
      "outDis" : "50",
      "Id" : "3987",
      "oid" : "6729",
      "districtId" : "1",
      "nameZh" : "寶泉犬舍",
      "pgp" : "0",
      "terminal" : "0",
      "latitude" : "24.23689",
      "inDis" : "50",
      "routeId" : "227",
      "seqNo" : "8"
   },
   {
      "GoBack" : "2",
      "longitude" : "120.73833",
      "outDis" : "50",
      "Id" : "2076",
      "oid" : "5701",
      "districtId" : "1",
      "nameZh" : "吊橋頭",
      "pgp" : "0",
      "terminal" : "0",
      "latitude" : "24.23515",
      "inDis" : "50",
      "routeId" : "227",
      "seqNo" : "9"
   },
   {
      "GoBack" : "2",
      "longitude" : "120.73683",
      "outDis" : "50",
      "Id" : "2427",
      "oid" : "5897",
      "districtId" : "1",
      "nameZh" : "東陽橋",
      "pgp" : "0",
      "terminal" : "0",
      "latitude" : "24.23593",
      "inDis" : "50",
      "routeId" : "227",
      "seqNo" : "10"
   },
   {
      "GoBack" : "2",
      "longitude" : "120.73504",
      "outDis" : "50",
      "Id" : "2283",
      "oid" : "5812",
      "districtId" : "1",
      "nameZh" : "車程",
      "pgp" : "0",
      "terminal" : "0",
      "latitude" : "24.23681",
      "inDis" : "50",
      "routeId" : "227",
      "seqNo" : "11"
   },
   {
      "GoBack" : "2",
      "longitude" : "120.73458",
      "outDis" : "50",
      "Id" : "2471",
      "oid" : "5930",
      "districtId" : "1",
      "nameZh" : "武明山",
      "pgp" : "0",
      "terminal" : "0",
      "latitude" : "24.23797",
      "inDis" : "50",
      "routeId" : "227",
      "seqNo" : "12"
   },
   {
      "GoBack" : "2",
      "longitude" : "120.73307",
      "outDis" : "50",
      "Id" : "3687",
      "oid" : "6576",
      "districtId" : "1",
      "nameZh" : "綠山莊口",
      "pgp" : "0",
      "terminal" : "0",
      "latitude" : "24.24059",
      "inDis" : "50",
      "routeId" : "227",
      "seqNo" : "13"
   },
   {
      "GoBack" : "2",
      "longitude" : "120.73512",
      "outDis" : "100",
      "Id" : "5593",
      "oid" : "88893385",
      "districtId" : "1",
      "nameZh" : "福陽國小",
      "pgp" : "0",
      "terminal" : "0",
      "latitude" : "24.24168",
      "inDis" : "100",
      "routeId" : "227",
      "seqNo" : "14"
   },
   {
      "GoBack" : "2",
      "longitude" : "120.73244",
      "outDis" : "50",
      "Id" : "1524",
      "oid" : "5364",
      "districtId" : "1",
      "nameZh" : "南陽綠山巷口",
      "pgp" : "0",
      "terminal" : "0",
      "latitude" : "24.24185",
      "inDis" : "50",
      "routeId" : "227",
      "seqNo" : "15"
   },
   {
      "GoBack" : "2",
      "longitude" : "120.73049",
      "outDis" : "50",
      "Id" : "2610",
      "oid" : "6010",
      "districtId" : "1",
      "nameZh" : "南陽橋",
      "pgp" : "0",
      "terminal" : "0",
      "latitude" : "24.24258",
      "inDis" : "50",
      "routeId" : "227",
      "seqNo" : "16"
   },
   {
      "GoBack" : "2",
      "longitude" : "120.72918",
      "outDis" : "50",
      "Id" : "1611",
      "oid" : "5418",
      "districtId" : "1",
      "nameZh" : "廣福宮",
      "pgp" : "0",
      "terminal" : "0",
      "latitude" : "24.24407",
      "inDis" : "50",
      "routeId" : "227",
      "seqNo" : "17"
   },
   {
      "GoBack" : "2",
      "longitude" : "120.72749",
      "outDis" : "50",
      "Id" : "1946",
      "oid" : "5618",
      "districtId" : "1",
      "nameZh" : "永康南陽路口",
      "pgp" : "0",
      "terminal" : "0",
      "latitude" : "24.24384",
      "inDis" : "50",
      "routeId" : "227",
      "seqNo" : "18"
   },
   {
      "GoBack" : "2",
      "longitude" : "120.7254",
      "outDis" : "50",
      "Id" : "4966",
      "oid" : "308875007",
      "districtId" : "1",
      "nameZh" : "豐原醫院",
      "pgp" : "0",
      "terminal" : "0",
      "latitude" : "24.24326",
      "inDis" : "50",
      "routeId" : "227",
      "seqNo" : "19"
   },
   {
      "GoBack" : "2",
      "longitude" : "120.72278",
      "outDis" : "50",
      "Id" : "5142",
      "oid" : "6629",
      "districtId" : "1",
      "nameZh" : "陽明自強南街口",
      "pgp" : "0",
      "terminal" : "0",
      "latitude" : "24.24603",
      "inDis" : "50",
      "routeId" : "227",
      "seqNo" : "20"
   },
   {
      "GoBack" : "2",
      "longitude" : "120.72343",
      "outDis" : "50",
      "Id" : "2269",
      "oid" : "5804",
      "districtId" : "1",
      "nameZh" : "育樂新村",
      "pgp" : "0",
      "terminal" : "0",
      "latitude" : "24.24764",
      "inDis" : "50",
      "routeId" : "227",
      "seqNo" : "21"
   },
   {
      "GoBack" : "2",
      "longitude" : "120.7227",
      "outDis" : "50",
      "Id" : "2607",
      "oid" : "6007",
      "districtId" : "1",
      "nameZh" : "南陽國小",
      "pgp" : "0",
      "terminal" : "0",
      "latitude" : "24.24911",
      "inDis" : "50",
      "routeId" : "227",
      "seqNo" : "22"
   },
   {
      "GoBack" : "2",
      "longitude" : "120.72414",
      "outDis" : "50",
      "Id" : "3238",
      "oid" : "6341",
      "districtId" : "1",
      "nameZh" : "惠陽中陽路口",
      "pgp" : "0",
      "terminal" : "0",
      "latitude" : "24.25075",
      "inDis" : "50",
      "routeId" : "227",
      "seqNo" : "23"
   },
   {
      "GoBack" : "2",
      "longitude" : "120.72365",
      "outDis" : "50",
      "Id" : "4203",
      "oid" : "6448",
      "districtId" : "1",
      "nameZh" : "新都酒店",
      "pgp" : "0",
      "terminal" : "0",
      "latitude" : "24.25229",
      "inDis" : "50",
      "routeId" : "227",
      "seqNo" : "24"
   },
   {
      "GoBack" : "2",
      "longitude" : "120.71851",
      "outDis" : "50",
      "Id" : "3343",
      "oid" : "6397",
      "districtId" : "1",
      "nameZh" : "媽祖廟",
      "pgp" : "0",
      "terminal" : "0",
      "latitude" : "24.25157",
      "inDis" : "50",
      "routeId" : "227",
      "seqNo" : "25"
   },
   {
      "GoBack" : "2",
      "longitude" : "120.71612",
      "outDis" : "50",
      "Id" : "2097",
      "oid" : "5712",
      "districtId" : "1",
      "nameZh" : "圳寮口",
      "pgp" : "0",
      "terminal" : "0",
      "latitude" : "24.25276",
      "inDis" : "50",
      "routeId" : "227",
      "seqNo" : "26"
   },
   {
      "GoBack" : "2",
      "longitude" : "120.72154",
      "outDis" : "70",
      "Id" : "3935",
      "oid" : "6693",
      "districtId" : "1",
      "nameZh" : "豐原",
      "pgp" : "0",
      "terminal" : "0",
      "latitude" : "24.2538",
      "inDis" : "70",
      "routeId" : "227",
      "seqNo" : "27"
   }
]
