[
   {
      "GoBack" : "1",
      "longitude" : "120.6833",
      "outDis" : "50",
      "Id" : "0905",
      "oid" : "319856457",
      "districtId" : "1",
      "nameZh" : "綠川東站",
      "pgp" : "0",
      "terminal" : "0",
      "latitude" : "24.13797",
      "inDis" : "50",
      "routeId" : "142",
      "seqNo" : "1"
   },
   {
      "GoBack" : "1",
      "longitude" : "120.68193",
      "outDis" : "50",
      "Id" : "0216",
      "oid" : "7547",
      "districtId" : "1",
      "nameZh" : "彰化銀行(自由路)",
      "pgp" : "0",
      "terminal" : "0",
      "latitude" : "24.13977",
      "inDis" : "50",
      "routeId" : "142",
      "seqNo" : "2"
   },
   {
      "GoBack" : "1",
      "longitude" : "120.68388",
      "outDis" : "50",
      "Id" : "5670",
      "oid" : "7741",
      "districtId" : "1",
      "nameZh" : "公園自由路口",
      "pgp" : "0",
      "terminal" : "0",
      "latitude" : "24.14269",
      "inDis" : "50",
      "routeId" : "142",
      "seqNo" : "3"
   },
   {
      "GoBack" : "1",
      "longitude" : "120.68224",
      "outDis" : "50",
      "Id" : "4543",
      "oid" : "A02806217F234B188F720CDC03520228",
      "districtId" : "1",
      "nameZh" : "臺中公園(三民路)",
      "pgp" : "0",
      "terminal" : "0",
      "latitude" : "24.14526",
      "inDis" : "50",
      "routeId" : "142",
      "seqNo" : "4"
   },
   {
      "GoBack" : "1",
      "longitude" : "120.68463",
      "outDis" : "50",
      "Id" : "1513",
      "oid" : "16096",
      "districtId" : "1",
      "nameZh" : "中興堂",
      "pgp" : "0",
      "terminal" : "0",
      "latitude" : "24.14621",
      "inDis" : "50",
      "routeId" : "142",
      "seqNo" : "5"
   },
   {
      "GoBack" : "1",
      "longitude" : "120.6864",
      "outDis" : "50",
      "Id" : "4695",
      "oid" : "7266614FE8FC4577B0233AE7B9EC0FBA",
      "districtId" : "1",
      "nameZh" : "臺灣體大游泳池",
      "pgp" : "0",
      "terminal" : "0",
      "latitude" : "24.14704",
      "inDis" : "50",
      "routeId" : "142",
      "seqNo" : "6"
   },
   {
      "GoBack" : "1",
      "longitude" : "120.68742",
      "outDis" : "50",
      "Id" : "0149",
      "oid" : "7348",
      "districtId" : "1",
      "nameZh" : "臺中一中",
      "pgp" : "0",
      "terminal" : "0",
      "latitude" : "24.14897",
      "inDis" : "50",
      "routeId" : "142",
      "seqNo" : "7"
   },
   {
      "GoBack" : "1",
      "longitude" : "120.68883",
      "outDis" : "50",
      "Id" : "4694",
      "oid" : "A0E11F0FF05A427399D0845D31F09CFE",
      "districtId" : "1",
      "nameZh" : "臺灣體大體育場",
      "pgp" : "0",
      "terminal" : "0",
      "latitude" : "24.15261",
      "inDis" : "50",
      "routeId" : "142",
      "seqNo" : "8"
   },
   {
      "GoBack" : "1",
      "longitude" : "120.69087",
      "outDis" : "50",
      "Id" : "0956",
      "oid" : "7619",
      "districtId" : "1",
      "nameZh" : "雙十國中",
      "pgp" : "0",
      "terminal" : "0",
      "latitude" : "24.15212",
      "inDis" : "50",
      "routeId" : "142",
      "seqNo" : "9"
   },
   {
      "GoBack" : "1",
      "longitude" : "120.69322",
      "outDis" : "50",
      "Id" : "0311",
      "oid" : "7191",
      "districtId" : "1",
      "nameZh" : "力行國小",
      "pgp" : "0",
      "terminal" : "0",
      "latitude" : "24.15164",
      "inDis" : "50",
      "routeId" : "142",
      "seqNo" : "10"
   },
   {
      "GoBack" : "1",
      "longitude" : "120.69441",
      "outDis" : "50",
      "Id" : "0599",
      "oid" : "7067",
      "districtId" : "1",
      "nameZh" : "合作市場",
      "pgp" : "0",
      "terminal" : "0",
      "latitude" : "24.15044",
      "inDis" : "50",
      "routeId" : "142",
      "seqNo" : "11"
   },
   {
      "GoBack" : "1",
      "longitude" : "120.69533",
      "outDis" : "50",
      "Id" : "0317",
      "oid" : "7193",
      "districtId" : "1",
      "nameZh" : "十甲社區",
      "pgp" : "0",
      "terminal" : "0",
      "latitude" : "24.14791",
      "inDis" : "50",
      "routeId" : "142",
      "seqNo" : "12"
   },
   {
      "GoBack" : "1",
      "longitude" : "120.70215",
      "outDis" : "50",
      "Id" : "0862",
      "oid" : "7514",
      "districtId" : "1",
      "nameZh" : "新光里",
      "pgp" : "0",
      "terminal" : "0",
      "latitude" : "24.14799",
      "inDis" : "50",
      "routeId" : "142",
      "seqNo" : "13"
   },
   {
      "GoBack" : "1",
      "longitude" : "120.70479",
      "outDis" : "50",
      "Id" : "4745",
      "oid" : "306695531",
      "districtId" : "1",
      "nameZh" : "精武十甲東路口",
      "pgp" : "0",
      "terminal" : "0",
      "latitude" : "24.14822",
      "inDis" : "50",
      "routeId" : "142",
      "seqNo" : "14"
   },
   {
      "GoBack" : "1",
      "longitude" : "120.70719",
      "outDis" : "50",
      "Id" : "0867",
      "oid" : "7530",
      "districtId" : "1",
      "nameZh" : "楓愛林社區",
      "pgp" : "0",
      "terminal" : "0",
      "latitude" : "24.14886",
      "inDis" : "50",
      "routeId" : "142",
      "seqNo" : "15"
   },
   {
      "GoBack" : "1",
      "longitude" : "120.71006",
      "outDis" : "50",
      "Id" : "0864",
      "oid" : "7518",
      "districtId" : "1",
      "nameZh" : "新高社區",
      "pgp" : "0",
      "terminal" : "0",
      "latitude" : "24.14949",
      "inDis" : "50",
      "routeId" : "142",
      "seqNo" : "16"
   },
   {
      "GoBack" : "1",
      "longitude" : "120.71281",
      "outDis" : "50",
      "Id" : "4321",
      "oid" : "310015663",
      "districtId" : "1",
      "nameZh" : "宜欣郵局",
      "pgp" : "0",
      "terminal" : "0",
      "latitude" : "24.14975",
      "inDis" : "50",
      "routeId" : "142",
      "seqNo" : "17"
   },
   {
      "GoBack" : "1",
      "longitude" : "120.71595",
      "outDis" : "50",
      "Id" : "1422",
      "oid" : "3843",
      "districtId" : "1",
      "nameZh" : "宜昌中山路口",
      "pgp" : "0",
      "terminal" : "0",
      "latitude" : "24.14842",
      "inDis" : "50",
      "routeId" : "142",
      "seqNo" : "18"
   },
   {
      "GoBack" : "1",
      "longitude" : "120.71413",
      "outDis" : "50",
      "Id" : "3764",
      "oid" : "3842",
      "districtId" : "1",
      "nameZh" : "賢德醫院",
      "pgp" : "0",
      "terminal" : "0",
      "latitude" : "24.14546",
      "inDis" : "50",
      "routeId" : "142",
      "seqNo" : "19"
   },
   {
      "GoBack" : "1",
      "longitude" : "120.71468",
      "outDis" : "50",
      "Id" : "4747",
      "oid" : "306695535",
      "districtId" : "1",
      "nameZh" : "新平溪洲路口",
      "pgp" : "0",
      "terminal" : "0",
      "latitude" : "24.14165",
      "inDis" : "50",
      "routeId" : "142",
      "seqNo" : "20"
   },
   {
      "GoBack" : "1",
      "longitude" : "120.71495",
      "outDis" : "50",
      "Id" : "2330",
      "oid" : "7107",
      "districtId" : "1",
      "nameZh" : "宜欣國小",
      "pgp" : "0",
      "terminal" : "0",
      "latitude" : "24.13889",
      "inDis" : "50",
      "routeId" : "142",
      "seqNo" : "21"
   },
   {
      "GoBack" : "1",
      "longitude" : "120.7154",
      "outDis" : "50",
      "Id" : "5147",
      "oid" : "310383707",
      "districtId" : "1",
      "nameZh" : "新平仁和街口",
      "pgp" : "0",
      "terminal" : "0",
      "latitude" : "24.1373",
      "inDis" : "50",
      "routeId" : "142",
      "seqNo" : "22"
   },
   {
      "GoBack" : "1",
      "longitude" : "120.71864",
      "outDis" : "50",
      "Id" : "4717",
      "oid" : "306250858",
      "districtId" : "1",
      "nameZh" : "崇正寶宮",
      "pgp" : "0",
      "terminal" : "0",
      "latitude" : "24.13364",
      "inDis" : "50",
      "routeId" : "142",
      "seqNo" : "23"
   },
   {
      "GoBack" : "1",
      "longitude" : "120.72152",
      "outDis" : "50",
      "Id" : "4748",
      "oid" : "306695537",
      "districtId" : "1",
      "nameZh" : "東平里",
      "pgp" : "0",
      "terminal" : "0",
      "latitude" : "24.13421",
      "inDis" : "50",
      "routeId" : "142",
      "seqNo" : "24"
   },
   {
      "GoBack" : "1",
      "longitude" : "120.72297",
      "outDis" : "50",
      "Id" : "4749",
      "oid" : "306695539",
      "districtId" : "1",
      "nameZh" : "中和東村三街口",
      "pgp" : "0",
      "terminal" : "0",
      "latitude" : "24.13597",
      "inDis" : "50",
      "routeId" : "142",
      "seqNo" : "25"
   },
   {
      "GoBack" : "1",
      "longitude" : "120.72414",
      "outDis" : "50",
      "Id" : "3660",
      "oid" : "7563",
      "districtId" : "1",
      "nameZh" : "福德祠",
      "pgp" : "0",
      "terminal" : "0",
      "latitude" : "24.13747",
      "inDis" : "50",
      "routeId" : "142",
      "seqNo" : "26"
   },
   {
      "GoBack" : "1",
      "longitude" : "120.72423",
      "outDis" : "30",
      "Id" : "4750",
      "oid" : "319856458",
      "districtId" : "1",
      "nameZh" : "豐年社區五站",
      "pgp" : "0",
      "terminal" : "0",
      "latitude" : "24.13838",
      "inDis" : "30",
      "routeId" : "142",
      "seqNo" : "27"
   },
   {
      "GoBack" : "2",
      "longitude" : "120.72428",
      "outDis" : "50",
      "Id" : "4750",
      "oid" : "306695543",
      "districtId" : "1",
      "nameZh" : "豐年社區五站",
      "pgp" : "0",
      "terminal" : "0",
      "latitude" : "24.13872",
      "inDis" : "50",
      "routeId" : "142",
      "seqNo" : "1"
   },
   {
      "GoBack" : "2",
      "longitude" : "120.72425",
      "outDis" : "50",
      "Id" : "4751",
      "oid" : "306883139",
      "districtId" : "1",
      "nameZh" : "豐年社區四站",
      "pgp" : "0",
      "terminal" : "0",
      "latitude" : "24.13933",
      "inDis" : "50",
      "routeId" : "142",
      "seqNo" : "2"
   },
   {
      "GoBack" : "2",
      "longitude" : "120.72457",
      "outDis" : "50",
      "Id" : "3929",
      "oid" : "7616",
      "districtId" : "1",
      "nameZh" : "豐年社區三站",
      "pgp" : "0",
      "terminal" : "0",
      "latitude" : "24.14131",
      "inDis" : "50",
      "routeId" : "142",
      "seqNo" : "3"
   },
   {
      "GoBack" : "2",
      "longitude" : "120.72505",
      "outDis" : "50",
      "Id" : "3928",
      "oid" : "7615",
      "districtId" : "1",
      "nameZh" : "豐年社區二站",
      "pgp" : "0",
      "terminal" : "0",
      "latitude" : "24.14353",
      "inDis" : "50",
      "routeId" : "142",
      "seqNo" : "4"
   },
   {
      "GoBack" : "2",
      "longitude" : "120.72497",
      "outDis" : "50",
      "Id" : "3927",
      "oid" : "7614",
      "districtId" : "1",
      "nameZh" : "豐年社區一站",
      "pgp" : "0",
      "terminal" : "0",
      "latitude" : "24.14469",
      "inDis" : "50",
      "routeId" : "142",
      "seqNo" : "5"
   },
   {
      "GoBack" : "2",
      "longitude" : "120.72409",
      "outDis" : "50",
      "Id" : "1519",
      "oid" : "7284",
      "districtId" : "1",
      "nameZh" : "中興駕訓班",
      "pgp" : "0",
      "terminal" : "0",
      "latitude" : "24.14635",
      "inDis" : "50",
      "routeId" : "142",
      "seqNo" : "6"
   },
   {
      "GoBack" : "2",
      "longitude" : "120.72069",
      "outDis" : "50",
      "Id" : "0436",
      "oid" : "7285",
      "districtId" : "1",
      "nameZh" : "中興駕訓班前",
      "pgp" : "0",
      "terminal" : "0",
      "latitude" : "24.14911",
      "inDis" : "50",
      "routeId" : "142",
      "seqNo" : "7"
   },
   {
      "GoBack" : "2",
      "longitude" : "120.71891",
      "outDis" : "50",
      "Id" : "0875",
      "oid" : "7539",
      "districtId" : "1",
      "nameZh" : "遊樂大樓",
      "pgp" : "0",
      "terminal" : "0",
      "latitude" : "24.14889",
      "inDis" : "50",
      "routeId" : "142",
      "seqNo" : "8"
   },
   {
      "GoBack" : "2",
      "longitude" : "120.71567",
      "outDis" : "50",
      "Id" : "0633",
      "oid" : "7106",
      "districtId" : "1",
      "nameZh" : "宜欣社區",
      "pgp" : "0",
      "terminal" : "0",
      "latitude" : "24.14881",
      "inDis" : "50",
      "routeId" : "142",
      "seqNo" : "9"
   },
   {
      "GoBack" : "2",
      "longitude" : "120.71281",
      "outDis" : "50",
      "Id" : "4321",
      "oid" : "310015663",
      "districtId" : "1",
      "nameZh" : "宜欣郵局",
      "pgp" : "0",
      "terminal" : "0",
      "latitude" : "24.14975",
      "inDis" : "50",
      "routeId" : "142",
      "seqNo" : "10"
   },
   {
      "GoBack" : "2",
      "longitude" : "120.71006",
      "outDis" : "50",
      "Id" : "0864",
      "oid" : "7518",
      "districtId" : "1",
      "nameZh" : "新高社區",
      "pgp" : "0",
      "terminal" : "0",
      "latitude" : "24.14949",
      "inDis" : "50",
      "routeId" : "142",
      "seqNo" : "11"
   },
   {
      "GoBack" : "2",
      "longitude" : "120.70719",
      "outDis" : "50",
      "Id" : "0867",
      "oid" : "7530",
      "districtId" : "1",
      "nameZh" : "楓愛林社區",
      "pgp" : "0",
      "terminal" : "0",
      "latitude" : "24.14886",
      "inDis" : "50",
      "routeId" : "142",
      "seqNo" : "12"
   },
   {
      "GoBack" : "2",
      "longitude" : "120.70481",
      "outDis" : "50",
      "Id" : "4745",
      "oid" : "306695532",
      "districtId" : "1",
      "nameZh" : "精武十甲東路口",
      "pgp" : "0",
      "terminal" : "0",
      "latitude" : "24.14824",
      "inDis" : "50",
      "routeId" : "142",
      "seqNo" : "13"
   },
   {
      "GoBack" : "2",
      "longitude" : "120.70215",
      "outDis" : "50",
      "Id" : "0862",
      "oid" : "7514",
      "districtId" : "1",
      "nameZh" : "新光里",
      "pgp" : "0",
      "terminal" : "0",
      "latitude" : "24.14799",
      "inDis" : "50",
      "routeId" : "142",
      "seqNo" : "14"
   },
   {
      "GoBack" : "2",
      "longitude" : "120.69533",
      "outDis" : "50",
      "Id" : "0317",
      "oid" : "7193",
      "districtId" : "1",
      "nameZh" : "十甲社區",
      "pgp" : "0",
      "terminal" : "0",
      "latitude" : "24.14791",
      "inDis" : "50",
      "routeId" : "142",
      "seqNo" : "15"
   },
   {
      "GoBack" : "2",
      "longitude" : "120.69441",
      "outDis" : "50",
      "Id" : "0599",
      "oid" : "7067",
      "districtId" : "1",
      "nameZh" : "合作市場",
      "pgp" : "0",
      "terminal" : "0",
      "latitude" : "24.15044",
      "inDis" : "50",
      "routeId" : "142",
      "seqNo" : "16"
   },
   {
      "GoBack" : "2",
      "longitude" : "120.69322",
      "outDis" : "50",
      "Id" : "0311",
      "oid" : "7191",
      "districtId" : "1",
      "nameZh" : "力行國小",
      "pgp" : "0",
      "terminal" : "0",
      "latitude" : "24.15164",
      "inDis" : "50",
      "routeId" : "142",
      "seqNo" : "17"
   },
   {
      "GoBack" : "2",
      "longitude" : "120.69087",
      "outDis" : "50",
      "Id" : "0956",
      "oid" : "7619",
      "districtId" : "1",
      "nameZh" : "雙十國中",
      "pgp" : "0",
      "terminal" : "0",
      "latitude" : "24.15212",
      "inDis" : "50",
      "routeId" : "142",
      "seqNo" : "18"
   },
   {
      "GoBack" : "2",
      "longitude" : "120.68859",
      "outDis" : "50",
      "Id" : "4694",
      "oid" : "EAAD06F0F3CE4677816841D4FDB53E25",
      "districtId" : "1",
      "nameZh" : "臺灣體大體育場",
      "pgp" : "0",
      "terminal" : "0",
      "latitude" : "24.15247",
      "inDis" : "50",
      "routeId" : "142",
      "seqNo" : "19"
   },
   {
      "GoBack" : "2",
      "longitude" : "120.68742",
      "outDis" : "50",
      "Id" : "0149",
      "oid" : "7348",
      "districtId" : "1",
      "nameZh" : "臺中一中",
      "pgp" : "0",
      "terminal" : "0",
      "latitude" : "24.14897",
      "inDis" : "50",
      "routeId" : "142",
      "seqNo" : "20"
   },
   {
      "GoBack" : "2",
      "longitude" : "120.68623",
      "outDis" : "50",
      "Id" : "4695",
      "oid" : "06F6D64965D04691A8DDDA82FBC90395",
      "districtId" : "1",
      "nameZh" : "臺灣體大游泳池",
      "pgp" : "0",
      "terminal" : "0",
      "latitude" : "24.14693",
      "inDis" : "50",
      "routeId" : "142",
      "seqNo" : "21"
   },
   {
      "GoBack" : "2",
      "longitude" : "120.68448",
      "outDis" : "50",
      "Id" : "1513",
      "oid" : "15989",
      "districtId" : "1",
      "nameZh" : "中興堂",
      "pgp" : "0",
      "terminal" : "0",
      "latitude" : "24.14626",
      "inDis" : "50",
      "routeId" : "142",
      "seqNo" : "22"
   },
   {
      "GoBack" : "2",
      "longitude" : "120.68212",
      "outDis" : "50",
      "Id" : "4543",
      "oid" : "7313",
      "districtId" : "1",
      "nameZh" : "臺中公園(三民路)",
      "pgp" : "0",
      "terminal" : "0",
      "latitude" : "24.14507",
      "inDis" : "50",
      "routeId" : "142",
      "seqNo" : "23"
   },
   {
      "GoBack" : "2",
      "longitude" : "120.68111",
      "outDis" : "50",
      "Id" : "5506",
      "oid" : "7056",
      "districtId" : "1",
      "nameZh" : "光復國小(三民路)",
      "pgp" : "0",
      "terminal" : "0",
      "latitude" : "24.14397",
      "inDis" : "50",
      "routeId" : "142",
      "seqNo" : "24"
   },
   {
      "GoBack" : "2",
      "longitude" : "120.67986",
      "outDis" : "50",
      "Id" : "4609",
      "oid" : "76ACFB8D14C44242BAEA8DCC65C9B889",
      "districtId" : "1",
      "nameZh" : "第二市場(三民路)",
      "pgp" : "0",
      "terminal" : "0",
      "latitude" : "24.14274",
      "inDis" : "50",
      "routeId" : "142",
      "seqNo" : "25"
   },
   {
      "GoBack" : "2",
      "longitude" : "120.67871",
      "outDis" : "50",
      "Id" : "5026",
      "oid" : "7180",
      "districtId" : "1",
      "nameZh" : "美榮藥局",
      "pgp" : "0",
      "terminal" : "0",
      "latitude" : "24.14189",
      "inDis" : "50",
      "routeId" : "142",
      "seqNo" : "26"
   },
   {
      "GoBack" : "2",
      "longitude" : "120.67842",
      "outDis" : "50",
      "Id" : "4416",
      "oid" : "7024",
      "districtId" : "1",
      "nameZh" : "臺中州廳",
      "pgp" : "0",
      "terminal" : "0",
      "latitude" : "24.13896",
      "inDis" : "50",
      "routeId" : "142",
      "seqNo" : "27"
   },
   {
      "GoBack" : "2",
      "longitude" : "120.68037",
      "outDis" : "50",
      "Id" : "0215",
      "oid" : "7068",
      "districtId" : "1",
      "nameZh" : "合作金庫",
      "pgp" : "0",
      "terminal" : "0",
      "latitude" : "24.13808",
      "inDis" : "50",
      "routeId" : "142",
      "seqNo" : "28"
   },
   {
      "GoBack" : "2",
      "longitude" : "120.68193",
      "outDis" : "50",
      "Id" : "0216",
      "oid" : "7547",
      "districtId" : "1",
      "nameZh" : "彰化銀行(自由路)",
      "pgp" : "0",
      "terminal" : "0",
      "latitude" : "24.13977",
      "inDis" : "50",
      "routeId" : "142",
      "seqNo" : "29"
   },
   {
      "GoBack" : "2",
      "longitude" : "120.68363",
      "outDis" : "50",
      "Id" : "0905",
      "oid" : "7573",
      "districtId" : "1",
      "nameZh" : "綠川東站",
      "pgp" : "0",
      "terminal" : "0",
      "latitude" : "24.1383",
      "inDis" : "50",
      "routeId" : "142",
      "seqNo" : "30"
   }
]
