[
   {
      "GoBack" : "1",
      "longitude" : "120.65581",
      "outDis" : "50",
      "Id" : "5766",
      "oid" : "320612806",
      "districtId" : "1",
      "nameZh" : "豐富公園",
      "pgp" : "0",
      "terminal" : "0",
      "latitude" : "24.12975",
      "inDis" : "50",
      "routeId" : "200",
      "seqNo" : "1"
   },
   {
      "GoBack" : "1",
      "longitude" : "120.66008",
      "outDis" : "50",
      "Id" : "5765",
      "oid" : "320612807",
      "districtId" : "1",
      "nameZh" : "三民西柳川東路口",
      "pgp" : "0",
      "terminal" : "0",
      "latitude" : "24.13012",
      "inDis" : "50",
      "routeId" : "200",
      "seqNo" : "2"
   },
   {
      "GoBack" : "1",
      "longitude" : "120.66317",
      "outDis" : "50",
      "Id" : "5764",
      "oid" : "320612808",
      "districtId" : "1",
      "nameZh" : "三民西民興街口",
      "pgp" : "0",
      "terminal" : "0",
      "latitude" : "24.13014",
      "inDis" : "50",
      "routeId" : "200",
      "seqNo" : "3"
   },
   {
      "GoBack" : "1",
      "longitude" : "120.66682",
      "outDis" : "50",
      "Id" : "5763",
      "oid" : "320612809",
      "districtId" : "1",
      "nameZh" : "奉順宮",
      "pgp" : "0",
      "terminal" : "0",
      "latitude" : "24.13142",
      "inDis" : "50",
      "routeId" : "200",
      "seqNo" : "4"
   },
   {
      "GoBack" : "1",
      "longitude" : "120.66997",
      "outDis" : "50",
      "Id" : "5778",
      "oid" : "320612811",
      "districtId" : "1",
      "nameZh" : "公館公園(自由路)",
      "pgp" : "0",
      "terminal" : "0",
      "latitude" : "24.13199",
      "inDis" : "50",
      "routeId" : "200",
      "seqNo" : "5"
   },
   {
      "GoBack" : "1",
      "longitude" : "120.67607",
      "outDis" : "50",
      "Id" : "0070",
      "oid" : "13306",
      "districtId" : "1",
      "nameZh" : "地方法院",
      "pgp" : "0",
      "terminal" : "0",
      "latitude" : "24.13406",
      "inDis" : "50",
      "routeId" : "200",
      "seqNo" : "6"
   },
   {
      "GoBack" : "1",
      "longitude" : "120.67803",
      "outDis" : "50",
      "Id" : "0071",
      "oid" : "12345",
      "districtId" : "1",
      "nameZh" : "臺中女中",
      "pgp" : "0",
      "terminal" : "0",
      "latitude" : "24.13596",
      "inDis" : "50",
      "routeId" : "200",
      "seqNo" : "7"
   },
   {
      "GoBack" : "1",
      "longitude" : "120.68112",
      "outDis" : "50",
      "Id" : "4284",
      "oid" : "13344",
      "districtId" : "1",
      "nameZh" : "民權繼光街口",
      "pgp" : "0",
      "terminal" : "0",
      "latitude" : "24.13698",
      "inDis" : "50",
      "routeId" : "200",
      "seqNo" : "8"
   },
   {
      "GoBack" : "1",
      "longitude" : "120.68387",
      "outDis" : "170",
      "Id" : "1824",
      "oid" : "5545",
      "districtId" : "1",
      "nameZh" : "臺中火車站",
      "pgp" : "0",
      "terminal" : "0",
      "latitude" : "24.13663",
      "inDis" : "50",
      "routeId" : "200",
      "seqNo" : "9"
   },
   {
      "GoBack" : "1",
      "longitude" : "120.68522",
      "outDis" : "50",
      "Id" : "0402",
      "oid" : "320612813",
      "districtId" : "1",
      "nameZh" : "干城站",
      "pgp" : "0",
      "terminal" : "0",
      "latitude" : "24.14287",
      "inDis" : "50",
      "routeId" : "200",
      "seqNo" : "10"
   },
   {
      "GoBack" : "1",
      "longitude" : "120.68612",
      "outDis" : "50",
      "Id" : "4544",
      "oid" : "13289",
      "districtId" : "1",
      "nameZh" : "臺中公園(雙十路)",
      "pgp" : "0",
      "terminal" : "0",
      "latitude" : "24.14399",
      "inDis" : "50",
      "routeId" : "200",
      "seqNo" : "11"
   },
   {
      "GoBack" : "1",
      "longitude" : "120.68448",
      "outDis" : "50",
      "Id" : "1513",
      "oid" : "15989",
      "districtId" : "1",
      "nameZh" : "中興堂",
      "pgp" : "0",
      "terminal" : "0",
      "latitude" : "24.14626",
      "inDis" : "50",
      "routeId" : "200",
      "seqNo" : "12"
   },
   {
      "GoBack" : "1",
      "longitude" : "120.68413",
      "outDis" : "50",
      "Id" : "0045",
      "oid" : "5556",
      "districtId" : "1",
      "nameZh" : "國立臺中科技大學",
      "pgp" : "0",
      "terminal" : "0",
      "latitude" : "24.14987",
      "inDis" : "50",
      "routeId" : "200",
      "seqNo" : "13"
   },
   {
      "GoBack" : "1",
      "longitude" : "120.6852",
      "outDis" : "50",
      "Id" : "0046",
      "oid" : "5310",
      "districtId" : "1",
      "nameZh" : "中友百貨",
      "pgp" : "0",
      "terminal" : "0",
      "latitude" : "24.15251",
      "inDis" : "50",
      "routeId" : "200",
      "seqNo" : "14"
   },
   {
      "GoBack" : "1",
      "longitude" : "120.68571",
      "outDis" : "50",
      "Id" : "0047",
      "oid" : "5014",
      "districtId" : "1",
      "nameZh" : "一心市場",
      "pgp" : "0",
      "terminal" : "0",
      "latitude" : "24.15366",
      "inDis" : "50",
      "routeId" : "200",
      "seqNo" : "15"
   },
   {
      "GoBack" : "1",
      "longitude" : "120.68695",
      "outDis" : "50",
      "Id" : "0934",
      "oid" : "0D7AF382298E449C9856AF45F92F27F9",
      "districtId" : "1",
      "nameZh" : "三民錦中街口",
      "pgp" : "0",
      "terminal" : "0",
      "latitude" : "24.15528",
      "inDis" : "50",
      "routeId" : "200",
      "seqNo" : "16"
   },
   {
      "GoBack" : "1",
      "longitude" : "120.6885",
      "outDis" : "50",
      "Id" : "4399",
      "oid" : "6417",
      "districtId" : "1",
      "nameZh" : "新民高中(三民路)",
      "pgp" : "0",
      "terminal" : "0",
      "latitude" : "24.1568",
      "inDis" : "50",
      "routeId" : "200",
      "seqNo" : "17"
   },
   {
      "GoBack" : "1",
      "longitude" : "120.68992",
      "outDis" : "50",
      "Id" : "0960",
      "oid" : "6730",
      "districtId" : "1",
      "nameZh" : "寶覺寺",
      "pgp" : "0",
      "terminal" : "0",
      "latitude" : "24.15803",
      "inDis" : "50",
      "routeId" : "200",
      "seqNo" : "18"
   },
   {
      "GoBack" : "1",
      "longitude" : "120.69209",
      "outDis" : "50",
      "Id" : "0892",
      "oid" : "6537",
      "districtId" : "1",
      "nameZh" : "監理站",
      "pgp" : "0",
      "terminal" : "0",
      "latitude" : "24.16106",
      "inDis" : "50",
      "routeId" : "200",
      "seqNo" : "19"
   },
   {
      "GoBack" : "1",
      "longitude" : "120.69318",
      "outDis" : "50",
      "Id" : "5405",
      "oid" : "13346",
      "districtId" : "1",
      "nameZh" : "北屯國小(北屯路)",
      "pgp" : "0",
      "terminal" : "0",
      "latitude" : "24.16325",
      "inDis" : "50",
      "routeId" : "200",
      "seqNo" : "20"
   },
   {
      "GoBack" : "1",
      "longitude" : "120.69423",
      "outDis" : "50",
      "Id" : "4580",
      "oid" : "A5E30DADD2F34F40804ABACB0B614EA4",
      "districtId" : "1",
      "nameZh" : "昌平北屯路口",
      "pgp" : "0",
      "terminal" : "0",
      "latitude" : "24.16619",
      "inDis" : "50",
      "routeId" : "200",
      "seqNo" : "21"
   },
   {
      "GoBack" : "1",
      "longitude" : "120.69218",
      "outDis" : "50",
      "Id" : "5206",
      "oid" : "310787718",
      "districtId" : "1",
      "nameZh" : "下二分埔",
      "pgp" : "0",
      "terminal" : "0",
      "latitude" : "24.16912",
      "inDis" : "50",
      "routeId" : "200",
      "seqNo" : "22"
   },
   {
      "GoBack" : "1",
      "longitude" : "120.69114",
      "outDis" : "50",
      "Id" : "0793",
      "oid" : "319895955",
      "districtId" : "1",
      "nameZh" : "頂二分埔",
      "pgp" : "0",
      "terminal" : "0",
      "latitude" : "24.17074",
      "inDis" : "50",
      "routeId" : "200",
      "seqNo" : "23"
   },
   {
      "GoBack" : "1",
      "longitude" : "120.6906",
      "outDis" : "50",
      "Id" : "4565",
      "oid" : "685FEA3E12B844BF98DFFD002D5F2C3D",
      "districtId" : "1",
      "nameZh" : "昌平文心路口",
      "pgp" : "0",
      "terminal" : "0",
      "latitude" : "24.17306",
      "inDis" : "50",
      "routeId" : "200",
      "seqNo" : "24"
   },
   {
      "GoBack" : "1",
      "longitude" : "120.69043",
      "outDis" : "50",
      "Id" : "5102",
      "oid" : "179A1631058545DEAFF2128CA6F9D0C9",
      "districtId" : "1",
      "nameZh" : "民俗公園(昌平路)",
      "pgp" : "0",
      "terminal" : "0",
      "latitude" : "24.17466",
      "inDis" : "50",
      "routeId" : "200",
      "seqNo" : "25"
   },
   {
      "GoBack" : "1",
      "longitude" : "120.69044",
      "outDis" : "50",
      "Id" : "5078",
      "oid" : "BD4334FAA7744A35AF2C169524E7F8DF",
      "districtId" : "1",
      "nameZh" : "頭張(昌平路)",
      "pgp" : "0",
      "terminal" : "0",
      "latitude" : "24.17699",
      "inDis" : "50",
      "routeId" : "200",
      "seqNo" : "26"
   },
   {
      "GoBack" : "1",
      "longitude" : "120.69059",
      "outDis" : "50",
      "Id" : "5077",
      "oid" : "33392F4023DB464B85A330EBE54CA5D1",
      "districtId" : "1",
      "nameZh" : "頂頭張(昌平路)",
      "pgp" : "0",
      "terminal" : "0",
      "latitude" : "24.17862",
      "inDis" : "50",
      "routeId" : "200",
      "seqNo" : "27"
   },
   {
      "GoBack" : "1",
      "longitude" : "120.68959",
      "outDis" : "50",
      "Id" : "0676",
      "oid" : "1BD7895CBF314E9DA7907FEBE16149FA",
      "districtId" : "1",
      "nameZh" : "松竹國小",
      "pgp" : "0",
      "terminal" : "0",
      "latitude" : "24.18052",
      "inDis" : "50",
      "routeId" : "200",
      "seqNo" : "28"
   },
   {
      "GoBack" : "1",
      "longitude" : "120.6889",
      "outDis" : "50",
      "Id" : "0321",
      "oid" : "DD897670C1114D6F84CC67BB2D7F9710",
      "districtId" : "1",
      "nameZh" : "三分埔",
      "pgp" : "0",
      "terminal" : "0",
      "latitude" : "24.18135",
      "inDis" : "50",
      "routeId" : "200",
      "seqNo" : "29"
   },
   {
      "GoBack" : "1",
      "longitude" : "120.68733",
      "outDis" : "50",
      "Id" : "0589",
      "oid" : "4B4E3D32C52943FC9A47297FBBB44C15",
      "districtId" : "1",
      "nameZh" : "光照寺",
      "pgp" : "0",
      "terminal" : "0",
      "latitude" : "24.18442",
      "inDis" : "50",
      "routeId" : "200",
      "seqNo" : "30"
   },
   {
      "GoBack" : "1",
      "longitude" : "120.68696",
      "outDis" : "50",
      "Id" : "0310",
      "oid" : "BA5936B6219D43B6A4841A64B371EC60",
      "districtId" : "1",
      "nameZh" : "八二三紀念公園",
      "pgp" : "0",
      "terminal" : "0",
      "latitude" : "24.18724",
      "inDis" : "50",
      "routeId" : "200",
      "seqNo" : "31"
   },
   {
      "GoBack" : "1",
      "longitude" : "120.68618",
      "outDis" : "50",
      "Id" : "0698",
      "oid" : "5986",
      "districtId" : "1",
      "nameZh" : "南四張犁",
      "pgp" : "0",
      "terminal" : "0",
      "latitude" : "24.18885",
      "inDis" : "50",
      "routeId" : "200",
      "seqNo" : "32"
   },
   {
      "GoBack" : "1",
      "longitude" : "120.68416",
      "outDis" : "50",
      "Id" : "0541",
      "oid" : "5571",
      "districtId" : "1",
      "nameZh" : "四民市場",
      "pgp" : "0",
      "terminal" : "0",
      "latitude" : "24.19111",
      "inDis" : "50",
      "routeId" : "200",
      "seqNo" : "33"
   },
   {
      "GoBack" : "1",
      "longitude" : "120.68381",
      "outDis" : "50",
      "Id" : "0791",
      "oid" : "31CB8A1044604694A02972E5728230DB",
      "districtId" : "1",
      "nameZh" : "陸光八村",
      "pgp" : "0",
      "terminal" : "0",
      "latitude" : "24.19133",
      "inDis" : "50",
      "routeId" : "200",
      "seqNo" : "34"
   },
   {
      "GoBack" : "1",
      "longitude" : "120.68227",
      "outDis" : "50",
      "Id" : "5373",
      "oid" : "319311011",
      "districtId" : "1",
      "nameZh" : "四張犁(昌平路)",
      "pgp" : "0",
      "terminal" : "0",
      "latitude" : "24.19236",
      "inDis" : "50",
      "routeId" : "200",
      "seqNo" : "35"
   },
   {
      "GoBack" : "1",
      "longitude" : "120.68274",
      "outDis" : "50",
      "Id" : "5372",
      "oid" : "310787816",
      "districtId" : "1",
      "nameZh" : "四民頂街(昌平路)",
      "pgp" : "0",
      "terminal" : "0",
      "latitude" : "24.19494",
      "inDis" : "50",
      "routeId" : "200",
      "seqNo" : "36"
   },
   {
      "GoBack" : "1",
      "longitude" : "120.67937",
      "outDis" : "50",
      "Id" : "0305",
      "oid" : "5027",
      "districtId" : "1",
      "nameZh" : "七張犁",
      "pgp" : "0",
      "terminal" : "0",
      "latitude" : "24.19789",
      "inDis" : "50",
      "routeId" : "200",
      "seqNo" : "37"
   },
   {
      "GoBack" : "1",
      "longitude" : "120.67741",
      "outDis" : "50",
      "Id" : "0342",
      "oid" : "356F477ADCC5423FAAE3035705D2A76A",
      "districtId" : "1",
      "nameZh" : "上七張犁",
      "pgp" : "0",
      "terminal" : "0",
      "latitude" : "24.19957",
      "inDis" : "50",
      "routeId" : "200",
      "seqNo" : "38"
   },
   {
      "GoBack" : "1",
      "longitude" : "120.67444",
      "outDis" : "50",
      "Id" : "5792",
      "oid" : "5911",
      "districtId" : "1",
      "nameZh" : "東寶社區(昌平路)",
      "pgp" : "0",
      "terminal" : "0",
      "latitude" : "24.20346",
      "inDis" : "50",
      "routeId" : "200",
      "seqNo" : "39"
   },
   {
      "GoBack" : "1",
      "longitude" : "120.67389",
      "outDis" : "50",
      "Id" : "2413",
      "oid" : "5891",
      "districtId" : "1",
      "nameZh" : "東員寶",
      "pgp" : "0",
      "terminal" : "0",
      "latitude" : "24.20858",
      "inDis" : "50",
      "routeId" : "200",
      "seqNo" : "40"
   },
   {
      "GoBack" : "1",
      "longitude" : "120.67306",
      "outDis" : "50",
      "Id" : "5238",
      "oid" : "310787782",
      "districtId" : "1",
      "nameZh" : "西員寶",
      "pgp" : "0",
      "terminal" : "0",
      "latitude" : "24.21091",
      "inDis" : "50",
      "routeId" : "200",
      "seqNo" : "41"
   },
   {
      "GoBack" : "1",
      "longitude" : "120.66894",
      "outDis" : "50",
      "Id" : "2894",
      "oid" : "6162",
      "districtId" : "1",
      "nameZh" : "馬岡厝",
      "pgp" : "0",
      "terminal" : "0",
      "latitude" : "24.21463",
      "inDis" : "50",
      "routeId" : "200",
      "seqNo" : "42"
   },
   {
      "GoBack" : "1",
      "longitude" : "120.66857",
      "outDis" : "50",
      "Id" : "1078",
      "oid" : "5078",
      "districtId" : "1",
      "nameZh" : "三和國小",
      "pgp" : "0",
      "terminal" : "0",
      "latitude" : "24.21948",
      "inDis" : "50",
      "routeId" : "200",
      "seqNo" : "43"
   },
   {
      "GoBack" : "1",
      "longitude" : "120.66954",
      "outDis" : "50",
      "Id" : "1075",
      "oid" : "5077",
      "districtId" : "1",
      "nameZh" : "三和",
      "pgp" : "0",
      "terminal" : "0",
      "latitude" : "24.22217",
      "inDis" : "50",
      "routeId" : "200",
      "seqNo" : "44"
   },
   {
      "GoBack" : "1",
      "longitude" : "120.67079",
      "outDis" : "50",
      "Id" : "5253",
      "oid" : "310787814",
      "districtId" : "1",
      "nameZh" : "頂三和",
      "pgp" : "0",
      "terminal" : "0",
      "latitude" : "24.22649",
      "inDis" : "50",
      "routeId" : "200",
      "seqNo" : "45"
   },
   {
      "GoBack" : "1",
      "longitude" : "120.67184",
      "outDis" : "50",
      "Id" : "3760",
      "oid" : "6612",
      "districtId" : "1",
      "nameZh" : "誼豐廠",
      "pgp" : "0",
      "terminal" : "0",
      "latitude" : "24.22856",
      "inDis" : "50",
      "routeId" : "200",
      "seqNo" : "46"
   },
   {
      "GoBack" : "1",
      "longitude" : "120.67324",
      "outDis" : "50",
      "Id" : "2507",
      "oid" : "5952",
      "districtId" : "1",
      "nameZh" : "花眉",
      "pgp" : "0",
      "terminal" : "0",
      "latitude" : "24.23139",
      "inDis" : "50",
      "routeId" : "200",
      "seqNo" : "47"
   },
   {
      "GoBack" : "1",
      "longitude" : "120.67716",
      "outDis" : "50",
      "Id" : "5284",
      "oid" : "311033691",
      "districtId" : "1",
      "nameZh" : "頂花眉",
      "pgp" : "0",
      "terminal" : "0",
      "latitude" : "24.23591",
      "inDis" : "50",
      "routeId" : "200",
      "seqNo" : "48"
   },
   {
      "GoBack" : "1",
      "longitude" : "120.6787",
      "outDis" : "50",
      "Id" : "2491",
      "oid" : "5944",
      "districtId" : "1",
      "nameZh" : "社南",
      "pgp" : "0",
      "terminal" : "0",
      "latitude" : "24.2387",
      "inDis" : "50",
      "routeId" : "200",
      "seqNo" : "49"
   },
   {
      "GoBack" : "1",
      "longitude" : "120.6814",
      "outDis" : "50",
      "Id" : "3126",
      "oid" : "6297",
      "districtId" : "1",
      "nameZh" : "頂社南",
      "pgp" : "0",
      "terminal" : "0",
      "latitude" : "24.2418",
      "inDis" : "50",
      "routeId" : "200",
      "seqNo" : "50"
   },
   {
      "GoBack" : "1",
      "longitude" : "120.68458",
      "outDis" : "50",
      "Id" : "2487",
      "oid" : "5942",
      "districtId" : "1",
      "nameZh" : "社口國小",
      "pgp" : "0",
      "terminal" : "0",
      "latitude" : "24.24576",
      "inDis" : "50",
      "routeId" : "200",
      "seqNo" : "51"
   },
   {
      "GoBack" : "1",
      "longitude" : "120.68563",
      "outDis" : "50",
      "Id" : "2486",
      "oid" : "5941",
      "districtId" : "1",
      "nameZh" : "社口",
      "pgp" : "0",
      "terminal" : "0",
      "latitude" : "24.24668",
      "inDis" : "50",
      "routeId" : "200",
      "seqNo" : "52"
   },
   {
      "GoBack" : "1",
      "longitude" : "120.6896",
      "outDis" : "50",
      "Id" : "2700",
      "oid" : "6056",
      "districtId" : "1",
      "nameZh" : "紅瓦厝口",
      "pgp" : "0",
      "terminal" : "0",
      "latitude" : "24.2476",
      "inDis" : "50",
      "routeId" : "200",
      "seqNo" : "53"
   },
   {
      "GoBack" : "1",
      "longitude" : "120.69323",
      "outDis" : "50",
      "Id" : "2993",
      "oid" : "6203",
      "districtId" : "1",
      "nameZh" : "望寮",
      "pgp" : "0",
      "terminal" : "0",
      "latitude" : "24.24841",
      "inDis" : "50",
      "routeId" : "200",
      "seqNo" : "54"
   },
   {
      "GoBack" : "1",
      "longitude" : "120.69799",
      "outDis" : "50",
      "Id" : "5438",
      "oid" : "5237",
      "districtId" : "1",
      "nameZh" : "岸裡國小",
      "pgp" : "0",
      "terminal" : "0",
      "latitude" : "24.2487",
      "inDis" : "50",
      "routeId" : "200",
      "seqNo" : "55"
   },
   {
      "GoBack" : "1",
      "longitude" : "120.70003",
      "outDis" : "50",
      "Id" : "4498",
      "oid" : "13826",
      "districtId" : "1",
      "nameZh" : "臺豐社區",
      "pgp" : "0",
      "terminal" : "0",
      "latitude" : "24.249",
      "inDis" : "50",
      "routeId" : "200",
      "seqNo" : "56"
   },
   {
      "GoBack" : "1",
      "longitude" : "120.70229",
      "outDis" : "50",
      "Id" : "2489",
      "oid" : "5943",
      "districtId" : "1",
      "nameZh" : "社皮鐵路巷",
      "pgp" : "0",
      "terminal" : "0",
      "latitude" : "24.24951",
      "inDis" : "50",
      "routeId" : "200",
      "seqNo" : "57"
   },
   {
      "GoBack" : "1",
      "longitude" : "120.70434",
      "outDis" : "50",
      "Id" : "2349",
      "oid" : "5856",
      "districtId" : "1",
      "nameZh" : "忠勤新村",
      "pgp" : "0",
      "terminal" : "0",
      "latitude" : "24.24962",
      "inDis" : "50",
      "routeId" : "200",
      "seqNo" : "58"
   },
   {
      "GoBack" : "1",
      "longitude" : "120.70672",
      "outDis" : "50",
      "Id" : "1065",
      "oid" : "5072",
      "districtId" : "1",
      "nameZh" : "三光新村",
      "pgp" : "0",
      "terminal" : "0",
      "latitude" : "24.24999",
      "inDis" : "50",
      "routeId" : "200",
      "seqNo" : "59"
   },
   {
      "GoBack" : "1",
      "longitude" : "120.70963",
      "outDis" : "50",
      "Id" : "4448",
      "oid" : "6688",
      "districtId" : "1",
      "nameZh" : "中正圓環西路口",
      "pgp" : "0",
      "terminal" : "0",
      "latitude" : "24.25039",
      "inDis" : "50",
      "routeId" : "200",
      "seqNo" : "60"
   },
   {
      "GoBack" : "1",
      "longitude" : "120.712",
      "outDis" : "50",
      "Id" : "3357",
      "oid" : "6406",
      "districtId" : "1",
      "nameZh" : "慈龍寺",
      "pgp" : "0",
      "terminal" : "0",
      "latitude" : "24.25079",
      "inDis" : "50",
      "routeId" : "200",
      "seqNo" : "61"
   },
   {
      "GoBack" : "1",
      "longitude" : "120.71526",
      "outDis" : "50",
      "Id" : "3939",
      "oid" : "6698",
      "districtId" : "1",
      "nameZh" : "豐原郵局",
      "pgp" : "0",
      "terminal" : "0",
      "latitude" : "24.25136",
      "inDis" : "50",
      "routeId" : "200",
      "seqNo" : "62"
   },
   {
      "GoBack" : "1",
      "longitude" : "120.71851",
      "outDis" : "50",
      "Id" : "3343",
      "oid" : "6397",
      "districtId" : "1",
      "nameZh" : "媽祖廟",
      "pgp" : "0",
      "terminal" : "0",
      "latitude" : "24.25157",
      "inDis" : "50",
      "routeId" : "200",
      "seqNo" : "63"
   },
   {
      "GoBack" : "1",
      "longitude" : "120.71986",
      "outDis" : "50",
      "Id" : "2309",
      "oid" : "5835",
      "districtId" : "1",
      "nameZh" : "和平街",
      "pgp" : "0",
      "terminal" : "0",
      "latitude" : "24.25233",
      "inDis" : "50",
      "routeId" : "200",
      "seqNo" : "64"
   },
   {
      "GoBack" : "1",
      "longitude" : "120.72154",
      "outDis" : "70",
      "Id" : "3935",
      "oid" : "6693",
      "districtId" : "1",
      "nameZh" : "豐原",
      "pgp" : "0",
      "terminal" : "0",
      "latitude" : "24.2538",
      "inDis" : "70",
      "routeId" : "200",
      "seqNo" : "65"
   },
   {
      "GoBack" : "2",
      "longitude" : "120.72154",
      "outDis" : "70",
      "Id" : "3935",
      "oid" : "6693",
      "districtId" : "1",
      "nameZh" : "豐原",
      "pgp" : "0",
      "terminal" : "0",
      "latitude" : "24.2538",
      "inDis" : "70",
      "routeId" : "200",
      "seqNo" : "1"
   },
   {
      "GoBack" : "2",
      "longitude" : "120.71851",
      "outDis" : "50",
      "Id" : "3343",
      "oid" : "6397",
      "districtId" : "1",
      "nameZh" : "媽祖廟",
      "pgp" : "0",
      "terminal" : "0",
      "latitude" : "24.25157",
      "inDis" : "50",
      "routeId" : "200",
      "seqNo" : "2"
   },
   {
      "GoBack" : "2",
      "longitude" : "120.71526",
      "outDis" : "50",
      "Id" : "3939",
      "oid" : "6698",
      "districtId" : "1",
      "nameZh" : "豐原郵局",
      "pgp" : "0",
      "terminal" : "0",
      "latitude" : "24.25136",
      "inDis" : "50",
      "routeId" : "200",
      "seqNo" : "3"
   },
   {
      "GoBack" : "2",
      "longitude" : "120.712",
      "outDis" : "50",
      "Id" : "3357",
      "oid" : "6406",
      "districtId" : "1",
      "nameZh" : "慈龍寺",
      "pgp" : "0",
      "terminal" : "0",
      "latitude" : "24.25079",
      "inDis" : "50",
      "routeId" : "200",
      "seqNo" : "4"
   },
   {
      "GoBack" : "2",
      "longitude" : "120.70963",
      "outDis" : "50",
      "Id" : "4448",
      "oid" : "6688",
      "districtId" : "1",
      "nameZh" : "中正圓環西路口",
      "pgp" : "0",
      "terminal" : "0",
      "latitude" : "24.25039",
      "inDis" : "50",
      "routeId" : "200",
      "seqNo" : "5"
   },
   {
      "GoBack" : "2",
      "longitude" : "120.70672",
      "outDis" : "50",
      "Id" : "1065",
      "oid" : "5072",
      "districtId" : "1",
      "nameZh" : "三光新村",
      "pgp" : "0",
      "terminal" : "0",
      "latitude" : "24.24999",
      "inDis" : "50",
      "routeId" : "200",
      "seqNo" : "6"
   },
   {
      "GoBack" : "2",
      "longitude" : "120.70434",
      "outDis" : "50",
      "Id" : "2349",
      "oid" : "5856",
      "districtId" : "1",
      "nameZh" : "忠勤新村",
      "pgp" : "0",
      "terminal" : "0",
      "latitude" : "24.24962",
      "inDis" : "50",
      "routeId" : "200",
      "seqNo" : "7"
   },
   {
      "GoBack" : "2",
      "longitude" : "120.70229",
      "outDis" : "50",
      "Id" : "2489",
      "oid" : "5943",
      "districtId" : "1",
      "nameZh" : "社皮鐵路巷",
      "pgp" : "0",
      "terminal" : "0",
      "latitude" : "24.24951",
      "inDis" : "50",
      "routeId" : "200",
      "seqNo" : "8"
   },
   {
      "GoBack" : "2",
      "longitude" : "120.70003",
      "outDis" : "50",
      "Id" : "4498",
      "oid" : "13826",
      "districtId" : "1",
      "nameZh" : "臺豐社區",
      "pgp" : "0",
      "terminal" : "0",
      "latitude" : "24.249",
      "inDis" : "50",
      "routeId" : "200",
      "seqNo" : "9"
   },
   {
      "GoBack" : "2",
      "longitude" : "120.69799",
      "outDis" : "50",
      "Id" : "5438",
      "oid" : "5237",
      "districtId" : "1",
      "nameZh" : "岸裡國小",
      "pgp" : "0",
      "terminal" : "0",
      "latitude" : "24.2487",
      "inDis" : "50",
      "routeId" : "200",
      "seqNo" : "10"
   },
   {
      "GoBack" : "2",
      "longitude" : "120.69323",
      "outDis" : "50",
      "Id" : "2993",
      "oid" : "6203",
      "districtId" : "1",
      "nameZh" : "望寮",
      "pgp" : "0",
      "terminal" : "0",
      "latitude" : "24.24841",
      "inDis" : "50",
      "routeId" : "200",
      "seqNo" : "11"
   },
   {
      "GoBack" : "2",
      "longitude" : "120.6896",
      "outDis" : "50",
      "Id" : "2700",
      "oid" : "6056",
      "districtId" : "1",
      "nameZh" : "紅瓦厝口",
      "pgp" : "0",
      "terminal" : "0",
      "latitude" : "24.2476",
      "inDis" : "50",
      "routeId" : "200",
      "seqNo" : "12"
   },
   {
      "GoBack" : "2",
      "longitude" : "120.68458",
      "outDis" : "50",
      "Id" : "2487",
      "oid" : "5942",
      "districtId" : "1",
      "nameZh" : "社口國小",
      "pgp" : "0",
      "terminal" : "0",
      "latitude" : "24.24576",
      "inDis" : "50",
      "routeId" : "200",
      "seqNo" : "13"
   },
   {
      "GoBack" : "2",
      "longitude" : "120.6814",
      "outDis" : "50",
      "Id" : "3126",
      "oid" : "6297",
      "districtId" : "1",
      "nameZh" : "頂社南",
      "pgp" : "0",
      "terminal" : "0",
      "latitude" : "24.2418",
      "inDis" : "50",
      "routeId" : "200",
      "seqNo" : "14"
   },
   {
      "GoBack" : "2",
      "longitude" : "120.6787",
      "outDis" : "50",
      "Id" : "2491",
      "oid" : "5944",
      "districtId" : "1",
      "nameZh" : "社南",
      "pgp" : "0",
      "terminal" : "0",
      "latitude" : "24.2387",
      "inDis" : "50",
      "routeId" : "200",
      "seqNo" : "15"
   },
   {
      "GoBack" : "2",
      "longitude" : "120.67716",
      "outDis" : "50",
      "Id" : "5284",
      "oid" : "311033691",
      "districtId" : "1",
      "nameZh" : "頂花眉",
      "pgp" : "0",
      "terminal" : "0",
      "latitude" : "24.23591",
      "inDis" : "50",
      "routeId" : "200",
      "seqNo" : "16"
   },
   {
      "GoBack" : "2",
      "longitude" : "120.67324",
      "outDis" : "50",
      "Id" : "2507",
      "oid" : "5952",
      "districtId" : "1",
      "nameZh" : "花眉",
      "pgp" : "0",
      "terminal" : "0",
      "latitude" : "24.23139",
      "inDis" : "50",
      "routeId" : "200",
      "seqNo" : "17"
   },
   {
      "GoBack" : "2",
      "longitude" : "120.67184",
      "outDis" : "50",
      "Id" : "3760",
      "oid" : "6612",
      "districtId" : "1",
      "nameZh" : "誼豐廠",
      "pgp" : "0",
      "terminal" : "0",
      "latitude" : "24.22856",
      "inDis" : "50",
      "routeId" : "200",
      "seqNo" : "18"
   },
   {
      "GoBack" : "2",
      "longitude" : "120.67079",
      "outDis" : "50",
      "Id" : "5253",
      "oid" : "310787815",
      "districtId" : "1",
      "nameZh" : "頂三和",
      "pgp" : "0",
      "terminal" : "0",
      "latitude" : "24.22649",
      "inDis" : "50",
      "routeId" : "200",
      "seqNo" : "19"
   },
   {
      "GoBack" : "2",
      "longitude" : "120.66954",
      "outDis" : "50",
      "Id" : "1075",
      "oid" : "5077",
      "districtId" : "1",
      "nameZh" : "三和",
      "pgp" : "0",
      "terminal" : "0",
      "latitude" : "24.22217",
      "inDis" : "50",
      "routeId" : "200",
      "seqNo" : "20"
   },
   {
      "GoBack" : "2",
      "longitude" : "120.66857",
      "outDis" : "50",
      "Id" : "1078",
      "oid" : "5078",
      "districtId" : "1",
      "nameZh" : "三和國小",
      "pgp" : "0",
      "terminal" : "0",
      "latitude" : "24.21948",
      "inDis" : "50",
      "routeId" : "200",
      "seqNo" : "21"
   },
   {
      "GoBack" : "2",
      "longitude" : "120.66894",
      "outDis" : "50",
      "Id" : "2894",
      "oid" : "6162",
      "districtId" : "1",
      "nameZh" : "馬岡厝",
      "pgp" : "0",
      "terminal" : "0",
      "latitude" : "24.21463",
      "inDis" : "50",
      "routeId" : "200",
      "seqNo" : "22"
   },
   {
      "GoBack" : "2",
      "longitude" : "120.67306",
      "outDis" : "50",
      "Id" : "5238",
      "oid" : "310787783",
      "districtId" : "1",
      "nameZh" : "西員寶",
      "pgp" : "0",
      "terminal" : "0",
      "latitude" : "24.21091",
      "inDis" : "50",
      "routeId" : "200",
      "seqNo" : "23"
   },
   {
      "GoBack" : "2",
      "longitude" : "120.67389",
      "outDis" : "50",
      "Id" : "2413",
      "oid" : "5891",
      "districtId" : "1",
      "nameZh" : "東員寶",
      "pgp" : "0",
      "terminal" : "0",
      "latitude" : "24.20858",
      "inDis" : "50",
      "routeId" : "200",
      "seqNo" : "24"
   },
   {
      "GoBack" : "2",
      "longitude" : "120.67444",
      "outDis" : "50",
      "Id" : "5792",
      "oid" : "5911",
      "districtId" : "1",
      "nameZh" : "東寶社區(昌平路)",
      "pgp" : "0",
      "terminal" : "0",
      "latitude" : "24.20346",
      "inDis" : "50",
      "routeId" : "200",
      "seqNo" : "25"
   },
   {
      "GoBack" : "2",
      "longitude" : "120.67741",
      "outDis" : "50",
      "Id" : "0342",
      "oid" : "356F477ADCC5423FAAE3035705D2A76A",
      "districtId" : "1",
      "nameZh" : "上七張犁",
      "pgp" : "0",
      "terminal" : "0",
      "latitude" : "24.19957",
      "inDis" : "50",
      "routeId" : "200",
      "seqNo" : "26"
   },
   {
      "GoBack" : "2",
      "longitude" : "120.67937",
      "outDis" : "50",
      "Id" : "0305",
      "oid" : "5027",
      "districtId" : "1",
      "nameZh" : "七張犁",
      "pgp" : "0",
      "terminal" : "0",
      "latitude" : "24.19789",
      "inDis" : "50",
      "routeId" : "200",
      "seqNo" : "27"
   },
   {
      "GoBack" : "2",
      "longitude" : "120.68274",
      "outDis" : "50",
      "Id" : "5372",
      "oid" : "310787816",
      "districtId" : "1",
      "nameZh" : "四民頂街(昌平路)",
      "pgp" : "0",
      "terminal" : "0",
      "latitude" : "24.19494",
      "inDis" : "50",
      "routeId" : "200",
      "seqNo" : "28"
   },
   {
      "GoBack" : "2",
      "longitude" : "120.68227",
      "outDis" : "50",
      "Id" : "5373",
      "oid" : "319311011",
      "districtId" : "1",
      "nameZh" : "四張犁(昌平路)",
      "pgp" : "0",
      "terminal" : "0",
      "latitude" : "24.19236",
      "inDis" : "50",
      "routeId" : "200",
      "seqNo" : "29"
   },
   {
      "GoBack" : "2",
      "longitude" : "120.68416",
      "outDis" : "50",
      "Id" : "0541",
      "oid" : "5571",
      "districtId" : "1",
      "nameZh" : "四民市場",
      "pgp" : "0",
      "terminal" : "0",
      "latitude" : "24.19111",
      "inDis" : "50",
      "routeId" : "200",
      "seqNo" : "30"
   },
   {
      "GoBack" : "2",
      "longitude" : "120.68381",
      "outDis" : "50",
      "Id" : "0791",
      "oid" : "31CB8A1044604694A02972E5728230DB",
      "districtId" : "1",
      "nameZh" : "陸光八村",
      "pgp" : "0",
      "terminal" : "0",
      "latitude" : "24.19133",
      "inDis" : "50",
      "routeId" : "200",
      "seqNo" : "31"
   },
   {
      "GoBack" : "2",
      "longitude" : "120.68618",
      "outDis" : "50",
      "Id" : "0698",
      "oid" : "5986",
      "districtId" : "1",
      "nameZh" : "南四張犁",
      "pgp" : "0",
      "terminal" : "0",
      "latitude" : "24.18885",
      "inDis" : "50",
      "routeId" : "200",
      "seqNo" : "32"
   },
   {
      "GoBack" : "2",
      "longitude" : "120.68696",
      "outDis" : "50",
      "Id" : "0310",
      "oid" : "BA5936B6219D43B6A4841A64B371EC60",
      "districtId" : "1",
      "nameZh" : "八二三紀念公園",
      "pgp" : "0",
      "terminal" : "0",
      "latitude" : "24.18724",
      "inDis" : "50",
      "routeId" : "200",
      "seqNo" : "33"
   },
   {
      "GoBack" : "2",
      "longitude" : "120.68733",
      "outDis" : "50",
      "Id" : "0589",
      "oid" : "4B4E3D32C52943FC9A47297FBBB44C15",
      "districtId" : "1",
      "nameZh" : "光照寺",
      "pgp" : "0",
      "terminal" : "0",
      "latitude" : "24.18442",
      "inDis" : "50",
      "routeId" : "200",
      "seqNo" : "34"
   },
   {
      "GoBack" : "2",
      "longitude" : "120.68901",
      "outDis" : "50",
      "Id" : "0321",
      "oid" : "95DB151D2FB749BE861ED494770CFE0A",
      "districtId" : "1",
      "nameZh" : "三分埔",
      "pgp" : "0",
      "terminal" : "0",
      "latitude" : "24.18136",
      "inDis" : "50",
      "routeId" : "200",
      "seqNo" : "35"
   },
   {
      "GoBack" : "2",
      "longitude" : "120.68968",
      "outDis" : "50",
      "Id" : "0676",
      "oid" : "40357650E8B249B088EE826E96C6BB8A",
      "districtId" : "1",
      "nameZh" : "松竹國小",
      "pgp" : "0",
      "terminal" : "0",
      "latitude" : "24.18045",
      "inDis" : "50",
      "routeId" : "200",
      "seqNo" : "36"
   },
   {
      "GoBack" : "2",
      "longitude" : "120.69059",
      "outDis" : "50",
      "Id" : "5077",
      "oid" : "33392F4023DB464B85A330EBE54CA5D1",
      "districtId" : "1",
      "nameZh" : "頂頭張(昌平路)",
      "pgp" : "0",
      "terminal" : "0",
      "latitude" : "24.17862",
      "inDis" : "50",
      "routeId" : "200",
      "seqNo" : "37"
   },
   {
      "GoBack" : "2",
      "longitude" : "120.69044",
      "outDis" : "50",
      "Id" : "5078",
      "oid" : "BD4334FAA7744A35AF2C169524E7F8DF",
      "districtId" : "1",
      "nameZh" : "頭張(昌平路)",
      "pgp" : "0",
      "terminal" : "0",
      "latitude" : "24.17699",
      "inDis" : "50",
      "routeId" : "200",
      "seqNo" : "38"
   },
   {
      "GoBack" : "2",
      "longitude" : "120.69043",
      "outDis" : "50",
      "Id" : "5102",
      "oid" : "179A1631058545DEAFF2128CA6F9D0C9",
      "districtId" : "1",
      "nameZh" : "民俗公園(昌平路)",
      "pgp" : "0",
      "terminal" : "0",
      "latitude" : "24.17466",
      "inDis" : "50",
      "routeId" : "200",
      "seqNo" : "39"
   },
   {
      "GoBack" : "2",
      "longitude" : "120.69073",
      "outDis" : "50",
      "Id" : "4565",
      "oid" : "316064110",
      "districtId" : "1",
      "nameZh" : "昌平文心路口",
      "pgp" : "0",
      "terminal" : "0",
      "latitude" : "24.17239",
      "inDis" : "50",
      "routeId" : "200",
      "seqNo" : "40"
   },
   {
      "GoBack" : "2",
      "longitude" : "120.69114",
      "outDis" : "50",
      "Id" : "0793",
      "oid" : "319895955",
      "districtId" : "1",
      "nameZh" : "頂二分埔",
      "pgp" : "0",
      "terminal" : "0",
      "latitude" : "24.17074",
      "inDis" : "50",
      "routeId" : "200",
      "seqNo" : "41"
   },
   {
      "GoBack" : "2",
      "longitude" : "120.69218",
      "outDis" : "50",
      "Id" : "5206",
      "oid" : "310787718",
      "districtId" : "1",
      "nameZh" : "下二分埔",
      "pgp" : "0",
      "terminal" : "0",
      "latitude" : "24.16912",
      "inDis" : "50",
      "routeId" : "200",
      "seqNo" : "42"
   },
   {
      "GoBack" : "2",
      "longitude" : "120.69423",
      "outDis" : "50",
      "Id" : "4580",
      "oid" : "318D9E9D9A4A40FEAF7702C93AE18127",
      "districtId" : "1",
      "nameZh" : "昌平北屯路口",
      "pgp" : "0",
      "terminal" : "0",
      "latitude" : "24.16619",
      "inDis" : "50",
      "routeId" : "200",
      "seqNo" : "43"
   },
   {
      "GoBack" : "2",
      "longitude" : "120.69418",
      "outDis" : "50",
      "Id" : "0492",
      "oid" : "13283",
      "districtId" : "1",
      "nameZh" : "北屯",
      "pgp" : "0",
      "terminal" : "0",
      "latitude" : "24.16504",
      "inDis" : "50",
      "routeId" : "200",
      "seqNo" : "44"
   },
   {
      "GoBack" : "2",
      "longitude" : "120.69318",
      "outDis" : "50",
      "Id" : "5405",
      "oid" : "13346",
      "districtId" : "1",
      "nameZh" : "北屯國小(北屯路)",
      "pgp" : "0",
      "terminal" : "0",
      "latitude" : "24.16325",
      "inDis" : "50",
      "routeId" : "200",
      "seqNo" : "45"
   },
   {
      "GoBack" : "2",
      "longitude" : "120.69209",
      "outDis" : "50",
      "Id" : "0892",
      "oid" : "6537",
      "districtId" : "1",
      "nameZh" : "監理站",
      "pgp" : "0",
      "terminal" : "0",
      "latitude" : "24.16106",
      "inDis" : "50",
      "routeId" : "200",
      "seqNo" : "46"
   },
   {
      "GoBack" : "2",
      "longitude" : "120.68992",
      "outDis" : "50",
      "Id" : "0960",
      "oid" : "6730",
      "districtId" : "1",
      "nameZh" : "寶覺寺",
      "pgp" : "0",
      "terminal" : "0",
      "latitude" : "24.15803",
      "inDis" : "50",
      "routeId" : "200",
      "seqNo" : "47"
   },
   {
      "GoBack" : "2",
      "longitude" : "120.6885",
      "outDis" : "50",
      "Id" : "4399",
      "oid" : "6417",
      "districtId" : "1",
      "nameZh" : "新民高中(三民路)",
      "pgp" : "0",
      "terminal" : "0",
      "latitude" : "24.1568",
      "inDis" : "50",
      "routeId" : "200",
      "seqNo" : "48"
   },
   {
      "GoBack" : "2",
      "longitude" : "120.6871",
      "outDis" : "50",
      "Id" : "0934",
      "oid" : "A369F80BD1F74F92A75B79E3B1367FC9",
      "districtId" : "1",
      "nameZh" : "三民錦中街口",
      "pgp" : "0",
      "terminal" : "0",
      "latitude" : "24.15556",
      "inDis" : "50",
      "routeId" : "200",
      "seqNo" : "49"
   },
   {
      "GoBack" : "2",
      "longitude" : "120.68571",
      "outDis" : "50",
      "Id" : "0047",
      "oid" : "5014",
      "districtId" : "1",
      "nameZh" : "一心市場",
      "pgp" : "0",
      "terminal" : "0",
      "latitude" : "24.15366",
      "inDis" : "50",
      "routeId" : "200",
      "seqNo" : "50"
   },
   {
      "GoBack" : "2",
      "longitude" : "120.6852",
      "outDis" : "50",
      "Id" : "0046",
      "oid" : "5310",
      "districtId" : "1",
      "nameZh" : "中友百貨",
      "pgp" : "0",
      "terminal" : "0",
      "latitude" : "24.15251",
      "inDis" : "50",
      "routeId" : "200",
      "seqNo" : "51"
   },
   {
      "GoBack" : "2",
      "longitude" : "120.68413",
      "outDis" : "50",
      "Id" : "0045",
      "oid" : "5556",
      "districtId" : "1",
      "nameZh" : "國立臺中科技大學",
      "pgp" : "0",
      "terminal" : "0",
      "latitude" : "24.14987",
      "inDis" : "50",
      "routeId" : "200",
      "seqNo" : "52"
   },
   {
      "GoBack" : "2",
      "longitude" : "120.68448",
      "outDis" : "50",
      "Id" : "1513",
      "oid" : "15989",
      "districtId" : "1",
      "nameZh" : "中興堂",
      "pgp" : "0",
      "terminal" : "0",
      "latitude" : "24.14626",
      "inDis" : "50",
      "routeId" : "200",
      "seqNo" : "53"
   },
   {
      "GoBack" : "2",
      "longitude" : "120.68616",
      "outDis" : "50",
      "Id" : "4544",
      "oid" : "13457",
      "districtId" : "1",
      "nameZh" : "臺中公園(雙十路)",
      "pgp" : "0",
      "terminal" : "0",
      "latitude" : "24.14418",
      "inDis" : "50",
      "routeId" : "200",
      "seqNo" : "54"
   },
   {
      "GoBack" : "2",
      "longitude" : "120.68576",
      "outDis" : "50",
      "Id" : "0402",
      "oid" : "9402E370594D47859D7EE2FD423355D0",
      "districtId" : "1",
      "nameZh" : "干城站",
      "pgp" : "0",
      "terminal" : "0",
      "latitude" : "24.1418",
      "inDis" : "50",
      "routeId" : "200",
      "seqNo" : "55"
   },
   {
      "GoBack" : "2",
      "longitude" : "120.68387",
      "outDis" : "170",
      "Id" : "1824",
      "oid" : "5545",
      "districtId" : "1",
      "nameZh" : "臺中火車站",
      "pgp" : "0",
      "terminal" : "0",
      "latitude" : "24.13663",
      "inDis" : "50",
      "routeId" : "200",
      "seqNo" : "56"
   },
   {
      "GoBack" : "2",
      "longitude" : "120.68111",
      "outDis" : "50",
      "Id" : "4284",
      "oid" : "13343",
      "districtId" : "1",
      "nameZh" : "民權繼光街口",
      "pgp" : "0",
      "terminal" : "0",
      "latitude" : "24.1366",
      "inDis" : "50",
      "routeId" : "200",
      "seqNo" : "57"
   },
   {
      "GoBack" : "2",
      "longitude" : "120.67785",
      "outDis" : "50",
      "Id" : "0071",
      "oid" : "13287",
      "districtId" : "1",
      "nameZh" : "臺中女中",
      "pgp" : "0",
      "terminal" : "0",
      "latitude" : "24.13571",
      "inDis" : "50",
      "routeId" : "200",
      "seqNo" : "58"
   },
   {
      "GoBack" : "2",
      "longitude" : "120.67577",
      "outDis" : "50",
      "Id" : "0070",
      "oid" : "13305",
      "districtId" : "1",
      "nameZh" : "地方法院",
      "pgp" : "0",
      "terminal" : "0",
      "latitude" : "24.13387",
      "inDis" : "50",
      "routeId" : "200",
      "seqNo" : "59"
   },
   {
      "GoBack" : "2",
      "longitude" : "120.66997",
      "outDis" : "50",
      "Id" : "5778",
      "oid" : "320612811",
      "districtId" : "1",
      "nameZh" : "公館公園(自由路)",
      "pgp" : "0",
      "terminal" : "0",
      "latitude" : "24.13199",
      "inDis" : "50",
      "routeId" : "200",
      "seqNo" : "60"
   },
   {
      "GoBack" : "2",
      "longitude" : "120.66682",
      "outDis" : "50",
      "Id" : "5763",
      "oid" : "320612809",
      "districtId" : "1",
      "nameZh" : "奉順宮",
      "pgp" : "0",
      "terminal" : "0",
      "latitude" : "24.13142",
      "inDis" : "50",
      "routeId" : "200",
      "seqNo" : "61"
   },
   {
      "GoBack" : "2",
      "longitude" : "120.66317",
      "outDis" : "50",
      "Id" : "5764",
      "oid" : "320612808",
      "districtId" : "1",
      "nameZh" : "三民西民興街口",
      "pgp" : "0",
      "terminal" : "0",
      "latitude" : "24.13014",
      "inDis" : "50",
      "routeId" : "200",
      "seqNo" : "62"
   },
   {
      "GoBack" : "2",
      "longitude" : "120.66008",
      "outDis" : "50",
      "Id" : "5765",
      "oid" : "320612807",
      "districtId" : "1",
      "nameZh" : "三民西柳川東路口",
      "pgp" : "0",
      "terminal" : "0",
      "latitude" : "24.13012",
      "inDis" : "50",
      "routeId" : "200",
      "seqNo" : "63"
   },
   {
      "GoBack" : "2",
      "longitude" : "120.65581",
      "outDis" : "50",
      "Id" : "5766",
      "oid" : "320612806",
      "districtId" : "1",
      "nameZh" : "豐富公園",
      "pgp" : "0",
      "terminal" : "0",
      "latitude" : "24.12975",
      "inDis" : "50",
      "routeId" : "200",
      "seqNo" : "64"
   }
]
