[
   {
      "GoBack" : "1",
      "longitude" : "120.73515",
      "outDis" : "50",
      "Id" : "5422",
      "oid" : "4000",
      "districtId" : "1",
      "nameZh" : "后里馬場",
      "pgp" : "0",
      "terminal" : "0",
      "latitude" : "24.29857",
      "inDis" : "50",
      "routeId" : "214",
      "seqNo" : "1"
   },
   {
      "GoBack" : "1",
      "longitude" : "120.73095",
      "outDis" : "50",
      "Id" : "5421",
      "oid" : "4001",
      "districtId" : "1",
      "nameZh" : "內東路營區",
      "pgp" : "0",
      "terminal" : "0",
      "latitude" : "24.30467",
      "inDis" : "50",
      "routeId" : "214",
      "seqNo" : "2"
   },
   {
      "GoBack" : "1",
      "longitude" : "120.73086",
      "outDis" : "50",
      "Id" : "5420",
      "oid" : "4002",
      "districtId" : "1",
      "nameZh" : "內東大山路口",
      "pgp" : "0",
      "terminal" : "0",
      "latitude" : "24.30756",
      "inDis" : "50",
      "routeId" : "214",
      "seqNo" : "3"
   },
   {
      "GoBack" : "1",
      "longitude" : "120.73032",
      "outDis" : "50",
      "Id" : "5419",
      "oid" : "4003",
      "districtId" : "1",
      "nameZh" : "后里火車站(后里國小)",
      "pgp" : "0",
      "terminal" : "0",
      "latitude" : "24.30933",
      "inDis" : "50",
      "routeId" : "214",
      "seqNo" : "4"
   },
   {
      "GoBack" : "1",
      "longitude" : "120.72843",
      "outDis" : "50",
      "Id" : "5418",
      "oid" : "4004",
      "districtId" : "1",
      "nameZh" : "后里義里郵局",
      "pgp" : "0",
      "terminal" : "0",
      "latitude" : "24.30923",
      "inDis" : "50",
      "routeId" : "214",
      "seqNo" : "5"
   },
   {
      "GoBack" : "1",
      "longitude" : "120.72468",
      "outDis" : "50",
      "Id" : "5417",
      "oid" : "4005",
      "districtId" : "1",
      "nameZh" : "甲后路329巷口",
      "pgp" : "0",
      "terminal" : "0",
      "latitude" : "24.30905",
      "inDis" : "50",
      "routeId" : "214",
      "seqNo" : "6"
   },
   {
      "GoBack" : "1",
      "longitude" : "120.7209",
      "outDis" : "50",
      "Id" : "1169",
      "oid" : "4006",
      "districtId" : "1",
      "nameZh" : "下后里",
      "pgp" : "0",
      "terminal" : "0",
      "latitude" : "24.30898",
      "inDis" : "50",
      "routeId" : "214",
      "seqNo" : "7"
   },
   {
      "GoBack" : "1",
      "longitude" : "120.71769",
      "outDis" : "50",
      "Id" : "5416",
      "oid" : "4007",
      "districtId" : "1",
      "nameZh" : "成功甲后路口",
      "pgp" : "0",
      "terminal" : "0",
      "latitude" : "24.31026",
      "inDis" : "50",
      "routeId" : "214",
      "seqNo" : "8"
   },
   {
      "GoBack" : "1",
      "longitude" : "120.71932",
      "outDis" : "50",
      "Id" : "5415",
      "oid" : "4008",
      "districtId" : "1",
      "nameZh" : "成功路105巷口",
      "pgp" : "0",
      "terminal" : "0",
      "latitude" : "24.31245",
      "inDis" : "50",
      "routeId" : "214",
      "seqNo" : "9"
   },
   {
      "GoBack" : "1",
      "longitude" : "120.72352",
      "outDis" : "50",
      "Id" : "5046",
      "oid" : "4009",
      "districtId" : "1",
      "nameZh" : "三豐泉洲路口",
      "pgp" : "0",
      "terminal" : "0",
      "latitude" : "24.31333",
      "inDis" : "50",
      "routeId" : "214",
      "seqNo" : "10"
   },
   {
      "GoBack" : "1",
      "longitude" : "120.72493",
      "outDis" : "50",
      "Id" : "5469",
      "oid" : "4010",
      "districtId" : "1",
      "nameZh" : "三豐后科南路口",
      "pgp" : "0",
      "terminal" : "0",
      "latitude" : "24.31873",
      "inDis" : "50",
      "routeId" : "214",
      "seqNo" : "11"
   },
   {
      "GoBack" : "1",
      "longitude" : "120.72366",
      "outDis" : "50",
      "Id" : "5045",
      "oid" : "4011",
      "districtId" : "1",
      "nameZh" : "三豐九甲路口",
      "pgp" : "0",
      "terminal" : "0",
      "latitude" : "24.32342",
      "inDis" : "50",
      "routeId" : "214",
      "seqNo" : "12"
   },
   {
      "GoBack" : "1",
      "longitude" : "120.72837",
      "outDis" : "50",
      "Id" : "3271",
      "oid" : "4012",
      "districtId" : "1",
      "nameZh" : "發電廠",
      "pgp" : "0",
      "terminal" : "0",
      "latitude" : "24.32585",
      "inDis" : "50",
      "routeId" : "214",
      "seqNo" : "13"
   },
   {
      "GoBack" : "1",
      "longitude" : "120.73476",
      "outDis" : "50",
      "Id" : "5059",
      "oid" : "4013",
      "districtId" : "1",
      "nameZh" : "頂下城",
      "pgp" : "0",
      "terminal" : "0",
      "latitude" : "24.32515",
      "inDis" : "50",
      "routeId" : "214",
      "seqNo" : "14"
   },
   {
      "GoBack" : "1",
      "longitude" : "120.73989",
      "outDis" : "50",
      "Id" : "1164",
      "oid" : "4014",
      "districtId" : "1",
      "nameZh" : "下城",
      "pgp" : "0",
      "terminal" : "0",
      "latitude" : "24.32379",
      "inDis" : "50",
      "routeId" : "214",
      "seqNo" : "15"
   },
   {
      "GoBack" : "1",
      "longitude" : "120.74317",
      "outDis" : "50",
      "Id" : "3311",
      "oid" : "4015",
      "districtId" : "1",
      "nameZh" : "集會所",
      "pgp" : "0",
      "terminal" : "0",
      "latitude" : "24.32202",
      "inDis" : "50",
      "routeId" : "214",
      "seqNo" : "16"
   },
   {
      "GoBack" : "1",
      "longitude" : "120.74576",
      "outDis" : "50",
      "Id" : "2988",
      "oid" : "4016",
      "districtId" : "1",
      "nameZh" : "教會前",
      "pgp" : "0",
      "terminal" : "0",
      "latitude" : "24.32237",
      "inDis" : "50",
      "routeId" : "214",
      "seqNo" : "17"
   },
   {
      "GoBack" : "1",
      "longitude" : "120.74882",
      "outDis" : "50",
      "Id" : "2794",
      "oid" : "4017",
      "districtId" : "1",
      "nameZh" : "泰安",
      "pgp" : "0",
      "terminal" : "0",
      "latitude" : "24.32286",
      "inDis" : "50",
      "routeId" : "214",
      "seqNo" : "18"
   },
   {
      "GoBack" : "1",
      "longitude" : "120.75146",
      "outDis" : "50",
      "Id" : "5055",
      "oid" : "4018",
      "districtId" : "1",
      "nameZh" : "泰安派出所",
      "pgp" : "0",
      "terminal" : "0",
      "latitude" : "24.32399",
      "inDis" : "50",
      "routeId" : "214",
      "seqNo" : "19"
   },
   {
      "GoBack" : "1",
      "longitude" : "120.74864",
      "outDis" : "50",
      "Id" : "5056",
      "oid" : "4019",
      "districtId" : "1",
      "nameZh" : "泰安國小",
      "pgp" : "0",
      "terminal" : "0",
      "latitude" : "24.3262",
      "inDis" : "50",
      "routeId" : "214",
      "seqNo" : "20"
   },
   {
      "GoBack" : "1",
      "longitude" : "120.74495",
      "outDis" : "50",
      "Id" : "0988",
      "oid" : "4020",
      "districtId" : "1",
      "nameZh" : "七塊厝",
      "pgp" : "0",
      "terminal" : "0",
      "latitude" : "24.328",
      "inDis" : "50",
      "routeId" : "214",
      "seqNo" : "21"
   },
   {
      "GoBack" : "1",
      "longitude" : "120.74221",
      "outDis" : "50",
      "Id" : "5052",
      "oid" : "4021",
      "districtId" : "1",
      "nameZh" : "安眉興安路口",
      "pgp" : "0",
      "terminal" : "0",
      "latitude" : "24.32926",
      "inDis" : "50",
      "routeId" : "214",
      "seqNo" : "22"
   },
   {
      "GoBack" : "1",
      "longitude" : "120.73607",
      "outDis" : "50",
      "Id" : "5051",
      "oid" : "4022",
      "districtId" : "1",
      "nameZh" : "安眉福美路口",
      "pgp" : "0",
      "terminal" : "0",
      "latitude" : "24.33048",
      "inDis" : "50",
      "routeId" : "214",
      "seqNo" : "23"
   },
   {
      "GoBack" : "1",
      "longitude" : "120.72948",
      "outDis" : "50",
      "Id" : "5050",
      "oid" : "4023",
      "districtId" : "1",
      "nameZh" : "公館(安眉路)",
      "pgp" : "0",
      "terminal" : "0",
      "latitude" : "24.33209",
      "inDis" : "50",
      "routeId" : "214",
      "seqNo" : "24"
   },
   {
      "GoBack" : "1",
      "longitude" : "120.72324",
      "outDis" : "50",
      "Id" : "2229",
      "oid" : "4024",
      "districtId" : "1",
      "nameZh" : "尾社",
      "pgp" : "0",
      "terminal" : "0",
      "latitude" : "24.33327",
      "inDis" : "50",
      "routeId" : "214",
      "seqNo" : "25"
   },
   {
      "GoBack" : "1",
      "longitude" : "120.71972",
      "outDis" : "50",
      "Id" : "0993",
      "oid" : "4025",
      "districtId" : "1",
      "nameZh" : "九股",
      "pgp" : "0",
      "terminal" : "0",
      "latitude" : "24.33368",
      "inDis" : "50",
      "routeId" : "214",
      "seqNo" : "26"
   },
   {
      "GoBack" : "1",
      "longitude" : "120.71242",
      "outDis" : "50",
      "Id" : "0211",
      "oid" : "4026",
      "districtId" : "1",
      "nameZh" : "土地公廟(安眉路)",
      "pgp" : "0",
      "terminal" : "0",
      "latitude" : "24.32971",
      "inDis" : "50",
      "routeId" : "214",
      "seqNo" : "27"
   },
   {
      "GoBack" : "1",
      "longitude" : "120.70866",
      "outDis" : "50",
      "Id" : "0213",
      "oid" : "4027",
      "districtId" : "1",
      "nameZh" : "永豐1鄰",
      "pgp" : "0",
      "terminal" : "0",
      "latitude" : "24.33375",
      "inDis" : "50",
      "routeId" : "214",
      "seqNo" : "28"
   },
   {
      "GoBack" : "1",
      "longitude" : "120.69993",
      "outDis" : "50",
      "Id" : "0214",
      "oid" : "4028",
      "districtId" : "1",
      "nameZh" : "六分月眉北路口",
      "pgp" : "0",
      "terminal" : "0",
      "latitude" : "24.33481",
      "inDis" : "50",
      "routeId" : "214",
      "seqNo" : "29"
   },
   {
      "GoBack" : "1",
      "longitude" : "120.69122",
      "outDis" : "50",
      "Id" : "0219",
      "oid" : "4029",
      "districtId" : "1",
      "nameZh" : "永豐農憩小站",
      "pgp" : "0",
      "terminal" : "0",
      "latitude" : "24.33399",
      "inDis" : "50",
      "routeId" : "214",
      "seqNo" : "30"
   },
   {
      "GoBack" : "1",
      "longitude" : "120.68858",
      "outDis" : "50",
      "Id" : "0221",
      "oid" : "4030",
      "districtId" : "1",
      "nameZh" : "六分新厝路口",
      "pgp" : "0",
      "terminal" : "0",
      "latitude" : "24.33401",
      "inDis" : "50",
      "routeId" : "214",
      "seqNo" : "31"
   },
   {
      "GoBack" : "1",
      "longitude" : "120.68807",
      "outDis" : "50",
      "Id" : "0223",
      "oid" : "4031",
      "districtId" : "1",
      "nameZh" : "六分永眉路口",
      "pgp" : "0",
      "terminal" : "0",
      "latitude" : "24.33142",
      "inDis" : "50",
      "routeId" : "214",
      "seqNo" : "32"
   },
   {
      "GoBack" : "1",
      "longitude" : "120.68317",
      "outDis" : "50",
      "Id" : "0225",
      "oid" : "4032",
      "districtId" : "1",
      "nameZh" : "永豐6鄰",
      "pgp" : "0",
      "terminal" : "0",
      "latitude" : "24.33143",
      "inDis" : "50",
      "routeId" : "214",
      "seqNo" : "33"
   },
   {
      "GoBack" : "1",
      "longitude" : "120.67867",
      "outDis" : "50",
      "Id" : "0226",
      "oid" : "4033",
      "districtId" : "1",
      "nameZh" : "永豐里活動中心",
      "pgp" : "0",
      "terminal" : "0",
      "latitude" : "24.33161",
      "inDis" : "50",
      "routeId" : "214",
      "seqNo" : "34"
   },
   {
      "GoBack" : "1",
      "longitude" : "120.67543",
      "outDis" : "50",
      "Id" : "0239",
      "oid" : "4034",
      "districtId" : "1",
      "nameZh" : "高鐵橋下公園",
      "pgp" : "0",
      "terminal" : "0",
      "latitude" : "24.33116",
      "inDis" : "50",
      "routeId" : "214",
      "seqNo" : "35"
   },
   {
      "GoBack" : "1",
      "longitude" : "120.67104",
      "outDis" : "50",
      "Id" : "0241",
      "oid" : "4035",
      "districtId" : "1",
      "nameZh" : "幼兒園",
      "pgp" : "0",
      "terminal" : "0",
      "latitude" : "24.33246",
      "inDis" : "50",
      "routeId" : "214",
      "seqNo" : "36"
   },
   {
      "GoBack" : "1",
      "longitude" : "120.66788",
      "outDis" : "50",
      "Id" : "0252",
      "oid" : "4036",
      "districtId" : "1",
      "nameZh" : "永豐11鄰",
      "pgp" : "0",
      "terminal" : "0",
      "latitude" : "24.33203",
      "inDis" : "50",
      "routeId" : "214",
      "seqNo" : "37"
   },
   {
      "GoBack" : "1",
      "longitude" : "120.66425",
      "outDis" : "50",
      "Id" : "0256",
      "oid" : "4037",
      "districtId" : "1",
      "nameZh" : "永豐社區",
      "pgp" : "0",
      "terminal" : "0",
      "latitude" : "24.33227",
      "inDis" : "50",
      "routeId" : "214",
      "seqNo" : "38"
   },
   {
      "GoBack" : "1",
      "longitude" : "120.65858",
      "outDis" : "50",
      "Id" : "0258",
      "oid" : "4038",
      "districtId" : "1",
      "nameZh" : "外埔自來水廠",
      "pgp" : "0",
      "terminal" : "0",
      "latitude" : "24.33141",
      "inDis" : "50",
      "routeId" : "214",
      "seqNo" : "39"
   },
   {
      "GoBack" : "1",
      "longitude" : "120.65652",
      "outDis" : "50",
      "Id" : "0266",
      "oid" : "4039",
      "districtId" : "1",
      "nameZh" : "弘彰社區",
      "pgp" : "0",
      "terminal" : "0",
      "latitude" : "24.33254",
      "inDis" : "50",
      "routeId" : "214",
      "seqNo" : "40"
   },
   {
      "GoBack" : "1",
      "longitude" : "120.65452",
      "outDis" : "50",
      "Id" : "3548",
      "oid" : "4040",
      "districtId" : "1",
      "nameZh" : "外埔區公所",
      "pgp" : "0",
      "terminal" : "0",
      "latitude" : "24.33195",
      "inDis" : "50",
      "routeId" : "214",
      "seqNo" : "41"
   },
   {
      "GoBack" : "1",
      "longitude" : "120.65249",
      "outDis" : "50",
      "Id" : "1865",
      "oid" : "4041",
      "districtId" : "1",
      "nameZh" : "外埔",
      "pgp" : "0",
      "terminal" : "0",
      "latitude" : "24.3326",
      "inDis" : "50",
      "routeId" : "214",
      "seqNo" : "42"
   },
   {
      "GoBack" : "1",
      "longitude" : "120.65001",
      "outDis" : "50",
      "Id" : "2652",
      "oid" : "4042",
      "districtId" : "1",
      "nameZh" : "後寮",
      "pgp" : "0",
      "terminal" : "0",
      "latitude" : "24.335",
      "inDis" : "50",
      "routeId" : "214",
      "seqNo" : "43"
   },
   {
      "GoBack" : "1",
      "longitude" : "120.64125",
      "outDis" : "50",
      "Id" : "1277",
      "oid" : "4043",
      "districtId" : "1",
      "nameZh" : "大甲東",
      "pgp" : "0",
      "terminal" : "0",
      "latitude" : "24.3407",
      "inDis" : "50",
      "routeId" : "214",
      "seqNo" : "44"
   },
   {
      "GoBack" : "1",
      "longitude" : "120.6367",
      "outDis" : "50",
      "Id" : "0270",
      "oid" : "4044",
      "districtId" : "1",
      "nameZh" : "甲東路36巷口",
      "pgp" : "0",
      "terminal" : "0",
      "latitude" : "24.34153",
      "inDis" : "50",
      "routeId" : "214",
      "seqNo" : "45"
   },
   {
      "GoBack" : "1",
      "longitude" : "120.63367",
      "outDis" : "50",
      "Id" : "0275",
      "oid" : "4045",
      "districtId" : "1",
      "nameZh" : "幸福公園",
      "pgp" : "0",
      "terminal" : "0",
      "latitude" : "24.34089",
      "inDis" : "50",
      "routeId" : "214",
      "seqNo" : "46"
   },
   {
      "GoBack" : "1",
      "longitude" : "120.62946",
      "outDis" : "50",
      "Id" : "4899",
      "oid" : "4046",
      "districtId" : "1",
      "nameZh" : "致用高中",
      "pgp" : "0",
      "terminal" : "0",
      "latitude" : "24.3404",
      "inDis" : "50",
      "routeId" : "214",
      "seqNo" : "47"
   },
   {
      "GoBack" : "1",
      "longitude" : "120.62643",
      "outDis" : "50",
      "Id" : "4558",
      "oid" : "4047",
      "districtId" : "1",
      "nameZh" : "中正紀念館",
      "pgp" : "0",
      "terminal" : "0",
      "latitude" : "24.34027",
      "inDis" : "50",
      "routeId" : "214",
      "seqNo" : "48"
   },
   {
      "GoBack" : "1",
      "longitude" : "120.62285",
      "outDis" : "50",
      "Id" : "4433",
      "oid" : "4048",
      "districtId" : "1",
      "nameZh" : "大甲高中(水源路)",
      "pgp" : "0",
      "terminal" : "0",
      "latitude" : "24.34205",
      "inDis" : "50",
      "routeId" : "214",
      "seqNo" : "49"
   },
   {
      "GoBack" : "1",
      "longitude" : "120.62404",
      "outDis" : "50",
      "Id" : "5639",
      "oid" : "4049",
      "districtId" : "1",
      "nameZh" : "南陽里(中山路)",
      "pgp" : "0",
      "terminal" : "0",
      "latitude" : "24.34279",
      "inDis" : "50",
      "routeId" : "214",
      "seqNo" : "50"
   },
   {
      "GoBack" : "1",
      "longitude" : "120.62553",
      "outDis" : "50",
      "Id" : "5084",
      "oid" : "4050",
      "districtId" : "1",
      "nameZh" : "大甲",
      "pgp" : "0",
      "terminal" : "0",
      "latitude" : "24.34321",
      "inDis" : "50",
      "routeId" : "214",
      "seqNo" : "51"
   },
   {
      "GoBack" : "1",
      "longitude" : "120.62643",
      "outDis" : "50",
      "Id" : "4432",
      "oid" : "4051",
      "districtId" : "1",
      "nameZh" : "大甲火車站",
      "pgp" : "0",
      "terminal" : "0",
      "latitude" : "24.34439",
      "inDis" : "50",
      "routeId" : "214",
      "seqNo" : "52"
   },
   {
      "GoBack" : "2",
      "longitude" : "120.62643",
      "outDis" : "50",
      "Id" : "4432",
      "oid" : "4103",
      "districtId" : "1",
      "nameZh" : "大甲火車站",
      "pgp" : "0",
      "terminal" : "0",
      "latitude" : "24.34439",
      "inDis" : "50",
      "routeId" : "214",
      "seqNo" : "1"
   },
   {
      "GoBack" : "2",
      "longitude" : "120.62553",
      "outDis" : "50",
      "Id" : "5084",
      "oid" : "4102",
      "districtId" : "1",
      "nameZh" : "大甲",
      "pgp" : "0",
      "terminal" : "0",
      "latitude" : "24.34321",
      "inDis" : "50",
      "routeId" : "214",
      "seqNo" : "2"
   },
   {
      "GoBack" : "2",
      "longitude" : "120.62404",
      "outDis" : "50",
      "Id" : "5639",
      "oid" : "4101",
      "districtId" : "1",
      "nameZh" : "南陽里(中山路)",
      "pgp" : "0",
      "terminal" : "0",
      "latitude" : "24.34279",
      "inDis" : "50",
      "routeId" : "214",
      "seqNo" : "3"
   },
   {
      "GoBack" : "2",
      "longitude" : "120.62285",
      "outDis" : "50",
      "Id" : "4433",
      "oid" : "4100",
      "districtId" : "1",
      "nameZh" : "大甲高中(水源路)",
      "pgp" : "0",
      "terminal" : "0",
      "latitude" : "24.34205",
      "inDis" : "50",
      "routeId" : "214",
      "seqNo" : "4"
   },
   {
      "GoBack" : "2",
      "longitude" : "120.62643",
      "outDis" : "50",
      "Id" : "4558",
      "oid" : "4099",
      "districtId" : "1",
      "nameZh" : "中正紀念館",
      "pgp" : "0",
      "terminal" : "0",
      "latitude" : "24.34027",
      "inDis" : "50",
      "routeId" : "214",
      "seqNo" : "5"
   },
   {
      "GoBack" : "2",
      "longitude" : "120.63027",
      "outDis" : "50",
      "Id" : "4899",
      "oid" : "4098",
      "districtId" : "1",
      "nameZh" : "致用高中",
      "pgp" : "0",
      "terminal" : "0",
      "latitude" : "24.34018",
      "inDis" : "50",
      "routeId" : "214",
      "seqNo" : "6"
   },
   {
      "GoBack" : "2",
      "longitude" : "120.63367",
      "outDis" : "50",
      "Id" : "0275",
      "oid" : "4097",
      "districtId" : "1",
      "nameZh" : "幸福公園",
      "pgp" : "0",
      "terminal" : "0",
      "latitude" : "24.34089",
      "inDis" : "50",
      "routeId" : "214",
      "seqNo" : "7"
   },
   {
      "GoBack" : "2",
      "longitude" : "120.6367",
      "outDis" : "50",
      "Id" : "0270",
      "oid" : "4096",
      "districtId" : "1",
      "nameZh" : "甲東路36巷口",
      "pgp" : "0",
      "terminal" : "0",
      "latitude" : "24.34153",
      "inDis" : "50",
      "routeId" : "214",
      "seqNo" : "8"
   },
   {
      "GoBack" : "2",
      "longitude" : "120.64125",
      "outDis" : "50",
      "Id" : "1277",
      "oid" : "4095",
      "districtId" : "1",
      "nameZh" : "大甲東",
      "pgp" : "0",
      "terminal" : "0",
      "latitude" : "24.3407",
      "inDis" : "50",
      "routeId" : "214",
      "seqNo" : "9"
   },
   {
      "GoBack" : "2",
      "longitude" : "120.65001",
      "outDis" : "50",
      "Id" : "2652",
      "oid" : "4094",
      "districtId" : "1",
      "nameZh" : "後寮",
      "pgp" : "0",
      "terminal" : "0",
      "latitude" : "24.335",
      "inDis" : "50",
      "routeId" : "214",
      "seqNo" : "10"
   },
   {
      "GoBack" : "2",
      "longitude" : "120.65369",
      "outDis" : "50",
      "Id" : "1865",
      "oid" : "4093",
      "districtId" : "1",
      "nameZh" : "外埔",
      "pgp" : "0",
      "terminal" : "0",
      "latitude" : "24.33149",
      "inDis" : "50",
      "routeId" : "214",
      "seqNo" : "11"
   },
   {
      "GoBack" : "2",
      "longitude" : "120.65461",
      "outDis" : "50",
      "Id" : "3548",
      "oid" : "4092",
      "districtId" : "1",
      "nameZh" : "外埔區公所",
      "pgp" : "0",
      "terminal" : "0",
      "latitude" : "24.33211",
      "inDis" : "50",
      "routeId" : "214",
      "seqNo" : "12"
   },
   {
      "GoBack" : "2",
      "longitude" : "120.65652",
      "outDis" : "50",
      "Id" : "0266",
      "oid" : "4091",
      "districtId" : "1",
      "nameZh" : "弘彰社區",
      "pgp" : "0",
      "terminal" : "0",
      "latitude" : "24.33254",
      "inDis" : "50",
      "routeId" : "214",
      "seqNo" : "13"
   },
   {
      "GoBack" : "2",
      "longitude" : "120.65858",
      "outDis" : "50",
      "Id" : "0258",
      "oid" : "4090",
      "districtId" : "1",
      "nameZh" : "外埔自來水廠",
      "pgp" : "0",
      "terminal" : "0",
      "latitude" : "24.33141",
      "inDis" : "50",
      "routeId" : "214",
      "seqNo" : "14"
   },
   {
      "GoBack" : "2",
      "longitude" : "120.66425",
      "outDis" : "50",
      "Id" : "0256",
      "oid" : "4089",
      "districtId" : "1",
      "nameZh" : "永豐社區",
      "pgp" : "0",
      "terminal" : "0",
      "latitude" : "24.33227",
      "inDis" : "50",
      "routeId" : "214",
      "seqNo" : "15"
   },
   {
      "GoBack" : "2",
      "longitude" : "120.66788",
      "outDis" : "50",
      "Id" : "0252",
      "oid" : "4088",
      "districtId" : "1",
      "nameZh" : "永豐11鄰",
      "pgp" : "0",
      "terminal" : "0",
      "latitude" : "24.33203",
      "inDis" : "50",
      "routeId" : "214",
      "seqNo" : "16"
   },
   {
      "GoBack" : "2",
      "longitude" : "120.67104",
      "outDis" : "50",
      "Id" : "0241",
      "oid" : "4087",
      "districtId" : "1",
      "nameZh" : "幼兒園",
      "pgp" : "0",
      "terminal" : "0",
      "latitude" : "24.33246",
      "inDis" : "50",
      "routeId" : "214",
      "seqNo" : "17"
   },
   {
      "GoBack" : "2",
      "longitude" : "120.67543",
      "outDis" : "50",
      "Id" : "0239",
      "oid" : "4086",
      "districtId" : "1",
      "nameZh" : "高鐵橋下公園",
      "pgp" : "0",
      "terminal" : "0",
      "latitude" : "24.33116",
      "inDis" : "50",
      "routeId" : "214",
      "seqNo" : "18"
   },
   {
      "GoBack" : "2",
      "longitude" : "120.67867",
      "outDis" : "50",
      "Id" : "0226",
      "oid" : "4085",
      "districtId" : "1",
      "nameZh" : "永豐里活動中心",
      "pgp" : "0",
      "terminal" : "0",
      "latitude" : "24.33161",
      "inDis" : "50",
      "routeId" : "214",
      "seqNo" : "19"
   },
   {
      "GoBack" : "2",
      "longitude" : "120.68317",
      "outDis" : "50",
      "Id" : "0225",
      "oid" : "4084",
      "districtId" : "1",
      "nameZh" : "永豐6鄰",
      "pgp" : "0",
      "terminal" : "0",
      "latitude" : "24.33143",
      "inDis" : "50",
      "routeId" : "214",
      "seqNo" : "20"
   },
   {
      "GoBack" : "2",
      "longitude" : "120.68807",
      "outDis" : "50",
      "Id" : "0223",
      "oid" : "4083",
      "districtId" : "1",
      "nameZh" : "六分永眉路口",
      "pgp" : "0",
      "terminal" : "0",
      "latitude" : "24.33142",
      "inDis" : "50",
      "routeId" : "214",
      "seqNo" : "21"
   },
   {
      "GoBack" : "2",
      "longitude" : "120.68858",
      "outDis" : "50",
      "Id" : "0221",
      "oid" : "4082",
      "districtId" : "1",
      "nameZh" : "六分新厝路口",
      "pgp" : "0",
      "terminal" : "0",
      "latitude" : "24.33401",
      "inDis" : "50",
      "routeId" : "214",
      "seqNo" : "22"
   },
   {
      "GoBack" : "2",
      "longitude" : "120.69122",
      "outDis" : "50",
      "Id" : "0219",
      "oid" : "4081",
      "districtId" : "1",
      "nameZh" : "永豐農憩小站",
      "pgp" : "0",
      "terminal" : "0",
      "latitude" : "24.33399",
      "inDis" : "50",
      "routeId" : "214",
      "seqNo" : "23"
   },
   {
      "GoBack" : "2",
      "longitude" : "120.69993",
      "outDis" : "50",
      "Id" : "0214",
      "oid" : "4080",
      "districtId" : "1",
      "nameZh" : "六分月眉北路口",
      "pgp" : "0",
      "terminal" : "0",
      "latitude" : "24.33481",
      "inDis" : "50",
      "routeId" : "214",
      "seqNo" : "24"
   },
   {
      "GoBack" : "2",
      "longitude" : "120.70866",
      "outDis" : "50",
      "Id" : "0213",
      "oid" : "4079",
      "districtId" : "1",
      "nameZh" : "永豐1鄰",
      "pgp" : "0",
      "terminal" : "0",
      "latitude" : "24.33375",
      "inDis" : "50",
      "routeId" : "214",
      "seqNo" : "25"
   },
   {
      "GoBack" : "2",
      "longitude" : "120.71242",
      "outDis" : "50",
      "Id" : "0211",
      "oid" : "4078",
      "districtId" : "1",
      "nameZh" : "土地公廟(安眉路)",
      "pgp" : "0",
      "terminal" : "0",
      "latitude" : "24.32971",
      "inDis" : "50",
      "routeId" : "214",
      "seqNo" : "26"
   },
   {
      "GoBack" : "2",
      "longitude" : "120.71972",
      "outDis" : "50",
      "Id" : "0993",
      "oid" : "4077",
      "districtId" : "1",
      "nameZh" : "九股",
      "pgp" : "0",
      "terminal" : "0",
      "latitude" : "24.33368",
      "inDis" : "50",
      "routeId" : "214",
      "seqNo" : "27"
   },
   {
      "GoBack" : "2",
      "longitude" : "120.72324",
      "outDis" : "50",
      "Id" : "2229",
      "oid" : "4076",
      "districtId" : "1",
      "nameZh" : "尾社",
      "pgp" : "0",
      "terminal" : "0",
      "latitude" : "24.33327",
      "inDis" : "50",
      "routeId" : "214",
      "seqNo" : "28"
   },
   {
      "GoBack" : "2",
      "longitude" : "120.72948",
      "outDis" : "50",
      "Id" : "5050",
      "oid" : "4075",
      "districtId" : "1",
      "nameZh" : "公館(安眉路)",
      "pgp" : "0",
      "terminal" : "0",
      "latitude" : "24.33209",
      "inDis" : "50",
      "routeId" : "214",
      "seqNo" : "29"
   },
   {
      "GoBack" : "2",
      "longitude" : "120.73607",
      "outDis" : "50",
      "Id" : "5051",
      "oid" : "4074",
      "districtId" : "1",
      "nameZh" : "安眉福美路口",
      "pgp" : "0",
      "terminal" : "0",
      "latitude" : "24.33048",
      "inDis" : "50",
      "routeId" : "214",
      "seqNo" : "30"
   },
   {
      "GoBack" : "2",
      "longitude" : "120.74221",
      "outDis" : "50",
      "Id" : "5052",
      "oid" : "4073",
      "districtId" : "1",
      "nameZh" : "安眉興安路口",
      "pgp" : "0",
      "terminal" : "0",
      "latitude" : "24.32926",
      "inDis" : "50",
      "routeId" : "214",
      "seqNo" : "31"
   },
   {
      "GoBack" : "2",
      "longitude" : "120.74495",
      "outDis" : "50",
      "Id" : "0988",
      "oid" : "4072",
      "districtId" : "1",
      "nameZh" : "七塊厝",
      "pgp" : "0",
      "terminal" : "0",
      "latitude" : "24.328",
      "inDis" : "50",
      "routeId" : "214",
      "seqNo" : "32"
   },
   {
      "GoBack" : "2",
      "longitude" : "120.74864",
      "outDis" : "50",
      "Id" : "5056",
      "oid" : "4071",
      "districtId" : "1",
      "nameZh" : "泰安國小",
      "pgp" : "0",
      "terminal" : "0",
      "latitude" : "24.3262",
      "inDis" : "50",
      "routeId" : "214",
      "seqNo" : "33"
   },
   {
      "GoBack" : "2",
      "longitude" : "120.75146",
      "outDis" : "50",
      "Id" : "5055",
      "oid" : "4070",
      "districtId" : "1",
      "nameZh" : "泰安派出所",
      "pgp" : "0",
      "terminal" : "0",
      "latitude" : "24.32399",
      "inDis" : "50",
      "routeId" : "214",
      "seqNo" : "34"
   },
   {
      "GoBack" : "2",
      "longitude" : "120.74882",
      "outDis" : "50",
      "Id" : "2794",
      "oid" : "4069",
      "districtId" : "1",
      "nameZh" : "泰安",
      "pgp" : "0",
      "terminal" : "0",
      "latitude" : "24.32286",
      "inDis" : "50",
      "routeId" : "214",
      "seqNo" : "35"
   },
   {
      "GoBack" : "2",
      "longitude" : "120.74576",
      "outDis" : "50",
      "Id" : "2988",
      "oid" : "4068",
      "districtId" : "1",
      "nameZh" : "教會前",
      "pgp" : "0",
      "terminal" : "0",
      "latitude" : "24.32237",
      "inDis" : "50",
      "routeId" : "214",
      "seqNo" : "36"
   },
   {
      "GoBack" : "2",
      "longitude" : "120.74317",
      "outDis" : "50",
      "Id" : "3311",
      "oid" : "4067",
      "districtId" : "1",
      "nameZh" : "集會所",
      "pgp" : "0",
      "terminal" : "0",
      "latitude" : "24.32202",
      "inDis" : "50",
      "routeId" : "214",
      "seqNo" : "37"
   },
   {
      "GoBack" : "2",
      "longitude" : "120.73989",
      "outDis" : "50",
      "Id" : "1164",
      "oid" : "4066",
      "districtId" : "1",
      "nameZh" : "下城",
      "pgp" : "0",
      "terminal" : "0",
      "latitude" : "24.32379",
      "inDis" : "50",
      "routeId" : "214",
      "seqNo" : "38"
   },
   {
      "GoBack" : "2",
      "longitude" : "120.73476",
      "outDis" : "50",
      "Id" : "5059",
      "oid" : "4065",
      "districtId" : "1",
      "nameZh" : "頂下城",
      "pgp" : "0",
      "terminal" : "0",
      "latitude" : "24.32515",
      "inDis" : "50",
      "routeId" : "214",
      "seqNo" : "39"
   },
   {
      "GoBack" : "2",
      "longitude" : "120.72837",
      "outDis" : "50",
      "Id" : "3271",
      "oid" : "4064",
      "districtId" : "1",
      "nameZh" : "發電廠",
      "pgp" : "0",
      "terminal" : "0",
      "latitude" : "24.32585",
      "inDis" : "50",
      "routeId" : "214",
      "seqNo" : "40"
   },
   {
      "GoBack" : "2",
      "longitude" : "120.72366",
      "outDis" : "50",
      "Id" : "5045",
      "oid" : "4063",
      "districtId" : "1",
      "nameZh" : "三豐九甲路口",
      "pgp" : "0",
      "terminal" : "0",
      "latitude" : "24.32342",
      "inDis" : "50",
      "routeId" : "214",
      "seqNo" : "41"
   },
   {
      "GoBack" : "2",
      "longitude" : "120.72493",
      "outDis" : "50",
      "Id" : "5469",
      "oid" : "4062",
      "districtId" : "1",
      "nameZh" : "三豐后科南路口",
      "pgp" : "0",
      "terminal" : "0",
      "latitude" : "24.31873",
      "inDis" : "50",
      "routeId" : "214",
      "seqNo" : "42"
   },
   {
      "GoBack" : "2",
      "longitude" : "120.72352",
      "outDis" : "50",
      "Id" : "5046",
      "oid" : "4061",
      "districtId" : "1",
      "nameZh" : "三豐泉洲路口",
      "pgp" : "0",
      "terminal" : "0",
      "latitude" : "24.31333",
      "inDis" : "50",
      "routeId" : "214",
      "seqNo" : "43"
   },
   {
      "GoBack" : "2",
      "longitude" : "120.71932",
      "outDis" : "50",
      "Id" : "5415",
      "oid" : "4060",
      "districtId" : "1",
      "nameZh" : "成功路105巷口",
      "pgp" : "0",
      "terminal" : "0",
      "latitude" : "24.31245",
      "inDis" : "50",
      "routeId" : "214",
      "seqNo" : "44"
   },
   {
      "GoBack" : "2",
      "longitude" : "120.71769",
      "outDis" : "50",
      "Id" : "5416",
      "oid" : "4059",
      "districtId" : "1",
      "nameZh" : "成功甲后路口",
      "pgp" : "0",
      "terminal" : "0",
      "latitude" : "24.31026",
      "inDis" : "50",
      "routeId" : "214",
      "seqNo" : "45"
   },
   {
      "GoBack" : "2",
      "longitude" : "120.7209",
      "outDis" : "50",
      "Id" : "1169",
      "oid" : "4058",
      "districtId" : "1",
      "nameZh" : "下后里",
      "pgp" : "0",
      "terminal" : "0",
      "latitude" : "24.30898",
      "inDis" : "50",
      "routeId" : "214",
      "seqNo" : "46"
   },
   {
      "GoBack" : "2",
      "longitude" : "120.72468",
      "outDis" : "50",
      "Id" : "5417",
      "oid" : "4057",
      "districtId" : "1",
      "nameZh" : "甲后路329巷口",
      "pgp" : "0",
      "terminal" : "0",
      "latitude" : "24.30905",
      "inDis" : "50",
      "routeId" : "214",
      "seqNo" : "47"
   },
   {
      "GoBack" : "2",
      "longitude" : "120.72843",
      "outDis" : "50",
      "Id" : "5418",
      "oid" : "4056",
      "districtId" : "1",
      "nameZh" : "后里義里郵局",
      "pgp" : "0",
      "terminal" : "0",
      "latitude" : "24.30923",
      "inDis" : "50",
      "routeId" : "214",
      "seqNo" : "48"
   },
   {
      "GoBack" : "2",
      "longitude" : "120.73032",
      "outDis" : "50",
      "Id" : "5419",
      "oid" : "4055",
      "districtId" : "1",
      "nameZh" : "后里火車站(后里國小)",
      "pgp" : "0",
      "terminal" : "0",
      "latitude" : "24.30933",
      "inDis" : "50",
      "routeId" : "214",
      "seqNo" : "49"
   },
   {
      "GoBack" : "2",
      "longitude" : "120.73086",
      "outDis" : "50",
      "Id" : "5420",
      "oid" : "4054",
      "districtId" : "1",
      "nameZh" : "內東大山路口",
      "pgp" : "0",
      "terminal" : "0",
      "latitude" : "24.30756",
      "inDis" : "50",
      "routeId" : "214",
      "seqNo" : "50"
   },
   {
      "GoBack" : "2",
      "longitude" : "120.73095",
      "outDis" : "50",
      "Id" : "5421",
      "oid" : "4053",
      "districtId" : "1",
      "nameZh" : "內東路營區",
      "pgp" : "0",
      "terminal" : "0",
      "latitude" : "24.30467",
      "inDis" : "50",
      "routeId" : "214",
      "seqNo" : "51"
   },
   {
      "GoBack" : "2",
      "longitude" : "120.73515",
      "outDis" : "50",
      "Id" : "5422",
      "oid" : "4052",
      "districtId" : "1",
      "nameZh" : "后里馬場",
      "pgp" : "0",
      "terminal" : "0",
      "latitude" : "24.29857",
      "inDis" : "50",
      "routeId" : "214",
      "seqNo" : "52"
   }
]
