[
   {
      "GoBack" : "1",
      "longitude" : "120.70017",
      "outDis" : "50",
      "Id" : "4351",
      "oid" : "13263",
      "districtId" : "1",
      "nameZh" : "太原火車站",
      "pgp" : "0",
      "terminal" : "0",
      "latitude" : "24.16612",
      "inDis" : "50",
      "routeId" : "53區2",
      "seqNo" : "1"
   },
   {
      "GoBack" : "1",
      "longitude" : "120.70361",
      "outDis" : "50",
      "Id" : "0218",
      "oid" : "13059",
      "districtId" : "1",
      "nameZh" : "三川福德祠",
      "pgp" : "0",
      "terminal" : "0",
      "latitude" : "24.16469",
      "inDis" : "50",
      "routeId" : "53區2",
      "seqNo" : "2"
   },
   {
      "GoBack" : "1",
      "longitude" : "120.70621",
      "outDis" : "90",
      "Id" : "0470",
      "oid" : "68D7F787D67B43BB8D728BAE37A2CBD8",
      "districtId" : "1",
      "nameZh" : "太原二號橋",
      "pgp" : "0",
      "terminal" : "0",
      "latitude" : "24.16468",
      "inDis" : "50",
      "routeId" : "53區2",
      "seqNo" : "3"
   },
   {
      "GoBack" : "1",
      "longitude" : "120.71184",
      "outDis" : "50",
      "Id" : "4320",
      "oid" : "301532257",
      "districtId" : "1",
      "nameZh" : "東山高中",
      "pgp" : "0",
      "terminal" : "0",
      "latitude" : "24.16588",
      "inDis" : "50",
      "routeId" : "53區2",
      "seqNo" : "4"
   },
   {
      "GoBack" : "1",
      "longitude" : "120.70941",
      "outDis" : "80",
      "Id" : "5105",
      "oid" : "310603462",
      "districtId" : "1",
      "nameZh" : "景賢八路口",
      "pgp" : "0",
      "terminal" : "0",
      "latitude" : "24.16728",
      "inDis" : "30",
      "routeId" : "53區2",
      "seqNo" : "5"
   },
   {
      "GoBack" : "1",
      "longitude" : "120.70687",
      "outDis" : "50",
      "Id" : "4319",
      "oid" : "13061",
      "districtId" : "1",
      "nameZh" : "三甲公園",
      "pgp" : "0",
      "terminal" : "0",
      "latitude" : "24.1673",
      "inDis" : "50",
      "routeId" : "53區2",
      "seqNo" : "6"
   },
   {
      "GoBack" : "1",
      "longitude" : "120.70446",
      "outDis" : "50",
      "Id" : "5712",
      "oid" : "13064",
      "districtId" : "1",
      "nameZh" : "三和/東光里",
      "pgp" : "0",
      "terminal" : "0",
      "latitude" : "24.16955",
      "inDis" : "50",
      "routeId" : "53區2",
      "seqNo" : "7"
   },
   {
      "GoBack" : "1",
      "longitude" : "120.70255",
      "outDis" : "50",
      "Id" : "4312",
      "oid" : "13175",
      "districtId" : "1",
      "nameZh" : "東光國小",
      "pgp" : "0",
      "terminal" : "0",
      "latitude" : "24.16988",
      "inDis" : "50",
      "routeId" : "53區2",
      "seqNo" : "8"
   },
   {
      "GoBack" : "1",
      "longitude" : "120.69875",
      "outDis" : "50",
      "Id" : "0222",
      "oid" : "13242",
      "districtId" : "1",
      "nameZh" : "聯安醫院",
      "pgp" : "0",
      "terminal" : "0",
      "latitude" : "24.17035",
      "inDis" : "50",
      "routeId" : "53區2",
      "seqNo" : "9"
   },
   {
      "GoBack" : "1",
      "longitude" : "120.6959",
      "outDis" : "50",
      "Id" : "0102",
      "oid" : "13297",
      "districtId" : "1",
      "nameZh" : "四維國小",
      "pgp" : "0",
      "terminal" : "0",
      "latitude" : "24.17093",
      "inDis" : "50",
      "routeId" : "53區2",
      "seqNo" : "10"
   },
   {
      "GoBack" : "1",
      "longitude" : "120.69447",
      "outDis" : "50",
      "Id" : "5780",
      "oid" : "320882893",
      "districtId" : "1",
      "nameZh" : "文心興安路口",
      "pgp" : "0",
      "terminal" : "0",
      "latitude" : "24.17109",
      "inDis" : "50",
      "routeId" : "53區2",
      "seqNo" : "11"
   },
   {
      "GoBack" : "1",
      "longitude" : "120.69167",
      "outDis" : "50",
      "Id" : "4274",
      "oid" : "13274",
      "districtId" : "1",
      "nameZh" : "文心昌平路口",
      "pgp" : "0",
      "terminal" : "0",
      "latitude" : "24.17132",
      "inDis" : "50",
      "routeId" : "53區2",
      "seqNo" : "12"
   },
   {
      "GoBack" : "1",
      "longitude" : "120.68764",
      "outDis" : "50",
      "Id" : "4283",
      "oid" : "13280",
      "districtId" : "1",
      "nameZh" : "文心熱河路口",
      "pgp" : "0",
      "terminal" : "0",
      "latitude" : "24.17184",
      "inDis" : "50",
      "routeId" : "53區2",
      "seqNo" : "13"
   },
   {
      "GoBack" : "1",
      "longitude" : "120.68595",
      "outDis" : "50",
      "Id" : "4279",
      "oid" : "13126",
      "districtId" : "1",
      "nameZh" : "文心崇德路口",
      "pgp" : "0",
      "terminal" : "0",
      "latitude" : "24.17209",
      "inDis" : "50",
      "routeId" : "53區2",
      "seqNo" : "14"
   },
   {
      "GoBack" : "1",
      "longitude" : "120.68246",
      "outDis" : "50",
      "Id" : "0224",
      "oid" : "13278",
      "districtId" : "1",
      "nameZh" : "文心國小",
      "pgp" : "0",
      "terminal" : "0",
      "latitude" : "24.17241",
      "inDis" : "50",
      "routeId" : "53區2",
      "seqNo" : "15"
   },
   {
      "GoBack" : "1",
      "longitude" : "120.67993",
      "outDis" : "50",
      "Id" : "4280",
      "oid" : "13128",
      "districtId" : "1",
      "nameZh" : "文心梅川西路口",
      "pgp" : "0",
      "terminal" : "0",
      "latitude" : "24.1729",
      "inDis" : "50",
      "routeId" : "53區2",
      "seqNo" : "16"
   },
   {
      "GoBack" : "1",
      "longitude" : "120.67656",
      "outDis" : "50",
      "Id" : "4277",
      "oid" : "13117",
      "districtId" : "1",
      "nameZh" : "文心山西路口",
      "pgp" : "0",
      "terminal" : "0",
      "latitude" : "24.17347",
      "inDis" : "50",
      "routeId" : "53區2",
      "seqNo" : "17"
   },
   {
      "GoBack" : "1",
      "longitude" : "120.67447",
      "outDis" : "50",
      "Id" : "4276",
      "oid" : "12539",
      "districtId" : "1",
      "nameZh" : "文心青島東街口",
      "pgp" : "0",
      "terminal" : "0",
      "latitude" : "24.17376",
      "inDis" : "50",
      "routeId" : "53區2",
      "seqNo" : "18"
   },
   {
      "GoBack" : "1",
      "longitude" : "120.67166",
      "outDis" : "50",
      "Id" : "4265",
      "oid" : "13266",
      "districtId" : "1",
      "nameZh" : "文心中清路口",
      "pgp" : "0",
      "terminal" : "0",
      "latitude" : "24.1738",
      "inDis" : "50",
      "routeId" : "53區2",
      "seqNo" : "19"
   },
   {
      "GoBack" : "1",
      "longitude" : "120.67057",
      "outDis" : "50",
      "Id" : "5201",
      "oid" : "312331410",
      "districtId" : "1",
      "nameZh" : "文心中清西一街口",
      "pgp" : "0",
      "terminal" : "0",
      "latitude" : "24.17376",
      "inDis" : "50",
      "routeId" : "53區2",
      "seqNo" : "20"
   },
   {
      "GoBack" : "1",
      "longitude" : "120.66832",
      "outDis" : "50",
      "Id" : "4355",
      "oid" : "13277",
      "districtId" : "1",
      "nameZh" : "文心陝西路口",
      "pgp" : "0",
      "terminal" : "0",
      "latitude" : "24.17328",
      "inDis" : "50",
      "routeId" : "53區2",
      "seqNo" : "21"
   },
   {
      "GoBack" : "1",
      "longitude" : "120.66561",
      "outDis" : "50",
      "Id" : "0229",
      "oid" : "13296",
      "districtId" : "1",
      "nameZh" : "臺灣日報",
      "pgp" : "0",
      "terminal" : "0",
      "latitude" : "24.17277",
      "inDis" : "50",
      "routeId" : "53區2",
      "seqNo" : "22"
   },
   {
      "GoBack" : "1",
      "longitude" : "120.66342",
      "outDis" : "50",
      "Id" : "0230",
      "oid" : "13312",
      "districtId" : "1",
      "nameZh" : "重慶國小",
      "pgp" : "0",
      "terminal" : "0",
      "latitude" : "24.17225",
      "inDis" : "50",
      "routeId" : "53區2",
      "seqNo" : "23"
   },
   {
      "GoBack" : "1",
      "longitude" : "120.66069",
      "outDis" : "50",
      "Id" : "4275",
      "oid" : "13275",
      "districtId" : "1",
      "nameZh" : "文心河南路口",
      "pgp" : "0",
      "terminal" : "0",
      "latitude" : "24.17149",
      "inDis" : "50",
      "routeId" : "53區2",
      "seqNo" : "24"
   },
   {
      "GoBack" : "1",
      "longitude" : "120.65914",
      "outDis" : "50",
      "Id" : "4612",
      "oid" : "13281",
      "districtId" : "1",
      "nameZh" : "文華高中(文心路)",
      "pgp" : "0",
      "terminal" : "0",
      "latitude" : "24.17101",
      "inDis" : "50",
      "routeId" : "53區2",
      "seqNo" : "25"
   },
   {
      "GoBack" : "1",
      "longitude" : "120.65563",
      "outDis" : "50",
      "Id" : "4271",
      "oid" : "13271",
      "districtId" : "1",
      "nameZh" : "文心甘肅路口",
      "pgp" : "0",
      "terminal" : "0",
      "latitude" : "24.16903",
      "inDis" : "50",
      "routeId" : "53區2",
      "seqNo" : "26"
   },
   {
      "GoBack" : "1",
      "longitude" : "120.65221",
      "outDis" : "50",
      "Id" : "4273",
      "oid" : "13273",
      "districtId" : "1",
      "nameZh" : "文心西屯路口",
      "pgp" : "0",
      "terminal" : "0",
      "latitude" : "24.16614",
      "inDis" : "50",
      "routeId" : "53區2",
      "seqNo" : "27"
   },
   {
      "GoBack" : "1",
      "longitude" : "120.65057",
      "outDis" : "50",
      "Id" : "4269",
      "oid" : "13269",
      "districtId" : "1",
      "nameZh" : "文心四川路口",
      "pgp" : "0",
      "terminal" : "0",
      "latitude" : "24.16388",
      "inDis" : "50",
      "routeId" : "53區2",
      "seqNo" : "28"
   },
   {
      "GoBack" : "1",
      "longitude" : "120.64866",
      "outDis" : "50",
      "Id" : "4266",
      "oid" : "13267",
      "districtId" : "1",
      "nameZh" : "文心臺灣大道口",
      "pgp" : "0",
      "terminal" : "0",
      "latitude" : "24.16128",
      "inDis" : "50",
      "routeId" : "53區2",
      "seqNo" : "29"
   },
   {
      "GoBack" : "1",
      "longitude" : "120.64751",
      "outDis" : "50",
      "Id" : "0019",
      "oid" : "13298",
      "districtId" : "1",
      "nameZh" : "市警局",
      "pgp" : "0",
      "terminal" : "0",
      "latitude" : "24.15938",
      "inDis" : "50",
      "routeId" : "53區2",
      "seqNo" : "30"
   },
   {
      "GoBack" : "1",
      "longitude" : "120.64682",
      "outDis" : "50",
      "Id" : "1433",
      "oid" : "13256",
      "districtId" : "1",
      "nameZh" : "中央健保局(文心路)",
      "pgp" : "0",
      "terminal" : "0",
      "latitude" : "24.15762",
      "inDis" : "50",
      "routeId" : "53區2",
      "seqNo" : "31"
   },
   {
      "GoBack" : "1",
      "longitude" : "120.64672",
      "outDis" : "50",
      "Id" : "4270",
      "oid" : "13270",
      "districtId" : "1",
      "nameZh" : "文心市政路口",
      "pgp" : "0",
      "terminal" : "0",
      "latitude" : "24.15461",
      "inDis" : "50",
      "routeId" : "53區2",
      "seqNo" : "32"
   },
   {
      "GoBack" : "1",
      "longitude" : "120.64669",
      "outDis" : "50",
      "Id" : "4268",
      "oid" : "13268",
      "districtId" : "1",
      "nameZh" : "文心公益路口",
      "pgp" : "0",
      "terminal" : "0",
      "latitude" : "24.15048",
      "inDis" : "50",
      "routeId" : "53區2",
      "seqNo" : "33"
   },
   {
      "GoBack" : "1",
      "longitude" : "120.6465",
      "outDis" : "75",
      "Id" : "4356",
      "oid" : "10994",
      "districtId" : "1",
      "nameZh" : "文心森林公園",
      "pgp" : "0",
      "terminal" : "0",
      "latitude" : "24.14631",
      "inDis" : "75",
      "routeId" : "53區2",
      "seqNo" : "34"
   },
   {
      "GoBack" : "2",
      "longitude" : "120.6465",
      "outDis" : "75",
      "Id" : "4356",
      "oid" : "10994",
      "districtId" : "1",
      "nameZh" : "文心森林公園",
      "pgp" : "0",
      "terminal" : "0",
      "latitude" : "24.14631",
      "inDis" : "75",
      "routeId" : "53區2",
      "seqNo" : "1"
   },
   {
      "GoBack" : "2",
      "longitude" : "120.64669",
      "outDis" : "50",
      "Id" : "4268",
      "oid" : "13268",
      "districtId" : "1",
      "nameZh" : "文心公益路口",
      "pgp" : "0",
      "terminal" : "0",
      "latitude" : "24.15048",
      "inDis" : "50",
      "routeId" : "53區2",
      "seqNo" : "2"
   },
   {
      "GoBack" : "2",
      "longitude" : "120.64672",
      "outDis" : "50",
      "Id" : "4270",
      "oid" : "13270",
      "districtId" : "1",
      "nameZh" : "文心市政路口",
      "pgp" : "0",
      "terminal" : "0",
      "latitude" : "24.15461",
      "inDis" : "50",
      "routeId" : "53區2",
      "seqNo" : "3"
   },
   {
      "GoBack" : "2",
      "longitude" : "120.64682",
      "outDis" : "50",
      "Id" : "1433",
      "oid" : "13256",
      "districtId" : "1",
      "nameZh" : "中央健保局(文心路)",
      "pgp" : "0",
      "terminal" : "0",
      "latitude" : "24.15762",
      "inDis" : "50",
      "routeId" : "53區2",
      "seqNo" : "4"
   },
   {
      "GoBack" : "2",
      "longitude" : "120.64751",
      "outDis" : "50",
      "Id" : "0019",
      "oid" : "13298",
      "districtId" : "1",
      "nameZh" : "市警局",
      "pgp" : "0",
      "terminal" : "0",
      "latitude" : "24.15938",
      "inDis" : "50",
      "routeId" : "53區2",
      "seqNo" : "5"
   },
   {
      "GoBack" : "2",
      "longitude" : "120.64866",
      "outDis" : "50",
      "Id" : "4266",
      "oid" : "13267",
      "districtId" : "1",
      "nameZh" : "文心臺灣大道口",
      "pgp" : "0",
      "terminal" : "0",
      "latitude" : "24.16128",
      "inDis" : "50",
      "routeId" : "53區2",
      "seqNo" : "6"
   },
   {
      "GoBack" : "2",
      "longitude" : "120.65057",
      "outDis" : "50",
      "Id" : "4269",
      "oid" : "13269",
      "districtId" : "1",
      "nameZh" : "文心四川路口",
      "pgp" : "0",
      "terminal" : "0",
      "latitude" : "24.16388",
      "inDis" : "50",
      "routeId" : "53區2",
      "seqNo" : "7"
   },
   {
      "GoBack" : "2",
      "longitude" : "120.65221",
      "outDis" : "50",
      "Id" : "4273",
      "oid" : "13273",
      "districtId" : "1",
      "nameZh" : "文心西屯路口",
      "pgp" : "0",
      "terminal" : "0",
      "latitude" : "24.16614",
      "inDis" : "50",
      "routeId" : "53區2",
      "seqNo" : "8"
   },
   {
      "GoBack" : "2",
      "longitude" : "120.65563",
      "outDis" : "50",
      "Id" : "4271",
      "oid" : "13271",
      "districtId" : "1",
      "nameZh" : "文心甘肅路口",
      "pgp" : "0",
      "terminal" : "0",
      "latitude" : "24.16903",
      "inDis" : "50",
      "routeId" : "53區2",
      "seqNo" : "9"
   },
   {
      "GoBack" : "2",
      "longitude" : "120.65914",
      "outDis" : "50",
      "Id" : "4612",
      "oid" : "13281",
      "districtId" : "1",
      "nameZh" : "文華高中(文心路)",
      "pgp" : "0",
      "terminal" : "0",
      "latitude" : "24.17101",
      "inDis" : "50",
      "routeId" : "53區2",
      "seqNo" : "10"
   },
   {
      "GoBack" : "2",
      "longitude" : "120.66069",
      "outDis" : "50",
      "Id" : "4275",
      "oid" : "13275",
      "districtId" : "1",
      "nameZh" : "文心河南路口",
      "pgp" : "0",
      "terminal" : "0",
      "latitude" : "24.17149",
      "inDis" : "50",
      "routeId" : "53區2",
      "seqNo" : "11"
   },
   {
      "GoBack" : "2",
      "longitude" : "120.66342",
      "outDis" : "50",
      "Id" : "0230",
      "oid" : "13312",
      "districtId" : "1",
      "nameZh" : "重慶國小",
      "pgp" : "0",
      "terminal" : "0",
      "latitude" : "24.17225",
      "inDis" : "50",
      "routeId" : "53區2",
      "seqNo" : "12"
   },
   {
      "GoBack" : "2",
      "longitude" : "120.66561",
      "outDis" : "50",
      "Id" : "0229",
      "oid" : "13296",
      "districtId" : "1",
      "nameZh" : "臺灣日報",
      "pgp" : "0",
      "terminal" : "0",
      "latitude" : "24.17277",
      "inDis" : "50",
      "routeId" : "53區2",
      "seqNo" : "13"
   },
   {
      "GoBack" : "2",
      "longitude" : "120.66832",
      "outDis" : "50",
      "Id" : "4355",
      "oid" : "13277",
      "districtId" : "1",
      "nameZh" : "文心陝西路口",
      "pgp" : "0",
      "terminal" : "0",
      "latitude" : "24.17328",
      "inDis" : "50",
      "routeId" : "53區2",
      "seqNo" : "14"
   },
   {
      "GoBack" : "2",
      "longitude" : "120.67166",
      "outDis" : "50",
      "Id" : "4265",
      "oid" : "13266",
      "districtId" : "1",
      "nameZh" : "文心中清路口",
      "pgp" : "0",
      "terminal" : "0",
      "latitude" : "24.1738",
      "inDis" : "50",
      "routeId" : "53區2",
      "seqNo" : "15"
   },
   {
      "GoBack" : "2",
      "longitude" : "120.67447",
      "outDis" : "50",
      "Id" : "4276",
      "oid" : "12539",
      "districtId" : "1",
      "nameZh" : "文心青島東街口",
      "pgp" : "0",
      "terminal" : "0",
      "latitude" : "24.17376",
      "inDis" : "50",
      "routeId" : "53區2",
      "seqNo" : "16"
   },
   {
      "GoBack" : "2",
      "longitude" : "120.67568",
      "outDis" : "50",
      "Id" : "4277",
      "oid" : "13118",
      "districtId" : "1",
      "nameZh" : "文心山西路口",
      "pgp" : "0",
      "terminal" : "0",
      "latitude" : "24.17352",
      "inDis" : "50",
      "routeId" : "53區2",
      "seqNo" : "17"
   },
   {
      "GoBack" : "2",
      "longitude" : "120.67927",
      "outDis" : "50",
      "Id" : "4280",
      "oid" : "13127",
      "districtId" : "1",
      "nameZh" : "文心梅川西路口",
      "pgp" : "0",
      "terminal" : "0",
      "latitude" : "24.17296",
      "inDis" : "50",
      "routeId" : "53區2",
      "seqNo" : "18"
   },
   {
      "GoBack" : "2",
      "longitude" : "120.68246",
      "outDis" : "50",
      "Id" : "0224",
      "oid" : "13278",
      "districtId" : "1",
      "nameZh" : "文心國小",
      "pgp" : "0",
      "terminal" : "0",
      "latitude" : "24.17241",
      "inDis" : "50",
      "routeId" : "53區2",
      "seqNo" : "19"
   },
   {
      "GoBack" : "2",
      "longitude" : "120.68599",
      "outDis" : "50",
      "Id" : "4279",
      "oid" : "13125",
      "districtId" : "1",
      "nameZh" : "文心崇德路口",
      "pgp" : "0",
      "terminal" : "0",
      "latitude" : "24.17195",
      "inDis" : "50",
      "routeId" : "53區2",
      "seqNo" : "20"
   },
   {
      "GoBack" : "2",
      "longitude" : "120.68764",
      "outDis" : "50",
      "Id" : "4283",
      "oid" : "13280",
      "districtId" : "1",
      "nameZh" : "文心熱河路口",
      "pgp" : "0",
      "terminal" : "0",
      "latitude" : "24.17184",
      "inDis" : "50",
      "routeId" : "53區2",
      "seqNo" : "21"
   },
   {
      "GoBack" : "2",
      "longitude" : "120.69167",
      "outDis" : "50",
      "Id" : "4274",
      "oid" : "13274",
      "districtId" : "1",
      "nameZh" : "文心昌平路口",
      "pgp" : "0",
      "terminal" : "0",
      "latitude" : "24.17132",
      "inDis" : "50",
      "routeId" : "53區2",
      "seqNo" : "22"
   },
   {
      "GoBack" : "2",
      "longitude" : "120.69447",
      "outDis" : "50",
      "Id" : "5780",
      "oid" : "320882893",
      "districtId" : "1",
      "nameZh" : "文心興安路口",
      "pgp" : "0",
      "terminal" : "0",
      "latitude" : "24.17109",
      "inDis" : "50",
      "routeId" : "53區2",
      "seqNo" : "23"
   },
   {
      "GoBack" : "2",
      "longitude" : "120.6959",
      "outDis" : "50",
      "Id" : "0102",
      "oid" : "13297",
      "districtId" : "1",
      "nameZh" : "四維國小",
      "pgp" : "0",
      "terminal" : "0",
      "latitude" : "24.17093",
      "inDis" : "50",
      "routeId" : "53區2",
      "seqNo" : "24"
   },
   {
      "GoBack" : "2",
      "longitude" : "120.6983",
      "outDis" : "50",
      "Id" : "0222",
      "oid" : "13241",
      "districtId" : "1",
      "nameZh" : "聯安醫院",
      "pgp" : "0",
      "terminal" : "0",
      "latitude" : "24.1703",
      "inDis" : "50",
      "routeId" : "53區2",
      "seqNo" : "25"
   },
   {
      "GoBack" : "2",
      "longitude" : "120.70266",
      "outDis" : "50",
      "Id" : "4312",
      "oid" : "13176",
      "districtId" : "1",
      "nameZh" : "東光國小",
      "pgp" : "0",
      "terminal" : "0",
      "latitude" : "24.16978",
      "inDis" : "50",
      "routeId" : "53區2",
      "seqNo" : "26"
   },
   {
      "GoBack" : "2",
      "longitude" : "120.70432",
      "outDis" : "50",
      "Id" : "5712",
      "oid" : "13063",
      "districtId" : "1",
      "nameZh" : "三和/東光里",
      "pgp" : "0",
      "terminal" : "0",
      "latitude" : "24.16955",
      "inDis" : "50",
      "routeId" : "53區2",
      "seqNo" : "27"
   },
   {
      "GoBack" : "2",
      "longitude" : "120.70687",
      "outDis" : "50",
      "Id" : "4319",
      "oid" : "13062",
      "districtId" : "1",
      "nameZh" : "三甲公園",
      "pgp" : "0",
      "terminal" : "0",
      "latitude" : "24.16726",
      "inDis" : "50",
      "routeId" : "53區2",
      "seqNo" : "28"
   },
   {
      "GoBack" : "2",
      "longitude" : "120.7096",
      "outDis" : "80",
      "Id" : "5105",
      "oid" : "310603463",
      "districtId" : "1",
      "nameZh" : "景賢八路口",
      "pgp" : "0",
      "terminal" : "0",
      "latitude" : "24.16725",
      "inDis" : "30",
      "routeId" : "53區2",
      "seqNo" : "29"
   },
   {
      "GoBack" : "2",
      "longitude" : "120.71168",
      "outDis" : "50",
      "Id" : "4320",
      "oid" : "301532258",
      "districtId" : "1",
      "nameZh" : "東山高中",
      "pgp" : "0",
      "terminal" : "0",
      "latitude" : "24.16596",
      "inDis" : "50",
      "routeId" : "53區2",
      "seqNo" : "30"
   },
   {
      "GoBack" : "2",
      "longitude" : "120.70621",
      "outDis" : "90",
      "Id" : "0470",
      "oid" : "68D7F787D67B43BB8D728BAE37A2CBD8",
      "districtId" : "1",
      "nameZh" : "太原二號橋",
      "pgp" : "0",
      "terminal" : "0",
      "latitude" : "24.16468",
      "inDis" : "50",
      "routeId" : "53區2",
      "seqNo" : "31"
   },
   {
      "GoBack" : "2",
      "longitude" : "120.70346",
      "outDis" : "50",
      "Id" : "0218",
      "oid" : "13060",
      "districtId" : "1",
      "nameZh" : "三川福德祠",
      "pgp" : "0",
      "terminal" : "0",
      "latitude" : "24.16498",
      "inDis" : "50",
      "routeId" : "53區2",
      "seqNo" : "32"
   },
   {
      "GoBack" : "2",
      "longitude" : "120.70017",
      "outDis" : "50",
      "Id" : "4351",
      "oid" : "13263",
      "districtId" : "1",
      "nameZh" : "太原火車站",
      "pgp" : "0",
      "terminal" : "0",
      "latitude" : "24.16612",
      "inDis" : "50",
      "routeId" : "53區2",
      "seqNo" : "33"
   }
]
