[
   {
      "GoBack" : "1",
      "longitude" : "120.67587",
      "outDis" : "5",
      "Id" : "4232",
      "oid" : "12679",
      "districtId" : "1",
      "nameZh" : "中興大學2",
      "pgp" : "0",
      "terminal" : "0",
      "latitude" : "24.12417",
      "inDis" : "5",
      "routeId" : "52",
      "seqNo" : "1"
   },
   {
      "GoBack" : "1",
      "longitude" : "120.67941",
      "outDis" : "50",
      "Id" : "0038",
      "oid" : "12719",
      "districtId" : "1",
      "nameZh" : "國光國小",
      "pgp" : "0",
      "terminal" : "0",
      "latitude" : "24.12597",
      "inDis" : "50",
      "routeId" : "52",
      "seqNo" : "2"
   },
   {
      "GoBack" : "1",
      "longitude" : "120.68028",
      "outDis" : "50",
      "Id" : "4008",
      "oid" : "12739",
      "districtId" : "1",
      "nameZh" : "靈山寺",
      "pgp" : "0",
      "terminal" : "0",
      "latitude" : "24.12747",
      "inDis" : "50",
      "routeId" : "52",
      "seqNo" : "3"
   },
   {
      "GoBack" : "1",
      "longitude" : "120.68366",
      "outDis" : "50",
      "Id" : "0039",
      "oid" : "12691",
      "districtId" : "1",
      "nameZh" : "建成正氣街口",
      "pgp" : "0",
      "terminal" : "0",
      "latitude" : "24.1289",
      "inDis" : "50",
      "routeId" : "52",
      "seqNo" : "4"
   },
   {
      "GoBack" : "1",
      "longitude" : "120.6862",
      "outDis" : "50",
      "Id" : "5647",
      "oid" : "12689",
      "districtId" : "1",
      "nameZh" : "興大附農(建成路)",
      "pgp" : "0",
      "terminal" : "0",
      "latitude" : "24.12991",
      "inDis" : "50",
      "routeId" : "52",
      "seqNo" : "5"
   },
   {
      "GoBack" : "1",
      "longitude" : "120.68796",
      "outDis" : "50",
      "Id" : "2029",
      "oid" : "12694",
      "districtId" : "1",
      "nameZh" : "建成立德街口",
      "pgp" : "0",
      "terminal" : "0",
      "latitude" : "24.13072",
      "inDis" : "50",
      "routeId" : "52",
      "seqNo" : "6"
   },
   {
      "GoBack" : "1",
      "longitude" : "120.68988",
      "outDis" : "50",
      "Id" : "4655",
      "oid" : "12671",
      "districtId" : "1",
      "nameZh" : "建成大智路口",
      "pgp" : "0",
      "terminal" : "0",
      "latitude" : "24.13146",
      "inDis" : "50",
      "routeId" : "52",
      "seqNo" : "7"
   },
   {
      "GoBack" : "1",
      "longitude" : "120.69233",
      "outDis" : "50",
      "Id" : "4362",
      "oid" : "12668",
      "districtId" : "1",
      "nameZh" : "建成大振街口",
      "pgp" : "0",
      "terminal" : "0",
      "latitude" : "24.13251",
      "inDis" : "50",
      "routeId" : "52",
      "seqNo" : "8"
   },
   {
      "GoBack" : "1",
      "longitude" : "120.69397",
      "outDis" : "50",
      "Id" : "0188",
      "oid" : "12666",
      "districtId" : "1",
      "nameZh" : "大東紡織(建成路)",
      "pgp" : "0",
      "terminal" : "0",
      "latitude" : "24.13319",
      "inDis" : "50",
      "routeId" : "52",
      "seqNo" : "9"
   },
   {
      "GoBack" : "1",
      "longitude" : "120.6961",
      "outDis" : "50",
      "Id" : "2402",
      "oid" : "12711",
      "districtId" : "1",
      "nameZh" : "建成東光園路口",
      "pgp" : "0",
      "terminal" : "0",
      "latitude" : "24.13468",
      "inDis" : "50",
      "routeId" : "52",
      "seqNo" : "10"
   },
   {
      "GoBack" : "1",
      "longitude" : "120.69667",
      "outDis" : "50",
      "Id" : "4562",
      "oid" : "12732",
      "districtId" : "1",
      "nameZh" : "建成樂業路口",
      "pgp" : "0",
      "terminal" : "0",
      "latitude" : "24.13814",
      "inDis" : "50",
      "routeId" : "52",
      "seqNo" : "11"
   },
   {
      "GoBack" : "1",
      "longitude" : "120.69449",
      "outDis" : "50",
      "Id" : "0844",
      "oid" : "12729",
      "districtId" : "1",
      "nameZh" : "進德國小",
      "pgp" : "0",
      "terminal" : "0",
      "latitude" : "24.14537",
      "inDis" : "50",
      "routeId" : "52",
      "seqNo" : "12"
   },
   {
      "GoBack" : "1",
      "longitude" : "120.69447",
      "outDis" : "50",
      "Id" : "0599",
      "oid" : "899DB8F4371F4C06BD2901DA5E6AFD6C",
      "districtId" : "1",
      "nameZh" : "合作市場",
      "pgp" : "0",
      "terminal" : "0",
      "latitude" : "24.1503",
      "inDis" : "50",
      "routeId" : "52",
      "seqNo" : "13"
   },
   {
      "GoBack" : "1",
      "longitude" : "120.69449",
      "outDis" : "50",
      "Id" : "0313",
      "oid" : "12661",
      "districtId" : "1",
      "nameZh" : "進化力行路口",
      "pgp" : "0",
      "terminal" : "0",
      "latitude" : "24.15253",
      "inDis" : "50",
      "routeId" : "52",
      "seqNo" : "14"
   },
   {
      "GoBack" : "1",
      "longitude" : "120.69442",
      "outDis" : "50",
      "Id" : "0932",
      "oid" : "12737",
      "districtId" : "1",
      "nameZh" : "進化興進路口",
      "pgp" : "0",
      "terminal" : "0",
      "latitude" : "24.15449",
      "inDis" : "50",
      "routeId" : "52",
      "seqNo" : "15"
   },
   {
      "GoBack" : "1",
      "longitude" : "120.69447",
      "outDis" : "50",
      "Id" : "0754",
      "oid" : "12720",
      "districtId" : "1",
      "nameZh" : "進化國瑞街口",
      "pgp" : "0",
      "terminal" : "0",
      "latitude" : "24.15692",
      "inDis" : "50",
      "routeId" : "52",
      "seqNo" : "16"
   },
   {
      "GoBack" : "1",
      "longitude" : "120.69447",
      "outDis" : "50",
      "Id" : "0588",
      "oid" : "12697",
      "districtId" : "1",
      "nameZh" : "光華高工",
      "pgp" : "0",
      "terminal" : "0",
      "latitude" : "24.15797",
      "inDis" : "50",
      "routeId" : "52",
      "seqNo" : "17"
   },
   {
      "GoBack" : "1",
      "longitude" : "120.69418",
      "outDis" : "50",
      "Id" : "0466",
      "oid" : "12682",
      "districtId" : "1",
      "nameZh" : "進化天祥街口",
      "pgp" : "0",
      "terminal" : "0",
      "latitude" : "24.16052",
      "inDis" : "50",
      "routeId" : "52",
      "seqNo" : "18"
   },
   {
      "GoBack" : "1",
      "longitude" : "120.69194",
      "outDis" : "50",
      "Id" : "5515",
      "oid" : "315467329",
      "districtId" : "1",
      "nameZh" : "北屯國小(進化北路)",
      "pgp" : "0",
      "terminal" : "0",
      "latitude" : "24.16284",
      "inDis" : "50",
      "routeId" : "52",
      "seqNo" : "19"
   },
   {
      "GoBack" : "1",
      "longitude" : "120.68986",
      "outDis" : "50",
      "Id" : "0493",
      "oid" : "12684",
      "districtId" : "1",
      "nameZh" : "北屯市場",
      "pgp" : "0",
      "terminal" : "0",
      "latitude" : "24.16306",
      "inDis" : "50",
      "routeId" : "52",
      "seqNo" : "20"
   },
   {
      "GoBack" : "1",
      "longitude" : "120.68751",
      "outDis" : "50",
      "Id" : "0830",
      "oid" : "12726",
      "districtId" : "1",
      "nameZh" : "稅務新村",
      "pgp" : "0",
      "terminal" : "0",
      "latitude" : "24.16315",
      "inDis" : "50",
      "routeId" : "52",
      "seqNo" : "21"
   },
   {
      "GoBack" : "1",
      "longitude" : "120.68631",
      "outDis" : "50",
      "Id" : "0800",
      "oid" : "12724",
      "districtId" : "1",
      "nameZh" : "頂厝里",
      "pgp" : "0",
      "terminal" : "0",
      "latitude" : "24.16313",
      "inDis" : "50",
      "routeId" : "52",
      "seqNo" : "22"
   },
   {
      "GoBack" : "1",
      "longitude" : "120.6826",
      "outDis" : "50",
      "Id" : "4579",
      "oid" : "12692",
      "districtId" : "1",
      "nameZh" : "進化北永興街口",
      "pgp" : "0",
      "terminal" : "0",
      "latitude" : "24.16319",
      "inDis" : "50",
      "routeId" : "52",
      "seqNo" : "23"
   },
   {
      "GoBack" : "1",
      "longitude" : "120.68026",
      "outDis" : "50",
      "Id" : "0920",
      "oid" : "12735",
      "districtId" : "1",
      "nameZh" : "衛道新世界",
      "pgp" : "0",
      "terminal" : "0",
      "latitude" : "24.1632",
      "inDis" : "50",
      "routeId" : "52",
      "seqNo" : "24"
   },
   {
      "GoBack" : "1",
      "longitude" : "120.67598",
      "outDis" : "50",
      "Id" : "4625",
      "oid" : "12672",
      "districtId" : "1",
      "nameZh" : "大道公廟(進化北路)",
      "pgp" : "0",
      "terminal" : "0",
      "latitude" : "24.16328",
      "inDis" : "50",
      "routeId" : "52",
      "seqNo" : "25"
   },
   {
      "GoBack" : "1",
      "longitude" : "120.67224",
      "outDis" : "50",
      "Id" : "5513",
      "oid" : "12713",
      "districtId" : "1",
      "nameZh" : "八0三醫院中清分院",
      "pgp" : "0",
      "terminal" : "0",
      "latitude" : "24.163",
      "inDis" : "50",
      "routeId" : "52",
      "seqNo" : "26"
   },
   {
      "GoBack" : "1",
      "longitude" : "120.66766",
      "outDis" : "50",
      "Id" : "2343",
      "oid" : "12705",
      "districtId" : "1",
      "nameZh" : "忠明忠太東路口",
      "pgp" : "0",
      "terminal" : "0",
      "latitude" : "24.16295",
      "inDis" : "50",
      "routeId" : "52",
      "seqNo" : "27"
   },
   {
      "GoBack" : "1",
      "longitude" : "120.66445",
      "outDis" : "50",
      "Id" : "4633",
      "oid" : "12700",
      "districtId" : "1",
      "nameZh" : "忠明西屯路口",
      "pgp" : "0",
      "terminal" : "0",
      "latitude" : "24.16243",
      "inDis" : "50",
      "routeId" : "52",
      "seqNo" : "28"
   },
   {
      "GoBack" : "1",
      "longitude" : "120.6608",
      "outDis" : "50",
      "Id" : "5660",
      "oid" : "12674",
      "districtId" : "1",
      "nameZh" : "忠明臺灣大道口",
      "pgp" : "0",
      "terminal" : "0",
      "latitude" : "24.15896",
      "inDis" : "50",
      "routeId" : "52",
      "seqNo" : "29"
   },
   {
      "GoBack" : "1",
      "longitude" : "120.65777",
      "outDis" : "50",
      "Id" : "4674",
      "oid" : "12731",
      "districtId" : "1",
      "nameZh" : "忠明南精誠七街口",
      "pgp" : "0",
      "terminal" : "0",
      "latitude" : "24.15429",
      "inDis" : "50",
      "routeId" : "52",
      "seqNo" : "30"
   },
   {
      "GoBack" : "1",
      "longitude" : "120.65722",
      "outDis" : "50",
      "Id" : "4588",
      "oid" : "A307CE445D434E508245C71B827661DD",
      "districtId" : "1",
      "nameZh" : "公益公園(忠明南路)",
      "pgp" : "0",
      "terminal" : "0",
      "latitude" : "24.15041",
      "inDis" : "50",
      "routeId" : "52",
      "seqNo" : "31"
   },
   {
      "GoBack" : "1",
      "longitude" : "120.65723",
      "outDis" : "50",
      "Id" : "4589",
      "oid" : "12698",
      "districtId" : "1",
      "nameZh" : "忠明南向上路口",
      "pgp" : "0",
      "terminal" : "0",
      "latitude" : "24.14625",
      "inDis" : "50",
      "routeId" : "52",
      "seqNo" : "32"
   },
   {
      "GoBack" : "1",
      "longitude" : "120.65724",
      "outDis" : "50",
      "Id" : "0123",
      "oid" : "12664",
      "districtId" : "1",
      "nameZh" : "土庫停車場",
      "pgp" : "0",
      "terminal" : "0",
      "latitude" : "24.14098",
      "inDis" : "50",
      "routeId" : "52",
      "seqNo" : "33"
   },
   {
      "GoBack" : "1",
      "longitude" : "120.65722",
      "outDis" : "50",
      "Id" : "4233",
      "oid" : "12706",
      "districtId" : "1",
      "nameZh" : "忠明南五權西路口",
      "pgp" : "0",
      "terminal" : "0",
      "latitude" : "24.13772",
      "inDis" : "50",
      "routeId" : "52",
      "seqNo" : "34"
   },
   {
      "GoBack" : "1",
      "longitude" : "120.6573",
      "outDis" : "75",
      "Id" : "0125",
      "oid" : "10932",
      "districtId" : "1",
      "nameZh" : "大勇國小",
      "pgp" : "0",
      "terminal" : "0",
      "latitude" : "24.13484",
      "inDis" : "75",
      "routeId" : "52",
      "seqNo" : "35"
   },
   {
      "GoBack" : "1",
      "longitude" : "120.65739",
      "outDis" : "75",
      "Id" : "4590",
      "oid" : "11106",
      "districtId" : "1",
      "nameZh" : "崇倫國中(忠明南路)",
      "pgp" : "0",
      "terminal" : "0",
      "latitude" : "24.13145",
      "inDis" : "75",
      "routeId" : "52",
      "seqNo" : "36"
   },
   {
      "GoBack" : "1",
      "longitude" : "120.65797",
      "outDis" : "50",
      "Id" : "4532",
      "oid" : "12662",
      "districtId" : "1",
      "nameZh" : "忠明南三民西路口",
      "pgp" : "0",
      "terminal" : "0",
      "latitude" : "24.12879",
      "inDis" : "50",
      "routeId" : "52",
      "seqNo" : "37"
   },
   {
      "GoBack" : "1",
      "longitude" : "120.66057",
      "outDis" : "50",
      "Id" : "4591",
      "oid" : "12703",
      "districtId" : "1",
      "nameZh" : "和平里(忠明南路)",
      "pgp" : "0",
      "terminal" : "0",
      "latitude" : "24.12331",
      "inDis" : "50",
      "routeId" : "52",
      "seqNo" : "38"
   },
   {
      "GoBack" : "1",
      "longitude" : "120.66311",
      "outDis" : "50",
      "Id" : "4969",
      "oid" : "309040913",
      "districtId" : "1",
      "nameZh" : "忠明南平路口",
      "pgp" : "0",
      "terminal" : "0",
      "latitude" : "24.12001",
      "inDis" : "50",
      "routeId" : "52",
      "seqNo" : "39"
   },
   {
      "GoBack" : "1",
      "longitude" : "120.66619",
      "outDis" : "50",
      "Id" : "0036",
      "oid" : "304988481",
      "districtId" : "1",
      "nameZh" : "忠明南美村南路口",
      "pgp" : "0",
      "terminal" : "0",
      "latitude" : "24.11906",
      "inDis" : "50",
      "routeId" : "52",
      "seqNo" : "40"
   },
   {
      "GoBack" : "1",
      "longitude" : "120.66814",
      "outDis" : "50",
      "Id" : "2914",
      "oid" : "12717",
      "districtId" : "1",
      "nameZh" : "健康公園",
      "pgp" : "0",
      "terminal" : "0",
      "latitude" : "24.11901",
      "inDis" : "50",
      "routeId" : "52",
      "seqNo" : "41"
   },
   {
      "GoBack" : "1",
      "longitude" : "120.67083",
      "outDis" : "50",
      "Id" : "5109",
      "oid" : "12709",
      "districtId" : "1",
      "nameZh" : "忠明南五權南路口",
      "pgp" : "0",
      "terminal" : "0",
      "latitude" : "24.11905",
      "inDis" : "50",
      "routeId" : "52",
      "seqNo" : "42"
   },
   {
      "GoBack" : "1",
      "longitude" : "120.67189",
      "outDis" : "50",
      "Id" : "4638",
      "oid" : "12715",
      "districtId" : "1",
      "nameZh" : "興大美村路口",
      "pgp" : "0",
      "terminal" : "0",
      "latitude" : "24.1221",
      "inDis" : "50",
      "routeId" : "52",
      "seqNo" : "43"
   },
   {
      "GoBack" : "1",
      "longitude" : "120.67321",
      "outDis" : "50",
      "Id" : "4232",
      "oid" : "12678",
      "districtId" : "1",
      "nameZh" : "中興大學2",
      "pgp" : "0",
      "terminal" : "0",
      "latitude" : "24.12397",
      "inDis" : "50",
      "routeId" : "52",
      "seqNo" : "44"
   },
   {
      "GoBack" : "2",
      "longitude" : "120.67579",
      "outDis" : "5",
      "Id" : "4231",
      "oid" : "12676",
      "districtId" : "1",
      "nameZh" : "中興大學1",
      "pgp" : "0",
      "terminal" : "0",
      "latitude" : "24.12409",
      "inDis" : "5",
      "routeId" : "52",
      "seqNo" : "1"
   },
   {
      "GoBack" : "2",
      "longitude" : "120.67189",
      "outDis" : "50",
      "Id" : "4638",
      "oid" : "12715",
      "districtId" : "1",
      "nameZh" : "興大美村路口",
      "pgp" : "0",
      "terminal" : "0",
      "latitude" : "24.1221",
      "inDis" : "50",
      "routeId" : "52",
      "seqNo" : "2"
   },
   {
      "GoBack" : "2",
      "longitude" : "120.67083",
      "outDis" : "50",
      "Id" : "5109",
      "oid" : "12709",
      "districtId" : "1",
      "nameZh" : "忠明南五權南路口",
      "pgp" : "0",
      "terminal" : "0",
      "latitude" : "24.11905",
      "inDis" : "50",
      "routeId" : "52",
      "seqNo" : "3"
   },
   {
      "GoBack" : "2",
      "longitude" : "120.66796",
      "outDis" : "50",
      "Id" : "2914",
      "oid" : "12716",
      "districtId" : "1",
      "nameZh" : "健康公園",
      "pgp" : "0",
      "terminal" : "0",
      "latitude" : "24.119",
      "inDis" : "50",
      "routeId" : "52",
      "seqNo" : "4"
   },
   {
      "GoBack" : "2",
      "longitude" : "120.66619",
      "outDis" : "50",
      "Id" : "0036",
      "oid" : "304988481",
      "districtId" : "1",
      "nameZh" : "忠明南美村南路口",
      "pgp" : "0",
      "terminal" : "0",
      "latitude" : "24.11906",
      "inDis" : "50",
      "routeId" : "52",
      "seqNo" : "5"
   },
   {
      "GoBack" : "2",
      "longitude" : "120.66047",
      "outDis" : "50",
      "Id" : "4591",
      "oid" : "12702",
      "districtId" : "1",
      "nameZh" : "和平里(忠明南路)",
      "pgp" : "0",
      "terminal" : "0",
      "latitude" : "24.12325",
      "inDis" : "50",
      "routeId" : "52",
      "seqNo" : "6"
   },
   {
      "GoBack" : "2",
      "longitude" : "120.658",
      "outDis" : "50",
      "Id" : "4532",
      "oid" : "12663",
      "districtId" : "1",
      "nameZh" : "忠明南三民西路口",
      "pgp" : "0",
      "terminal" : "0",
      "latitude" : "24.12874",
      "inDis" : "50",
      "routeId" : "52",
      "seqNo" : "7"
   },
   {
      "GoBack" : "2",
      "longitude" : "120.65739",
      "outDis" : "50",
      "Id" : "4590",
      "oid" : "12723",
      "districtId" : "1",
      "nameZh" : "崇倫國中(忠明南路)",
      "pgp" : "0",
      "terminal" : "0",
      "latitude" : "24.13145",
      "inDis" : "50",
      "routeId" : "52",
      "seqNo" : "8"
   },
   {
      "GoBack" : "2",
      "longitude" : "120.65741",
      "outDis" : "50",
      "Id" : "0125",
      "oid" : "12667",
      "districtId" : "1",
      "nameZh" : "大勇國小",
      "pgp" : "0",
      "terminal" : "0",
      "latitude" : "24.13468",
      "inDis" : "50",
      "routeId" : "52",
      "seqNo" : "9"
   },
   {
      "GoBack" : "2",
      "longitude" : "120.65734",
      "outDis" : "50",
      "Id" : "4233",
      "oid" : "12707",
      "districtId" : "1",
      "nameZh" : "忠明南五權西路口",
      "pgp" : "0",
      "terminal" : "0",
      "latitude" : "24.13858",
      "inDis" : "50",
      "routeId" : "52",
      "seqNo" : "10"
   },
   {
      "GoBack" : "2",
      "longitude" : "120.65739",
      "outDis" : "50",
      "Id" : "0123",
      "oid" : "80AD48C522F84FD09B8A88DEC1BE27EC",
      "districtId" : "1",
      "nameZh" : "土庫停車場",
      "pgp" : "0",
      "terminal" : "0",
      "latitude" : "24.14117",
      "inDis" : "50",
      "routeId" : "52",
      "seqNo" : "11"
   },
   {
      "GoBack" : "2",
      "longitude" : "120.65742",
      "outDis" : "75",
      "Id" : "4589",
      "oid" : "11052",
      "districtId" : "1",
      "nameZh" : "忠明南向上路口",
      "pgp" : "0",
      "terminal" : "0",
      "latitude" : "24.14623",
      "inDis" : "75",
      "routeId" : "52",
      "seqNo" : "12"
   },
   {
      "GoBack" : "2",
      "longitude" : "120.6574",
      "outDis" : "50",
      "Id" : "4588",
      "oid" : "631A7C6FA23F4434ABFDB97B70EEEBB1",
      "districtId" : "1",
      "nameZh" : "公益公園(忠明南路)",
      "pgp" : "0",
      "terminal" : "0",
      "latitude" : "24.15025",
      "inDis" : "50",
      "routeId" : "52",
      "seqNo" : "13"
   },
   {
      "GoBack" : "2",
      "longitude" : "120.6577",
      "outDis" : "50",
      "Id" : "4674",
      "oid" : "12730",
      "districtId" : "1",
      "nameZh" : "忠明南精誠七街口",
      "pgp" : "0",
      "terminal" : "0",
      "latitude" : "24.15397",
      "inDis" : "50",
      "routeId" : "52",
      "seqNo" : "14"
   },
   {
      "GoBack" : "2",
      "longitude" : "120.66092",
      "outDis" : "50",
      "Id" : "5660",
      "oid" : "12675",
      "districtId" : "1",
      "nameZh" : "忠明臺灣大道口",
      "pgp" : "0",
      "terminal" : "0",
      "latitude" : "24.15885",
      "inDis" : "50",
      "routeId" : "52",
      "seqNo" : "15"
   },
   {
      "GoBack" : "2",
      "longitude" : "120.66467",
      "outDis" : "50",
      "Id" : "4633",
      "oid" : "12701",
      "districtId" : "1",
      "nameZh" : "忠明西屯路口",
      "pgp" : "0",
      "terminal" : "0",
      "latitude" : "24.16236",
      "inDis" : "50",
      "routeId" : "52",
      "seqNo" : "16"
   },
   {
      "GoBack" : "2",
      "longitude" : "120.6676",
      "outDis" : "50",
      "Id" : "2343",
      "oid" : "12704",
      "districtId" : "1",
      "nameZh" : "忠明忠太東路口",
      "pgp" : "0",
      "terminal" : "0",
      "latitude" : "24.16286",
      "inDis" : "50",
      "routeId" : "52",
      "seqNo" : "17"
   },
   {
      "GoBack" : "2",
      "longitude" : "120.67205",
      "outDis" : "50",
      "Id" : "5513",
      "oid" : "12712",
      "districtId" : "1",
      "nameZh" : "八0三醫院中清分院",
      "pgp" : "0",
      "terminal" : "0",
      "latitude" : "24.16284",
      "inDis" : "50",
      "routeId" : "52",
      "seqNo" : "18"
   },
   {
      "GoBack" : "2",
      "longitude" : "120.67614",
      "outDis" : "50",
      "Id" : "4625",
      "oid" : "12673",
      "districtId" : "1",
      "nameZh" : "大道公廟(進化北路)",
      "pgp" : "0",
      "terminal" : "0",
      "latitude" : "24.16306",
      "inDis" : "50",
      "routeId" : "52",
      "seqNo" : "19"
   },
   {
      "GoBack" : "2",
      "longitude" : "120.68017",
      "outDis" : "50",
      "Id" : "0920",
      "oid" : "12734",
      "districtId" : "1",
      "nameZh" : "衛道新世界",
      "pgp" : "0",
      "terminal" : "0",
      "latitude" : "24.16312",
      "inDis" : "50",
      "routeId" : "52",
      "seqNo" : "20"
   },
   {
      "GoBack" : "2",
      "longitude" : "120.68278",
      "outDis" : "50",
      "Id" : "4579",
      "oid" : "12693",
      "districtId" : "1",
      "nameZh" : "進化北永興街口",
      "pgp" : "0",
      "terminal" : "0",
      "latitude" : "24.16306",
      "inDis" : "50",
      "routeId" : "52",
      "seqNo" : "21"
   },
   {
      "GoBack" : "2",
      "longitude" : "120.68638",
      "outDis" : "50",
      "Id" : "0800",
      "oid" : "12725",
      "districtId" : "1",
      "nameZh" : "頂厝里",
      "pgp" : "0",
      "terminal" : "0",
      "latitude" : "24.16304",
      "inDis" : "50",
      "routeId" : "52",
      "seqNo" : "22"
   },
   {
      "GoBack" : "2",
      "longitude" : "120.68759",
      "outDis" : "50",
      "Id" : "0830",
      "oid" : "12727",
      "districtId" : "1",
      "nameZh" : "稅務新村",
      "pgp" : "0",
      "terminal" : "0",
      "latitude" : "24.16295",
      "inDis" : "50",
      "routeId" : "52",
      "seqNo" : "23"
   },
   {
      "GoBack" : "2",
      "longitude" : "120.68986",
      "outDis" : "50",
      "Id" : "0493",
      "oid" : "12684",
      "districtId" : "1",
      "nameZh" : "北屯市場",
      "pgp" : "0",
      "terminal" : "0",
      "latitude" : "24.16306",
      "inDis" : "50",
      "routeId" : "52",
      "seqNo" : "24"
   },
   {
      "GoBack" : "2",
      "longitude" : "120.69426",
      "outDis" : "50",
      "Id" : "0466",
      "oid" : "12683",
      "districtId" : "1",
      "nameZh" : "進化天祥街口",
      "pgp" : "0",
      "terminal" : "0",
      "latitude" : "24.16106",
      "inDis" : "50",
      "routeId" : "52",
      "seqNo" : "25"
   },
   {
      "GoBack" : "2",
      "longitude" : "120.69432",
      "outDis" : "50",
      "Id" : "0588",
      "oid" : "12696",
      "districtId" : "1",
      "nameZh" : "光華高工",
      "pgp" : "0",
      "terminal" : "0",
      "latitude" : "24.15821",
      "inDis" : "50",
      "routeId" : "52",
      "seqNo" : "26"
   },
   {
      "GoBack" : "2",
      "longitude" : "120.69439",
      "outDis" : "50",
      "Id" : "0754",
      "oid" : "12721",
      "districtId" : "1",
      "nameZh" : "進化國瑞街口",
      "pgp" : "0",
      "terminal" : "0",
      "latitude" : "24.15711",
      "inDis" : "50",
      "routeId" : "52",
      "seqNo" : "27"
   },
   {
      "GoBack" : "2",
      "longitude" : "120.69437",
      "outDis" : "50",
      "Id" : "0932",
      "oid" : "12736",
      "districtId" : "1",
      "nameZh" : "進化興進路口",
      "pgp" : "0",
      "terminal" : "0",
      "latitude" : "24.15437",
      "inDis" : "50",
      "routeId" : "52",
      "seqNo" : "28"
   },
   {
      "GoBack" : "2",
      "longitude" : "120.69437",
      "outDis" : "50",
      "Id" : "0313",
      "oid" : "12660",
      "districtId" : "1",
      "nameZh" : "進化力行路口",
      "pgp" : "0",
      "terminal" : "0",
      "latitude" : "24.15253",
      "inDis" : "50",
      "routeId" : "52",
      "seqNo" : "29"
   },
   {
      "GoBack" : "2",
      "longitude" : "120.69434",
      "outDis" : "50",
      "Id" : "0599",
      "oid" : "12699",
      "districtId" : "1",
      "nameZh" : "合作市場",
      "pgp" : "0",
      "terminal" : "0",
      "latitude" : "24.1503",
      "inDis" : "50",
      "routeId" : "52",
      "seqNo" : "30"
   },
   {
      "GoBack" : "2",
      "longitude" : "120.69432",
      "outDis" : "50",
      "Id" : "0844",
      "oid" : "12728",
      "districtId" : "1",
      "nameZh" : "進德國小",
      "pgp" : "0",
      "terminal" : "0",
      "latitude" : "24.14551",
      "inDis" : "50",
      "routeId" : "52",
      "seqNo" : "31"
   },
   {
      "GoBack" : "2",
      "longitude" : "120.69649",
      "outDis" : "50",
      "Id" : "4562",
      "oid" : "12733",
      "districtId" : "1",
      "nameZh" : "建成樂業路口",
      "pgp" : "0",
      "terminal" : "0",
      "latitude" : "24.13822",
      "inDis" : "50",
      "routeId" : "52",
      "seqNo" : "32"
   },
   {
      "GoBack" : "2",
      "longitude" : "120.69581",
      "outDis" : "50",
      "Id" : "2402",
      "oid" : "12710",
      "districtId" : "1",
      "nameZh" : "建成東光園路口",
      "pgp" : "0",
      "terminal" : "0",
      "latitude" : "24.13467",
      "inDis" : "50",
      "routeId" : "52",
      "seqNo" : "33"
   },
   {
      "GoBack" : "2",
      "longitude" : "120.69395",
      "outDis" : "50",
      "Id" : "0188",
      "oid" : "12665",
      "districtId" : "1",
      "nameZh" : "大東紡織(建成路)",
      "pgp" : "0",
      "terminal" : "0",
      "latitude" : "24.13336",
      "inDis" : "50",
      "routeId" : "52",
      "seqNo" : "34"
   },
   {
      "GoBack" : "2",
      "longitude" : "120.69236",
      "outDis" : "50",
      "Id" : "4362",
      "oid" : "12669",
      "districtId" : "1",
      "nameZh" : "建成大振街口",
      "pgp" : "0",
      "terminal" : "0",
      "latitude" : "24.13268",
      "inDis" : "50",
      "routeId" : "52",
      "seqNo" : "35"
   },
   {
      "GoBack" : "2",
      "longitude" : "120.68983",
      "outDis" : "50",
      "Id" : "4655",
      "oid" : "12670",
      "districtId" : "1",
      "nameZh" : "建成大智路口",
      "pgp" : "0",
      "terminal" : "0",
      "latitude" : "24.1316",
      "inDis" : "50",
      "routeId" : "52",
      "seqNo" : "36"
   },
   {
      "GoBack" : "2",
      "longitude" : "120.68803",
      "outDis" : "50",
      "Id" : "2029",
      "oid" : "12695",
      "districtId" : "1",
      "nameZh" : "建成立德街口",
      "pgp" : "0",
      "terminal" : "0",
      "latitude" : "24.13078",
      "inDis" : "50",
      "routeId" : "52",
      "seqNo" : "37"
   },
   {
      "GoBack" : "2",
      "longitude" : "120.68556",
      "outDis" : "50",
      "Id" : "5647",
      "oid" : "12688",
      "districtId" : "1",
      "nameZh" : "興大附農(建成路)",
      "pgp" : "0",
      "terminal" : "0",
      "latitude" : "24.12981",
      "inDis" : "50",
      "routeId" : "52",
      "seqNo" : "38"
   },
   {
      "GoBack" : "2",
      "longitude" : "120.68352",
      "outDis" : "50",
      "Id" : "0039",
      "oid" : "12690",
      "districtId" : "1",
      "nameZh" : "建成正氣街口",
      "pgp" : "0",
      "terminal" : "0",
      "latitude" : "24.12899",
      "inDis" : "50",
      "routeId" : "52",
      "seqNo" : "39"
   },
   {
      "GoBack" : "2",
      "longitude" : "120.68024",
      "outDis" : "50",
      "Id" : "4008",
      "oid" : "12738",
      "districtId" : "1",
      "nameZh" : "靈山寺",
      "pgp" : "0",
      "terminal" : "0",
      "latitude" : "24.12765",
      "inDis" : "50",
      "routeId" : "52",
      "seqNo" : "40"
   },
   {
      "GoBack" : "2",
      "longitude" : "120.67928",
      "outDis" : "50",
      "Id" : "0038",
      "oid" : "12718",
      "districtId" : "1",
      "nameZh" : "國光國小",
      "pgp" : "0",
      "terminal" : "0",
      "latitude" : "24.12584",
      "inDis" : "50",
      "routeId" : "52",
      "seqNo" : "41"
   },
   {
      "GoBack" : "2",
      "longitude" : "120.67841",
      "outDis" : "50",
      "Id" : "4231",
      "oid" : "12677",
      "districtId" : "1",
      "nameZh" : "中興大學1",
      "pgp" : "0",
      "terminal" : "0",
      "latitude" : "24.12418",
      "inDis" : "50",
      "routeId" : "52",
      "seqNo" : "42"
   }
]
