[
   {
      "GoBack" : "1",
      "longitude" : "120.68387",
      "outDis" : "170",
      "Id" : "1824",
      "oid" : "5545",
      "districtId" : "1",
      "nameZh" : "臺中火車站",
      "pgp" : "0",
      "terminal" : "0",
      "latitude" : "24.13663",
      "inDis" : "50",
      "routeId" : "286",
      "seqNo" : "1"
   },
   {
      "GoBack" : "1",
      "longitude" : "120.68367",
      "outDis" : "50",
      "Id" : "0183",
      "oid" : "6337",
      "districtId" : "1",
      "nameZh" : "臺中家商",
      "pgp" : "0",
      "terminal" : "0",
      "latitude" : "24.13473",
      "inDis" : "50",
      "routeId" : "286",
      "seqNo" : "2"
   },
   {
      "GoBack" : "1",
      "longitude" : "120.68629",
      "outDis" : "50",
      "Id" : "0184",
      "oid" : "6022",
      "districtId" : "1",
      "nameZh" : "後火車站",
      "pgp" : "0",
      "terminal" : "0",
      "latitude" : "24.1358",
      "inDis" : "50",
      "routeId" : "286",
      "seqNo" : "3"
   },
   {
      "GoBack" : "1",
      "longitude" : "120.68806",
      "outDis" : "50",
      "Id" : "0185",
      "oid" : "13227",
      "districtId" : "1",
      "nameZh" : "新時代購物中心",
      "pgp" : "0",
      "terminal" : "0",
      "latitude" : "24.13603",
      "inDis" : "50",
      "routeId" : "286",
      "seqNo" : "4"
   },
   {
      "GoBack" : "1",
      "longitude" : "120.68984",
      "outDis" : "50",
      "Id" : "0186",
      "oid" : "5850",
      "districtId" : "1",
      "nameZh" : "大智忠孝路口",
      "pgp" : "0",
      "terminal" : "0",
      "latitude" : "24.1325",
      "inDis" : "50",
      "routeId" : "286",
      "seqNo" : "5"
   },
   {
      "GoBack" : "1",
      "longitude" : "120.69233",
      "outDis" : "50",
      "Id" : "4362",
      "oid" : "12668",
      "districtId" : "1",
      "nameZh" : "建成大振街口",
      "pgp" : "0",
      "terminal" : "0",
      "latitude" : "24.13251",
      "inDis" : "50",
      "routeId" : "286",
      "seqNo" : "6"
   },
   {
      "GoBack" : "1",
      "longitude" : "120.69403",
      "outDis" : "50",
      "Id" : "4654",
      "oid" : "5235",
      "districtId" : "1",
      "nameZh" : "大東紡織(振興路)",
      "pgp" : "0",
      "terminal" : "0",
      "latitude" : "24.13289",
      "inDis" : "50",
      "routeId" : "286",
      "seqNo" : "7"
   },
   {
      "GoBack" : "1",
      "longitude" : "120.69636",
      "outDis" : "50",
      "Id" : "3617",
      "oid" : "6536",
      "districtId" : "1",
      "nameZh" : "漢聲電臺",
      "pgp" : "0",
      "terminal" : "0",
      "latitude" : "24.13303",
      "inDis" : "50",
      "routeId" : "286",
      "seqNo" : "8"
   },
   {
      "GoBack" : "1",
      "longitude" : "120.6981",
      "outDis" : "50",
      "Id" : "0190",
      "oid" : "5886",
      "districtId" : "1",
      "nameZh" : "東門橋",
      "pgp" : "0",
      "terminal" : "0",
      "latitude" : "24.13315",
      "inDis" : "50",
      "routeId" : "286",
      "seqNo" : "9"
   },
   {
      "GoBack" : "1",
      "longitude" : "120.70261",
      "outDis" : "50",
      "Id" : "2236",
      "oid" : "5786",
      "districtId" : "1",
      "nameZh" : "旱溪",
      "pgp" : "0",
      "terminal" : "0",
      "latitude" : "24.13143",
      "inDis" : "50",
      "routeId" : "286",
      "seqNo" : "10"
   },
   {
      "GoBack" : "1",
      "longitude" : "120.70528",
      "outDis" : "50",
      "Id" : "1642",
      "oid" : "5444",
      "districtId" : "1",
      "nameZh" : "太平橋前",
      "pgp" : "0",
      "terminal" : "0",
      "latitude" : "24.13024",
      "inDis" : "50",
      "routeId" : "286",
      "seqNo" : "11"
   },
   {
      "GoBack" : "1",
      "longitude" : "120.70883",
      "outDis" : "50",
      "Id" : "1185",
      "oid" : "5142",
      "districtId" : "1",
      "nameZh" : "下部仔",
      "pgp" : "0",
      "terminal" : "0",
      "latitude" : "24.1281",
      "inDis" : "50",
      "routeId" : "286",
      "seqNo" : "12"
   },
   {
      "GoBack" : "1",
      "longitude" : "120.71057",
      "outDis" : "50",
      "Id" : "4218",
      "oid" : "5509",
      "districtId" : "1",
      "nameZh" : "中油太平站",
      "pgp" : "0",
      "terminal" : "0",
      "latitude" : "24.12709",
      "inDis" : "50",
      "routeId" : "286",
      "seqNo" : "13"
   },
   {
      "GoBack" : "1",
      "longitude" : "120.71239",
      "outDis" : "50",
      "Id" : "1128",
      "oid" : "5110",
      "districtId" : "1",
      "nameZh" : "下太平",
      "pgp" : "0",
      "terminal" : "0",
      "latitude" : "24.12594",
      "inDis" : "50",
      "routeId" : "286",
      "seqNo" : "14"
   },
   {
      "GoBack" : "1",
      "longitude" : "120.71578",
      "outDis" : "50",
      "Id" : "1427",
      "oid" : "5311",
      "districtId" : "1",
      "nameZh" : "中太平",
      "pgp" : "0",
      "terminal" : "0",
      "latitude" : "24.12722",
      "inDis" : "50",
      "routeId" : "286",
      "seqNo" : "15"
   },
   {
      "GoBack" : "1",
      "longitude" : "120.71705",
      "outDis" : "50",
      "Id" : "4220",
      "oid" : "5439",
      "districtId" : "1",
      "nameZh" : "太平國小",
      "pgp" : "0",
      "terminal" : "0",
      "latitude" : "24.12805",
      "inDis" : "50",
      "routeId" : "286",
      "seqNo" : "16"
   },
   {
      "GoBack" : "1",
      "longitude" : "120.7168",
      "outDis" : "50",
      "Id" : "4716",
      "oid" : "306250856",
      "districtId" : "1",
      "nameZh" : "新平永平路口",
      "pgp" : "0",
      "terminal" : "0",
      "latitude" : "24.13163",
      "inDis" : "50",
      "routeId" : "286",
      "seqNo" : "17"
   },
   {
      "GoBack" : "1",
      "longitude" : "120.71864",
      "outDis" : "50",
      "Id" : "4717",
      "oid" : "306250858",
      "districtId" : "1",
      "nameZh" : "崇正寶宮",
      "pgp" : "0",
      "terminal" : "0",
      "latitude" : "24.13364",
      "inDis" : "50",
      "routeId" : "286",
      "seqNo" : "18"
   },
   {
      "GoBack" : "1",
      "longitude" : "120.72104",
      "outDis" : "50",
      "Id" : "4718",
      "oid" : "306376948",
      "districtId" : "1",
      "nameZh" : "東平中平路口",
      "pgp" : "0",
      "terminal" : "0",
      "latitude" : "24.13376",
      "inDis" : "50",
      "routeId" : "286",
      "seqNo" : "19"
   },
   {
      "GoBack" : "1",
      "longitude" : "120.72273",
      "outDis" : "50",
      "Id" : "4667",
      "oid" : "5883",
      "districtId" : "1",
      "nameZh" : "東平國小(東平路)",
      "pgp" : "0",
      "terminal" : "0",
      "latitude" : "24.1338",
      "inDis" : "50",
      "routeId" : "286",
      "seqNo" : "20"
   },
   {
      "GoBack" : "1",
      "longitude" : "120.72418",
      "outDis" : "50",
      "Id" : "1056",
      "oid" : "5064",
      "districtId" : "1",
      "nameZh" : "三叉",
      "pgp" : "0",
      "terminal" : "0",
      "latitude" : "24.13386",
      "inDis" : "50",
      "routeId" : "286",
      "seqNo" : "21"
   },
   {
      "GoBack" : "1",
      "longitude" : "120.72623",
      "outDis" : "50",
      "Id" : "1508",
      "oid" : "5354",
      "districtId" : "1",
      "nameZh" : "東平中興東路口",
      "pgp" : "0",
      "terminal" : "0",
      "latitude" : "24.13407",
      "inDis" : "50",
      "routeId" : "286",
      "seqNo" : "22"
   },
   {
      "GoBack" : "1",
      "longitude" : "120.72863",
      "outDis" : "50",
      "Id" : "3088",
      "oid" : "6278",
      "districtId" : "1",
      "nameZh" : "頂三叉",
      "pgp" : "0",
      "terminal" : "0",
      "latitude" : "24.13468",
      "inDis" : "50",
      "routeId" : "286",
      "seqNo" : "23"
   },
   {
      "GoBack" : "1",
      "longitude" : "120.7317",
      "outDis" : "50",
      "Id" : "1396",
      "oid" : "5292",
      "districtId" : "1",
      "nameZh" : "山腳",
      "pgp" : "0",
      "terminal" : "0",
      "latitude" : "24.13475",
      "inDis" : "50",
      "routeId" : "286",
      "seqNo" : "24"
   },
   {
      "GoBack" : "1",
      "longitude" : "120.73561",
      "outDis" : "50",
      "Id" : "0977",
      "oid" : "5730",
      "districtId" : "1",
      "nameZh" : "一江橋",
      "pgp" : "0",
      "terminal" : "0",
      "latitude" : "24.13352",
      "inDis" : "50",
      "routeId" : "286",
      "seqNo" : "25"
   },
   {
      "GoBack" : "1",
      "longitude" : "120.73703",
      "outDis" : "50",
      "Id" : "3515",
      "oid" : "6499",
      "districtId" : "1",
      "nameZh" : "腦館(光興路)",
      "pgp" : "0",
      "terminal" : "0",
      "latitude" : "24.1309",
      "inDis" : "50",
      "routeId" : "286",
      "seqNo" : "26"
   },
   {
      "GoBack" : "1",
      "longitude" : "120.73572",
      "outDis" : "50",
      "Id" : "1751",
      "oid" : "5506",
      "districtId" : "1",
      "nameZh" : "仙宮府",
      "pgp" : "0",
      "terminal" : "0",
      "latitude" : "24.12951",
      "inDis" : "50",
      "routeId" : "286",
      "seqNo" : "27"
   },
   {
      "GoBack" : "1",
      "longitude" : "120.73539",
      "outDis" : "50",
      "Id" : "2879",
      "oid" : "6156",
      "districtId" : "1",
      "nameZh" : "茶寮",
      "pgp" : "0",
      "terminal" : "0",
      "latitude" : "24.12714",
      "inDis" : "50",
      "routeId" : "286",
      "seqNo" : "28"
   },
   {
      "GoBack" : "1",
      "longitude" : "120.73494",
      "outDis" : "50",
      "Id" : "1469",
      "oid" : "5333",
      "districtId" : "1",
      "nameZh" : "中茶寮",
      "pgp" : "0",
      "terminal" : "0",
      "latitude" : "24.1254",
      "inDis" : "50",
      "routeId" : "286",
      "seqNo" : "29"
   },
   {
      "GoBack" : "1",
      "longitude" : "120.73449",
      "outDis" : "50",
      "Id" : "1179",
      "oid" : "5138",
      "districtId" : "1",
      "nameZh" : "下茶寮",
      "pgp" : "0",
      "terminal" : "0",
      "latitude" : "24.12329",
      "inDis" : "50",
      "routeId" : "286",
      "seqNo" : "30"
   },
   {
      "GoBack" : "1",
      "longitude" : "120.73387",
      "outDis" : "50",
      "Id" : "1753",
      "oid" : "5508",
      "districtId" : "1",
      "nameZh" : "冬瓜山",
      "pgp" : "0",
      "terminal" : "0",
      "latitude" : "24.12057",
      "inDis" : "50",
      "routeId" : "286",
      "seqNo" : "31"
   },
   {
      "GoBack" : "1",
      "longitude" : "120.73275",
      "outDis" : "50",
      "Id" : "3673",
      "oid" : "6565",
      "districtId" : "1",
      "nameZh" : "福興橋",
      "pgp" : "0",
      "terminal" : "0",
      "latitude" : "24.11679",
      "inDis" : "50",
      "routeId" : "286",
      "seqNo" : "32"
   },
   {
      "GoBack" : "1",
      "longitude" : "120.73109",
      "outDis" : "50",
      "Id" : "2285",
      "oid" : "5814",
      "districtId" : "1",
      "nameZh" : "車籠埔",
      "pgp" : "0",
      "terminal" : "0",
      "latitude" : "24.1127",
      "inDis" : "50",
      "routeId" : "286",
      "seqNo" : "33"
   },
   {
      "GoBack" : "1",
      "longitude" : "120.72998",
      "outDis" : "50",
      "Id" : "2053",
      "oid" : "5691",
      "districtId" : "1",
      "nameZh" : "光隆",
      "pgp" : "0",
      "terminal" : "0",
      "latitude" : "24.10986",
      "inDis" : "50",
      "routeId" : "286",
      "seqNo" : "34"
   },
   {
      "GoBack" : "1",
      "longitude" : "120.72921",
      "outDis" : "50",
      "Id" : "2834",
      "oid" : "6137",
      "districtId" : "1",
      "nameZh" : "神光巷",
      "pgp" : "0",
      "terminal" : "0",
      "latitude" : "24.10639",
      "inDis" : "50",
      "routeId" : "286",
      "seqNo" : "35"
   },
   {
      "GoBack" : "1",
      "longitude" : "120.72897",
      "outDis" : "50",
      "Id" : "0986",
      "oid" : "5023",
      "districtId" : "1",
      "nameZh" : "七星",
      "pgp" : "0",
      "terminal" : "0",
      "latitude" : "24.10442",
      "inDis" : "50",
      "routeId" : "286",
      "seqNo" : "36"
   },
   {
      "GoBack" : "1",
      "longitude" : "120.7289",
      "outDis" : "50",
      "Id" : "1698",
      "oid" : "5475",
      "districtId" : "1",
      "nameZh" : "水井前",
      "pgp" : "0",
      "terminal" : "0",
      "latitude" : "24.10227",
      "inDis" : "50",
      "routeId" : "286",
      "seqNo" : "37"
   },
   {
      "GoBack" : "1",
      "longitude" : "120.72881",
      "outDis" : "50",
      "Id" : "1730",
      "oid" : "5495",
      "districtId" : "1",
      "nameZh" : "牛角坑",
      "pgp" : "0",
      "terminal" : "0",
      "latitude" : "24.09583",
      "inDis" : "50",
      "routeId" : "286",
      "seqNo" : "38"
   },
   {
      "GoBack" : "1",
      "longitude" : "120.72925",
      "outDis" : "50",
      "Id" : "2915",
      "oid" : "6173",
      "districtId" : "1",
      "nameZh" : "健康社區",
      "pgp" : "0",
      "terminal" : "0",
      "latitude" : "24.09366",
      "inDis" : "50",
      "routeId" : "286",
      "seqNo" : "39"
   },
   {
      "GoBack" : "1",
      "longitude" : "120.72968",
      "outDis" : "50",
      "Id" : "2142",
      "oid" : "5736",
      "districtId" : "1",
      "nameZh" : "竹仔坑",
      "pgp" : "0",
      "terminal" : "0",
      "latitude" : "24.09154",
      "inDis" : "50",
      "routeId" : "286",
      "seqNo" : "40"
   },
   {
      "GoBack" : "1",
      "longitude" : "120.72804",
      "outDis" : "80",
      "Id" : "4423",
      "oid" : "304725418",
      "districtId" : "1",
      "nameZh" : "大愛一村",
      "pgp" : "0",
      "terminal" : "0",
      "latitude" : "24.09138",
      "inDis" : "60",
      "routeId" : "286",
      "seqNo" : "41"
   },
   {
      "GoBack" : "1",
      "longitude" : "120.72154",
      "outDis" : "80",
      "Id" : "4422",
      "oid" : "304725416",
      "districtId" : "1",
      "nameZh" : "和大公司",
      "pgp" : "0",
      "terminal" : "0",
      "latitude" : "24.09251",
      "inDis" : "60",
      "routeId" : "286",
      "seqNo" : "42"
   },
   {
      "GoBack" : "1",
      "longitude" : "120.7192",
      "outDis" : "80",
      "Id" : "2525",
      "oid" : "5959",
      "districtId" : "1",
      "nameZh" : "金田公司",
      "pgp" : "0",
      "terminal" : "0",
      "latitude" : "24.09414",
      "inDis" : "60",
      "routeId" : "286",
      "seqNo" : "43"
   },
   {
      "GoBack" : "1",
      "longitude" : "120.71603",
      "outDis" : "50",
      "Id" : "2282",
      "oid" : "5002",
      "districtId" : "1",
      "nameZh" : "車站前",
      "pgp" : "0",
      "terminal" : "0",
      "latitude" : "24.0945",
      "inDis" : "50",
      "routeId" : "286",
      "seqNo" : "44"
   },
   {
      "GoBack" : "1",
      "longitude" : "120.71377",
      "outDis" : "50",
      "Id" : "2733",
      "oid" : "6087",
      "districtId" : "1",
      "nameZh" : "修平科技大學",
      "pgp" : "0",
      "terminal" : "0",
      "latitude" : "24.09507",
      "inDis" : "50",
      "routeId" : "286",
      "seqNo" : "45"
   },
   {
      "GoBack" : "1",
      "longitude" : "120.7158",
      "outDis" : "50",
      "Id" : "2282",
      "oid" : "5811",
      "districtId" : "1",
      "nameZh" : "車站前",
      "pgp" : "0",
      "terminal" : "0",
      "latitude" : "24.09463",
      "inDis" : "50",
      "routeId" : "286",
      "seqNo" : "46"
   },
   {
      "GoBack" : "1",
      "longitude" : "120.71908",
      "outDis" : "50",
      "Id" : "2525",
      "oid" : "305184739",
      "districtId" : "1",
      "nameZh" : "金田公司",
      "pgp" : "0",
      "terminal" : "0",
      "latitude" : "24.09421",
      "inDis" : "50",
      "routeId" : "286",
      "seqNo" : "47"
   },
   {
      "GoBack" : "1",
      "longitude" : "120.72144",
      "outDis" : "50",
      "Id" : "4422",
      "oid" : "304725417",
      "districtId" : "1",
      "nameZh" : "和大公司",
      "pgp" : "0",
      "terminal" : "0",
      "latitude" : "24.09263",
      "inDis" : "50",
      "routeId" : "286",
      "seqNo" : "48"
   },
   {
      "GoBack" : "1",
      "longitude" : "120.72791",
      "outDis" : "50",
      "Id" : "4423",
      "oid" : "304725419",
      "districtId" : "1",
      "nameZh" : "大愛一村",
      "pgp" : "0",
      "terminal" : "0",
      "latitude" : "24.09145",
      "inDis" : "50",
      "routeId" : "286",
      "seqNo" : "49"
   },
   {
      "GoBack" : "1",
      "longitude" : "120.72777",
      "outDis" : "50",
      "Id" : "2913",
      "oid" : "6172",
      "districtId" : "1",
      "nameZh" : "健民國小",
      "pgp" : "0",
      "terminal" : "0",
      "latitude" : "24.08973",
      "inDis" : "50",
      "routeId" : "286",
      "seqNo" : "50"
   },
   {
      "GoBack" : "1",
      "longitude" : "120.72897",
      "outDis" : "50",
      "Id" : "3699",
      "oid" : "139010571",
      "districtId" : "1",
      "nameZh" : "銀聯一村",
      "pgp" : "0",
      "terminal" : "0",
      "latitude" : "24.08768",
      "inDis" : "50",
      "routeId" : "286",
      "seqNo" : "51"
   },
   {
      "GoBack" : "1",
      "longitude" : "120.73213",
      "outDis" : "50",
      "Id" : "2478",
      "oid" : "5936",
      "districtId" : "1",
      "nameZh" : "河川巷",
      "pgp" : "0",
      "terminal" : "0",
      "latitude" : "24.08681",
      "inDis" : "50",
      "routeId" : "286",
      "seqNo" : "52"
   },
   {
      "GoBack" : "1",
      "longitude" : "120.73652",
      "outDis" : "50",
      "Id" : "2779",
      "oid" : "5003",
      "districtId" : "1",
      "nameZh" : "崁頂",
      "pgp" : "0",
      "terminal" : "0",
      "latitude" : "24.08596",
      "inDis" : "50",
      "routeId" : "286",
      "seqNo" : "53"
   },
   {
      "GoBack" : "2",
      "longitude" : "120.73651",
      "outDis" : "50",
      "Id" : "2779",
      "oid" : "5001",
      "districtId" : "1",
      "nameZh" : "崁頂",
      "pgp" : "0",
      "terminal" : "0",
      "latitude" : "24.08598",
      "inDis" : "50",
      "routeId" : "286",
      "seqNo" : "1"
   },
   {
      "GoBack" : "2",
      "longitude" : "120.73213",
      "outDis" : "50",
      "Id" : "2478",
      "oid" : "5936",
      "districtId" : "1",
      "nameZh" : "河川巷",
      "pgp" : "0",
      "terminal" : "0",
      "latitude" : "24.08681",
      "inDis" : "50",
      "routeId" : "286",
      "seqNo" : "2"
   },
   {
      "GoBack" : "2",
      "longitude" : "120.72897",
      "outDis" : "50",
      "Id" : "3699",
      "oid" : "139010571",
      "districtId" : "1",
      "nameZh" : "銀聯一村",
      "pgp" : "0",
      "terminal" : "0",
      "latitude" : "24.08768",
      "inDis" : "50",
      "routeId" : "286",
      "seqNo" : "3"
   },
   {
      "GoBack" : "2",
      "longitude" : "120.72777",
      "outDis" : "50",
      "Id" : "2913",
      "oid" : "6172",
      "districtId" : "1",
      "nameZh" : "健民國小",
      "pgp" : "0",
      "terminal" : "0",
      "latitude" : "24.08973",
      "inDis" : "50",
      "routeId" : "286",
      "seqNo" : "4"
   },
   {
      "GoBack" : "2",
      "longitude" : "120.72804",
      "outDis" : "80",
      "Id" : "4423",
      "oid" : "304725418",
      "districtId" : "1",
      "nameZh" : "大愛一村",
      "pgp" : "0",
      "terminal" : "0",
      "latitude" : "24.09138",
      "inDis" : "60",
      "routeId" : "286",
      "seqNo" : "5"
   },
   {
      "GoBack" : "2",
      "longitude" : "120.72154",
      "outDis" : "80",
      "Id" : "4422",
      "oid" : "304725416",
      "districtId" : "1",
      "nameZh" : "和大公司",
      "pgp" : "0",
      "terminal" : "0",
      "latitude" : "24.09251",
      "inDis" : "60",
      "routeId" : "286",
      "seqNo" : "6"
   },
   {
      "GoBack" : "2",
      "longitude" : "120.7192",
      "outDis" : "80",
      "Id" : "2525",
      "oid" : "5959",
      "districtId" : "1",
      "nameZh" : "金田公司",
      "pgp" : "0",
      "terminal" : "0",
      "latitude" : "24.09414",
      "inDis" : "60",
      "routeId" : "286",
      "seqNo" : "7"
   },
   {
      "GoBack" : "2",
      "longitude" : "120.71603",
      "outDis" : "50",
      "Id" : "2282",
      "oid" : "5002",
      "districtId" : "1",
      "nameZh" : "車站前",
      "pgp" : "0",
      "terminal" : "0",
      "latitude" : "24.0945",
      "inDis" : "50",
      "routeId" : "286",
      "seqNo" : "8"
   },
   {
      "GoBack" : "2",
      "longitude" : "120.71377",
      "outDis" : "50",
      "Id" : "2733",
      "oid" : "6087",
      "districtId" : "1",
      "nameZh" : "修平科技大學",
      "pgp" : "0",
      "terminal" : "0",
      "latitude" : "24.09507",
      "inDis" : "50",
      "routeId" : "286",
      "seqNo" : "9"
   },
   {
      "GoBack" : "2",
      "longitude" : "120.7158",
      "outDis" : "50",
      "Id" : "2282",
      "oid" : "5811",
      "districtId" : "1",
      "nameZh" : "車站前",
      "pgp" : "0",
      "terminal" : "0",
      "latitude" : "24.09463",
      "inDis" : "50",
      "routeId" : "286",
      "seqNo" : "10"
   },
   {
      "GoBack" : "2",
      "longitude" : "120.71908",
      "outDis" : "50",
      "Id" : "2525",
      "oid" : "305184739",
      "districtId" : "1",
      "nameZh" : "金田公司",
      "pgp" : "0",
      "terminal" : "0",
      "latitude" : "24.09421",
      "inDis" : "50",
      "routeId" : "286",
      "seqNo" : "11"
   },
   {
      "GoBack" : "2",
      "longitude" : "120.72144",
      "outDis" : "50",
      "Id" : "4422",
      "oid" : "304725417",
      "districtId" : "1",
      "nameZh" : "和大公司",
      "pgp" : "0",
      "terminal" : "0",
      "latitude" : "24.09263",
      "inDis" : "50",
      "routeId" : "286",
      "seqNo" : "12"
   },
   {
      "GoBack" : "2",
      "longitude" : "120.72791",
      "outDis" : "50",
      "Id" : "4423",
      "oid" : "304725419",
      "districtId" : "1",
      "nameZh" : "大愛一村",
      "pgp" : "0",
      "terminal" : "0",
      "latitude" : "24.09145",
      "inDis" : "50",
      "routeId" : "286",
      "seqNo" : "13"
   },
   {
      "GoBack" : "2",
      "longitude" : "120.72968",
      "outDis" : "50",
      "Id" : "2142",
      "oid" : "5736",
      "districtId" : "1",
      "nameZh" : "竹仔坑",
      "pgp" : "0",
      "terminal" : "0",
      "latitude" : "24.09154",
      "inDis" : "50",
      "routeId" : "286",
      "seqNo" : "14"
   },
   {
      "GoBack" : "2",
      "longitude" : "120.72925",
      "outDis" : "50",
      "Id" : "2915",
      "oid" : "6173",
      "districtId" : "1",
      "nameZh" : "健康社區",
      "pgp" : "0",
      "terminal" : "0",
      "latitude" : "24.09366",
      "inDis" : "50",
      "routeId" : "286",
      "seqNo" : "15"
   },
   {
      "GoBack" : "2",
      "longitude" : "120.72881",
      "outDis" : "50",
      "Id" : "1730",
      "oid" : "5495",
      "districtId" : "1",
      "nameZh" : "牛角坑",
      "pgp" : "0",
      "terminal" : "0",
      "latitude" : "24.09583",
      "inDis" : "50",
      "routeId" : "286",
      "seqNo" : "16"
   },
   {
      "GoBack" : "2",
      "longitude" : "120.7289",
      "outDis" : "50",
      "Id" : "1698",
      "oid" : "5475",
      "districtId" : "1",
      "nameZh" : "水井前",
      "pgp" : "0",
      "terminal" : "0",
      "latitude" : "24.10227",
      "inDis" : "50",
      "routeId" : "286",
      "seqNo" : "17"
   },
   {
      "GoBack" : "2",
      "longitude" : "120.72897",
      "outDis" : "50",
      "Id" : "0986",
      "oid" : "5023",
      "districtId" : "1",
      "nameZh" : "七星",
      "pgp" : "0",
      "terminal" : "0",
      "latitude" : "24.10442",
      "inDis" : "50",
      "routeId" : "286",
      "seqNo" : "18"
   },
   {
      "GoBack" : "2",
      "longitude" : "120.72921",
      "outDis" : "50",
      "Id" : "2834",
      "oid" : "6137",
      "districtId" : "1",
      "nameZh" : "神光巷",
      "pgp" : "0",
      "terminal" : "0",
      "latitude" : "24.10639",
      "inDis" : "50",
      "routeId" : "286",
      "seqNo" : "19"
   },
   {
      "GoBack" : "2",
      "longitude" : "120.72998",
      "outDis" : "50",
      "Id" : "2053",
      "oid" : "5691",
      "districtId" : "1",
      "nameZh" : "光隆",
      "pgp" : "0",
      "terminal" : "0",
      "latitude" : "24.10986",
      "inDis" : "50",
      "routeId" : "286",
      "seqNo" : "20"
   },
   {
      "GoBack" : "2",
      "longitude" : "120.73109",
      "outDis" : "50",
      "Id" : "2285",
      "oid" : "5814",
      "districtId" : "1",
      "nameZh" : "車籠埔",
      "pgp" : "0",
      "terminal" : "0",
      "latitude" : "24.1127",
      "inDis" : "50",
      "routeId" : "286",
      "seqNo" : "21"
   },
   {
      "GoBack" : "2",
      "longitude" : "120.73275",
      "outDis" : "50",
      "Id" : "3673",
      "oid" : "6565",
      "districtId" : "1",
      "nameZh" : "福興橋",
      "pgp" : "0",
      "terminal" : "0",
      "latitude" : "24.11679",
      "inDis" : "50",
      "routeId" : "286",
      "seqNo" : "22"
   },
   {
      "GoBack" : "2",
      "longitude" : "120.73387",
      "outDis" : "50",
      "Id" : "1753",
      "oid" : "5508",
      "districtId" : "1",
      "nameZh" : "冬瓜山",
      "pgp" : "0",
      "terminal" : "0",
      "latitude" : "24.12057",
      "inDis" : "50",
      "routeId" : "286",
      "seqNo" : "23"
   },
   {
      "GoBack" : "2",
      "longitude" : "120.73449",
      "outDis" : "50",
      "Id" : "1179",
      "oid" : "5138",
      "districtId" : "1",
      "nameZh" : "下茶寮",
      "pgp" : "0",
      "terminal" : "0",
      "latitude" : "24.12329",
      "inDis" : "50",
      "routeId" : "286",
      "seqNo" : "24"
   },
   {
      "GoBack" : "2",
      "longitude" : "120.73494",
      "outDis" : "50",
      "Id" : "1469",
      "oid" : "5333",
      "districtId" : "1",
      "nameZh" : "中茶寮",
      "pgp" : "0",
      "terminal" : "0",
      "latitude" : "24.1254",
      "inDis" : "50",
      "routeId" : "286",
      "seqNo" : "25"
   },
   {
      "GoBack" : "2",
      "longitude" : "120.73539",
      "outDis" : "50",
      "Id" : "2879",
      "oid" : "6156",
      "districtId" : "1",
      "nameZh" : "茶寮",
      "pgp" : "0",
      "terminal" : "0",
      "latitude" : "24.12714",
      "inDis" : "50",
      "routeId" : "286",
      "seqNo" : "26"
   },
   {
      "GoBack" : "2",
      "longitude" : "120.73572",
      "outDis" : "50",
      "Id" : "1751",
      "oid" : "5506",
      "districtId" : "1",
      "nameZh" : "仙宮府",
      "pgp" : "0",
      "terminal" : "0",
      "latitude" : "24.12951",
      "inDis" : "50",
      "routeId" : "286",
      "seqNo" : "27"
   },
   {
      "GoBack" : "2",
      "longitude" : "120.73703",
      "outDis" : "50",
      "Id" : "3515",
      "oid" : "6499",
      "districtId" : "1",
      "nameZh" : "腦館(光興路)",
      "pgp" : "0",
      "terminal" : "0",
      "latitude" : "24.1309",
      "inDis" : "50",
      "routeId" : "286",
      "seqNo" : "28"
   },
   {
      "GoBack" : "2",
      "longitude" : "120.73561",
      "outDis" : "50",
      "Id" : "0977",
      "oid" : "5730",
      "districtId" : "1",
      "nameZh" : "一江橋",
      "pgp" : "0",
      "terminal" : "0",
      "latitude" : "24.13352",
      "inDis" : "50",
      "routeId" : "286",
      "seqNo" : "29"
   },
   {
      "GoBack" : "2",
      "longitude" : "120.7317",
      "outDis" : "50",
      "Id" : "1396",
      "oid" : "5292",
      "districtId" : "1",
      "nameZh" : "山腳",
      "pgp" : "0",
      "terminal" : "0",
      "latitude" : "24.13475",
      "inDis" : "50",
      "routeId" : "286",
      "seqNo" : "30"
   },
   {
      "GoBack" : "2",
      "longitude" : "120.72863",
      "outDis" : "50",
      "Id" : "3088",
      "oid" : "6278",
      "districtId" : "1",
      "nameZh" : "頂三叉",
      "pgp" : "0",
      "terminal" : "0",
      "latitude" : "24.13468",
      "inDis" : "50",
      "routeId" : "286",
      "seqNo" : "31"
   },
   {
      "GoBack" : "2",
      "longitude" : "120.72623",
      "outDis" : "50",
      "Id" : "1508",
      "oid" : "5354",
      "districtId" : "1",
      "nameZh" : "東平中興東路口",
      "pgp" : "0",
      "terminal" : "0",
      "latitude" : "24.13407",
      "inDis" : "50",
      "routeId" : "286",
      "seqNo" : "32"
   },
   {
      "GoBack" : "2",
      "longitude" : "120.72418",
      "outDis" : "50",
      "Id" : "1056",
      "oid" : "5064",
      "districtId" : "1",
      "nameZh" : "三叉",
      "pgp" : "0",
      "terminal" : "0",
      "latitude" : "24.13386",
      "inDis" : "50",
      "routeId" : "286",
      "seqNo" : "33"
   },
   {
      "GoBack" : "2",
      "longitude" : "120.72273",
      "outDis" : "50",
      "Id" : "4667",
      "oid" : "5883",
      "districtId" : "1",
      "nameZh" : "東平國小(東平路)",
      "pgp" : "0",
      "terminal" : "0",
      "latitude" : "24.1338",
      "inDis" : "50",
      "routeId" : "286",
      "seqNo" : "34"
   },
   {
      "GoBack" : "2",
      "longitude" : "120.72086",
      "outDis" : "50",
      "Id" : "4718",
      "oid" : "306376949",
      "districtId" : "1",
      "nameZh" : "東平中平路口",
      "pgp" : "0",
      "terminal" : "0",
      "latitude" : "24.13372",
      "inDis" : "50",
      "routeId" : "286",
      "seqNo" : "35"
   },
   {
      "GoBack" : "2",
      "longitude" : "120.71841",
      "outDis" : "50",
      "Id" : "4717",
      "oid" : "306376946",
      "districtId" : "1",
      "nameZh" : "崇正寶宮",
      "pgp" : "0",
      "terminal" : "0",
      "latitude" : "24.13358",
      "inDis" : "50",
      "routeId" : "286",
      "seqNo" : "36"
   },
   {
      "GoBack" : "2",
      "longitude" : "120.7169",
      "outDis" : "50",
      "Id" : "4716",
      "oid" : "306250857",
      "districtId" : "1",
      "nameZh" : "新平永平路口",
      "pgp" : "0",
      "terminal" : "0",
      "latitude" : "24.13143",
      "inDis" : "50",
      "routeId" : "286",
      "seqNo" : "37"
   },
   {
      "GoBack" : "2",
      "longitude" : "120.71705",
      "outDis" : "50",
      "Id" : "4220",
      "oid" : "5439",
      "districtId" : "1",
      "nameZh" : "太平國小",
      "pgp" : "0",
      "terminal" : "0",
      "latitude" : "24.12805",
      "inDis" : "50",
      "routeId" : "286",
      "seqNo" : "38"
   },
   {
      "GoBack" : "2",
      "longitude" : "120.71578",
      "outDis" : "50",
      "Id" : "1427",
      "oid" : "5311",
      "districtId" : "1",
      "nameZh" : "中太平",
      "pgp" : "0",
      "terminal" : "0",
      "latitude" : "24.12722",
      "inDis" : "50",
      "routeId" : "286",
      "seqNo" : "39"
   },
   {
      "GoBack" : "2",
      "longitude" : "120.71239",
      "outDis" : "50",
      "Id" : "1128",
      "oid" : "5110",
      "districtId" : "1",
      "nameZh" : "下太平",
      "pgp" : "0",
      "terminal" : "0",
      "latitude" : "24.12594",
      "inDis" : "50",
      "routeId" : "286",
      "seqNo" : "40"
   },
   {
      "GoBack" : "2",
      "longitude" : "120.71057",
      "outDis" : "50",
      "Id" : "4218",
      "oid" : "5509",
      "districtId" : "1",
      "nameZh" : "中油太平站",
      "pgp" : "0",
      "terminal" : "0",
      "latitude" : "24.12709",
      "inDis" : "50",
      "routeId" : "286",
      "seqNo" : "41"
   },
   {
      "GoBack" : "2",
      "longitude" : "120.70883",
      "outDis" : "50",
      "Id" : "1185",
      "oid" : "5142",
      "districtId" : "1",
      "nameZh" : "下部仔",
      "pgp" : "0",
      "terminal" : "0",
      "latitude" : "24.1281",
      "inDis" : "50",
      "routeId" : "286",
      "seqNo" : "42"
   },
   {
      "GoBack" : "2",
      "longitude" : "120.70528",
      "outDis" : "50",
      "Id" : "1642",
      "oid" : "5444",
      "districtId" : "1",
      "nameZh" : "太平橋前",
      "pgp" : "0",
      "terminal" : "0",
      "latitude" : "24.13024",
      "inDis" : "50",
      "routeId" : "286",
      "seqNo" : "43"
   },
   {
      "GoBack" : "2",
      "longitude" : "120.70261",
      "outDis" : "50",
      "Id" : "2236",
      "oid" : "5786",
      "districtId" : "1",
      "nameZh" : "旱溪",
      "pgp" : "0",
      "terminal" : "0",
      "latitude" : "24.13143",
      "inDis" : "50",
      "routeId" : "286",
      "seqNo" : "44"
   },
   {
      "GoBack" : "2",
      "longitude" : "120.6981",
      "outDis" : "50",
      "Id" : "0190",
      "oid" : "5886",
      "districtId" : "1",
      "nameZh" : "東門橋",
      "pgp" : "0",
      "terminal" : "0",
      "latitude" : "24.13315",
      "inDis" : "50",
      "routeId" : "286",
      "seqNo" : "45"
   },
   {
      "GoBack" : "2",
      "longitude" : "120.69636",
      "outDis" : "50",
      "Id" : "3617",
      "oid" : "6536",
      "districtId" : "1",
      "nameZh" : "漢聲電臺",
      "pgp" : "0",
      "terminal" : "0",
      "latitude" : "24.13303",
      "inDis" : "50",
      "routeId" : "286",
      "seqNo" : "46"
   },
   {
      "GoBack" : "2",
      "longitude" : "120.69403",
      "outDis" : "50",
      "Id" : "4654",
      "oid" : "5235",
      "districtId" : "1",
      "nameZh" : "大東紡織(振興路)",
      "pgp" : "0",
      "terminal" : "0",
      "latitude" : "24.13289",
      "inDis" : "50",
      "routeId" : "286",
      "seqNo" : "47"
   },
   {
      "GoBack" : "2",
      "longitude" : "120.69236",
      "outDis" : "50",
      "Id" : "4362",
      "oid" : "12669",
      "districtId" : "1",
      "nameZh" : "建成大振街口",
      "pgp" : "0",
      "terminal" : "0",
      "latitude" : "24.13268",
      "inDis" : "50",
      "routeId" : "286",
      "seqNo" : "48"
   },
   {
      "GoBack" : "2",
      "longitude" : "120.68984",
      "outDis" : "50",
      "Id" : "0186",
      "oid" : "5850",
      "districtId" : "1",
      "nameZh" : "大智忠孝路口",
      "pgp" : "0",
      "terminal" : "0",
      "latitude" : "24.1325",
      "inDis" : "50",
      "routeId" : "286",
      "seqNo" : "49"
   },
   {
      "GoBack" : "2",
      "longitude" : "120.68814",
      "outDis" : "50",
      "Id" : "0185",
      "oid" : "13228",
      "districtId" : "1",
      "nameZh" : "新時代購物中心",
      "pgp" : "0",
      "terminal" : "0",
      "latitude" : "24.13583",
      "inDis" : "50",
      "routeId" : "286",
      "seqNo" : "50"
   },
   {
      "GoBack" : "2",
      "longitude" : "120.68629",
      "outDis" : "50",
      "Id" : "0184",
      "oid" : "6022",
      "districtId" : "1",
      "nameZh" : "後火車站",
      "pgp" : "0",
      "terminal" : "0",
      "latitude" : "24.1358",
      "inDis" : "50",
      "routeId" : "286",
      "seqNo" : "51"
   },
   {
      "GoBack" : "2",
      "longitude" : "120.68367",
      "outDis" : "50",
      "Id" : "0183",
      "oid" : "6337",
      "districtId" : "1",
      "nameZh" : "臺中家商",
      "pgp" : "0",
      "terminal" : "0",
      "latitude" : "24.13473",
      "inDis" : "50",
      "routeId" : "286",
      "seqNo" : "52"
   },
   {
      "GoBack" : "2",
      "longitude" : "120.68387",
      "outDis" : "170",
      "Id" : "1824",
      "oid" : "5545",
      "districtId" : "1",
      "nameZh" : "臺中火車站",
      "pgp" : "0",
      "terminal" : "0",
      "latitude" : "24.13663",
      "inDis" : "50",
      "routeId" : "286",
      "seqNo" : "53"
   }
]
