[
   {
      "GoBack" : "1",
      "longitude" : "120.66785",
      "outDis" : "50",
      "Id" : "5315",
      "oid" : "311258223",
      "districtId" : "1",
      "nameZh" : "敦化后庄七街口",
      "pgp" : "0",
      "terminal" : "0",
      "latitude" : "24.18764",
      "inDis" : "50",
      "routeId" : "101",
      "seqNo" : "1"
   },
   {
      "GoBack" : "1",
      "longitude" : "120.66685",
      "outDis" : "50",
      "Id" : "5031",
      "oid" : "309520678",
      "districtId" : "1",
      "nameZh" : "敦化公園",
      "pgp" : "0",
      "terminal" : "0",
      "latitude" : "24.18716",
      "inDis" : "50",
      "routeId" : "101",
      "seqNo" : "2"
   },
   {
      "GoBack" : "1",
      "longitude" : "120.66496",
      "outDis" : "50",
      "Id" : "0801",
      "oid" : "3679",
      "districtId" : "1",
      "nameZh" : "頂陳平",
      "pgp" : "0",
      "terminal" : "0",
      "latitude" : "24.18437",
      "inDis" : "50",
      "routeId" : "101",
      "seqNo" : "3"
   },
   {
      "GoBack" : "1",
      "longitude" : "120.66584",
      "outDis" : "50",
      "Id" : "0789",
      "oid" : "8136",
      "districtId" : "1",
      "nameZh" : "陳平",
      "pgp" : "0",
      "terminal" : "0",
      "latitude" : "24.18275",
      "inDis" : "50",
      "routeId" : "101",
      "seqNo" : "4"
   },
   {
      "GoBack" : "1",
      "longitude" : "120.66655",
      "outDis" : "50",
      "Id" : "0593",
      "oid" : "8137",
      "districtId" : "1",
      "nameZh" : "全民醫院",
      "pgp" : "0",
      "terminal" : "0",
      "latitude" : "24.18127",
      "inDis" : "50",
      "routeId" : "101",
      "seqNo" : "5"
   },
   {
      "GoBack" : "1",
      "longitude" : "120.66781",
      "outDis" : "50",
      "Id" : "0385",
      "oid" : "8138",
      "districtId" : "1",
      "nameZh" : "大德國中",
      "pgp" : "0",
      "terminal" : "0",
      "latitude" : "24.17936",
      "inDis" : "50",
      "routeId" : "101",
      "seqNo" : "6"
   },
   {
      "GoBack" : "1",
      "longitude" : "120.66916",
      "outDis" : "50",
      "Id" : "5100",
      "oid" : "8139",
      "districtId" : "1",
      "nameZh" : "水湳市場(中清路)",
      "pgp" : "0",
      "terminal" : "0",
      "latitude" : "24.17756",
      "inDis" : "50",
      "routeId" : "101",
      "seqNo" : "7"
   },
   {
      "GoBack" : "1",
      "longitude" : "120.67008",
      "outDis" : "30",
      "Id" : "0486",
      "oid" : "319227554",
      "districtId" : "1",
      "nameZh" : "水湳",
      "pgp" : "0",
      "terminal" : "0",
      "latitude" : "24.17636",
      "inDis" : "30",
      "routeId" : "101",
      "seqNo" : "8"
   },
   {
      "GoBack" : "1",
      "longitude" : "120.67119",
      "outDis" : "50",
      "Id" : "0334",
      "oid" : "8141",
      "districtId" : "1",
      "nameZh" : "下水湳",
      "pgp" : "0",
      "terminal" : "0",
      "latitude" : "24.17516",
      "inDis" : "50",
      "routeId" : "101",
      "seqNo" : "9"
   },
   {
      "GoBack" : "1",
      "longitude" : "120.67197",
      "outDis" : "50",
      "Id" : "0805",
      "oid" : "8142",
      "districtId" : "1",
      "nameZh" : "頂賴厝",
      "pgp" : "0",
      "terminal" : "0",
      "latitude" : "24.17184",
      "inDis" : "50",
      "routeId" : "101",
      "seqNo" : "10"
   },
   {
      "GoBack" : "1",
      "longitude" : "120.67228",
      "outDis" : "50",
      "Id" : "1629",
      "oid" : "F9637C03649748D0B6444C6B1E67DFC1",
      "districtId" : "1",
      "nameZh" : "天津路商圈",
      "pgp" : "0",
      "terminal" : "0",
      "latitude" : "24.17061",
      "inDis" : "50",
      "routeId" : "101",
      "seqNo" : "11"
   },
   {
      "GoBack" : "1",
      "longitude" : "120.67314",
      "outDis" : "50",
      "Id" : "5737",
      "oid" : "8144",
      "districtId" : "1",
      "nameZh" : "曉明女中(中清路)",
      "pgp" : "0",
      "terminal" : "0",
      "latitude" : "24.16755",
      "inDis" : "50",
      "routeId" : "101",
      "seqNo" : "12"
   },
   {
      "GoBack" : "1",
      "longitude" : "120.67354",
      "outDis" : "50",
      "Id" : "5736",
      "oid" : "8145",
      "districtId" : "1",
      "nameZh" : "中清漢口路口",
      "pgp" : "0",
      "terminal" : "0",
      "latitude" : "24.16644",
      "inDis" : "50",
      "routeId" : "101",
      "seqNo" : "13"
   },
   {
      "GoBack" : "1",
      "longitude" : "120.67437",
      "outDis" : "50",
      "Id" : "5735",
      "oid" : "8146",
      "districtId" : "1",
      "nameZh" : "中清太原路口",
      "pgp" : "0",
      "terminal" : "0",
      "latitude" : "24.16386",
      "inDis" : "50",
      "routeId" : "101",
      "seqNo" : "14"
   },
   {
      "GoBack" : "1",
      "longitude" : "120.67478",
      "outDis" : "50",
      "Id" : "5734",
      "oid" : "8147",
      "districtId" : "1",
      "nameZh" : "中清忠明路口",
      "pgp" : "0",
      "terminal" : "0",
      "latitude" : "24.16244",
      "inDis" : "50",
      "routeId" : "101",
      "seqNo" : "15"
   },
   {
      "GoBack" : "1",
      "longitude" : "120.67529",
      "outDis" : "50",
      "Id" : "5733",
      "oid" : "8148",
      "districtId" : "1",
      "nameZh" : "大道公廟(中清路)",
      "pgp" : "0",
      "terminal" : "0",
      "latitude" : "24.161",
      "inDis" : "50",
      "routeId" : "101",
      "seqNo" : "16"
   },
   {
      "GoBack" : "1",
      "longitude" : "120.67613",
      "outDis" : "50",
      "Id" : "5732",
      "oid" : "8149",
      "districtId" : "1",
      "nameZh" : "中清健行路口",
      "pgp" : "0",
      "terminal" : "0",
      "latitude" : "24.15846",
      "inDis" : "50",
      "routeId" : "101",
      "seqNo" : "17"
   },
   {
      "GoBack" : "1",
      "longitude" : "120.67678",
      "outDis" : "50",
      "Id" : "0092",
      "oid" : "8150",
      "districtId" : "1",
      "nameZh" : "邱厝里",
      "pgp" : "0",
      "terminal" : "0",
      "latitude" : "24.15651",
      "inDis" : "50",
      "routeId" : "101",
      "seqNo" : "18"
   },
   {
      "GoBack" : "1",
      "longitude" : "120.67725",
      "outDis" : "50",
      "Id" : "0481",
      "oid" : "8151",
      "districtId" : "1",
      "nameZh" : "文莊里",
      "pgp" : "0",
      "terminal" : "0",
      "latitude" : "24.15426",
      "inDis" : "50",
      "routeId" : "101",
      "seqNo" : "19"
   },
   {
      "GoBack" : "1",
      "longitude" : "120.6774",
      "outDis" : "50",
      "Id" : "0503",
      "oid" : "8152",
      "districtId" : "1",
      "nameZh" : "臺中二中",
      "pgp" : "0",
      "terminal" : "0",
      "latitude" : "24.15234",
      "inDis" : "50",
      "routeId" : "101",
      "seqNo" : "20"
   },
   {
      "GoBack" : "1",
      "longitude" : "120.67669",
      "outDis" : "50",
      "Id" : "4626",
      "oid" : "309728176",
      "districtId" : "1",
      "nameZh" : "五權公園路口",
      "pgp" : "0",
      "terminal" : "0",
      "latitude" : "24.15081",
      "inDis" : "50",
      "routeId" : "101",
      "seqNo" : "21"
   },
   {
      "GoBack" : "1",
      "longitude" : "120.67546",
      "outDis" : "50",
      "Id" : "0144",
      "oid" : "8153",
      "districtId" : "1",
      "nameZh" : "中央市場",
      "pgp" : "0",
      "terminal" : "0",
      "latitude" : "24.14957",
      "inDis" : "50",
      "routeId" : "101",
      "seqNo" : "22"
   },
   {
      "GoBack" : "1",
      "longitude" : "120.67269",
      "outDis" : "50",
      "Id" : "5628",
      "oid" : "317223824",
      "districtId" : "1",
      "nameZh" : "五權臺灣大道口",
      "pgp" : "0",
      "terminal" : "0",
      "latitude" : "24.1469",
      "inDis" : "50",
      "routeId" : "101",
      "seqNo" : "23"
   },
   {
      "GoBack" : "1",
      "longitude" : "120.67153",
      "outDis" : "50",
      "Id" : "0513",
      "oid" : "8155",
      "districtId" : "1",
      "nameZh" : "臺中教育大學",
      "pgp" : "0",
      "terminal" : "0",
      "latitude" : "24.14517",
      "inDis" : "50",
      "routeId" : "101",
      "seqNo" : "24"
   },
   {
      "GoBack" : "1",
      "longitude" : "120.67463",
      "outDis" : "50",
      "Id" : "4623",
      "oid" : "8156",
      "districtId" : "1",
      "nameZh" : "民權中華路口",
      "pgp" : "0",
      "terminal" : "0",
      "latitude" : "24.14242",
      "inDis" : "50",
      "routeId" : "101",
      "seqNo" : "25"
   },
   {
      "GoBack" : "1",
      "longitude" : "120.6765",
      "outDis" : "50",
      "Id" : "0208",
      "oid" : "8157",
      "districtId" : "1",
      "nameZh" : "臺中醫院",
      "pgp" : "0",
      "terminal" : "0",
      "latitude" : "24.14097",
      "inDis" : "50",
      "routeId" : "101",
      "seqNo" : "26"
   },
   {
      "GoBack" : "1",
      "longitude" : "120.67847",
      "outDis" : "50",
      "Id" : "4416",
      "oid" : "8158",
      "districtId" : "1",
      "nameZh" : "臺中州廳",
      "pgp" : "0",
      "terminal" : "0",
      "latitude" : "24.13918",
      "inDis" : "50",
      "routeId" : "101",
      "seqNo" : "27"
   },
   {
      "GoBack" : "1",
      "longitude" : "120.68043",
      "outDis" : "50",
      "Id" : "0215",
      "oid" : "8159",
      "districtId" : "1",
      "nameZh" : "合作金庫",
      "pgp" : "0",
      "terminal" : "0",
      "latitude" : "24.13835",
      "inDis" : "50",
      "routeId" : "101",
      "seqNo" : "28"
   },
   {
      "GoBack" : "1",
      "longitude" : "120.68193",
      "outDis" : "50",
      "Id" : "0216",
      "oid" : "8160",
      "districtId" : "1",
      "nameZh" : "彰化銀行(自由路)",
      "pgp" : "0",
      "terminal" : "0",
      "latitude" : "24.13977",
      "inDis" : "50",
      "routeId" : "101",
      "seqNo" : "29"
   },
   {
      "GoBack" : "1",
      "longitude" : "120.6846",
      "outDis" : "50",
      "Id" : "1824",
      "oid" : "352F71F4F6F9446688F03EED41D42F66",
      "districtId" : "1",
      "nameZh" : "臺中火車站",
      "pgp" : "0",
      "terminal" : "0",
      "latitude" : "24.13734",
      "inDis" : "50",
      "routeId" : "101",
      "seqNo" : "30"
   },
   {
      "GoBack" : "1",
      "longitude" : "120.68215",
      "outDis" : "50",
      "Id" : "0518",
      "oid" : "8163",
      "districtId" : "1",
      "nameZh" : "臺中酒廠(復興路)",
      "pgp" : "0",
      "terminal" : "0",
      "latitude" : "24.13408",
      "inDis" : "50",
      "routeId" : "101",
      "seqNo" : "31"
   },
   {
      "GoBack" : "1",
      "longitude" : "120.67994",
      "outDis" : "50",
      "Id" : "1659",
      "oid" : "8164",
      "districtId" : "1",
      "nameZh" : "文化創意園區",
      "pgp" : "0",
      "terminal" : "0",
      "latitude" : "24.13317",
      "inDis" : "50",
      "routeId" : "101",
      "seqNo" : "32"
   },
   {
      "GoBack" : "1",
      "longitude" : "120.67888",
      "outDis" : "50",
      "Id" : "0180",
      "oid" : "8165",
      "districtId" : "1",
      "nameZh" : "林祖厝",
      "pgp" : "0",
      "terminal" : "0",
      "latitude" : "24.13275",
      "inDis" : "50",
      "routeId" : "101",
      "seqNo" : "33"
   },
   {
      "GoBack" : "1",
      "longitude" : "120.67629",
      "outDis" : "50",
      "Id" : "4604",
      "oid" : "8166",
      "districtId" : "1",
      "nameZh" : "復興有恆街口",
      "pgp" : "0",
      "terminal" : "0",
      "latitude" : "24.13169",
      "inDis" : "50",
      "routeId" : "101",
      "seqNo" : "34"
   },
   {
      "GoBack" : "1",
      "longitude" : "120.67442",
      "outDis" : "50",
      "Id" : "0178",
      "oid" : "8167",
      "districtId" : "1",
      "nameZh" : "第三分局",
      "pgp" : "0",
      "terminal" : "0",
      "latitude" : "24.13088",
      "inDis" : "50",
      "routeId" : "101",
      "seqNo" : "35"
   },
   {
      "GoBack" : "1",
      "longitude" : "120.67021",
      "outDis" : "50",
      "Id" : "5393",
      "oid" : "319430803",
      "districtId" : "1",
      "nameZh" : "公共資訊圖書館(復興路)",
      "pgp" : "0",
      "terminal" : "0",
      "latitude" : "24.12928",
      "inDis" : "50",
      "routeId" : "101",
      "seqNo" : "36"
   },
   {
      "GoBack" : "1",
      "longitude" : "120.66837",
      "outDis" : "50",
      "Id" : "5478",
      "oid" : "319311008",
      "districtId" : "1",
      "nameZh" : "高等法院臺中分院",
      "pgp" : "0",
      "terminal" : "0",
      "latitude" : "24.12838",
      "inDis" : "50",
      "routeId" : "101",
      "seqNo" : "37"
   },
   {
      "GoBack" : "1",
      "longitude" : "120.66583",
      "outDis" : "50",
      "Id" : "0543",
      "oid" : "8169",
      "districtId" : "1",
      "nameZh" : "四育國中",
      "pgp" : "0",
      "terminal" : "0",
      "latitude" : "24.12705",
      "inDis" : "50",
      "routeId" : "101",
      "seqNo" : "38"
   },
   {
      "GoBack" : "1",
      "longitude" : "120.66332",
      "outDis" : "50",
      "Id" : "3395",
      "oid" : "8170",
      "districtId" : "1",
      "nameZh" : "復興新和街口",
      "pgp" : "0",
      "terminal" : "0",
      "latitude" : "24.12391",
      "inDis" : "50",
      "routeId" : "101",
      "seqNo" : "39"
   },
   {
      "GoBack" : "1",
      "longitude" : "120.66112",
      "outDis" : "50",
      "Id" : "0128",
      "oid" : "8171",
      "districtId" : "1",
      "nameZh" : "和平國小",
      "pgp" : "0",
      "terminal" : "0",
      "latitude" : "24.1211",
      "inDis" : "50",
      "routeId" : "101",
      "seqNo" : "40"
   },
   {
      "GoBack" : "1",
      "longitude" : "120.65963",
      "outDis" : "50",
      "Id" : "0129",
      "oid" : "8172",
      "districtId" : "1",
      "nameZh" : "宜寧中學",
      "pgp" : "0",
      "terminal" : "0",
      "latitude" : "24.11899",
      "inDis" : "50",
      "routeId" : "101",
      "seqNo" : "41"
   },
   {
      "GoBack" : "1",
      "longitude" : "120.65793",
      "outDis" : "50",
      "Id" : "4538",
      "oid" : "311272152",
      "districtId" : "1",
      "nameZh" : "臺中高工(復興路)",
      "pgp" : "0",
      "terminal" : "0",
      "latitude" : "24.11726",
      "inDis" : "50",
      "routeId" : "101",
      "seqNo" : "42"
   },
   {
      "GoBack" : "1",
      "longitude" : "120.65423",
      "outDis" : "50",
      "Id" : "4536",
      "oid" : "8175",
      "districtId" : "1",
      "nameZh" : "復興大慶街口",
      "pgp" : "0",
      "terminal" : "0",
      "latitude" : "24.11443",
      "inDis" : "50",
      "routeId" : "101",
      "seqNo" : "43"
   },
   {
      "GoBack" : "1",
      "longitude" : "120.65113",
      "outDis" : "50",
      "Id" : "3330",
      "oid" : "8176",
      "districtId" : "1",
      "nameZh" : "勤工派出所",
      "pgp" : "0",
      "terminal" : "0",
      "latitude" : "24.11225",
      "inDis" : "50",
      "routeId" : "101",
      "seqNo" : "44"
   },
   {
      "GoBack" : "1",
      "longitude" : "120.64799",
      "outDis" : "50",
      "Id" : "5195",
      "oid" : "311272150",
      "districtId" : "1",
      "nameZh" : "復興環中路口",
      "pgp" : "0",
      "terminal" : "0",
      "latitude" : "24.11096",
      "inDis" : "50",
      "routeId" : "101",
      "seqNo" : "45"
   },
   {
      "GoBack" : "1",
      "longitude" : "120.64588",
      "outDis" : "50",
      "Id" : "3790",
      "oid" : "8178",
      "districtId" : "1",
      "nameZh" : "樹仔腳",
      "pgp" : "0",
      "terminal" : "0",
      "latitude" : "24.11023",
      "inDis" : "50",
      "routeId" : "101",
      "seqNo" : "46"
   },
   {
      "GoBack" : "1",
      "longitude" : "120.64169",
      "outDis" : "50",
      "Id" : "0994",
      "oid" : "8179",
      "districtId" : "1",
      "nameZh" : "九張犁",
      "pgp" : "0",
      "terminal" : "0",
      "latitude" : "24.1089",
      "inDis" : "50",
      "routeId" : "101",
      "seqNo" : "47"
   },
   {
      "GoBack" : "1",
      "longitude" : "120.63859",
      "outDis" : "50",
      "Id" : "2366",
      "oid" : "8180",
      "districtId" : "1",
      "nameZh" : "明道花園城",
      "pgp" : "0",
      "terminal" : "0",
      "latitude" : "24.10799",
      "inDis" : "50",
      "routeId" : "101",
      "seqNo" : "48"
   },
   {
      "GoBack" : "1",
      "longitude" : "120.63707",
      "outDis" : "50",
      "Id" : "2365",
      "oid" : "8181",
      "districtId" : "1",
      "nameZh" : "明道中學",
      "pgp" : "0",
      "terminal" : "0",
      "latitude" : "24.10751",
      "inDis" : "50",
      "routeId" : "101",
      "seqNo" : "49"
   },
   {
      "GoBack" : "1",
      "longitude" : "120.63287",
      "outDis" : "50",
      "Id" : "2821",
      "oid" : "8182",
      "districtId" : "1",
      "nameZh" : "烏日橋",
      "pgp" : "0",
      "terminal" : "0",
      "latitude" : "24.10578",
      "inDis" : "50",
      "routeId" : "101",
      "seqNo" : "50"
   },
   {
      "GoBack" : "1",
      "longitude" : "120.62824",
      "outDis" : "50",
      "Id" : "1454",
      "oid" : "8183",
      "districtId" : "1",
      "nameZh" : "中和紡織",
      "pgp" : "0",
      "terminal" : "0",
      "latitude" : "24.10574",
      "inDis" : "50",
      "routeId" : "101",
      "seqNo" : "51"
   },
   {
      "GoBack" : "1",
      "longitude" : "120.62645",
      "outDis" : "50",
      "Id" : "4660",
      "oid" : "8184",
      "districtId" : "1",
      "nameZh" : "中山五光路口",
      "pgp" : "0",
      "terminal" : "0",
      "latitude" : "24.10605",
      "inDis" : "50",
      "routeId" : "101",
      "seqNo" : "52"
   },
   {
      "GoBack" : "1",
      "longitude" : "120.62266",
      "outDis" : "50",
      "Id" : "2816",
      "oid" : "8185",
      "districtId" : "1",
      "nameZh" : "烏日",
      "pgp" : "0",
      "terminal" : "0",
      "latitude" : "24.10641",
      "inDis" : "50",
      "routeId" : "101",
      "seqNo" : "53"
   },
   {
      "GoBack" : "1",
      "longitude" : "120.61696",
      "outDis" : "50",
      "Id" : "2820",
      "oid" : "8186",
      "districtId" : "1",
      "nameZh" : "烏日國中",
      "pgp" : "0",
      "terminal" : "0",
      "latitude" : "24.10612",
      "inDis" : "50",
      "routeId" : "101",
      "seqNo" : "54"
   },
   {
      "GoBack" : "1",
      "longitude" : "120.61684",
      "outDis" : "100",
      "Id" : "0279",
      "oid" : "118252385",
      "districtId" : "1",
      "nameZh" : "高鐵臺中站(5月台)",
      "pgp" : "0",
      "terminal" : "0",
      "latitude" : "24.11162",
      "inDis" : "100",
      "routeId" : "101",
      "seqNo" : "55"
   },
   {
      "GoBack" : "1",
      "longitude" : "120.60795",
      "outDis" : "50",
      "Id" : "5082",
      "oid" : "8187",
      "districtId" : "1",
      "nameZh" : "三和里1",
      "pgp" : "0",
      "terminal" : "0",
      "latitude" : "24.10834",
      "inDis" : "50",
      "routeId" : "101",
      "seqNo" : "56"
   },
   {
      "GoBack" : "1",
      "longitude" : "120.60673",
      "outDis" : "50",
      "Id" : "5083",
      "oid" : "309728177",
      "districtId" : "1",
      "nameZh" : "三和里2",
      "pgp" : "0",
      "terminal" : "0",
      "latitude" : "24.10861",
      "inDis" : "50",
      "routeId" : "101",
      "seqNo" : "57"
   },
   {
      "GoBack" : "1",
      "longitude" : "120.6047",
      "outDis" : "50",
      "Id" : "4468",
      "oid" : "14003",
      "districtId" : "1",
      "nameZh" : "烏日戶政",
      "pgp" : "0",
      "terminal" : "0",
      "latitude" : "24.10927",
      "inDis" : "50",
      "routeId" : "101",
      "seqNo" : "58"
   },
   {
      "GoBack" : "1",
      "longitude" : "120.60156",
      "outDis" : "50",
      "Id" : "2120",
      "oid" : "2094",
      "districtId" : "1",
      "nameZh" : "成功嶺",
      "pgp" : "0",
      "terminal" : "0",
      "latitude" : "24.11044",
      "inDis" : "50",
      "routeId" : "101",
      "seqNo" : "59"
   },
   {
      "GoBack" : "1",
      "longitude" : "120.59368",
      "outDis" : "50",
      "Id" : "3277",
      "oid" : "8189",
      "districtId" : "1",
      "nameZh" : "善光寺",
      "pgp" : "0",
      "terminal" : "0",
      "latitude" : "24.11307",
      "inDis" : "50",
      "routeId" : "101",
      "seqNo" : "60"
   },
   {
      "GoBack" : "1",
      "longitude" : "120.58958",
      "outDis" : "50",
      "Id" : "1743",
      "oid" : "8190",
      "districtId" : "1",
      "nameZh" : "王田",
      "pgp" : "0",
      "terminal" : "0",
      "latitude" : "24.11362",
      "inDis" : "50",
      "routeId" : "101",
      "seqNo" : "61"
   },
   {
      "GoBack" : "1",
      "longitude" : "120.57256",
      "outDis" : "50",
      "Id" : "2941",
      "oid" : "14711",
      "districtId" : "1",
      "nameZh" : "國聖井",
      "pgp" : "0",
      "terminal" : "0",
      "latitude" : "24.0977",
      "inDis" : "50",
      "routeId" : "101",
      "seqNo" : "62"
   },
   {
      "GoBack" : "1",
      "longitude" : "120.56791",
      "outDis" : "50",
      "Id" : "2942",
      "oid" : "8192",
      "districtId" : "1",
      "nameZh" : "國聖國小",
      "pgp" : "0",
      "terminal" : "0",
      "latitude" : "24.09262",
      "inDis" : "50",
      "routeId" : "101",
      "seqNo" : "63"
   },
   {
      "GoBack" : "1",
      "longitude" : "120.56606",
      "outDis" : "50",
      "Id" : "1449",
      "oid" : "8193",
      "districtId" : "1",
      "nameZh" : "中庄子",
      "pgp" : "0",
      "terminal" : "0",
      "latitude" : "24.08964",
      "inDis" : "50",
      "routeId" : "101",
      "seqNo" : "64"
   },
   {
      "GoBack" : "1",
      "longitude" : "120.56006",
      "outDis" : "50",
      "Id" : "5036",
      "oid" : "309728178",
      "districtId" : "1",
      "nameZh" : "原民館",
      "pgp" : "0",
      "terminal" : "0",
      "latitude" : "24.08665",
      "inDis" : "50",
      "routeId" : "101",
      "seqNo" : "65"
   },
   {
      "GoBack" : "1",
      "longitude" : "120.55485",
      "outDis" : "50",
      "Id" : "2320",
      "oid" : "8195",
      "districtId" : "1",
      "nameZh" : "和調里",
      "pgp" : "0",
      "terminal" : "0",
      "latitude" : "24.08485",
      "inDis" : "50",
      "routeId" : "101",
      "seqNo" : "66"
   },
   {
      "GoBack" : "1",
      "longitude" : "120.55161",
      "outDis" : "50",
      "Id" : "1879",
      "oid" : "8196",
      "districtId" : "1",
      "nameZh" : "市仔尾",
      "pgp" : "0",
      "terminal" : "0",
      "latitude" : "24.08386",
      "inDis" : "50",
      "routeId" : "101",
      "seqNo" : "67"
   },
   {
      "GoBack" : "1",
      "longitude" : "120.54795",
      "outDis" : "50",
      "Id" : "3353",
      "oid" : "8197",
      "districtId" : "1",
      "nameZh" : "慈惠醫院",
      "pgp" : "0",
      "terminal" : "0",
      "latitude" : "24.08304",
      "inDis" : "50",
      "routeId" : "101",
      "seqNo" : "68"
   },
   {
      "GoBack" : "1",
      "longitude" : "120.54627",
      "outDis" : "50",
      "Id" : "1701",
      "oid" : "8198",
      "districtId" : "1",
      "nameZh" : "水利會",
      "pgp" : "0",
      "terminal" : "0",
      "latitude" : "24.082",
      "inDis" : "50",
      "routeId" : "101",
      "seqNo" : "69"
   },
   {
      "GoBack" : "1",
      "longitude" : "120.54459",
      "outDis" : "50",
      "Id" : "3588",
      "oid" : "8199",
      "districtId" : "1",
      "nameZh" : "彰化女中",
      "pgp" : "0",
      "terminal" : "0",
      "latitude" : "24.08095",
      "inDis" : "50",
      "routeId" : "101",
      "seqNo" : "70"
   },
   {
      "GoBack" : "1",
      "longitude" : "120.54217",
      "outDis" : "50",
      "Id" : "1877",
      "oid" : "8200",
      "districtId" : "1",
      "nameZh" : "市公所",
      "pgp" : "0",
      "terminal" : "0",
      "latitude" : "24.08072",
      "inDis" : "50",
      "routeId" : "101",
      "seqNo" : "71"
   },
   {
      "GoBack" : "1",
      "longitude" : "120.53994",
      "outDis" : "50",
      "Id" : "3591",
      "oid" : "8201",
      "districtId" : "1",
      "nameZh" : "彰化火車站 ",
      "pgp" : "0",
      "terminal" : "0",
      "latitude" : "24.08291",
      "inDis" : "50",
      "routeId" : "101",
      "seqNo" : "72"
   },
   {
      "GoBack" : "2",
      "longitude" : "120.53994",
      "outDis" : "50",
      "Id" : "3591",
      "oid" : "8201",
      "districtId" : "1",
      "nameZh" : "彰化火車站 ",
      "pgp" : "0",
      "terminal" : "0",
      "latitude" : "24.08291",
      "inDis" : "50",
      "routeId" : "101",
      "seqNo" : "1"
   },
   {
      "GoBack" : "2",
      "longitude" : "120.54283",
      "outDis" : "50",
      "Id" : "0557",
      "oid" : "14703",
      "districtId" : "1",
      "nameZh" : "民生路口",
      "pgp" : "0",
      "terminal" : "0",
      "latitude" : "24.08262",
      "inDis" : "50",
      "routeId" : "101",
      "seqNo" : "2"
   },
   {
      "GoBack" : "2",
      "longitude" : "120.54572",
      "outDis" : "50",
      "Id" : "2284",
      "oid" : "247271481",
      "districtId" : "1",
      "nameZh" : "車路口",
      "pgp" : "0",
      "terminal" : "0",
      "latitude" : "24.08316",
      "inDis" : "50",
      "routeId" : "101",
      "seqNo" : "3"
   },
   {
      "GoBack" : "2",
      "longitude" : "120.5502",
      "outDis" : "50",
      "Id" : "2534",
      "oid" : "247271483",
      "districtId" : "1",
      "nameZh" : "長順街口",
      "pgp" : "0",
      "terminal" : "0",
      "latitude" : "24.08416",
      "inDis" : "50",
      "routeId" : "101",
      "seqNo" : "4"
   },
   {
      "GoBack" : "2",
      "longitude" : "120.55485",
      "outDis" : "50",
      "Id" : "2320",
      "oid" : "8195",
      "districtId" : "1",
      "nameZh" : "和調里",
      "pgp" : "0",
      "terminal" : "0",
      "latitude" : "24.08485",
      "inDis" : "50",
      "routeId" : "101",
      "seqNo" : "5"
   },
   {
      "GoBack" : "2",
      "longitude" : "120.56006",
      "outDis" : "50",
      "Id" : "5036",
      "oid" : "309728178",
      "districtId" : "1",
      "nameZh" : "原民館",
      "pgp" : "0",
      "terminal" : "0",
      "latitude" : "24.08665",
      "inDis" : "50",
      "routeId" : "101",
      "seqNo" : "6"
   },
   {
      "GoBack" : "2",
      "longitude" : "120.56606",
      "outDis" : "50",
      "Id" : "1449",
      "oid" : "8193",
      "districtId" : "1",
      "nameZh" : "中庄子",
      "pgp" : "0",
      "terminal" : "0",
      "latitude" : "24.08964",
      "inDis" : "50",
      "routeId" : "101",
      "seqNo" : "7"
   },
   {
      "GoBack" : "2",
      "longitude" : "120.56791",
      "outDis" : "50",
      "Id" : "2942",
      "oid" : "8192",
      "districtId" : "1",
      "nameZh" : "國聖國小",
      "pgp" : "0",
      "terminal" : "0",
      "latitude" : "24.09262",
      "inDis" : "50",
      "routeId" : "101",
      "seqNo" : "8"
   },
   {
      "GoBack" : "2",
      "longitude" : "120.57266",
      "outDis" : "50",
      "Id" : "2941",
      "oid" : "8191",
      "districtId" : "1",
      "nameZh" : "國聖井",
      "pgp" : "0",
      "terminal" : "0",
      "latitude" : "24.09741",
      "inDis" : "50",
      "routeId" : "101",
      "seqNo" : "9"
   },
   {
      "GoBack" : "2",
      "longitude" : "120.58958",
      "outDis" : "50",
      "Id" : "1743",
      "oid" : "8190",
      "districtId" : "1",
      "nameZh" : "王田",
      "pgp" : "0",
      "terminal" : "0",
      "latitude" : "24.11362",
      "inDis" : "50",
      "routeId" : "101",
      "seqNo" : "10"
   },
   {
      "GoBack" : "2",
      "longitude" : "120.59368",
      "outDis" : "50",
      "Id" : "3277",
      "oid" : "8189",
      "districtId" : "1",
      "nameZh" : "善光寺",
      "pgp" : "0",
      "terminal" : "0",
      "latitude" : "24.11307",
      "inDis" : "50",
      "routeId" : "101",
      "seqNo" : "11"
   },
   {
      "GoBack" : "2",
      "longitude" : "120.60111",
      "outDis" : "50",
      "Id" : "2120",
      "oid" : "2133",
      "districtId" : "1",
      "nameZh" : "成功嶺",
      "pgp" : "0",
      "terminal" : "0",
      "latitude" : "24.11041",
      "inDis" : "50",
      "routeId" : "101",
      "seqNo" : "12"
   },
   {
      "GoBack" : "2",
      "longitude" : "120.6047",
      "outDis" : "50",
      "Id" : "4468",
      "oid" : "14003",
      "districtId" : "1",
      "nameZh" : "烏日戶政",
      "pgp" : "0",
      "terminal" : "0",
      "latitude" : "24.10927",
      "inDis" : "50",
      "routeId" : "101",
      "seqNo" : "13"
   },
   {
      "GoBack" : "2",
      "longitude" : "120.60673",
      "outDis" : "50",
      "Id" : "5083",
      "oid" : "309728177",
      "districtId" : "1",
      "nameZh" : "三和里2",
      "pgp" : "0",
      "terminal" : "0",
      "latitude" : "24.10861",
      "inDis" : "50",
      "routeId" : "101",
      "seqNo" : "14"
   },
   {
      "GoBack" : "2",
      "longitude" : "120.60795",
      "outDis" : "50",
      "Id" : "5082",
      "oid" : "8187",
      "districtId" : "1",
      "nameZh" : "三和里1",
      "pgp" : "0",
      "terminal" : "0",
      "latitude" : "24.10834",
      "inDis" : "50",
      "routeId" : "101",
      "seqNo" : "15"
   },
   {
      "GoBack" : "2",
      "longitude" : "120.61684",
      "outDis" : "100",
      "Id" : "2907",
      "oid" : "118252388",
      "districtId" : "1",
      "nameZh" : "高鐵臺中站(19月台)",
      "pgp" : "0",
      "terminal" : "0",
      "latitude" : "24.11162",
      "inDis" : "100",
      "routeId" : "101",
      "seqNo" : "16"
   },
   {
      "GoBack" : "2",
      "longitude" : "120.61696",
      "outDis" : "50",
      "Id" : "2820",
      "oid" : "8186",
      "districtId" : "1",
      "nameZh" : "烏日國中",
      "pgp" : "0",
      "terminal" : "0",
      "latitude" : "24.10612",
      "inDis" : "50",
      "routeId" : "101",
      "seqNo" : "17"
   },
   {
      "GoBack" : "2",
      "longitude" : "120.62266",
      "outDis" : "50",
      "Id" : "2816",
      "oid" : "8185",
      "districtId" : "1",
      "nameZh" : "烏日",
      "pgp" : "0",
      "terminal" : "0",
      "latitude" : "24.10641",
      "inDis" : "50",
      "routeId" : "101",
      "seqNo" : "18"
   },
   {
      "GoBack" : "2",
      "longitude" : "120.62645",
      "outDis" : "50",
      "Id" : "4660",
      "oid" : "8184",
      "districtId" : "1",
      "nameZh" : "中山五光路口",
      "pgp" : "0",
      "terminal" : "0",
      "latitude" : "24.10605",
      "inDis" : "50",
      "routeId" : "101",
      "seqNo" : "19"
   },
   {
      "GoBack" : "2",
      "longitude" : "120.62824",
      "outDis" : "50",
      "Id" : "1454",
      "oid" : "8183",
      "districtId" : "1",
      "nameZh" : "中和紡織",
      "pgp" : "0",
      "terminal" : "0",
      "latitude" : "24.10574",
      "inDis" : "50",
      "routeId" : "101",
      "seqNo" : "20"
   },
   {
      "GoBack" : "2",
      "longitude" : "120.63287",
      "outDis" : "50",
      "Id" : "2821",
      "oid" : "8182",
      "districtId" : "1",
      "nameZh" : "烏日橋",
      "pgp" : "0",
      "terminal" : "0",
      "latitude" : "24.10578",
      "inDis" : "50",
      "routeId" : "101",
      "seqNo" : "21"
   },
   {
      "GoBack" : "2",
      "longitude" : "120.63707",
      "outDis" : "50",
      "Id" : "2365",
      "oid" : "8181",
      "districtId" : "1",
      "nameZh" : "明道中學",
      "pgp" : "0",
      "terminal" : "0",
      "latitude" : "24.10751",
      "inDis" : "50",
      "routeId" : "101",
      "seqNo" : "22"
   },
   {
      "GoBack" : "2",
      "longitude" : "120.63859",
      "outDis" : "50",
      "Id" : "2366",
      "oid" : "8180",
      "districtId" : "1",
      "nameZh" : "明道花園城",
      "pgp" : "0",
      "terminal" : "0",
      "latitude" : "24.10799",
      "inDis" : "50",
      "routeId" : "101",
      "seqNo" : "23"
   },
   {
      "GoBack" : "2",
      "longitude" : "120.64169",
      "outDis" : "50",
      "Id" : "0994",
      "oid" : "8179",
      "districtId" : "1",
      "nameZh" : "九張犁",
      "pgp" : "0",
      "terminal" : "0",
      "latitude" : "24.1089",
      "inDis" : "50",
      "routeId" : "101",
      "seqNo" : "24"
   },
   {
      "GoBack" : "2",
      "longitude" : "120.64588",
      "outDis" : "50",
      "Id" : "3790",
      "oid" : "8178",
      "districtId" : "1",
      "nameZh" : "樹仔腳",
      "pgp" : "0",
      "terminal" : "0",
      "latitude" : "24.11023",
      "inDis" : "50",
      "routeId" : "101",
      "seqNo" : "25"
   },
   {
      "GoBack" : "2",
      "longitude" : "120.64799",
      "outDis" : "50",
      "Id" : "5195",
      "oid" : "311272150",
      "districtId" : "1",
      "nameZh" : "復興環中路口",
      "pgp" : "0",
      "terminal" : "0",
      "latitude" : "24.11096",
      "inDis" : "50",
      "routeId" : "101",
      "seqNo" : "26"
   },
   {
      "GoBack" : "2",
      "longitude" : "120.65113",
      "outDis" : "50",
      "Id" : "3330",
      "oid" : "8176",
      "districtId" : "1",
      "nameZh" : "勤工派出所",
      "pgp" : "0",
      "terminal" : "0",
      "latitude" : "24.11225",
      "inDis" : "50",
      "routeId" : "101",
      "seqNo" : "27"
   },
   {
      "GoBack" : "2",
      "longitude" : "120.65423",
      "outDis" : "50",
      "Id" : "4536",
      "oid" : "8175",
      "districtId" : "1",
      "nameZh" : "復興大慶街口",
      "pgp" : "0",
      "terminal" : "0",
      "latitude" : "24.11443",
      "inDis" : "50",
      "routeId" : "101",
      "seqNo" : "28"
   },
   {
      "GoBack" : "2",
      "longitude" : "120.65586",
      "outDis" : "50",
      "Id" : "0130",
      "oid" : "8174",
      "districtId" : "1",
      "nameZh" : "樹義里",
      "pgp" : "0",
      "terminal" : "0",
      "latitude" : "24.11562",
      "inDis" : "50",
      "routeId" : "101",
      "seqNo" : "29"
   },
   {
      "GoBack" : "2",
      "longitude" : "120.65793",
      "outDis" : "50",
      "Id" : "4538",
      "oid" : "311272152",
      "districtId" : "1",
      "nameZh" : "臺中高工(復興路)",
      "pgp" : "0",
      "terminal" : "0",
      "latitude" : "24.11726",
      "inDis" : "50",
      "routeId" : "101",
      "seqNo" : "30"
   },
   {
      "GoBack" : "2",
      "longitude" : "120.65963",
      "outDis" : "50",
      "Id" : "0129",
      "oid" : "8172",
      "districtId" : "1",
      "nameZh" : "宜寧中學",
      "pgp" : "0",
      "terminal" : "0",
      "latitude" : "24.11899",
      "inDis" : "50",
      "routeId" : "101",
      "seqNo" : "31"
   },
   {
      "GoBack" : "2",
      "longitude" : "120.66112",
      "outDis" : "50",
      "Id" : "0128",
      "oid" : "8171",
      "districtId" : "1",
      "nameZh" : "和平國小",
      "pgp" : "0",
      "terminal" : "0",
      "latitude" : "24.1211",
      "inDis" : "50",
      "routeId" : "101",
      "seqNo" : "32"
   },
   {
      "GoBack" : "2",
      "longitude" : "120.66332",
      "outDis" : "50",
      "Id" : "3395",
      "oid" : "8170",
      "districtId" : "1",
      "nameZh" : "復興新和街口",
      "pgp" : "0",
      "terminal" : "0",
      "latitude" : "24.12391",
      "inDis" : "50",
      "routeId" : "101",
      "seqNo" : "33"
   },
   {
      "GoBack" : "2",
      "longitude" : "120.66583",
      "outDis" : "50",
      "Id" : "0543",
      "oid" : "8169",
      "districtId" : "1",
      "nameZh" : "四育國中",
      "pgp" : "0",
      "terminal" : "0",
      "latitude" : "24.12705",
      "inDis" : "50",
      "routeId" : "101",
      "seqNo" : "34"
   },
   {
      "GoBack" : "2",
      "longitude" : "120.66837",
      "outDis" : "50",
      "Id" : "5478",
      "oid" : "319311008",
      "districtId" : "1",
      "nameZh" : "高等法院臺中分院",
      "pgp" : "0",
      "terminal" : "0",
      "latitude" : "24.12838",
      "inDis" : "50",
      "routeId" : "101",
      "seqNo" : "35"
   },
   {
      "GoBack" : "2",
      "longitude" : "120.67196",
      "outDis" : "50",
      "Id" : "5393",
      "oid" : "312954998",
      "districtId" : "1",
      "nameZh" : "公共資訊圖書館(復興路)",
      "pgp" : "0",
      "terminal" : "0",
      "latitude" : "24.12985",
      "inDis" : "50",
      "routeId" : "101",
      "seqNo" : "36"
   },
   {
      "GoBack" : "2",
      "longitude" : "120.67442",
      "outDis" : "50",
      "Id" : "0178",
      "oid" : "8167",
      "districtId" : "1",
      "nameZh" : "第三分局",
      "pgp" : "0",
      "terminal" : "0",
      "latitude" : "24.13088",
      "inDis" : "50",
      "routeId" : "101",
      "seqNo" : "37"
   },
   {
      "GoBack" : "2",
      "longitude" : "120.67629",
      "outDis" : "50",
      "Id" : "4604",
      "oid" : "8166",
      "districtId" : "1",
      "nameZh" : "復興有恆街口",
      "pgp" : "0",
      "terminal" : "0",
      "latitude" : "24.13169",
      "inDis" : "50",
      "routeId" : "101",
      "seqNo" : "38"
   },
   {
      "GoBack" : "2",
      "longitude" : "120.67888",
      "outDis" : "50",
      "Id" : "0180",
      "oid" : "8165",
      "districtId" : "1",
      "nameZh" : "林祖厝",
      "pgp" : "0",
      "terminal" : "0",
      "latitude" : "24.13275",
      "inDis" : "50",
      "routeId" : "101",
      "seqNo" : "39"
   },
   {
      "GoBack" : "2",
      "longitude" : "120.67994",
      "outDis" : "50",
      "Id" : "1659",
      "oid" : "8164",
      "districtId" : "1",
      "nameZh" : "文化創意園區",
      "pgp" : "0",
      "terminal" : "0",
      "latitude" : "24.13317",
      "inDis" : "50",
      "routeId" : "101",
      "seqNo" : "40"
   },
   {
      "GoBack" : "2",
      "longitude" : "120.68215",
      "outDis" : "50",
      "Id" : "0518",
      "oid" : "8163",
      "districtId" : "1",
      "nameZh" : "臺中酒廠(復興路)",
      "pgp" : "0",
      "terminal" : "0",
      "latitude" : "24.13408",
      "inDis" : "50",
      "routeId" : "101",
      "seqNo" : "41"
   },
   {
      "GoBack" : "2",
      "longitude" : "120.68458",
      "outDis" : "50",
      "Id" : "0041",
      "oid" : "8162",
      "districtId" : "1",
      "nameZh" : "臺中火車站",
      "pgp" : "0",
      "terminal" : "0",
      "latitude" : "24.13792",
      "inDis" : "50",
      "routeId" : "101",
      "seqNo" : "42"
   },
   {
      "GoBack" : "2",
      "longitude" : "120.68368",
      "outDis" : "50",
      "Id" : "0151",
      "oid" : "8161",
      "districtId" : "1",
      "nameZh" : "第一廣場",
      "pgp" : "0",
      "terminal" : "0",
      "latitude" : "24.13878",
      "inDis" : "50",
      "routeId" : "101",
      "seqNo" : "43"
   },
   {
      "GoBack" : "2",
      "longitude" : "120.68249",
      "outDis" : "50",
      "Id" : "4401",
      "oid" : "BE12F0418885442882BB611328B92C95",
      "districtId" : "1",
      "nameZh" : "彰化銀行(臺灣大道)",
      "pgp" : "0",
      "terminal" : "0",
      "latitude" : "24.14011",
      "inDis" : "50",
      "routeId" : "101",
      "seqNo" : "44"
   },
   {
      "GoBack" : "2",
      "longitude" : "120.68192",
      "outDis" : "50",
      "Id" : "4608",
      "oid" : "118252372",
      "districtId" : "1",
      "nameZh" : "第一信用(中正路)",
      "pgp" : "0",
      "terminal" : "0",
      "latitude" : "24.14043",
      "inDis" : "50",
      "routeId" : "101",
      "seqNo" : "45"
   },
   {
      "GoBack" : "2",
      "longitude" : "120.68006",
      "outDis" : "50",
      "Id" : "4395",
      "oid" : "118252374",
      "districtId" : "1",
      "nameZh" : "第二市場(臺灣大道)",
      "pgp" : "0",
      "terminal" : "0",
      "latitude" : "24.14209",
      "inDis" : "50",
      "routeId" : "101",
      "seqNo" : "46"
   },
   {
      "GoBack" : "2",
      "longitude" : "120.67692",
      "outDis" : "50",
      "Id" : "4375",
      "oid" : "7276",
      "districtId" : "1",
      "nameZh" : "臺灣大道中華路口",
      "pgp" : "0",
      "terminal" : "0",
      "latitude" : "24.14478",
      "inDis" : "50",
      "routeId" : "101",
      "seqNo" : "48"
   },
   {
      "GoBack" : "2",
      "longitude" : "120.67492",
      "outDis" : "50",
      "Id" : "5092",
      "oid" : "118252378",
      "districtId" : "1",
      "nameZh" : "臺灣大道原子街口",
      "pgp" : "0",
      "terminal" : "0",
      "latitude" : "24.14655",
      "inDis" : "50",
      "routeId" : "101",
      "seqNo" : "49"
   },
   {
      "GoBack" : "2",
      "longitude" : "120.67546",
      "outDis" : "50",
      "Id" : "0144",
      "oid" : "8153",
      "districtId" : "1",
      "nameZh" : "中央市場",
      "pgp" : "0",
      "terminal" : "0",
      "latitude" : "24.14957",
      "inDis" : "50",
      "routeId" : "101",
      "seqNo" : "50"
   },
   {
      "GoBack" : "2",
      "longitude" : "120.6774",
      "outDis" : "50",
      "Id" : "0503",
      "oid" : "8152",
      "districtId" : "1",
      "nameZh" : "臺中二中",
      "pgp" : "0",
      "terminal" : "0",
      "latitude" : "24.15234",
      "inDis" : "50",
      "routeId" : "101",
      "seqNo" : "51"
   },
   {
      "GoBack" : "2",
      "longitude" : "120.67725",
      "outDis" : "50",
      "Id" : "0481",
      "oid" : "8151",
      "districtId" : "1",
      "nameZh" : "文莊里",
      "pgp" : "0",
      "terminal" : "0",
      "latitude" : "24.15426",
      "inDis" : "50",
      "routeId" : "101",
      "seqNo" : "52"
   },
   {
      "GoBack" : "2",
      "longitude" : "120.67678",
      "outDis" : "50",
      "Id" : "0092",
      "oid" : "8150",
      "districtId" : "1",
      "nameZh" : "邱厝里",
      "pgp" : "0",
      "terminal" : "0",
      "latitude" : "24.15651",
      "inDis" : "50",
      "routeId" : "101",
      "seqNo" : "53"
   },
   {
      "GoBack" : "2",
      "longitude" : "120.67613",
      "outDis" : "50",
      "Id" : "5732",
      "oid" : "8149",
      "districtId" : "1",
      "nameZh" : "中清健行路口",
      "pgp" : "0",
      "terminal" : "0",
      "latitude" : "24.15846",
      "inDis" : "50",
      "routeId" : "101",
      "seqNo" : "54"
   },
   {
      "GoBack" : "2",
      "longitude" : "120.67529",
      "outDis" : "50",
      "Id" : "5733",
      "oid" : "8148",
      "districtId" : "1",
      "nameZh" : "大道公廟(中清路)",
      "pgp" : "0",
      "terminal" : "0",
      "latitude" : "24.161",
      "inDis" : "50",
      "routeId" : "101",
      "seqNo" : "55"
   },
   {
      "GoBack" : "2",
      "longitude" : "120.67478",
      "outDis" : "50",
      "Id" : "5734",
      "oid" : "8147",
      "districtId" : "1",
      "nameZh" : "中清忠明路口",
      "pgp" : "0",
      "terminal" : "0",
      "latitude" : "24.16244",
      "inDis" : "50",
      "routeId" : "101",
      "seqNo" : "56"
   },
   {
      "GoBack" : "2",
      "longitude" : "120.67437",
      "outDis" : "50",
      "Id" : "5735",
      "oid" : "8146",
      "districtId" : "1",
      "nameZh" : "中清太原路口",
      "pgp" : "0",
      "terminal" : "0",
      "latitude" : "24.16386",
      "inDis" : "50",
      "routeId" : "101",
      "seqNo" : "57"
   },
   {
      "GoBack" : "2",
      "longitude" : "120.67354",
      "outDis" : "50",
      "Id" : "5736",
      "oid" : "8145",
      "districtId" : "1",
      "nameZh" : "中清漢口路口",
      "pgp" : "0",
      "terminal" : "0",
      "latitude" : "24.16644",
      "inDis" : "50",
      "routeId" : "101",
      "seqNo" : "58"
   },
   {
      "GoBack" : "2",
      "longitude" : "120.67314",
      "outDis" : "50",
      "Id" : "5737",
      "oid" : "8144",
      "districtId" : "1",
      "nameZh" : "曉明女中(中清路)",
      "pgp" : "0",
      "terminal" : "0",
      "latitude" : "24.16755",
      "inDis" : "50",
      "routeId" : "101",
      "seqNo" : "59"
   },
   {
      "GoBack" : "2",
      "longitude" : "120.67225",
      "outDis" : "50",
      "Id" : "1629",
      "oid" : "A19B9A6531364F6685DE0857F44C0D1F",
      "districtId" : "1",
      "nameZh" : "天津路商圈",
      "pgp" : "0",
      "terminal" : "0",
      "latitude" : "24.16994",
      "inDis" : "50",
      "routeId" : "101",
      "seqNo" : "60"
   },
   {
      "GoBack" : "2",
      "longitude" : "120.67197",
      "outDis" : "50",
      "Id" : "0805",
      "oid" : "8142",
      "districtId" : "1",
      "nameZh" : "頂賴厝",
      "pgp" : "0",
      "terminal" : "0",
      "latitude" : "24.17184",
      "inDis" : "50",
      "routeId" : "101",
      "seqNo" : "61"
   },
   {
      "GoBack" : "2",
      "longitude" : "120.67119",
      "outDis" : "50",
      "Id" : "0334",
      "oid" : "8141",
      "districtId" : "1",
      "nameZh" : "下水湳",
      "pgp" : "0",
      "terminal" : "0",
      "latitude" : "24.17516",
      "inDis" : "50",
      "routeId" : "101",
      "seqNo" : "62"
   },
   {
      "GoBack" : "2",
      "longitude" : "120.67008",
      "outDis" : "30",
      "Id" : "0486",
      "oid" : "308022314",
      "districtId" : "1",
      "nameZh" : "水湳",
      "pgp" : "0",
      "terminal" : "0",
      "latitude" : "24.17636",
      "inDis" : "30",
      "routeId" : "101",
      "seqNo" : "63"
   },
   {
      "GoBack" : "2",
      "longitude" : "120.66916",
      "outDis" : "50",
      "Id" : "5100",
      "oid" : "8139",
      "districtId" : "1",
      "nameZh" : "水湳市場(中清路)",
      "pgp" : "0",
      "terminal" : "0",
      "latitude" : "24.17756",
      "inDis" : "50",
      "routeId" : "101",
      "seqNo" : "64"
   },
   {
      "GoBack" : "2",
      "longitude" : "120.66781",
      "outDis" : "50",
      "Id" : "0385",
      "oid" : "8138",
      "districtId" : "1",
      "nameZh" : "大德國中",
      "pgp" : "0",
      "terminal" : "0",
      "latitude" : "24.17936",
      "inDis" : "50",
      "routeId" : "101",
      "seqNo" : "65"
   },
   {
      "GoBack" : "2",
      "longitude" : "120.66655",
      "outDis" : "50",
      "Id" : "0593",
      "oid" : "8137",
      "districtId" : "1",
      "nameZh" : "全民醫院",
      "pgp" : "0",
      "terminal" : "0",
      "latitude" : "24.18127",
      "inDis" : "50",
      "routeId" : "101",
      "seqNo" : "66"
   },
   {
      "GoBack" : "2",
      "longitude" : "120.66584",
      "outDis" : "50",
      "Id" : "0789",
      "oid" : "8136",
      "districtId" : "1",
      "nameZh" : "陳平",
      "pgp" : "0",
      "terminal" : "0",
      "latitude" : "24.18275",
      "inDis" : "50",
      "routeId" : "101",
      "seqNo" : "67"
   },
   {
      "GoBack" : "2",
      "longitude" : "120.66496",
      "outDis" : "50",
      "Id" : "0801",
      "oid" : "3679",
      "districtId" : "1",
      "nameZh" : "頂陳平",
      "pgp" : "0",
      "terminal" : "0",
      "latitude" : "24.18437",
      "inDis" : "50",
      "routeId" : "101",
      "seqNo" : "68"
   },
   {
      "GoBack" : "2",
      "longitude" : "120.66685",
      "outDis" : "50",
      "Id" : "5031",
      "oid" : "309520678",
      "districtId" : "1",
      "nameZh" : "敦化公園",
      "pgp" : "0",
      "terminal" : "0",
      "latitude" : "24.18716",
      "inDis" : "50",
      "routeId" : "101",
      "seqNo" : "69"
   },
   {
      "GoBack" : "2",
      "longitude" : "120.66785",
      "outDis" : "50",
      "Id" : "5315",
      "oid" : "311258223",
      "districtId" : "1",
      "nameZh" : "敦化后庄七街口",
      "pgp" : "0",
      "terminal" : "0",
      "latitude" : "24.18764",
      "inDis" : "50",
      "routeId" : "101",
      "seqNo" : "70"
   }
]
