[
   {
      "GoBack" : "1",
      "longitude" : "120.68052",
      "outDis" : "50",
      "Id" : "4690",
      "oid" : "305945916",
      "districtId" : "1",
      "nameZh" : "四張犁圖書館",
      "pgp" : "0",
      "terminal" : "0",
      "latitude" : "24.19575",
      "inDis" : "50",
      "routeId" : "28",
      "seqNo" : "1"
   },
   {
      "GoBack" : "1",
      "longitude" : "120.68236",
      "outDis" : "50",
      "Id" : "0542",
      "oid" : "5572",
      "districtId" : "1",
      "nameZh" : "四民頂街",
      "pgp" : "0",
      "terminal" : "0",
      "latitude" : "24.19454",
      "inDis" : "50",
      "routeId" : "28",
      "seqNo" : "2"
   },
   {
      "GoBack" : "1",
      "longitude" : "120.68207",
      "outDis" : "50",
      "Id" : "0544",
      "oid" : "305945913",
      "districtId" : "1",
      "nameZh" : "四張犁",
      "pgp" : "0",
      "terminal" : "0",
      "latitude" : "24.1925",
      "inDis" : "50",
      "routeId" : "28",
      "seqNo" : "3"
   },
   {
      "GoBack" : "1",
      "longitude" : "120.68258",
      "outDis" : "40",
      "Id" : "0541",
      "oid" : "4AEF6747A90E4A8D967BF66582EB194D",
      "districtId" : "1",
      "nameZh" : "四民市場",
      "pgp" : "0",
      "terminal" : "0",
      "latitude" : "24.19203",
      "inDis" : "40",
      "routeId" : "28",
      "seqNo" : "4"
   },
   {
      "GoBack" : "1",
      "longitude" : "120.68381",
      "outDis" : "50",
      "Id" : "0791",
      "oid" : "31CB8A1044604694A02972E5728230DB",
      "districtId" : "1",
      "nameZh" : "陸光八村",
      "pgp" : "0",
      "terminal" : "0",
      "latitude" : "24.19133",
      "inDis" : "50",
      "routeId" : "28",
      "seqNo" : "5"
   },
   {
      "GoBack" : "1",
      "longitude" : "120.686",
      "outDis" : "50",
      "Id" : "0698",
      "oid" : "1BF6A30D1E3647E78598A619AB8B93F4",
      "districtId" : "1",
      "nameZh" : "南四張犁",
      "pgp" : "0",
      "terminal" : "0",
      "latitude" : "24.18917",
      "inDis" : "50",
      "routeId" : "28",
      "seqNo" : "6"
   },
   {
      "GoBack" : "1",
      "longitude" : "120.68622",
      "outDis" : "50",
      "Id" : "2958",
      "oid" : "DD047587CF8A4CD88A0A329373FBC18B",
      "districtId" : "1",
      "nameZh" : "崇德九路口",
      "pgp" : "0",
      "terminal" : "0",
      "latitude" : "24.18756",
      "inDis" : "50",
      "routeId" : "28",
      "seqNo" : "7"
   },
   {
      "GoBack" : "1",
      "longitude" : "120.68631",
      "outDis" : "50",
      "Id" : "1393",
      "oid" : "AC0A160B90BA45509AE3FB75767B71F8",
      "districtId" : "1",
      "nameZh" : "崇德山西路口",
      "pgp" : "0",
      "terminal" : "0",
      "latitude" : "24.18507",
      "inDis" : "50",
      "routeId" : "28",
      "seqNo" : "8"
   },
   {
      "GoBack" : "1",
      "longitude" : "120.6861",
      "outDis" : "50",
      "Id" : "0194",
      "oid" : "12800",
      "districtId" : "1",
      "nameZh" : "北屯區行政大樓",
      "pgp" : "0",
      "terminal" : "0",
      "latitude" : "24.18266",
      "inDis" : "50",
      "routeId" : "28",
      "seqNo" : "9"
   },
   {
      "GoBack" : "1",
      "longitude" : "120.68511",
      "outDis" : "50",
      "Id" : "4330",
      "oid" : "12801",
      "districtId" : "1",
      "nameZh" : "松竹崇德路口",
      "pgp" : "0",
      "terminal" : "0",
      "latitude" : "24.18162",
      "inDis" : "50",
      "routeId" : "28",
      "seqNo" : "10"
   },
   {
      "GoBack" : "1",
      "longitude" : "120.68145",
      "outDis" : "50",
      "Id" : "4331",
      "oid" : "12802",
      "districtId" : "1",
      "nameZh" : "松竹梅川東路口",
      "pgp" : "0",
      "terminal" : "0",
      "latitude" : "24.182",
      "inDis" : "50",
      "routeId" : "28",
      "seqNo" : "11"
   },
   {
      "GoBack" : "1",
      "longitude" : "120.67681",
      "outDis" : "50",
      "Id" : "4691",
      "oid" : "305945917",
      "districtId" : "1",
      "nameZh" : "四平松竹路口",
      "pgp" : "0",
      "terminal" : "0",
      "latitude" : "24.18556",
      "inDis" : "50",
      "routeId" : "28",
      "seqNo" : "12"
   },
   {
      "GoBack" : "1",
      "longitude" : "120.67566",
      "outDis" : "50",
      "Id" : "4322",
      "oid" : "12803",
      "districtId" : "1",
      "nameZh" : "衛道中學",
      "pgp" : "0",
      "terminal" : "0",
      "latitude" : "24.18346",
      "inDis" : "50",
      "routeId" : "28",
      "seqNo" : "13"
   },
   {
      "GoBack" : "1",
      "longitude" : "120.67369",
      "outDis" : "50",
      "Id" : "1554",
      "oid" : "308190163",
      "districtId" : "1",
      "nameZh" : "仁愛公園",
      "pgp" : "0",
      "terminal" : "0",
      "latitude" : "24.18176",
      "inDis" : "50",
      "routeId" : "28",
      "seqNo" : "14"
   },
   {
      "GoBack" : "1",
      "longitude" : "120.67177",
      "outDis" : "50",
      "Id" : "4323",
      "oid" : "12804",
      "districtId" : "1",
      "nameZh" : "仁愛國小",
      "pgp" : "0",
      "terminal" : "0",
      "latitude" : "24.18003",
      "inDis" : "50",
      "routeId" : "28",
      "seqNo" : "15"
   },
   {
      "GoBack" : "1",
      "longitude" : "120.67028",
      "outDis" : "50",
      "Id" : "4324",
      "oid" : "12805",
      "districtId" : "1",
      "nameZh" : "仁愛社區",
      "pgp" : "0",
      "terminal" : "0",
      "latitude" : "24.17815",
      "inDis" : "50",
      "routeId" : "28",
      "seqNo" : "16"
   },
   {
      "GoBack" : "1",
      "longitude" : "120.66827",
      "outDis" : "50",
      "Id" : "5099",
      "oid" : "12806",
      "districtId" : "1",
      "nameZh" : "水湳市場(大鵬路)",
      "pgp" : "0",
      "terminal" : "0",
      "latitude" : "24.17819",
      "inDis" : "50",
      "routeId" : "28",
      "seqNo" : "17"
   },
   {
      "GoBack" : "1",
      "longitude" : "120.66462",
      "outDis" : "50",
      "Id" : "4325",
      "oid" : "12807",
      "districtId" : "1",
      "nameZh" : "大鵬國小",
      "pgp" : "0",
      "terminal" : "0",
      "latitude" : "24.17735",
      "inDis" : "50",
      "routeId" : "28",
      "seqNo" : "18"
   },
   {
      "GoBack" : "1",
      "longitude" : "120.66383",
      "outDis" : "50",
      "Id" : "4719",
      "oid" : "306613462",
      "districtId" : "1",
      "nameZh" : "中平長安路口",
      "pgp" : "0",
      "terminal" : "0",
      "latitude" : "24.17632",
      "inDis" : "50",
      "routeId" : "28",
      "seqNo" : "19"
   },
   {
      "GoBack" : "1",
      "longitude" : "120.66263",
      "outDis" : "50",
      "Id" : "4326",
      "oid" : "12808",
      "districtId" : "1",
      "nameZh" : "皇城社區",
      "pgp" : "0",
      "terminal" : "0",
      "latitude" : "24.17633",
      "inDis" : "50",
      "routeId" : "28",
      "seqNo" : "20"
   },
   {
      "GoBack" : "1",
      "longitude" : "120.6608",
      "outDis" : "50",
      "Id" : "4332",
      "oid" : "12809",
      "districtId" : "1",
      "nameZh" : "河南長安路口",
      "pgp" : "0",
      "terminal" : "0",
      "latitude" : "24.17262",
      "inDis" : "50",
      "routeId" : "28",
      "seqNo" : "21"
   },
   {
      "GoBack" : "1",
      "longitude" : "120.65978",
      "outDis" : "50",
      "Id" : "4159",
      "oid" : "13017",
      "districtId" : "1",
      "nameZh" : "河南福上巷口",
      "pgp" : "0",
      "terminal" : "0",
      "latitude" : "24.17516",
      "inDis" : "50",
      "routeId" : "28",
      "seqNo" : "22"
   },
   {
      "GoBack" : "1",
      "longitude" : "120.65574",
      "outDis" : "50",
      "Id" : "0233",
      "oid" : "12810",
      "districtId" : "1",
      "nameZh" : "家扶發展學園",
      "pgp" : "0",
      "terminal" : "0",
      "latitude" : "24.17624",
      "inDis" : "50",
      "routeId" : "28",
      "seqNo" : "23"
   },
   {
      "GoBack" : "1",
      "longitude" : "120.6509",
      "outDis" : "50",
      "Id" : "0234",
      "oid" : "12811",
      "districtId" : "1",
      "nameZh" : "河南停車場",
      "pgp" : "0",
      "terminal" : "0",
      "latitude" : "24.17588",
      "inDis" : "50",
      "routeId" : "28",
      "seqNo" : "24"
   },
   {
      "GoBack" : "1",
      "longitude" : "120.64842",
      "outDis" : "50",
      "Id" : "4333",
      "oid" : "12812",
      "districtId" : "1",
      "nameZh" : "河南福星路口",
      "pgp" : "0",
      "terminal" : "0",
      "latitude" : "24.1744",
      "inDis" : "50",
      "routeId" : "28",
      "seqNo" : "25"
   },
   {
      "GoBack" : "1",
      "longitude" : "120.64544",
      "outDis" : "50",
      "Id" : "0112",
      "oid" : "12813",
      "districtId" : "1",
      "nameZh" : "福星停車場",
      "pgp" : "0",
      "terminal" : "0",
      "latitude" : "24.17608",
      "inDis" : "50",
      "routeId" : "28",
      "seqNo" : "26"
   },
   {
      "GoBack" : "1",
      "longitude" : "120.64506",
      "outDis" : "50",
      "Id" : "4586",
      "oid" : "12814",
      "districtId" : "1",
      "nameZh" : "逢甲大學(福星路)",
      "pgp" : "0",
      "terminal" : "0",
      "latitude" : "24.17904",
      "inDis" : "50",
      "routeId" : "28",
      "seqNo" : "27"
   },
   {
      "GoBack" : "1",
      "longitude" : "120.64503",
      "outDis" : "50",
      "Id" : "4334",
      "oid" : "12815",
      "districtId" : "1",
      "nameZh" : "福星西安街口",
      "pgp" : "0",
      "terminal" : "0",
      "latitude" : "24.1815",
      "inDis" : "50",
      "routeId" : "28",
      "seqNo" : "28"
   },
   {
      "GoBack" : "1",
      "longitude" : "120.64456",
      "outDis" : "50",
      "Id" : "5658",
      "oid" : "12816",
      "districtId" : "1",
      "nameZh" : "漢翔公司(星享道)",
      "pgp" : "0",
      "terminal" : "0",
      "latitude" : "24.18508",
      "inDis" : "50",
      "routeId" : "28",
      "seqNo" : "29"
   },
   {
      "GoBack" : "1",
      "longitude" : "120.64451",
      "outDis" : "50",
      "Id" : "4327",
      "oid" : "12817",
      "districtId" : "1",
      "nameZh" : "僑光科技大學",
      "pgp" : "0",
      "terminal" : "0",
      "latitude" : "24.18662",
      "inDis" : "50",
      "routeId" : "28",
      "seqNo" : "30"
   },
   {
      "GoBack" : "1",
      "longitude" : "120.64035",
      "outDis" : "50",
      "Id" : "2192",
      "oid" : "12818",
      "districtId" : "1",
      "nameZh" : "西苑高中",
      "pgp" : "0",
      "terminal" : "0",
      "latitude" : "24.18632",
      "inDis" : "50",
      "routeId" : "28",
      "seqNo" : "31"
   },
   {
      "GoBack" : "1",
      "longitude" : "120.63813",
      "outDis" : "50",
      "Id" : "2175",
      "oid" : "12819",
      "districtId" : "1",
      "nameZh" : "西屯派出所",
      "pgp" : "0",
      "terminal" : "0",
      "latitude" : "24.18118",
      "inDis" : "50",
      "routeId" : "28",
      "seqNo" : "32"
   },
   {
      "GoBack" : "1",
      "longitude" : "120.63747",
      "outDis" : "50",
      "Id" : "0238",
      "oid" : "12820",
      "districtId" : "1",
      "nameZh" : "西屯郵局",
      "pgp" : "0",
      "terminal" : "0",
      "latitude" : "24.17667",
      "inDis" : "50",
      "routeId" : "28",
      "seqNo" : "33"
   },
   {
      "GoBack" : "1",
      "longitude" : "120.63692",
      "outDis" : "50",
      "Id" : "0013",
      "oid" : "312005270",
      "districtId" : "1",
      "nameZh" : "朝馬(黎明路)",
      "pgp" : "0",
      "terminal" : "0",
      "latitude" : "24.17183",
      "inDis" : "50",
      "routeId" : "28",
      "seqNo" : "34"
   },
   {
      "GoBack" : "1",
      "longitude" : "120.62485",
      "outDis" : "50",
      "Id" : "5149",
      "oid" : "12822",
      "districtId" : "1",
      "nameZh" : "福安里(臺灣大道)",
      "pgp" : "0",
      "terminal" : "0",
      "latitude" : "24.17849",
      "inDis" : "50",
      "routeId" : "28",
      "seqNo" : "35"
   },
   {
      "GoBack" : "1",
      "longitude" : "120.62124",
      "outDis" : "50",
      "Id" : "3060",
      "oid" : "301587986",
      "districtId" : "1",
      "nameZh" : "統聯轉運站",
      "pgp" : "0",
      "terminal" : "0",
      "latitude" : "24.18017",
      "inDis" : "50",
      "routeId" : "28",
      "seqNo" : "36"
   },
   {
      "GoBack" : "1",
      "longitude" : "120.61946",
      "outDis" : "50",
      "Id" : "0008",
      "oid" : "12823",
      "districtId" : "1",
      "nameZh" : "中港新城",
      "pgp" : "0",
      "terminal" : "0",
      "latitude" : "24.18099",
      "inDis" : "50",
      "routeId" : "28",
      "seqNo" : "37"
   },
   {
      "GoBack" : "1",
      "longitude" : "120.61581",
      "outDis" : "50",
      "Id" : "0430",
      "oid" : "12824",
      "districtId" : "1",
      "nameZh" : "中港澄清醫院",
      "pgp" : "0",
      "terminal" : "0",
      "latitude" : "24.18277",
      "inDis" : "50",
      "routeId" : "28",
      "seqNo" : "38"
   },
   {
      "GoBack" : "1",
      "longitude" : "120.61239",
      "outDis" : "50",
      "Id" : "0006",
      "oid" : "12825",
      "districtId" : "1",
      "nameZh" : "臺中捐血中心",
      "pgp" : "0",
      "terminal" : "0",
      "latitude" : "24.18435",
      "inDis" : "50",
      "routeId" : "28",
      "seqNo" : "39"
   },
   {
      "GoBack" : "1",
      "longitude" : "120.61001",
      "outDis" : "50",
      "Id" : "4335",
      "oid" : "12826",
      "districtId" : "1",
      "nameZh" : "臺灣大道玉門路口",
      "pgp" : "0",
      "terminal" : "0",
      "latitude" : "24.18436",
      "inDis" : "50",
      "routeId" : "28",
      "seqNo" : "40"
   },
   {
      "GoBack" : "1",
      "longitude" : "120.60796",
      "outDis" : "50",
      "Id" : "0004",
      "oid" : "12827",
      "districtId" : "1",
      "nameZh" : "普濟寺",
      "pgp" : "0",
      "terminal" : "0",
      "latitude" : "24.18397",
      "inDis" : "50",
      "routeId" : "28",
      "seqNo" : "41"
   },
   {
      "GoBack" : "1",
      "longitude" : "120.60643",
      "outDis" : "50",
      "Id" : "2378",
      "oid" : "12828",
      "districtId" : "1",
      "nameZh" : "東大附中",
      "pgp" : "0",
      "terminal" : "0",
      "latitude" : "24.18351",
      "inDis" : "50",
      "routeId" : "28",
      "seqNo" : "42"
   },
   {
      "GoBack" : "1",
      "longitude" : "120.60491",
      "outDis" : "50",
      "Id" : "5386",
      "oid" : "313588801",
      "districtId" : "1",
      "nameZh" : "臺中榮總(臺灣大道)",
      "pgp" : "0",
      "terminal" : "0",
      "latitude" : "24.18349",
      "inDis" : "50",
      "routeId" : "28",
      "seqNo" : "43"
   },
   {
      "GoBack" : "1",
      "longitude" : "120.59873",
      "outDis" : "50",
      "Id" : "0526",
      "oid" : "12830",
      "districtId" : "1",
      "nameZh" : "台中精機",
      "pgp" : "0",
      "terminal" : "0",
      "latitude" : "24.1819",
      "inDis" : "50",
      "routeId" : "28",
      "seqNo" : "44"
   },
   {
      "GoBack" : "1",
      "longitude" : "120.59424",
      "outDis" : "50",
      "Id" : "0240",
      "oid" : "12831",
      "districtId" : "1",
      "nameZh" : "東海別墅",
      "pgp" : "0",
      "terminal" : "0",
      "latitude" : "24.18244",
      "inDis" : "50",
      "routeId" : "28",
      "seqNo" : "45"
   },
   {
      "GoBack" : "1",
      "longitude" : "120.59125",
      "outDis" : "50",
      "Id" : "4383",
      "oid" : "13471",
      "districtId" : "1",
      "nameZh" : "臺糖公營學苑",
      "pgp" : "0",
      "terminal" : "0",
      "latitude" : "24.18367",
      "inDis" : "50",
      "routeId" : "28",
      "seqNo" : "46"
   },
   {
      "GoBack" : "1",
      "longitude" : "120.58788",
      "outDis" : "50",
      "Id" : "5304",
      "oid" : "311234408",
      "districtId" : "1",
      "nameZh" : "東海街口",
      "pgp" : "0",
      "terminal" : "0",
      "latitude" : "24.1853",
      "inDis" : "50",
      "routeId" : "28",
      "seqNo" : "47"
   },
   {
      "GoBack" : "1",
      "longitude" : "120.58603",
      "outDis" : "50",
      "Id" : "2325",
      "oid" : "7104",
      "districtId" : "1",
      "nameZh" : "坪頂",
      "pgp" : "0",
      "terminal" : "0",
      "latitude" : "24.186",
      "inDis" : "50",
      "routeId" : "28",
      "seqNo" : "48"
   },
   {
      "GoBack" : "2",
      "longitude" : "120.58603",
      "outDis" : "50",
      "Id" : "2325",
      "oid" : "7104",
      "districtId" : "1",
      "nameZh" : "坪頂",
      "pgp" : "0",
      "terminal" : "0",
      "latitude" : "24.186",
      "inDis" : "50",
      "routeId" : "28",
      "seqNo" : "1"
   },
   {
      "GoBack" : "2",
      "longitude" : "120.58788",
      "outDis" : "50",
      "Id" : "5304",
      "oid" : "311234408",
      "districtId" : "1",
      "nameZh" : "東海街口",
      "pgp" : "0",
      "terminal" : "0",
      "latitude" : "24.1853",
      "inDis" : "50",
      "routeId" : "28",
      "seqNo" : "2"
   },
   {
      "GoBack" : "2",
      "longitude" : "120.59125",
      "outDis" : "50",
      "Id" : "4383",
      "oid" : "13471",
      "districtId" : "1",
      "nameZh" : "臺糖公營學苑",
      "pgp" : "0",
      "terminal" : "0",
      "latitude" : "24.18367",
      "inDis" : "50",
      "routeId" : "28",
      "seqNo" : "3"
   },
   {
      "GoBack" : "2",
      "longitude" : "120.59424",
      "outDis" : "50",
      "Id" : "0240",
      "oid" : "12831",
      "districtId" : "1",
      "nameZh" : "東海別墅",
      "pgp" : "0",
      "terminal" : "0",
      "latitude" : "24.18244",
      "inDis" : "50",
      "routeId" : "28",
      "seqNo" : "4"
   },
   {
      "GoBack" : "2",
      "longitude" : "120.59873",
      "outDis" : "50",
      "Id" : "0526",
      "oid" : "12830",
      "districtId" : "1",
      "nameZh" : "台中精機",
      "pgp" : "0",
      "terminal" : "0",
      "latitude" : "24.1819",
      "inDis" : "50",
      "routeId" : "28",
      "seqNo" : "5"
   },
   {
      "GoBack" : "2",
      "longitude" : "120.60491",
      "outDis" : "50",
      "Id" : "5386",
      "oid" : "12829",
      "districtId" : "1",
      "nameZh" : "臺中榮總(臺灣大道)",
      "pgp" : "0",
      "terminal" : "0",
      "latitude" : "24.18349",
      "inDis" : "50",
      "routeId" : "28",
      "seqNo" : "6"
   },
   {
      "GoBack" : "2",
      "longitude" : "120.60643",
      "outDis" : "50",
      "Id" : "2378",
      "oid" : "12828",
      "districtId" : "1",
      "nameZh" : "東大附中",
      "pgp" : "0",
      "terminal" : "0",
      "latitude" : "24.18351",
      "inDis" : "50",
      "routeId" : "28",
      "seqNo" : "7"
   },
   {
      "GoBack" : "2",
      "longitude" : "120.60796",
      "outDis" : "50",
      "Id" : "0004",
      "oid" : "12827",
      "districtId" : "1",
      "nameZh" : "普濟寺",
      "pgp" : "0",
      "terminal" : "0",
      "latitude" : "24.18397",
      "inDis" : "50",
      "routeId" : "28",
      "seqNo" : "8"
   },
   {
      "GoBack" : "2",
      "longitude" : "120.61001",
      "outDis" : "50",
      "Id" : "4335",
      "oid" : "12826",
      "districtId" : "1",
      "nameZh" : "臺灣大道玉門路口",
      "pgp" : "0",
      "terminal" : "0",
      "latitude" : "24.18436",
      "inDis" : "50",
      "routeId" : "28",
      "seqNo" : "9"
   },
   {
      "GoBack" : "2",
      "longitude" : "120.61239",
      "outDis" : "50",
      "Id" : "0006",
      "oid" : "12825",
      "districtId" : "1",
      "nameZh" : "臺中捐血中心",
      "pgp" : "0",
      "terminal" : "0",
      "latitude" : "24.18435",
      "inDis" : "50",
      "routeId" : "28",
      "seqNo" : "10"
   },
   {
      "GoBack" : "2",
      "longitude" : "120.61581",
      "outDis" : "50",
      "Id" : "0430",
      "oid" : "12824",
      "districtId" : "1",
      "nameZh" : "中港澄清醫院",
      "pgp" : "0",
      "terminal" : "0",
      "latitude" : "24.18277",
      "inDis" : "50",
      "routeId" : "28",
      "seqNo" : "11"
   },
   {
      "GoBack" : "2",
      "longitude" : "120.62374",
      "outDis" : "50",
      "Id" : "5149",
      "oid" : "319908747",
      "districtId" : "1",
      "nameZh" : "福安里(臺灣大道)",
      "pgp" : "0",
      "terminal" : "0",
      "latitude" : "24.1787",
      "inDis" : "50",
      "routeId" : "28",
      "seqNo" : "12"
   },
   {
      "GoBack" : "2",
      "longitude" : "120.62107",
      "outDis" : "50",
      "Id" : "3060",
      "oid" : "301587988",
      "districtId" : "1",
      "nameZh" : "統聯轉運站",
      "pgp" : "0",
      "terminal" : "0",
      "latitude" : "24.18008",
      "inDis" : "50",
      "routeId" : "28",
      "seqNo" : "13"
   },
   {
      "GoBack" : "2",
      "longitude" : "120.6183",
      "outDis" : "50",
      "Id" : "0008",
      "oid" : "320062561",
      "districtId" : "1",
      "nameZh" : "中港新城",
      "pgp" : "0",
      "terminal" : "0",
      "latitude" : "24.18145",
      "inDis" : "50",
      "routeId" : "28",
      "seqNo" : "14"
   },
   {
      "GoBack" : "2",
      "longitude" : "120.63692",
      "outDis" : "50",
      "Id" : "0013",
      "oid" : "312005270",
      "districtId" : "1",
      "nameZh" : "朝馬(黎明路)",
      "pgp" : "0",
      "terminal" : "0",
      "latitude" : "24.17183",
      "inDis" : "50",
      "routeId" : "28",
      "seqNo" : "16"
   },
   {
      "GoBack" : "2",
      "longitude" : "120.63747",
      "outDis" : "50",
      "Id" : "0238",
      "oid" : "12820",
      "districtId" : "1",
      "nameZh" : "西屯郵局",
      "pgp" : "0",
      "terminal" : "0",
      "latitude" : "24.17667",
      "inDis" : "50",
      "routeId" : "28",
      "seqNo" : "17"
   },
   {
      "GoBack" : "2",
      "longitude" : "120.63813",
      "outDis" : "50",
      "Id" : "2175",
      "oid" : "12819",
      "districtId" : "1",
      "nameZh" : "西屯派出所",
      "pgp" : "0",
      "terminal" : "0",
      "latitude" : "24.18118",
      "inDis" : "50",
      "routeId" : "28",
      "seqNo" : "18"
   },
   {
      "GoBack" : "2",
      "longitude" : "120.64035",
      "outDis" : "50",
      "Id" : "2192",
      "oid" : "12818",
      "districtId" : "1",
      "nameZh" : "西苑高中",
      "pgp" : "0",
      "terminal" : "0",
      "latitude" : "24.18632",
      "inDis" : "50",
      "routeId" : "28",
      "seqNo" : "19"
   },
   {
      "GoBack" : "2",
      "longitude" : "120.64451",
      "outDis" : "50",
      "Id" : "4327",
      "oid" : "12817",
      "districtId" : "1",
      "nameZh" : "僑光科技大學",
      "pgp" : "0",
      "terminal" : "0",
      "latitude" : "24.18662",
      "inDis" : "50",
      "routeId" : "28",
      "seqNo" : "20"
   },
   {
      "GoBack" : "2",
      "longitude" : "120.64456",
      "outDis" : "50",
      "Id" : "5658",
      "oid" : "12816",
      "districtId" : "1",
      "nameZh" : "漢翔公司(星享道)",
      "pgp" : "0",
      "terminal" : "0",
      "latitude" : "24.18508",
      "inDis" : "50",
      "routeId" : "28",
      "seqNo" : "21"
   },
   {
      "GoBack" : "2",
      "longitude" : "120.64503",
      "outDis" : "50",
      "Id" : "4334",
      "oid" : "12815",
      "districtId" : "1",
      "nameZh" : "福星西安街口",
      "pgp" : "0",
      "terminal" : "0",
      "latitude" : "24.1815",
      "inDis" : "50",
      "routeId" : "28",
      "seqNo" : "22"
   },
   {
      "GoBack" : "2",
      "longitude" : "120.64506",
      "outDis" : "50",
      "Id" : "4586",
      "oid" : "12814",
      "districtId" : "1",
      "nameZh" : "逢甲大學(福星路)",
      "pgp" : "0",
      "terminal" : "0",
      "latitude" : "24.17904",
      "inDis" : "50",
      "routeId" : "28",
      "seqNo" : "23"
   },
   {
      "GoBack" : "2",
      "longitude" : "120.64544",
      "outDis" : "50",
      "Id" : "0112",
      "oid" : "12813",
      "districtId" : "1",
      "nameZh" : "福星停車場",
      "pgp" : "0",
      "terminal" : "0",
      "latitude" : "24.17608",
      "inDis" : "50",
      "routeId" : "28",
      "seqNo" : "24"
   },
   {
      "GoBack" : "2",
      "longitude" : "120.64842",
      "outDis" : "50",
      "Id" : "4333",
      "oid" : "12812",
      "districtId" : "1",
      "nameZh" : "河南福星路口",
      "pgp" : "0",
      "terminal" : "0",
      "latitude" : "24.1744",
      "inDis" : "50",
      "routeId" : "28",
      "seqNo" : "25"
   },
   {
      "GoBack" : "2",
      "longitude" : "120.6509",
      "outDis" : "50",
      "Id" : "0234",
      "oid" : "12811",
      "districtId" : "1",
      "nameZh" : "河南停車場",
      "pgp" : "0",
      "terminal" : "0",
      "latitude" : "24.17588",
      "inDis" : "50",
      "routeId" : "28",
      "seqNo" : "26"
   },
   {
      "GoBack" : "2",
      "longitude" : "120.65574",
      "outDis" : "50",
      "Id" : "0233",
      "oid" : "12810",
      "districtId" : "1",
      "nameZh" : "家扶發展學園",
      "pgp" : "0",
      "terminal" : "0",
      "latitude" : "24.17624",
      "inDis" : "50",
      "routeId" : "28",
      "seqNo" : "27"
   },
   {
      "GoBack" : "2",
      "longitude" : "120.65978",
      "outDis" : "50",
      "Id" : "4159",
      "oid" : "13017",
      "districtId" : "1",
      "nameZh" : "河南福上巷口",
      "pgp" : "0",
      "terminal" : "0",
      "latitude" : "24.17516",
      "inDis" : "50",
      "routeId" : "28",
      "seqNo" : "28"
   },
   {
      "GoBack" : "2",
      "longitude" : "120.6608",
      "outDis" : "50",
      "Id" : "4332",
      "oid" : "12809",
      "districtId" : "1",
      "nameZh" : "河南長安路口",
      "pgp" : "0",
      "terminal" : "0",
      "latitude" : "24.17262",
      "inDis" : "50",
      "routeId" : "28",
      "seqNo" : "29"
   },
   {
      "GoBack" : "2",
      "longitude" : "120.66263",
      "outDis" : "50",
      "Id" : "4326",
      "oid" : "12808",
      "districtId" : "1",
      "nameZh" : "皇城社區",
      "pgp" : "0",
      "terminal" : "0",
      "latitude" : "24.17633",
      "inDis" : "50",
      "routeId" : "28",
      "seqNo" : "30"
   },
   {
      "GoBack" : "2",
      "longitude" : "120.66306",
      "outDis" : "50",
      "Id" : "4719",
      "oid" : "306613464",
      "districtId" : "1",
      "nameZh" : "中平長安路口",
      "pgp" : "0",
      "terminal" : "0",
      "latitude" : "24.1762",
      "inDis" : "50",
      "routeId" : "28",
      "seqNo" : "31"
   },
   {
      "GoBack" : "2",
      "longitude" : "120.66462",
      "outDis" : "50",
      "Id" : "4325",
      "oid" : "12807",
      "districtId" : "1",
      "nameZh" : "大鵬國小",
      "pgp" : "0",
      "terminal" : "0",
      "latitude" : "24.17735",
      "inDis" : "50",
      "routeId" : "28",
      "seqNo" : "32"
   },
   {
      "GoBack" : "2",
      "longitude" : "120.66827",
      "outDis" : "50",
      "Id" : "5099",
      "oid" : "12806",
      "districtId" : "1",
      "nameZh" : "水湳市場(大鵬路)",
      "pgp" : "0",
      "terminal" : "0",
      "latitude" : "24.17819",
      "inDis" : "50",
      "routeId" : "28",
      "seqNo" : "33"
   },
   {
      "GoBack" : "2",
      "longitude" : "120.67028",
      "outDis" : "50",
      "Id" : "4324",
      "oid" : "12805",
      "districtId" : "1",
      "nameZh" : "仁愛社區",
      "pgp" : "0",
      "terminal" : "0",
      "latitude" : "24.17815",
      "inDis" : "50",
      "routeId" : "28",
      "seqNo" : "34"
   },
   {
      "GoBack" : "2",
      "longitude" : "120.67177",
      "outDis" : "50",
      "Id" : "4323",
      "oid" : "12804",
      "districtId" : "1",
      "nameZh" : "仁愛國小",
      "pgp" : "0",
      "terminal" : "0",
      "latitude" : "24.18003",
      "inDis" : "50",
      "routeId" : "28",
      "seqNo" : "35"
   },
   {
      "GoBack" : "2",
      "longitude" : "120.67369",
      "outDis" : "50",
      "Id" : "1554",
      "oid" : "308190214",
      "districtId" : "1",
      "nameZh" : "仁愛公園",
      "pgp" : "0",
      "terminal" : "0",
      "latitude" : "24.18176",
      "inDis" : "50",
      "routeId" : "28",
      "seqNo" : "36"
   },
   {
      "GoBack" : "2",
      "longitude" : "120.67566",
      "outDis" : "50",
      "Id" : "4322",
      "oid" : "12803",
      "districtId" : "1",
      "nameZh" : "衛道中學",
      "pgp" : "0",
      "terminal" : "0",
      "latitude" : "24.18346",
      "inDis" : "50",
      "routeId" : "28",
      "seqNo" : "37"
   },
   {
      "GoBack" : "2",
      "longitude" : "120.67691",
      "outDis" : "50",
      "Id" : "4691",
      "oid" : "305945918",
      "districtId" : "1",
      "nameZh" : "四平松竹路口",
      "pgp" : "0",
      "terminal" : "0",
      "latitude" : "24.18552",
      "inDis" : "50",
      "routeId" : "28",
      "seqNo" : "38"
   },
   {
      "GoBack" : "2",
      "longitude" : "120.68145",
      "outDis" : "50",
      "Id" : "4331",
      "oid" : "12802",
      "districtId" : "1",
      "nameZh" : "松竹梅川東路口",
      "pgp" : "0",
      "terminal" : "0",
      "latitude" : "24.182",
      "inDis" : "50",
      "routeId" : "28",
      "seqNo" : "39"
   },
   {
      "GoBack" : "2",
      "longitude" : "120.6861",
      "outDis" : "50",
      "Id" : "0194",
      "oid" : "12800",
      "districtId" : "1",
      "nameZh" : "北屯區行政大樓",
      "pgp" : "0",
      "terminal" : "0",
      "latitude" : "24.18266",
      "inDis" : "50",
      "routeId" : "28",
      "seqNo" : "40"
   },
   {
      "GoBack" : "2",
      "longitude" : "120.68613",
      "outDis" : "50",
      "Id" : "1393",
      "oid" : "3766644E997346DD936E532BA54998D4",
      "districtId" : "1",
      "nameZh" : "崇德山西路口",
      "pgp" : "0",
      "terminal" : "0",
      "latitude" : "24.1848",
      "inDis" : "50",
      "routeId" : "28",
      "seqNo" : "41"
   },
   {
      "GoBack" : "2",
      "longitude" : "120.6859",
      "outDis" : "50",
      "Id" : "0698",
      "oid" : "73394A819DAA41BA8454B6FDEF746769",
      "districtId" : "1",
      "nameZh" : "南四張犁",
      "pgp" : "0",
      "terminal" : "0",
      "latitude" : "24.18925",
      "inDis" : "50",
      "routeId" : "28",
      "seqNo" : "42"
   },
   {
      "GoBack" : "2",
      "longitude" : "120.68381",
      "outDis" : "50",
      "Id" : "0791",
      "oid" : "31CB8A1044604694A02972E5728230DB",
      "districtId" : "1",
      "nameZh" : "陸光八村",
      "pgp" : "0",
      "terminal" : "0",
      "latitude" : "24.19133",
      "inDis" : "50",
      "routeId" : "28",
      "seqNo" : "43"
   },
   {
      "GoBack" : "2",
      "longitude" : "120.68255",
      "outDis" : "40",
      "Id" : "0541",
      "oid" : "DF5AF097012640B0AEA0F42465831AC9",
      "districtId" : "1",
      "nameZh" : "四民市場",
      "pgp" : "0",
      "terminal" : "0",
      "latitude" : "24.19198",
      "inDis" : "40",
      "routeId" : "28",
      "seqNo" : "44"
   },
   {
      "GoBack" : "2",
      "longitude" : "120.68207",
      "outDis" : "50",
      "Id" : "0544",
      "oid" : "305945913",
      "districtId" : "1",
      "nameZh" : "四張犁",
      "pgp" : "0",
      "terminal" : "0",
      "latitude" : "24.1925",
      "inDis" : "50",
      "routeId" : "28",
      "seqNo" : "45"
   },
   {
      "GoBack" : "2",
      "longitude" : "120.68181",
      "outDis" : "50",
      "Id" : "4917",
      "oid" : "305945914",
      "districtId" : "1",
      "nameZh" : "四張犁農村公園",
      "pgp" : "0",
      "terminal" : "0",
      "latitude" : "24.19421",
      "inDis" : "50",
      "routeId" : "28",
      "seqNo" : "46"
   },
   {
      "GoBack" : "2",
      "longitude" : "120.68052",
      "outDis" : "50",
      "Id" : "4690",
      "oid" : "305945916",
      "districtId" : "1",
      "nameZh" : "四張犁圖書館",
      "pgp" : "0",
      "terminal" : "0",
      "latitude" : "24.19575",
      "inDis" : "50",
      "routeId" : "28",
      "seqNo" : "47"
   }
]
