[
   {
      "GoBack" : "1",
      "longitude" : "120.72188",
      "outDis" : "50",
      "Id" : "3935",
      "oid" : "312988580",
      "districtId" : "1",
      "nameZh" : "豐原",
      "pgp" : "0",
      "terminal" : "0",
      "latitude" : "24.25388",
      "inDis" : "50",
      "routeId" : "92",
      "seqNo" : "1"
   },
   {
      "GoBack" : "1",
      "longitude" : "120.72251",
      "outDis" : "50",
      "Id" : "4931",
      "oid" : "312989630",
      "districtId" : "1",
      "nameZh" : "豐原火車站",
      "pgp" : "0",
      "terminal" : "0",
      "latitude" : "24.25535",
      "inDis" : "50",
      "routeId" : "92",
      "seqNo" : "2"
   },
   {
      "GoBack" : "1",
      "longitude" : "120.72158",
      "outDis" : "50",
      "Id" : "5632",
      "oid" : "D879241FDACA4623BB99AF053F6889DA",
      "districtId" : "1",
      "nameZh" : "豐中大順街口",
      "pgp" : "0",
      "terminal" : "0",
      "latitude" : "24.25766",
      "inDis" : "50",
      "routeId" : "92",
      "seqNo" : "3"
   },
   {
      "GoBack" : "1",
      "longitude" : "120.71983",
      "outDis" : "50",
      "Id" : "4503",
      "oid" : "13730",
      "districtId" : "1",
      "nameZh" : "豐原國中",
      "pgp" : "0",
      "terminal" : "0",
      "latitude" : "24.26123",
      "inDis" : "50",
      "routeId" : "92",
      "seqNo" : "4"
   },
   {
      "GoBack" : "1",
      "longitude" : "120.72039",
      "outDis" : "50",
      "Id" : "3356",
      "oid" : "13731",
      "districtId" : "1",
      "nameZh" : "慈興宮",
      "pgp" : "0",
      "terminal" : "0",
      "latitude" : "24.26524",
      "inDis" : "50",
      "routeId" : "92",
      "seqNo" : "5"
   },
   {
      "GoBack" : "1",
      "longitude" : "120.72113",
      "outDis" : "50",
      "Id" : "3541",
      "oid" : "13732",
      "districtId" : "1",
      "nameZh" : "道班前",
      "pgp" : "0",
      "terminal" : "0",
      "latitude" : "24.26954",
      "inDis" : "50",
      "routeId" : "92",
      "seqNo" : "6"
   },
   {
      "GoBack" : "1",
      "longitude" : "120.7218",
      "outDis" : "50",
      "Id" : "3527",
      "oid" : "13733",
      "districtId" : "1",
      "nameZh" : "農會事業場",
      "pgp" : "0",
      "terminal" : "0",
      "latitude" : "24.27191",
      "inDis" : "50",
      "routeId" : "92",
      "seqNo" : "7"
   },
   {
      "GoBack" : "1",
      "longitude" : "120.72211",
      "outDis" : "50",
      "Id" : "3470",
      "oid" : "13734",
      "districtId" : "1",
      "nameZh" : "溪底",
      "pgp" : "0",
      "terminal" : "0",
      "latitude" : "24.27567",
      "inDis" : "50",
      "routeId" : "92",
      "seqNo" : "8"
   },
   {
      "GoBack" : "1",
      "longitude" : "120.72285",
      "outDis" : "50",
      "Id" : "1911",
      "oid" : "13735",
      "districtId" : "1",
      "nameZh" : "正隆紙廠",
      "pgp" : "0",
      "terminal" : "0",
      "latitude" : "24.28434",
      "inDis" : "50",
      "routeId" : "92",
      "seqNo" : "9"
   },
   {
      "GoBack" : "1",
      "longitude" : "120.72322",
      "outDis" : "50",
      "Id" : "2374",
      "oid" : "13736",
      "districtId" : "1",
      "nameZh" : "枋寮",
      "pgp" : "0",
      "terminal" : "0",
      "latitude" : "24.28785",
      "inDis" : "50",
      "routeId" : "92",
      "seqNo" : "10"
   },
   {
      "GoBack" : "1",
      "longitude" : "120.72373",
      "outDis" : "50",
      "Id" : "0987",
      "oid" : "13737",
      "districtId" : "1",
      "nameZh" : "七星農場",
      "pgp" : "0",
      "terminal" : "0",
      "latitude" : "24.2933",
      "inDis" : "50",
      "routeId" : "92",
      "seqNo" : "11"
   },
   {
      "GoBack" : "1",
      "longitude" : "120.72363",
      "outDis" : "50",
      "Id" : "2898",
      "oid" : "13738",
      "districtId" : "1",
      "nameZh" : "馬場入口",
      "pgp" : "0",
      "terminal" : "0",
      "latitude" : "24.29812",
      "inDis" : "50",
      "routeId" : "92",
      "seqNo" : "12"
   },
   {
      "GoBack" : "1",
      "longitude" : "120.7233",
      "outDis" : "50",
      "Id" : "1737",
      "oid" : "13739",
      "districtId" : "1",
      "nameZh" : "牛稠坑",
      "pgp" : "0",
      "terminal" : "0",
      "latitude" : "24.29968",
      "inDis" : "50",
      "routeId" : "92",
      "seqNo" : "13"
   },
   {
      "GoBack" : "1",
      "longitude" : "120.72242",
      "outDis" : "50",
      "Id" : "2592",
      "oid" : "13740",
      "districtId" : "1",
      "nameZh" : "南后里",
      "pgp" : "0",
      "terminal" : "0",
      "latitude" : "24.30335",
      "inDis" : "50",
      "routeId" : "92",
      "seqNo" : "14"
   },
   {
      "GoBack" : "1",
      "longitude" : "120.72203",
      "outDis" : "50",
      "Id" : "2991",
      "oid" : "13741",
      "districtId" : "1",
      "nameZh" : "啟明學校",
      "pgp" : "0",
      "terminal" : "0",
      "latitude" : "24.30511",
      "inDis" : "50",
      "routeId" : "92",
      "seqNo" : "15"
   },
   {
      "GoBack" : "1",
      "longitude" : "120.72164",
      "outDis" : "50",
      "Id" : "1169",
      "oid" : "13742",
      "districtId" : "1",
      "nameZh" : "下后里",
      "pgp" : "0",
      "terminal" : "0",
      "latitude" : "24.30903",
      "inDis" : "50",
      "routeId" : "92",
      "seqNo" : "16"
   },
   {
      "GoBack" : "1",
      "longitude" : "120.71765",
      "outDis" : "50",
      "Id" : "2651",
      "oid" : "13743",
      "districtId" : "1",
      "nameZh" : "后里電信局",
      "pgp" : "0",
      "terminal" : "0",
      "latitude" : "24.30969",
      "inDis" : "50",
      "routeId" : "92",
      "seqNo" : "17"
   },
   {
      "GoBack" : "1",
      "longitude" : "120.71645",
      "outDis" : "50",
      "Id" : "4453",
      "oid" : "13838",
      "districtId" : "1",
      "nameZh" : "民生文明路口",
      "pgp" : "0",
      "terminal" : "0",
      "latitude" : "24.30747",
      "inDis" : "50",
      "routeId" : "92",
      "seqNo" : "18"
   },
   {
      "GoBack" : "1",
      "longitude" : "120.71332",
      "outDis" : "50",
      "Id" : "1571",
      "oid" : "13745",
      "districtId" : "1",
      "nameZh" : "內埔市場",
      "pgp" : "0",
      "terminal" : "0",
      "latitude" : "24.30575",
      "inDis" : "50",
      "routeId" : "92",
      "seqNo" : "19"
   },
   {
      "GoBack" : "1",
      "longitude" : "120.71113",
      "outDis" : "50",
      "Id" : "4504",
      "oid" : "13746",
      "districtId" : "1",
      "nameZh" : "后里區公所",
      "pgp" : "0",
      "terminal" : "0",
      "latitude" : "24.30468",
      "inDis" : "50",
      "routeId" : "92",
      "seqNo" : "20"
   },
   {
      "GoBack" : "1",
      "longitude" : "120.70917",
      "outDis" : "50",
      "Id" : "4449",
      "oid" : "13837",
      "districtId" : "1",
      "nameZh" : "公安主和路口",
      "pgp" : "0",
      "terminal" : "0",
      "latitude" : "24.30554",
      "inDis" : "50",
      "routeId" : "92",
      "seqNo" : "21"
   },
   {
      "GoBack" : "1",
      "longitude" : "120.70587",
      "outDis" : "50",
      "Id" : "3309",
      "oid" : "13748",
      "districtId" : "1",
      "nameZh" : "雅藝公司",
      "pgp" : "0",
      "terminal" : "0",
      "latitude" : "24.30699",
      "inDis" : "50",
      "routeId" : "92",
      "seqNo" : "22"
   },
   {
      "GoBack" : "1",
      "longitude" : "120.69814",
      "outDis" : "50",
      "Id" : "0421",
      "oid" : "13749",
      "districtId" : "1",
      "nameZh" : "中和",
      "pgp" : "0",
      "terminal" : "0",
      "latitude" : "24.31041",
      "inDis" : "50",
      "routeId" : "92",
      "seqNo" : "23"
   },
   {
      "GoBack" : "1",
      "longitude" : "120.69621",
      "outDis" : "50",
      "Id" : "2469",
      "oid" : "13750",
      "districtId" : "1",
      "nameZh" : "松鶴酒庄",
      "pgp" : "0",
      "terminal" : "0",
      "latitude" : "24.31178",
      "inDis" : "50",
      "routeId" : "92",
      "seqNo" : "24"
   },
   {
      "GoBack" : "1",
      "longitude" : "120.6951",
      "outDis" : "50",
      "Id" : "1689",
      "oid" : "13751",
      "districtId" : "1",
      "nameZh" : "月眉糖廠",
      "pgp" : "0",
      "terminal" : "0",
      "latitude" : "24.31351",
      "inDis" : "50",
      "routeId" : "92",
      "seqNo" : "25"
   },
   {
      "GoBack" : "1",
      "longitude" : "120.69223",
      "outDis" : "50",
      "Id" : "1683",
      "oid" : "13752",
      "districtId" : "1",
      "nameZh" : "月眉",
      "pgp" : "0",
      "terminal" : "0",
      "latitude" : "24.31395",
      "inDis" : "50",
      "routeId" : "92",
      "seqNo" : "26"
   },
   {
      "GoBack" : "1",
      "longitude" : "120.69",
      "outDis" : "50",
      "Id" : "4455",
      "oid" : "13839",
      "districtId" : "1",
      "nameZh" : "甲后四月路口",
      "pgp" : "0",
      "terminal" : "0",
      "latitude" : "24.31435",
      "inDis" : "50",
      "routeId" : "92",
      "seqNo" : "27"
   },
   {
      "GoBack" : "1",
      "longitude" : "120.6853",
      "outDis" : "50",
      "Id" : "1701",
      "oid" : "13754",
      "districtId" : "1",
      "nameZh" : "水利會",
      "pgp" : "0",
      "terminal" : "0",
      "latitude" : "24.31519",
      "inDis" : "50",
      "routeId" : "92",
      "seqNo" : "28"
   },
   {
      "GoBack" : "1",
      "longitude" : "120.67745",
      "outDis" : "50",
      "Id" : "2348",
      "oid" : "13755",
      "districtId" : "1",
      "nameZh" : "忠明新城",
      "pgp" : "0",
      "terminal" : "0",
      "latitude" : "24.31646",
      "inDis" : "50",
      "routeId" : "92",
      "seqNo" : "29"
   },
   {
      "GoBack" : "1",
      "longitude" : "120.67477",
      "outDis" : "50",
      "Id" : "1852",
      "oid" : "13756",
      "districtId" : "1",
      "nameZh" : "四塊厝",
      "pgp" : "0",
      "terminal" : "0",
      "latitude" : "24.31693",
      "inDis" : "50",
      "routeId" : "92",
      "seqNo" : "30"
   },
   {
      "GoBack" : "1",
      "longitude" : "120.66996",
      "outDis" : "50",
      "Id" : "1818",
      "oid" : "13757",
      "districtId" : "1",
      "nameZh" : "司普公司",
      "pgp" : "0",
      "terminal" : "0",
      "latitude" : "24.31858",
      "inDis" : "50",
      "routeId" : "92",
      "seqNo" : "31"
   },
   {
      "GoBack" : "1",
      "longitude" : "120.66844",
      "outDis" : "50",
      "Id" : "1054",
      "oid" : "13758",
      "districtId" : "1",
      "nameZh" : "三崁中點",
      "pgp" : "0",
      "terminal" : "0",
      "latitude" : "24.31964",
      "inDis" : "50",
      "routeId" : "92",
      "seqNo" : "32"
   },
   {
      "GoBack" : "1",
      "longitude" : "120.6648",
      "outDis" : "50",
      "Id" : "1052",
      "oid" : "13759",
      "districtId" : "1",
      "nameZh" : "三崁",
      "pgp" : "0",
      "terminal" : "0",
      "latitude" : "24.32207",
      "inDis" : "50",
      "routeId" : "92",
      "seqNo" : "33"
   },
   {
      "GoBack" : "1",
      "longitude" : "120.66144",
      "outDis" : "50",
      "Id" : "1254",
      "oid" : "13760",
      "districtId" : "1",
      "nameZh" : "久輪公司",
      "pgp" : "0",
      "terminal" : "0",
      "latitude" : "24.32401",
      "inDis" : "50",
      "routeId" : "92",
      "seqNo" : "34"
   },
   {
      "GoBack" : "1",
      "longitude" : "120.65823",
      "outDis" : "50",
      "Id" : "1000",
      "oid" : "13761",
      "districtId" : "1",
      "nameZh" : "二崁",
      "pgp" : "0",
      "terminal" : "0",
      "latitude" : "24.32713",
      "inDis" : "50",
      "routeId" : "92",
      "seqNo" : "35"
   },
   {
      "GoBack" : "1",
      "longitude" : "120.65574",
      "outDis" : "50",
      "Id" : "1867",
      "oid" : "13762",
      "districtId" : "1",
      "nameZh" : "外埔郵局",
      "pgp" : "0",
      "terminal" : "0",
      "latitude" : "24.32949",
      "inDis" : "50",
      "routeId" : "92",
      "seqNo" : "36"
   },
   {
      "GoBack" : "1",
      "longitude" : "120.65369",
      "outDis" : "50",
      "Id" : "1865",
      "oid" : "13763",
      "districtId" : "1",
      "nameZh" : "外埔",
      "pgp" : "0",
      "terminal" : "0",
      "latitude" : "24.33149",
      "inDis" : "50",
      "routeId" : "92",
      "seqNo" : "37"
   },
   {
      "GoBack" : "1",
      "longitude" : "120.65001",
      "outDis" : "50",
      "Id" : "2652",
      "oid" : "13764",
      "districtId" : "1",
      "nameZh" : "後寮",
      "pgp" : "0",
      "terminal" : "0",
      "latitude" : "24.335",
      "inDis" : "50",
      "routeId" : "92",
      "seqNo" : "38"
   },
   {
      "GoBack" : "1",
      "longitude" : "120.64125",
      "outDis" : "50",
      "Id" : "1277",
      "oid" : "13765",
      "districtId" : "1",
      "nameZh" : "大甲東",
      "pgp" : "0",
      "terminal" : "0",
      "latitude" : "24.3407",
      "inDis" : "50",
      "routeId" : "92",
      "seqNo" : "39"
   },
   {
      "GoBack" : "1",
      "longitude" : "120.63847",
      "outDis" : "50",
      "Id" : "1278",
      "oid" : "13766",
      "districtId" : "1",
      "nameZh" : "大甲東新城",
      "pgp" : "0",
      "terminal" : "0",
      "latitude" : "24.34202",
      "inDis" : "50",
      "routeId" : "92",
      "seqNo" : "40"
   },
   {
      "GoBack" : "1",
      "longitude" : "120.63656",
      "outDis" : "50",
      "Id" : "2417",
      "oid" : "13767",
      "districtId" : "1",
      "nameZh" : "東泰新城",
      "pgp" : "0",
      "terminal" : "0",
      "latitude" : "24.34323",
      "inDis" : "50",
      "routeId" : "92",
      "seqNo" : "41"
   },
   {
      "GoBack" : "1",
      "longitude" : "120.63244",
      "outDis" : "50",
      "Id" : "5339",
      "oid" : "311364974",
      "districtId" : "1",
      "nameZh" : "甲工入口",
      "pgp" : "0",
      "terminal" : "0",
      "latitude" : "24.34568",
      "inDis" : "50",
      "routeId" : "92",
      "seqNo" : "42"
   },
   {
      "GoBack" : "1",
      "longitude" : "120.62933",
      "outDis" : "50",
      "Id" : "1420",
      "oid" : "13769",
      "districtId" : "1",
      "nameZh" : "中山里",
      "pgp" : "0",
      "terminal" : "0",
      "latitude" : "24.34477",
      "inDis" : "50",
      "routeId" : "92",
      "seqNo" : "43"
   },
   {
      "GoBack" : "1",
      "longitude" : "120.62844",
      "outDis" : "50",
      "Id" : "1933",
      "oid" : "13770",
      "districtId" : "1",
      "nameZh" : "永光寺",
      "pgp" : "0",
      "terminal" : "0",
      "latitude" : "24.3429",
      "inDis" : "50",
      "routeId" : "92",
      "seqNo" : "44"
   },
   {
      "GoBack" : "1",
      "longitude" : "120.62643",
      "outDis" : "50",
      "Id" : "4558",
      "oid" : "13836",
      "districtId" : "1",
      "nameZh" : "中正紀念館",
      "pgp" : "0",
      "terminal" : "0",
      "latitude" : "24.34027",
      "inDis" : "50",
      "routeId" : "92",
      "seqNo" : "45"
   },
   {
      "GoBack" : "1",
      "longitude" : "120.6229",
      "outDis" : "50",
      "Id" : "4433",
      "oid" : "14089",
      "districtId" : "1",
      "nameZh" : "大甲高中(水源路)",
      "pgp" : "0",
      "terminal" : "0",
      "latitude" : "24.34182",
      "inDis" : "50",
      "routeId" : "92",
      "seqNo" : "46"
   },
   {
      "GoBack" : "1",
      "longitude" : "120.62549",
      "outDis" : "50",
      "Id" : "5084",
      "oid" : "13772",
      "districtId" : "1",
      "nameZh" : "大甲",
      "pgp" : "0",
      "terminal" : "0",
      "latitude" : "24.34335",
      "inDis" : "50",
      "routeId" : "92",
      "seqNo" : "47"
   },
   {
      "GoBack" : "1",
      "longitude" : "120.62664",
      "outDis" : "50",
      "Id" : "4432",
      "oid" : "14074",
      "districtId" : "1",
      "nameZh" : "大甲火車站",
      "pgp" : "0",
      "terminal" : "0",
      "latitude" : "24.34461",
      "inDis" : "50",
      "routeId" : "92",
      "seqNo" : "48"
   },
   {
      "GoBack" : "1",
      "longitude" : "120.62286",
      "outDis" : "50",
      "Id" : "1074",
      "oid" : "13774",
      "districtId" : "1",
      "nameZh" : "文昌祠",
      "pgp" : "0",
      "terminal" : "0",
      "latitude" : "24.34726",
      "inDis" : "50",
      "routeId" : "92",
      "seqNo" : "49"
   },
   {
      "GoBack" : "1",
      "longitude" : "120.62028",
      "outDis" : "50",
      "Id" : "3062",
      "oid" : "13775",
      "districtId" : "1",
      "nameZh" : "庄尾",
      "pgp" : "0",
      "terminal" : "0",
      "latitude" : "24.34819",
      "inDis" : "50",
      "routeId" : "92",
      "seqNo" : "50"
   },
   {
      "GoBack" : "1",
      "longitude" : "120.61878",
      "outDis" : "50",
      "Id" : "1621",
      "oid" : "13776",
      "districtId" : "1",
      "nameZh" : "昇和醫院",
      "pgp" : "0",
      "terminal" : "0",
      "latitude" : "24.34873",
      "inDis" : "50",
      "routeId" : "92",
      "seqNo" : "51"
   },
   {
      "GoBack" : "1",
      "longitude" : "120.61547",
      "outDis" : "50",
      "Id" : "5399",
      "oid" : "312989573",
      "districtId" : "1",
      "nameZh" : "順中站",
      "pgp" : "0",
      "terminal" : "0",
      "latitude" : "24.35055",
      "inDis" : "50",
      "routeId" : "92",
      "seqNo" : "52"
   },
   {
      "GoBack" : "1",
      "longitude" : "120.61478",
      "outDis" : "50",
      "Id" : "5061",
      "oid" : "309863811",
      "districtId" : "1",
      "nameZh" : "新政大安港路口",
      "pgp" : "0",
      "terminal" : "0",
      "latitude" : "24.35087",
      "inDis" : "50",
      "routeId" : "92",
      "seqNo" : "53"
   },
   {
      "GoBack" : "1",
      "longitude" : "120.61255",
      "outDis" : "50",
      "Id" : "1732",
      "oid" : "312989574",
      "districtId" : "1",
      "nameZh" : "牛埔",
      "pgp" : "0",
      "terminal" : "0",
      "latitude" : "24.34833",
      "inDis" : "50",
      "routeId" : "92",
      "seqNo" : "54"
   },
   {
      "GoBack" : "1",
      "longitude" : "120.60928",
      "outDis" : "50",
      "Id" : "4467",
      "oid" : "13840",
      "districtId" : "1",
      "nameZh" : "家畜市場",
      "pgp" : "0",
      "terminal" : "0",
      "latitude" : "24.34789",
      "inDis" : "50",
      "routeId" : "92",
      "seqNo" : "55"
   },
   {
      "GoBack" : "1",
      "longitude" : "120.60498",
      "outDis" : "50",
      "Id" : "3697",
      "oid" : "13779",
      "districtId" : "1",
      "nameZh" : "遠東手套",
      "pgp" : "0",
      "terminal" : "0",
      "latitude" : "24.34728",
      "inDis" : "50",
      "routeId" : "92",
      "seqNo" : "56"
   },
   {
      "GoBack" : "1",
      "longitude" : "120.60146",
      "outDis" : "50",
      "Id" : "5362",
      "oid" : "311796743",
      "districtId" : "1",
      "nameZh" : "興安福東路口",
      "pgp" : "0",
      "terminal" : "0",
      "latitude" : "24.34622",
      "inDis" : "50",
      "routeId" : "92",
      "seqNo" : "57"
   },
   {
      "GoBack" : "1",
      "longitude" : "120.59733",
      "outDis" : "50",
      "Id" : "5784",
      "oid" : "320761418",
      "districtId" : "1",
      "nameZh" : "福興(興安路)",
      "pgp" : "0",
      "terminal" : "0",
      "latitude" : "24.34585",
      "inDis" : "50",
      "routeId" : "92",
      "seqNo" : "58"
   },
   {
      "GoBack" : "1",
      "longitude" : "120.59083",
      "outDis" : "50",
      "Id" : "1061",
      "oid" : "311796744",
      "districtId" : "1",
      "nameZh" : "三元莊",
      "pgp" : "0",
      "terminal" : "0",
      "latitude" : "24.34597",
      "inDis" : "50",
      "routeId" : "92",
      "seqNo" : "59"
   },
   {
      "GoBack" : "1",
      "longitude" : "120.5892",
      "outDis" : "50",
      "Id" : "5364",
      "oid" : "311815001",
      "districtId" : "1",
      "nameZh" : "大安區圖書館",
      "pgp" : "0",
      "terminal" : "0",
      "latitude" : "24.34545",
      "inDis" : "50",
      "routeId" : "92",
      "seqNo" : "60"
   },
   {
      "GoBack" : "1",
      "longitude" : "120.58701",
      "outDis" : "50",
      "Id" : "4436",
      "oid" : "13833",
      "districtId" : "1",
      "nameZh" : "大安區公所",
      "pgp" : "0",
      "terminal" : "0",
      "latitude" : "24.34565",
      "inDis" : "50",
      "routeId" : "92",
      "seqNo" : "61"
   },
   {
      "GoBack" : "1",
      "longitude" : "120.58402",
      "outDis" : "50",
      "Id" : "1476",
      "oid" : "13783",
      "districtId" : "1",
      "nameZh" : "中庄",
      "pgp" : "0",
      "terminal" : "0",
      "latitude" : "24.35013",
      "inDis" : "50",
      "routeId" : "92",
      "seqNo" : "62"
   },
   {
      "GoBack" : "1",
      "longitude" : "120.58431",
      "outDis" : "50",
      "Id" : "4440",
      "oid" : "13835",
      "districtId" : "1",
      "nameZh" : "中山南中海路口",
      "pgp" : "0",
      "terminal" : "0",
      "latitude" : "24.35322",
      "inDis" : "50",
      "routeId" : "92",
      "seqNo" : "63"
   },
   {
      "GoBack" : "1",
      "longitude" : "120.58639",
      "outDis" : "50",
      "Id" : "1214",
      "oid" : "13785",
      "districtId" : "1",
      "nameZh" : "下龜殼",
      "pgp" : "0",
      "terminal" : "0",
      "latitude" : "24.36219",
      "inDis" : "50",
      "routeId" : "92",
      "seqNo" : "64"
   },
   {
      "GoBack" : "1",
      "longitude" : "120.58653",
      "outDis" : "50",
      "Id" : "3866",
      "oid" : "13841",
      "districtId" : "1",
      "nameZh" : "龜殼里",
      "pgp" : "0",
      "terminal" : "0",
      "latitude" : "24.36488",
      "inDis" : "50",
      "routeId" : "92",
      "seqNo" : "65"
   },
   {
      "GoBack" : "1",
      "longitude" : "120.58639",
      "outDis" : "50",
      "Id" : "3472",
      "oid" : "13787",
      "districtId" : "1",
      "nameZh" : "溪洲",
      "pgp" : "0",
      "terminal" : "0",
      "latitude" : "24.36991",
      "inDis" : "50",
      "routeId" : "92",
      "seqNo" : "66"
   },
   {
      "GoBack" : "1",
      "longitude" : "120.58621",
      "outDis" : "50",
      "Id" : "4488",
      "oid" : "13788",
      "districtId" : "1",
      "nameZh" : "塭寮橋",
      "pgp" : "0",
      "terminal" : "0",
      "latitude" : "24.37304",
      "inDis" : "50",
      "routeId" : "92",
      "seqNo" : "67"
   },
   {
      "GoBack" : "1",
      "longitude" : "120.58599",
      "outDis" : "50",
      "Id" : "1289",
      "oid" : "312989575",
      "districtId" : "1",
      "nameZh" : "大安港",
      "pgp" : "0",
      "terminal" : "0",
      "latitude" : "24.37888",
      "inDis" : "50",
      "routeId" : "92",
      "seqNo" : "68"
   },
   {
      "GoBack" : "1",
      "longitude" : "120.58668",
      "outDis" : "50",
      "Id" : "2800",
      "oid" : "13789",
      "districtId" : "1",
      "nameZh" : "海墘",
      "pgp" : "0",
      "terminal" : "0",
      "latitude" : "24.3793",
      "inDis" : "50",
      "routeId" : "92",
      "seqNo" : "69"
   },
   {
      "GoBack" : "1",
      "longitude" : "120.59139",
      "outDis" : "50",
      "Id" : "4437",
      "oid" : "13834",
      "districtId" : "1",
      "nameZh" : "大安港南北九路口",
      "pgp" : "0",
      "terminal" : "0",
      "latitude" : "24.37758",
      "inDis" : "50",
      "routeId" : "92",
      "seqNo" : "70"
   },
   {
      "GoBack" : "1",
      "longitude" : "120.59671",
      "outDis" : "50",
      "Id" : "1711",
      "oid" : "13791",
      "districtId" : "1",
      "nameZh" : "水柳",
      "pgp" : "0",
      "terminal" : "0",
      "latitude" : "24.37533",
      "inDis" : "50",
      "routeId" : "92",
      "seqNo" : "71"
   },
   {
      "GoBack" : "1",
      "longitude" : "120.59981",
      "outDis" : "50",
      "Id" : "3514",
      "oid" : "13792",
      "districtId" : "1",
      "nameZh" : "腳踏",
      "pgp" : "0",
      "terminal" : "0",
      "latitude" : "24.37185",
      "inDis" : "50",
      "routeId" : "92",
      "seqNo" : "72"
   },
   {
      "GoBack" : "1",
      "longitude" : "120.60207",
      "outDis" : "50",
      "Id" : "2183",
      "oid" : "13793",
      "districtId" : "1",
      "nameZh" : "西安里",
      "pgp" : "0",
      "terminal" : "0",
      "latitude" : "24.36774",
      "inDis" : "50",
      "routeId" : "92",
      "seqNo" : "73"
   },
   {
      "GoBack" : "1",
      "longitude" : "120.6025",
      "outDis" : "50",
      "Id" : "1288",
      "oid" : "13794",
      "districtId" : "1",
      "nameZh" : "大安國中",
      "pgp" : "0",
      "terminal" : "0",
      "latitude" : "24.36492",
      "inDis" : "50",
      "routeId" : "92",
      "seqNo" : "74"
   },
   {
      "GoBack" : "2",
      "longitude" : "120.6025",
      "outDis" : "50",
      "Id" : "1288",
      "oid" : "13794",
      "districtId" : "1",
      "nameZh" : "大安國中",
      "pgp" : "0",
      "terminal" : "0",
      "latitude" : "24.36492",
      "inDis" : "50",
      "routeId" : "92",
      "seqNo" : "1"
   },
   {
      "GoBack" : "2",
      "longitude" : "120.60207",
      "outDis" : "50",
      "Id" : "2183",
      "oid" : "13793",
      "districtId" : "1",
      "nameZh" : "西安里",
      "pgp" : "0",
      "terminal" : "0",
      "latitude" : "24.36774",
      "inDis" : "50",
      "routeId" : "92",
      "seqNo" : "2"
   },
   {
      "GoBack" : "2",
      "longitude" : "120.59981",
      "outDis" : "50",
      "Id" : "3514",
      "oid" : "13792",
      "districtId" : "1",
      "nameZh" : "腳踏",
      "pgp" : "0",
      "terminal" : "0",
      "latitude" : "24.37185",
      "inDis" : "50",
      "routeId" : "92",
      "seqNo" : "3"
   },
   {
      "GoBack" : "2",
      "longitude" : "120.59671",
      "outDis" : "50",
      "Id" : "1711",
      "oid" : "13791",
      "districtId" : "1",
      "nameZh" : "水柳",
      "pgp" : "0",
      "terminal" : "0",
      "latitude" : "24.37533",
      "inDis" : "50",
      "routeId" : "92",
      "seqNo" : "4"
   },
   {
      "GoBack" : "2",
      "longitude" : "120.59139",
      "outDis" : "50",
      "Id" : "4437",
      "oid" : "13834",
      "districtId" : "1",
      "nameZh" : "大安港南北九路口",
      "pgp" : "0",
      "terminal" : "0",
      "latitude" : "24.37758",
      "inDis" : "50",
      "routeId" : "92",
      "seqNo" : "5"
   },
   {
      "GoBack" : "2",
      "longitude" : "120.58668",
      "outDis" : "50",
      "Id" : "2800",
      "oid" : "13789",
      "districtId" : "1",
      "nameZh" : "海墘",
      "pgp" : "0",
      "terminal" : "0",
      "latitude" : "24.3793",
      "inDis" : "50",
      "routeId" : "92",
      "seqNo" : "6"
   },
   {
      "GoBack" : "2",
      "longitude" : "120.58599",
      "outDis" : "50",
      "Id" : "1289",
      "oid" : "312989575",
      "districtId" : "1",
      "nameZh" : "大安港",
      "pgp" : "0",
      "terminal" : "0",
      "latitude" : "24.37888",
      "inDis" : "50",
      "routeId" : "92",
      "seqNo" : "7"
   },
   {
      "GoBack" : "2",
      "longitude" : "120.58621",
      "outDis" : "50",
      "Id" : "4488",
      "oid" : "13788",
      "districtId" : "1",
      "nameZh" : "塭寮橋",
      "pgp" : "0",
      "terminal" : "0",
      "latitude" : "24.37304",
      "inDis" : "50",
      "routeId" : "92",
      "seqNo" : "8"
   },
   {
      "GoBack" : "2",
      "longitude" : "120.58639",
      "outDis" : "50",
      "Id" : "3472",
      "oid" : "13787",
      "districtId" : "1",
      "nameZh" : "溪洲",
      "pgp" : "0",
      "terminal" : "0",
      "latitude" : "24.36991",
      "inDis" : "50",
      "routeId" : "92",
      "seqNo" : "9"
   },
   {
      "GoBack" : "2",
      "longitude" : "120.58653",
      "outDis" : "50",
      "Id" : "3866",
      "oid" : "13841",
      "districtId" : "1",
      "nameZh" : "龜殼里",
      "pgp" : "0",
      "terminal" : "0",
      "latitude" : "24.36488",
      "inDis" : "50",
      "routeId" : "92",
      "seqNo" : "10"
   },
   {
      "GoBack" : "2",
      "longitude" : "120.58639",
      "outDis" : "50",
      "Id" : "1214",
      "oid" : "13785",
      "districtId" : "1",
      "nameZh" : "下龜殼",
      "pgp" : "0",
      "terminal" : "0",
      "latitude" : "24.36219",
      "inDis" : "50",
      "routeId" : "92",
      "seqNo" : "11"
   },
   {
      "GoBack" : "2",
      "longitude" : "120.58431",
      "outDis" : "50",
      "Id" : "4440",
      "oid" : "13835",
      "districtId" : "1",
      "nameZh" : "中山南中海路口",
      "pgp" : "0",
      "terminal" : "0",
      "latitude" : "24.35322",
      "inDis" : "50",
      "routeId" : "92",
      "seqNo" : "12"
   },
   {
      "GoBack" : "2",
      "longitude" : "120.58402",
      "outDis" : "50",
      "Id" : "1476",
      "oid" : "13783",
      "districtId" : "1",
      "nameZh" : "中庄",
      "pgp" : "0",
      "terminal" : "0",
      "latitude" : "24.35013",
      "inDis" : "50",
      "routeId" : "92",
      "seqNo" : "13"
   },
   {
      "GoBack" : "2",
      "longitude" : "120.58701",
      "outDis" : "50",
      "Id" : "4436",
      "oid" : "13833",
      "districtId" : "1",
      "nameZh" : "大安區公所",
      "pgp" : "0",
      "terminal" : "0",
      "latitude" : "24.34565",
      "inDis" : "50",
      "routeId" : "92",
      "seqNo" : "14"
   },
   {
      "GoBack" : "2",
      "longitude" : "120.5892",
      "outDis" : "50",
      "Id" : "5364",
      "oid" : "311815001",
      "districtId" : "1",
      "nameZh" : "大安區圖書館",
      "pgp" : "0",
      "terminal" : "0",
      "latitude" : "24.34545",
      "inDis" : "50",
      "routeId" : "92",
      "seqNo" : "15"
   },
   {
      "GoBack" : "2",
      "longitude" : "120.59084",
      "outDis" : "50",
      "Id" : "1061",
      "oid" : "13781",
      "districtId" : "1",
      "nameZh" : "三元莊",
      "pgp" : "0",
      "terminal" : "0",
      "latitude" : "24.34598",
      "inDis" : "50",
      "routeId" : "92",
      "seqNo" : "16"
   },
   {
      "GoBack" : "2",
      "longitude" : "120.59733",
      "outDis" : "50",
      "Id" : "5784",
      "oid" : "320761418",
      "districtId" : "1",
      "nameZh" : "福興(興安路)",
      "pgp" : "0",
      "terminal" : "0",
      "latitude" : "24.34585",
      "inDis" : "50",
      "routeId" : "92",
      "seqNo" : "17"
   },
   {
      "GoBack" : "2",
      "longitude" : "120.60146",
      "outDis" : "50",
      "Id" : "5362",
      "oid" : "311796743",
      "districtId" : "1",
      "nameZh" : "興安福東路口",
      "pgp" : "0",
      "terminal" : "0",
      "latitude" : "24.34622",
      "inDis" : "50",
      "routeId" : "92",
      "seqNo" : "18"
   },
   {
      "GoBack" : "2",
      "longitude" : "120.60498",
      "outDis" : "50",
      "Id" : "3697",
      "oid" : "13779",
      "districtId" : "1",
      "nameZh" : "遠東手套",
      "pgp" : "0",
      "terminal" : "0",
      "latitude" : "24.34728",
      "inDis" : "50",
      "routeId" : "92",
      "seqNo" : "19"
   },
   {
      "GoBack" : "2",
      "longitude" : "120.60928",
      "outDis" : "50",
      "Id" : "4467",
      "oid" : "13840",
      "districtId" : "1",
      "nameZh" : "家畜市場",
      "pgp" : "0",
      "terminal" : "0",
      "latitude" : "24.34789",
      "inDis" : "50",
      "routeId" : "92",
      "seqNo" : "20"
   },
   {
      "GoBack" : "2",
      "longitude" : "120.61255",
      "outDis" : "50",
      "Id" : "1732",
      "oid" : "312989574",
      "districtId" : "1",
      "nameZh" : "牛埔",
      "pgp" : "0",
      "terminal" : "0",
      "latitude" : "24.34833",
      "inDis" : "50",
      "routeId" : "92",
      "seqNo" : "21"
   },
   {
      "GoBack" : "2",
      "longitude" : "120.61478",
      "outDis" : "50",
      "Id" : "5061",
      "oid" : "309863811",
      "districtId" : "1",
      "nameZh" : "新政大安港路口",
      "pgp" : "0",
      "terminal" : "0",
      "latitude" : "24.35087",
      "inDis" : "50",
      "routeId" : "92",
      "seqNo" : "22"
   },
   {
      "GoBack" : "2",
      "longitude" : "120.61547",
      "outDis" : "50",
      "Id" : "5399",
      "oid" : "312989573",
      "districtId" : "1",
      "nameZh" : "順中站",
      "pgp" : "0",
      "terminal" : "0",
      "latitude" : "24.35055",
      "inDis" : "50",
      "routeId" : "92",
      "seqNo" : "23"
   },
   {
      "GoBack" : "2",
      "longitude" : "120.61878",
      "outDis" : "50",
      "Id" : "1621",
      "oid" : "13776",
      "districtId" : "1",
      "nameZh" : "昇和醫院",
      "pgp" : "0",
      "terminal" : "0",
      "latitude" : "24.34873",
      "inDis" : "50",
      "routeId" : "92",
      "seqNo" : "24"
   },
   {
      "GoBack" : "2",
      "longitude" : "120.62028",
      "outDis" : "50",
      "Id" : "3062",
      "oid" : "13775",
      "districtId" : "1",
      "nameZh" : "庄尾",
      "pgp" : "0",
      "terminal" : "0",
      "latitude" : "24.34819",
      "inDis" : "50",
      "routeId" : "92",
      "seqNo" : "25"
   },
   {
      "GoBack" : "2",
      "longitude" : "120.62286",
      "outDis" : "50",
      "Id" : "1074",
      "oid" : "13774",
      "districtId" : "1",
      "nameZh" : "文昌祠",
      "pgp" : "0",
      "terminal" : "0",
      "latitude" : "24.34726",
      "inDis" : "50",
      "routeId" : "92",
      "seqNo" : "26"
   },
   {
      "GoBack" : "2",
      "longitude" : "120.62664",
      "outDis" : "50",
      "Id" : "4432",
      "oid" : "14074",
      "districtId" : "1",
      "nameZh" : "大甲火車站",
      "pgp" : "0",
      "terminal" : "0",
      "latitude" : "24.34461",
      "inDis" : "50",
      "routeId" : "92",
      "seqNo" : "27"
   },
   {
      "GoBack" : "2",
      "longitude" : "120.62549",
      "outDis" : "50",
      "Id" : "5084",
      "oid" : "13772",
      "districtId" : "1",
      "nameZh" : "大甲",
      "pgp" : "0",
      "terminal" : "0",
      "latitude" : "24.34335",
      "inDis" : "50",
      "routeId" : "92",
      "seqNo" : "28"
   },
   {
      "GoBack" : "2",
      "longitude" : "120.6229",
      "outDis" : "50",
      "Id" : "4433",
      "oid" : "14089",
      "districtId" : "1",
      "nameZh" : "大甲高中(水源路)",
      "pgp" : "0",
      "terminal" : "0",
      "latitude" : "24.34182",
      "inDis" : "50",
      "routeId" : "92",
      "seqNo" : "29"
   },
   {
      "GoBack" : "2",
      "longitude" : "120.62643",
      "outDis" : "50",
      "Id" : "4558",
      "oid" : "13836",
      "districtId" : "1",
      "nameZh" : "中正紀念館",
      "pgp" : "0",
      "terminal" : "0",
      "latitude" : "24.34027",
      "inDis" : "50",
      "routeId" : "92",
      "seqNo" : "30"
   },
   {
      "GoBack" : "2",
      "longitude" : "120.62844",
      "outDis" : "50",
      "Id" : "1933",
      "oid" : "13770",
      "districtId" : "1",
      "nameZh" : "永光寺",
      "pgp" : "0",
      "terminal" : "0",
      "latitude" : "24.3429",
      "inDis" : "50",
      "routeId" : "92",
      "seqNo" : "31"
   },
   {
      "GoBack" : "2",
      "longitude" : "120.62933",
      "outDis" : "50",
      "Id" : "1420",
      "oid" : "13769",
      "districtId" : "1",
      "nameZh" : "中山里",
      "pgp" : "0",
      "terminal" : "0",
      "latitude" : "24.34477",
      "inDis" : "50",
      "routeId" : "92",
      "seqNo" : "32"
   },
   {
      "GoBack" : "2",
      "longitude" : "120.63244",
      "outDis" : "50",
      "Id" : "5339",
      "oid" : "311364974",
      "districtId" : "1",
      "nameZh" : "甲工入口",
      "pgp" : "0",
      "terminal" : "0",
      "latitude" : "24.34568",
      "inDis" : "50",
      "routeId" : "92",
      "seqNo" : "33"
   },
   {
      "GoBack" : "2",
      "longitude" : "120.63656",
      "outDis" : "50",
      "Id" : "2417",
      "oid" : "13767",
      "districtId" : "1",
      "nameZh" : "東泰新城",
      "pgp" : "0",
      "terminal" : "0",
      "latitude" : "24.34323",
      "inDis" : "50",
      "routeId" : "92",
      "seqNo" : "34"
   },
   {
      "GoBack" : "2",
      "longitude" : "120.63847",
      "outDis" : "50",
      "Id" : "1278",
      "oid" : "13766",
      "districtId" : "1",
      "nameZh" : "大甲東新城",
      "pgp" : "0",
      "terminal" : "0",
      "latitude" : "24.34202",
      "inDis" : "50",
      "routeId" : "92",
      "seqNo" : "35"
   },
   {
      "GoBack" : "2",
      "longitude" : "120.64125",
      "outDis" : "50",
      "Id" : "1277",
      "oid" : "13765",
      "districtId" : "1",
      "nameZh" : "大甲東",
      "pgp" : "0",
      "terminal" : "0",
      "latitude" : "24.3407",
      "inDis" : "50",
      "routeId" : "92",
      "seqNo" : "36"
   },
   {
      "GoBack" : "2",
      "longitude" : "120.65001",
      "outDis" : "50",
      "Id" : "2652",
      "oid" : "13764",
      "districtId" : "1",
      "nameZh" : "後寮",
      "pgp" : "0",
      "terminal" : "0",
      "latitude" : "24.335",
      "inDis" : "50",
      "routeId" : "92",
      "seqNo" : "37"
   },
   {
      "GoBack" : "2",
      "longitude" : "120.65369",
      "outDis" : "50",
      "Id" : "1865",
      "oid" : "13763",
      "districtId" : "1",
      "nameZh" : "外埔",
      "pgp" : "0",
      "terminal" : "0",
      "latitude" : "24.33149",
      "inDis" : "50",
      "routeId" : "92",
      "seqNo" : "38"
   },
   {
      "GoBack" : "2",
      "longitude" : "120.65574",
      "outDis" : "50",
      "Id" : "1867",
      "oid" : "13762",
      "districtId" : "1",
      "nameZh" : "外埔郵局",
      "pgp" : "0",
      "terminal" : "0",
      "latitude" : "24.32949",
      "inDis" : "50",
      "routeId" : "92",
      "seqNo" : "39"
   },
   {
      "GoBack" : "2",
      "longitude" : "120.65823",
      "outDis" : "50",
      "Id" : "1000",
      "oid" : "13761",
      "districtId" : "1",
      "nameZh" : "二崁",
      "pgp" : "0",
      "terminal" : "0",
      "latitude" : "24.32713",
      "inDis" : "50",
      "routeId" : "92",
      "seqNo" : "40"
   },
   {
      "GoBack" : "2",
      "longitude" : "120.66144",
      "outDis" : "50",
      "Id" : "1254",
      "oid" : "13760",
      "districtId" : "1",
      "nameZh" : "久輪公司",
      "pgp" : "0",
      "terminal" : "0",
      "latitude" : "24.32401",
      "inDis" : "50",
      "routeId" : "92",
      "seqNo" : "41"
   },
   {
      "GoBack" : "2",
      "longitude" : "120.6648",
      "outDis" : "50",
      "Id" : "1052",
      "oid" : "13759",
      "districtId" : "1",
      "nameZh" : "三崁",
      "pgp" : "0",
      "terminal" : "0",
      "latitude" : "24.32207",
      "inDis" : "50",
      "routeId" : "92",
      "seqNo" : "42"
   },
   {
      "GoBack" : "2",
      "longitude" : "120.66844",
      "outDis" : "50",
      "Id" : "1054",
      "oid" : "13758",
      "districtId" : "1",
      "nameZh" : "三崁中點",
      "pgp" : "0",
      "terminal" : "0",
      "latitude" : "24.31964",
      "inDis" : "50",
      "routeId" : "92",
      "seqNo" : "43"
   },
   {
      "GoBack" : "2",
      "longitude" : "120.66996",
      "outDis" : "50",
      "Id" : "1818",
      "oid" : "13757",
      "districtId" : "1",
      "nameZh" : "司普公司",
      "pgp" : "0",
      "terminal" : "0",
      "latitude" : "24.31858",
      "inDis" : "50",
      "routeId" : "92",
      "seqNo" : "44"
   },
   {
      "GoBack" : "2",
      "longitude" : "120.67477",
      "outDis" : "50",
      "Id" : "1852",
      "oid" : "13756",
      "districtId" : "1",
      "nameZh" : "四塊厝",
      "pgp" : "0",
      "terminal" : "0",
      "latitude" : "24.31693",
      "inDis" : "50",
      "routeId" : "92",
      "seqNo" : "45"
   },
   {
      "GoBack" : "2",
      "longitude" : "120.67745",
      "outDis" : "50",
      "Id" : "2348",
      "oid" : "13755",
      "districtId" : "1",
      "nameZh" : "忠明新城",
      "pgp" : "0",
      "terminal" : "0",
      "latitude" : "24.31646",
      "inDis" : "50",
      "routeId" : "92",
      "seqNo" : "46"
   },
   {
      "GoBack" : "2",
      "longitude" : "120.6853",
      "outDis" : "50",
      "Id" : "1701",
      "oid" : "13754",
      "districtId" : "1",
      "nameZh" : "水利會",
      "pgp" : "0",
      "terminal" : "0",
      "latitude" : "24.31519",
      "inDis" : "50",
      "routeId" : "92",
      "seqNo" : "47"
   },
   {
      "GoBack" : "2",
      "longitude" : "120.69",
      "outDis" : "50",
      "Id" : "4455",
      "oid" : "13839",
      "districtId" : "1",
      "nameZh" : "甲后四月路口",
      "pgp" : "0",
      "terminal" : "0",
      "latitude" : "24.31435",
      "inDis" : "50",
      "routeId" : "92",
      "seqNo" : "48"
   },
   {
      "GoBack" : "2",
      "longitude" : "120.69223",
      "outDis" : "50",
      "Id" : "1683",
      "oid" : "13752",
      "districtId" : "1",
      "nameZh" : "月眉",
      "pgp" : "0",
      "terminal" : "0",
      "latitude" : "24.31395",
      "inDis" : "50",
      "routeId" : "92",
      "seqNo" : "49"
   },
   {
      "GoBack" : "2",
      "longitude" : "120.6951",
      "outDis" : "50",
      "Id" : "1689",
      "oid" : "13751",
      "districtId" : "1",
      "nameZh" : "月眉糖廠",
      "pgp" : "0",
      "terminal" : "0",
      "latitude" : "24.31351",
      "inDis" : "50",
      "routeId" : "92",
      "seqNo" : "50"
   },
   {
      "GoBack" : "2",
      "longitude" : "120.69621",
      "outDis" : "50",
      "Id" : "2469",
      "oid" : "13750",
      "districtId" : "1",
      "nameZh" : "松鶴酒庄",
      "pgp" : "0",
      "terminal" : "0",
      "latitude" : "24.31178",
      "inDis" : "50",
      "routeId" : "92",
      "seqNo" : "51"
   },
   {
      "GoBack" : "2",
      "longitude" : "120.69814",
      "outDis" : "50",
      "Id" : "0421",
      "oid" : "13749",
      "districtId" : "1",
      "nameZh" : "中和",
      "pgp" : "0",
      "terminal" : "0",
      "latitude" : "24.31041",
      "inDis" : "50",
      "routeId" : "92",
      "seqNo" : "52"
   },
   {
      "GoBack" : "2",
      "longitude" : "120.70587",
      "outDis" : "50",
      "Id" : "3309",
      "oid" : "13748",
      "districtId" : "1",
      "nameZh" : "雅藝公司",
      "pgp" : "0",
      "terminal" : "0",
      "latitude" : "24.30699",
      "inDis" : "50",
      "routeId" : "92",
      "seqNo" : "53"
   },
   {
      "GoBack" : "2",
      "longitude" : "120.70917",
      "outDis" : "50",
      "Id" : "4449",
      "oid" : "13837",
      "districtId" : "1",
      "nameZh" : "公安主和路口",
      "pgp" : "0",
      "terminal" : "0",
      "latitude" : "24.30554",
      "inDis" : "50",
      "routeId" : "92",
      "seqNo" : "54"
   },
   {
      "GoBack" : "2",
      "longitude" : "120.71113",
      "outDis" : "50",
      "Id" : "4504",
      "oid" : "13746",
      "districtId" : "1",
      "nameZh" : "后里區公所",
      "pgp" : "0",
      "terminal" : "0",
      "latitude" : "24.30468",
      "inDis" : "50",
      "routeId" : "92",
      "seqNo" : "55"
   },
   {
      "GoBack" : "2",
      "longitude" : "120.71332",
      "outDis" : "50",
      "Id" : "1571",
      "oid" : "13745",
      "districtId" : "1",
      "nameZh" : "內埔市場",
      "pgp" : "0",
      "terminal" : "0",
      "latitude" : "24.30575",
      "inDis" : "50",
      "routeId" : "92",
      "seqNo" : "56"
   },
   {
      "GoBack" : "2",
      "longitude" : "120.71645",
      "outDis" : "50",
      "Id" : "4453",
      "oid" : "13838",
      "districtId" : "1",
      "nameZh" : "民生文明路口",
      "pgp" : "0",
      "terminal" : "0",
      "latitude" : "24.30747",
      "inDis" : "50",
      "routeId" : "92",
      "seqNo" : "57"
   },
   {
      "GoBack" : "2",
      "longitude" : "120.71765",
      "outDis" : "50",
      "Id" : "2651",
      "oid" : "13743",
      "districtId" : "1",
      "nameZh" : "后里電信局",
      "pgp" : "0",
      "terminal" : "0",
      "latitude" : "24.30969",
      "inDis" : "50",
      "routeId" : "92",
      "seqNo" : "58"
   },
   {
      "GoBack" : "2",
      "longitude" : "120.72164",
      "outDis" : "50",
      "Id" : "1169",
      "oid" : "13742",
      "districtId" : "1",
      "nameZh" : "下后里",
      "pgp" : "0",
      "terminal" : "0",
      "latitude" : "24.30903",
      "inDis" : "50",
      "routeId" : "92",
      "seqNo" : "59"
   },
   {
      "GoBack" : "2",
      "longitude" : "120.72203",
      "outDis" : "50",
      "Id" : "2991",
      "oid" : "13741",
      "districtId" : "1",
      "nameZh" : "啟明學校",
      "pgp" : "0",
      "terminal" : "0",
      "latitude" : "24.30511",
      "inDis" : "50",
      "routeId" : "92",
      "seqNo" : "60"
   },
   {
      "GoBack" : "2",
      "longitude" : "120.72242",
      "outDis" : "50",
      "Id" : "2592",
      "oid" : "13740",
      "districtId" : "1",
      "nameZh" : "南后里",
      "pgp" : "0",
      "terminal" : "0",
      "latitude" : "24.30335",
      "inDis" : "50",
      "routeId" : "92",
      "seqNo" : "61"
   },
   {
      "GoBack" : "2",
      "longitude" : "120.7233",
      "outDis" : "50",
      "Id" : "1737",
      "oid" : "13739",
      "districtId" : "1",
      "nameZh" : "牛稠坑",
      "pgp" : "0",
      "terminal" : "0",
      "latitude" : "24.29968",
      "inDis" : "50",
      "routeId" : "92",
      "seqNo" : "62"
   },
   {
      "GoBack" : "2",
      "longitude" : "120.72363",
      "outDis" : "50",
      "Id" : "2898",
      "oid" : "13738",
      "districtId" : "1",
      "nameZh" : "馬場入口",
      "pgp" : "0",
      "terminal" : "0",
      "latitude" : "24.29812",
      "inDis" : "50",
      "routeId" : "92",
      "seqNo" : "63"
   },
   {
      "GoBack" : "2",
      "longitude" : "120.72373",
      "outDis" : "50",
      "Id" : "0987",
      "oid" : "13737",
      "districtId" : "1",
      "nameZh" : "七星農場",
      "pgp" : "0",
      "terminal" : "0",
      "latitude" : "24.2933",
      "inDis" : "50",
      "routeId" : "92",
      "seqNo" : "64"
   },
   {
      "GoBack" : "2",
      "longitude" : "120.72322",
      "outDis" : "50",
      "Id" : "2374",
      "oid" : "13736",
      "districtId" : "1",
      "nameZh" : "枋寮",
      "pgp" : "0",
      "terminal" : "0",
      "latitude" : "24.28785",
      "inDis" : "50",
      "routeId" : "92",
      "seqNo" : "65"
   },
   {
      "GoBack" : "2",
      "longitude" : "120.72285",
      "outDis" : "50",
      "Id" : "1911",
      "oid" : "13735",
      "districtId" : "1",
      "nameZh" : "正隆紙廠",
      "pgp" : "0",
      "terminal" : "0",
      "latitude" : "24.28434",
      "inDis" : "50",
      "routeId" : "92",
      "seqNo" : "66"
   },
   {
      "GoBack" : "2",
      "longitude" : "120.72211",
      "outDis" : "50",
      "Id" : "3470",
      "oid" : "13734",
      "districtId" : "1",
      "nameZh" : "溪底",
      "pgp" : "0",
      "terminal" : "0",
      "latitude" : "24.27567",
      "inDis" : "50",
      "routeId" : "92",
      "seqNo" : "67"
   },
   {
      "GoBack" : "2",
      "longitude" : "120.7218",
      "outDis" : "50",
      "Id" : "3527",
      "oid" : "13733",
      "districtId" : "1",
      "nameZh" : "農會事業場",
      "pgp" : "0",
      "terminal" : "0",
      "latitude" : "24.27191",
      "inDis" : "50",
      "routeId" : "92",
      "seqNo" : "68"
   },
   {
      "GoBack" : "2",
      "longitude" : "120.72113",
      "outDis" : "50",
      "Id" : "3541",
      "oid" : "13732",
      "districtId" : "1",
      "nameZh" : "道班前",
      "pgp" : "0",
      "terminal" : "0",
      "latitude" : "24.26954",
      "inDis" : "50",
      "routeId" : "92",
      "seqNo" : "69"
   },
   {
      "GoBack" : "2",
      "longitude" : "120.72039",
      "outDis" : "50",
      "Id" : "3356",
      "oid" : "13731",
      "districtId" : "1",
      "nameZh" : "慈興宮",
      "pgp" : "0",
      "terminal" : "0",
      "latitude" : "24.26524",
      "inDis" : "50",
      "routeId" : "92",
      "seqNo" : "70"
   },
   {
      "GoBack" : "2",
      "longitude" : "120.71983",
      "outDis" : "50",
      "Id" : "4503",
      "oid" : "13730",
      "districtId" : "1",
      "nameZh" : "豐原國中",
      "pgp" : "0",
      "terminal" : "0",
      "latitude" : "24.26123",
      "inDis" : "50",
      "routeId" : "92",
      "seqNo" : "71"
   },
   {
      "GoBack" : "2",
      "longitude" : "120.7216",
      "outDis" : "50",
      "Id" : "5632",
      "oid" : "317638566",
      "districtId" : "1",
      "nameZh" : "豐中大順街口",
      "pgp" : "0",
      "terminal" : "0",
      "latitude" : "24.25757",
      "inDis" : "50",
      "routeId" : "92",
      "seqNo" : "72"
   },
   {
      "GoBack" : "2",
      "longitude" : "120.72251",
      "outDis" : "50",
      "Id" : "4931",
      "oid" : "312989630",
      "districtId" : "1",
      "nameZh" : "豐原火車站",
      "pgp" : "0",
      "terminal" : "0",
      "latitude" : "24.25535",
      "inDis" : "50",
      "routeId" : "92",
      "seqNo" : "73"
   },
   {
      "GoBack" : "2",
      "longitude" : "120.72188",
      "outDis" : "50",
      "Id" : "3935",
      "oid" : "312988580",
      "districtId" : "1",
      "nameZh" : "豐原",
      "pgp" : "0",
      "terminal" : "0",
      "latitude" : "24.25388",
      "inDis" : "50",
      "routeId" : "92",
      "seqNo" : "74"
   }
]
