[
   {
      "GoBack" : "1",
      "longitude" : "120.65978",
      "outDis" : "50",
      "Id" : "3293",
      "oid" : "3675",
      "districtId" : "1",
      "nameZh" : "貿易三村",
      "pgp" : "0",
      "terminal" : "0",
      "latitude" : "24.19313",
      "inDis" : "50",
      "routeId" : "82",
      "seqNo" : "1"
   },
   {
      "GoBack" : "1",
      "longitude" : "120.66137",
      "outDis" : "50",
      "Id" : "0708",
      "oid" : "3676",
      "districtId" : "1",
      "nameZh" : "后庄國宅",
      "pgp" : "0",
      "terminal" : "0",
      "latitude" : "24.19041",
      "inDis" : "50",
      "routeId" : "82",
      "seqNo" : "2"
   },
   {
      "GoBack" : "1",
      "longitude" : "120.66267",
      "outDis" : "50",
      "Id" : "0989",
      "oid" : "3677",
      "districtId" : "1",
      "nameZh" : "中清后庄路口",
      "pgp" : "0",
      "terminal" : "0",
      "latitude" : "24.18823",
      "inDis" : "50",
      "routeId" : "82",
      "seqNo" : "3"
   },
   {
      "GoBack" : "1",
      "longitude" : "120.66419",
      "outDis" : "50",
      "Id" : "2639",
      "oid" : "3678",
      "districtId" : "1",
      "nameZh" : "后庄仔",
      "pgp" : "0",
      "terminal" : "0",
      "latitude" : "24.18568",
      "inDis" : "50",
      "routeId" : "82",
      "seqNo" : "4"
   },
   {
      "GoBack" : "1",
      "longitude" : "120.66496",
      "outDis" : "50",
      "Id" : "0801",
      "oid" : "3679",
      "districtId" : "1",
      "nameZh" : "頂陳平",
      "pgp" : "0",
      "terminal" : "0",
      "latitude" : "24.18437",
      "inDis" : "50",
      "routeId" : "82",
      "seqNo" : "5"
   },
   {
      "GoBack" : "1",
      "longitude" : "120.66584",
      "outDis" : "50",
      "Id" : "0789",
      "oid" : "3680",
      "districtId" : "1",
      "nameZh" : "陳平",
      "pgp" : "0",
      "terminal" : "0",
      "latitude" : "24.18275",
      "inDis" : "50",
      "routeId" : "82",
      "seqNo" : "6"
   },
   {
      "GoBack" : "1",
      "longitude" : "120.66655",
      "outDis" : "50",
      "Id" : "0593",
      "oid" : "3681",
      "districtId" : "1",
      "nameZh" : "全民醫院",
      "pgp" : "0",
      "terminal" : "0",
      "latitude" : "24.18127",
      "inDis" : "50",
      "routeId" : "82",
      "seqNo" : "7"
   },
   {
      "GoBack" : "1",
      "longitude" : "120.66791",
      "outDis" : "50",
      "Id" : "0385",
      "oid" : "3682",
      "districtId" : "1",
      "nameZh" : "大德國中",
      "pgp" : "0",
      "terminal" : "0",
      "latitude" : "24.17938",
      "inDis" : "50",
      "routeId" : "82",
      "seqNo" : "8"
   },
   {
      "GoBack" : "1",
      "longitude" : "120.66916",
      "outDis" : "50",
      "Id" : "5100",
      "oid" : "3683",
      "districtId" : "1",
      "nameZh" : "水湳市場(中清路)",
      "pgp" : "0",
      "terminal" : "0",
      "latitude" : "24.17756",
      "inDis" : "50",
      "routeId" : "82",
      "seqNo" : "9"
   },
   {
      "GoBack" : "1",
      "longitude" : "120.67008",
      "outDis" : "30",
      "Id" : "0486",
      "oid" : "319227554",
      "districtId" : "1",
      "nameZh" : "水湳",
      "pgp" : "0",
      "terminal" : "0",
      "latitude" : "24.17636",
      "inDis" : "30",
      "routeId" : "82",
      "seqNo" : "10"
   },
   {
      "GoBack" : "1",
      "longitude" : "120.67092",
      "outDis" : "50",
      "Id" : "0334",
      "oid" : "3685",
      "districtId" : "1",
      "nameZh" : "下水湳",
      "pgp" : "0",
      "terminal" : "0",
      "latitude" : "24.17525",
      "inDis" : "50",
      "routeId" : "82",
      "seqNo" : "11"
   },
   {
      "GoBack" : "1",
      "longitude" : "120.67281",
      "outDis" : "50",
      "Id" : "4265",
      "oid" : "3686",
      "districtId" : "1",
      "nameZh" : "文心中清路口",
      "pgp" : "0",
      "terminal" : "0",
      "latitude" : "24.17392",
      "inDis" : "50",
      "routeId" : "82",
      "seqNo" : "12"
   },
   {
      "GoBack" : "1",
      "longitude" : "120.67506",
      "outDis" : "50",
      "Id" : "4276",
      "oid" : "3687",
      "districtId" : "1",
      "nameZh" : "文心青島東街口",
      "pgp" : "0",
      "terminal" : "0",
      "latitude" : "24.17373",
      "inDis" : "50",
      "routeId" : "82",
      "seqNo" : "13"
   },
   {
      "GoBack" : "1",
      "longitude" : "120.67696",
      "outDis" : "50",
      "Id" : "4277",
      "oid" : "3688",
      "districtId" : "1",
      "nameZh" : "文心山西路口",
      "pgp" : "0",
      "terminal" : "0",
      "latitude" : "24.17325",
      "inDis" : "50",
      "routeId" : "82",
      "seqNo" : "14"
   },
   {
      "GoBack" : "1",
      "longitude" : "120.67883",
      "outDis" : "50",
      "Id" : "4414",
      "oid" : "304254702",
      "districtId" : "1",
      "nameZh" : "文心梅川路口",
      "pgp" : "0",
      "terminal" : "0",
      "latitude" : "24.17299",
      "inDis" : "50",
      "routeId" : "82",
      "seqNo" : "15"
   },
   {
      "GoBack" : "1",
      "longitude" : "120.68239",
      "outDis" : "50",
      "Id" : "0224",
      "oid" : "3690",
      "districtId" : "1",
      "nameZh" : "文心國小",
      "pgp" : "0",
      "terminal" : "0",
      "latitude" : "24.17251",
      "inDis" : "50",
      "routeId" : "82",
      "seqNo" : "16"
   },
   {
      "GoBack" : "1",
      "longitude" : "120.68539",
      "outDis" : "50",
      "Id" : "4339",
      "oid" : "301782125",
      "districtId" : "1",
      "nameZh" : "崇德文心路口",
      "pgp" : "0",
      "terminal" : "0",
      "latitude" : "24.1717",
      "inDis" : "50",
      "routeId" : "82",
      "seqNo" : "17"
   },
   {
      "GoBack" : "1",
      "longitude" : "120.68522",
      "outDis" : "50",
      "Id" : "1768",
      "oid" : "3692",
      "districtId" : "1",
      "nameZh" : "崇德北平路口",
      "pgp" : "0",
      "terminal" : "0",
      "latitude" : "24.17051",
      "inDis" : "50",
      "routeId" : "82",
      "seqNo" : "18"
   },
   {
      "GoBack" : "1",
      "longitude" : "120.68498",
      "outDis" : "50",
      "Id" : "3511",
      "oid" : "3693",
      "districtId" : "1",
      "nameZh" : "聖德禪寺",
      "pgp" : "0",
      "terminal" : "0",
      "latitude" : "24.16793",
      "inDis" : "50",
      "routeId" : "82",
      "seqNo" : "19"
   },
   {
      "GoBack" : "1",
      "longitude" : "120.68497",
      "outDis" : "50",
      "Id" : "0098",
      "oid" : "3694",
      "districtId" : "1",
      "nameZh" : "崇德橋",
      "pgp" : "0",
      "terminal" : "0",
      "latitude" : "24.16411",
      "inDis" : "50",
      "routeId" : "82",
      "seqNo" : "20"
   },
   {
      "GoBack" : "1",
      "longitude" : "120.68642",
      "outDis" : "50",
      "Id" : "0800",
      "oid" : "3695",
      "districtId" : "1",
      "nameZh" : "頂厝里",
      "pgp" : "0",
      "terminal" : "0",
      "latitude" : "24.16304",
      "inDis" : "50",
      "routeId" : "82",
      "seqNo" : "21"
   },
   {
      "GoBack" : "1",
      "longitude" : "120.68796",
      "outDis" : "50",
      "Id" : "0830",
      "oid" : "3696",
      "districtId" : "1",
      "nameZh" : "稅務新村",
      "pgp" : "0",
      "terminal" : "0",
      "latitude" : "24.16302",
      "inDis" : "50",
      "routeId" : "82",
      "seqNo" : "22"
   },
   {
      "GoBack" : "1",
      "longitude" : "120.68986",
      "outDis" : "50",
      "Id" : "0493",
      "oid" : "12684",
      "districtId" : "1",
      "nameZh" : "北屯市場",
      "pgp" : "0",
      "terminal" : "0",
      "latitude" : "24.16306",
      "inDis" : "50",
      "routeId" : "82",
      "seqNo" : "23"
   },
   {
      "GoBack" : "1",
      "longitude" : "120.69207",
      "outDis" : "50",
      "Id" : "0892",
      "oid" : "3698",
      "districtId" : "1",
      "nameZh" : "監理站",
      "pgp" : "0",
      "terminal" : "0",
      "latitude" : "24.16101",
      "inDis" : "50",
      "routeId" : "82",
      "seqNo" : "24"
   },
   {
      "GoBack" : "1",
      "longitude" : "120.68973",
      "outDis" : "50",
      "Id" : "0960",
      "oid" : "3699",
      "districtId" : "1",
      "nameZh" : "寶覺寺",
      "pgp" : "0",
      "terminal" : "0",
      "latitude" : "24.15774",
      "inDis" : "50",
      "routeId" : "82",
      "seqNo" : "25"
   },
   {
      "GoBack" : "1",
      "longitude" : "120.68794",
      "outDis" : "50",
      "Id" : "4399",
      "oid" : "3700",
      "districtId" : "1",
      "nameZh" : "新民高中(三民路)",
      "pgp" : "0",
      "terminal" : "0",
      "latitude" : "24.15622",
      "inDis" : "50",
      "routeId" : "82",
      "seqNo" : "26"
   },
   {
      "GoBack" : "1",
      "longitude" : "120.68695",
      "outDis" : "50",
      "Id" : "0934",
      "oid" : "0D7AF382298E449C9856AF45F92F27F9",
      "districtId" : "1",
      "nameZh" : "三民錦中街口",
      "pgp" : "0",
      "terminal" : "0",
      "latitude" : "24.15528",
      "inDis" : "50",
      "routeId" : "82",
      "seqNo" : "27"
   },
   {
      "GoBack" : "1",
      "longitude" : "120.68584",
      "outDis" : "50",
      "Id" : "0047",
      "oid" : "3701",
      "districtId" : "1",
      "nameZh" : "一心市場",
      "pgp" : "0",
      "terminal" : "0",
      "latitude" : "24.15405",
      "inDis" : "50",
      "routeId" : "82",
      "seqNo" : "28"
   },
   {
      "GoBack" : "1",
      "longitude" : "120.68502",
      "outDis" : "50",
      "Id" : "0046",
      "oid" : "3702",
      "districtId" : "1",
      "nameZh" : "中友百貨",
      "pgp" : "0",
      "terminal" : "0",
      "latitude" : "24.15198",
      "inDis" : "50",
      "routeId" : "82",
      "seqNo" : "29"
   },
   {
      "GoBack" : "1",
      "longitude" : "120.68372",
      "outDis" : "50",
      "Id" : "0045",
      "oid" : "3703",
      "districtId" : "1",
      "nameZh" : "國立臺中科技大學",
      "pgp" : "0",
      "terminal" : "0",
      "latitude" : "24.14893",
      "inDis" : "50",
      "routeId" : "82",
      "seqNo" : "30"
   },
   {
      "GoBack" : "1",
      "longitude" : "120.68212",
      "outDis" : "50",
      "Id" : "4543",
      "oid" : "3704",
      "districtId" : "1",
      "nameZh" : "臺中公園(三民路)",
      "pgp" : "0",
      "terminal" : "0",
      "latitude" : "24.14507",
      "inDis" : "50",
      "routeId" : "82",
      "seqNo" : "31"
   },
   {
      "GoBack" : "1",
      "longitude" : "120.68111",
      "outDis" : "50",
      "Id" : "5506",
      "oid" : "3705",
      "districtId" : "1",
      "nameZh" : "光復國小(三民路)",
      "pgp" : "0",
      "terminal" : "0",
      "latitude" : "24.14397",
      "inDis" : "50",
      "routeId" : "82",
      "seqNo" : "32"
   },
   {
      "GoBack" : "1",
      "longitude" : "120.67977",
      "outDis" : "50",
      "Id" : "4609",
      "oid" : "3706",
      "districtId" : "1",
      "nameZh" : "第二市場(三民路)",
      "pgp" : "0",
      "terminal" : "0",
      "latitude" : "24.14267",
      "inDis" : "50",
      "routeId" : "82",
      "seqNo" : "33"
   },
   {
      "GoBack" : "1",
      "longitude" : "120.67909",
      "outDis" : "50",
      "Id" : "0777",
      "oid" : "3707",
      "districtId" : "1",
      "nameZh" : "第二信用",
      "pgp" : "0",
      "terminal" : "0",
      "latitude" : "24.1414",
      "inDis" : "50",
      "routeId" : "82",
      "seqNo" : "34"
   },
   {
      "GoBack" : "1",
      "longitude" : "120.6811",
      "outDis" : "50",
      "Id" : "4630",
      "oid" : "3708",
      "districtId" : "1",
      "nameZh" : "中山自由路口",
      "pgp" : "0",
      "terminal" : "0",
      "latitude" : "24.13977",
      "inDis" : "50",
      "routeId" : "82",
      "seqNo" : "35"
   },
   {
      "GoBack" : "1",
      "longitude" : "120.6824",
      "outDis" : "50",
      "Id" : "0216",
      "oid" : "3709",
      "districtId" : "1",
      "nameZh" : "彰化銀行(自由路)",
      "pgp" : "0",
      "terminal" : "0",
      "latitude" : "24.14004",
      "inDis" : "50",
      "routeId" : "82",
      "seqNo" : "36"
   },
   {
      "GoBack" : "1",
      "longitude" : "120.68486",
      "outDis" : "150",
      "Id" : "1824",
      "oid" : "3710",
      "districtId" : "1",
      "nameZh" : "臺中火車站",
      "pgp" : "0",
      "terminal" : "0",
      "latitude" : "24.13761",
      "inDis" : "150",
      "routeId" : "82",
      "seqNo" : "37"
   },
   {
      "GoBack" : "1",
      "longitude" : "120.68206",
      "outDis" : "50",
      "Id" : "0518",
      "oid" : "16668F90D13A4970A721B028C66DD04E",
      "districtId" : "1",
      "nameZh" : "臺中酒廠(復興路)",
      "pgp" : "0",
      "terminal" : "0",
      "latitude" : "24.13417",
      "inDis" : "50",
      "routeId" : "82",
      "seqNo" : "38"
   },
   {
      "GoBack" : "1",
      "longitude" : "120.67994",
      "outDis" : "50",
      "Id" : "1659",
      "oid" : "3712",
      "districtId" : "1",
      "nameZh" : "文化創意園區",
      "pgp" : "0",
      "terminal" : "0",
      "latitude" : "24.13317",
      "inDis" : "50",
      "routeId" : "82",
      "seqNo" : "39"
   },
   {
      "GoBack" : "1",
      "longitude" : "120.6784",
      "outDis" : "50",
      "Id" : "0180",
      "oid" : "3713",
      "districtId" : "1",
      "nameZh" : "林祖厝",
      "pgp" : "0",
      "terminal" : "0",
      "latitude" : "24.13252",
      "inDis" : "50",
      "routeId" : "82",
      "seqNo" : "40"
   },
   {
      "GoBack" : "1",
      "longitude" : "120.67606",
      "outDis" : "50",
      "Id" : "4604",
      "oid" : "3714",
      "districtId" : "1",
      "nameZh" : "復興有恆街口",
      "pgp" : "0",
      "terminal" : "0",
      "latitude" : "24.13163",
      "inDis" : "50",
      "routeId" : "82",
      "seqNo" : "41"
   },
   {
      "GoBack" : "1",
      "longitude" : "120.67428",
      "outDis" : "50",
      "Id" : "0178",
      "oid" : "3715",
      "districtId" : "1",
      "nameZh" : "第三分局",
      "pgp" : "0",
      "terminal" : "0",
      "latitude" : "24.13086",
      "inDis" : "50",
      "routeId" : "82",
      "seqNo" : "42"
   },
   {
      "GoBack" : "1",
      "longitude" : "120.67021",
      "outDis" : "50",
      "Id" : "5393",
      "oid" : "319430803",
      "districtId" : "1",
      "nameZh" : "公共資訊圖書館(復興路)",
      "pgp" : "0",
      "terminal" : "0",
      "latitude" : "24.12928",
      "inDis" : "50",
      "routeId" : "82",
      "seqNo" : "43"
   },
   {
      "GoBack" : "1",
      "longitude" : "120.66837",
      "outDis" : "50",
      "Id" : "5478",
      "oid" : "319311008",
      "districtId" : "1",
      "nameZh" : "高等法院臺中分院",
      "pgp" : "0",
      "terminal" : "0",
      "latitude" : "24.12838",
      "inDis" : "50",
      "routeId" : "82",
      "seqNo" : "44"
   },
   {
      "GoBack" : "1",
      "longitude" : "120.66569",
      "outDis" : "50",
      "Id" : "0543",
      "oid" : "3718",
      "districtId" : "1",
      "nameZh" : "四育國中",
      "pgp" : "0",
      "terminal" : "0",
      "latitude" : "24.12704",
      "inDis" : "50",
      "routeId" : "82",
      "seqNo" : "45"
   },
   {
      "GoBack" : "1",
      "longitude" : "120.66332",
      "outDis" : "50",
      "Id" : "3395",
      "oid" : "3719",
      "districtId" : "1",
      "nameZh" : "復興新和街口",
      "pgp" : "0",
      "terminal" : "0",
      "latitude" : "24.12391",
      "inDis" : "50",
      "routeId" : "82",
      "seqNo" : "46"
   },
   {
      "GoBack" : "1",
      "longitude" : "120.66112",
      "outDis" : "50",
      "Id" : "0128",
      "oid" : "3720",
      "districtId" : "1",
      "nameZh" : "和平國小",
      "pgp" : "0",
      "terminal" : "0",
      "latitude" : "24.1211",
      "inDis" : "50",
      "routeId" : "82",
      "seqNo" : "47"
   },
   {
      "GoBack" : "1",
      "longitude" : "120.65926",
      "outDis" : "50",
      "Id" : "0129",
      "oid" : "3721",
      "districtId" : "1",
      "nameZh" : "宜寧中學",
      "pgp" : "0",
      "terminal" : "0",
      "latitude" : "24.11882",
      "inDis" : "50",
      "routeId" : "82",
      "seqNo" : "48"
   },
   {
      "GoBack" : "1",
      "longitude" : "120.65793",
      "outDis" : "50",
      "Id" : "4538",
      "oid" : "3722",
      "districtId" : "1",
      "nameZh" : "臺中高工(復興路)",
      "pgp" : "0",
      "terminal" : "0",
      "latitude" : "24.11726",
      "inDis" : "50",
      "routeId" : "82",
      "seqNo" : "49"
   },
   {
      "GoBack" : "1",
      "longitude" : "120.65425",
      "outDis" : "50",
      "Id" : "4536",
      "oid" : "3724",
      "districtId" : "1",
      "nameZh" : "復興大慶街口",
      "pgp" : "0",
      "terminal" : "0",
      "latitude" : "24.11446",
      "inDis" : "50",
      "routeId" : "82",
      "seqNo" : "50"
   },
   {
      "GoBack" : "1",
      "longitude" : "120.65113",
      "outDis" : "50",
      "Id" : "3330",
      "oid" : "3725",
      "districtId" : "1",
      "nameZh" : "勤工派出所",
      "pgp" : "0",
      "terminal" : "0",
      "latitude" : "24.11225",
      "inDis" : "50",
      "routeId" : "82",
      "seqNo" : "51"
   },
   {
      "GoBack" : "1",
      "longitude" : "120.64799",
      "outDis" : "50",
      "Id" : "5195",
      "oid" : "3726",
      "districtId" : "1",
      "nameZh" : "復興環中路口",
      "pgp" : "0",
      "terminal" : "0",
      "latitude" : "24.11096",
      "inDis" : "50",
      "routeId" : "82",
      "seqNo" : "52"
   },
   {
      "GoBack" : "1",
      "longitude" : "120.64588",
      "outDis" : "50",
      "Id" : "3790",
      "oid" : "3727",
      "districtId" : "1",
      "nameZh" : "樹仔腳",
      "pgp" : "0",
      "terminal" : "0",
      "latitude" : "24.11023",
      "inDis" : "50",
      "routeId" : "82",
      "seqNo" : "53"
   },
   {
      "GoBack" : "1",
      "longitude" : "120.64169",
      "outDis" : "50",
      "Id" : "0994",
      "oid" : "3728",
      "districtId" : "1",
      "nameZh" : "九張犁",
      "pgp" : "0",
      "terminal" : "0",
      "latitude" : "24.1089",
      "inDis" : "50",
      "routeId" : "82",
      "seqNo" : "54"
   },
   {
      "GoBack" : "1",
      "longitude" : "120.63859",
      "outDis" : "50",
      "Id" : "2366",
      "oid" : "3729",
      "districtId" : "1",
      "nameZh" : "明道花園城",
      "pgp" : "0",
      "terminal" : "0",
      "latitude" : "24.10799",
      "inDis" : "50",
      "routeId" : "82",
      "seqNo" : "55"
   },
   {
      "GoBack" : "1",
      "longitude" : "120.63707",
      "outDis" : "50",
      "Id" : "2365",
      "oid" : "3730",
      "districtId" : "1",
      "nameZh" : "明道中學",
      "pgp" : "0",
      "terminal" : "0",
      "latitude" : "24.10751",
      "inDis" : "50",
      "routeId" : "82",
      "seqNo" : "56"
   },
   {
      "GoBack" : "1",
      "longitude" : "120.63287",
      "outDis" : "50",
      "Id" : "2821",
      "oid" : "8182",
      "districtId" : "1",
      "nameZh" : "烏日橋",
      "pgp" : "0",
      "terminal" : "0",
      "latitude" : "24.10578",
      "inDis" : "50",
      "routeId" : "82",
      "seqNo" : "57"
   },
   {
      "GoBack" : "1",
      "longitude" : "120.62824",
      "outDis" : "50",
      "Id" : "1454",
      "oid" : "3731",
      "districtId" : "1",
      "nameZh" : "中和紡織",
      "pgp" : "0",
      "terminal" : "0",
      "latitude" : "24.10574",
      "inDis" : "50",
      "routeId" : "82",
      "seqNo" : "58"
   },
   {
      "GoBack" : "1",
      "longitude" : "120.62645",
      "outDis" : "50",
      "Id" : "4660",
      "oid" : "3732",
      "districtId" : "1",
      "nameZh" : "中山五光路口",
      "pgp" : "0",
      "terminal" : "0",
      "latitude" : "24.10605",
      "inDis" : "50",
      "routeId" : "82",
      "seqNo" : "59"
   },
   {
      "GoBack" : "1",
      "longitude" : "120.62339",
      "outDis" : "50",
      "Id" : "2816",
      "oid" : "3733",
      "districtId" : "1",
      "nameZh" : "烏日",
      "pgp" : "0",
      "terminal" : "0",
      "latitude" : "24.10638",
      "inDis" : "50",
      "routeId" : "82",
      "seqNo" : "60"
   },
   {
      "GoBack" : "1",
      "longitude" : "120.61788",
      "outDis" : "50",
      "Id" : "2820",
      "oid" : "3734",
      "districtId" : "1",
      "nameZh" : "烏日國中",
      "pgp" : "0",
      "terminal" : "0",
      "latitude" : "24.10641",
      "inDis" : "50",
      "routeId" : "82",
      "seqNo" : "61"
   },
   {
      "GoBack" : "1",
      "longitude" : "120.61715",
      "outDis" : "50",
      "Id" : "2907",
      "oid" : "3735",
      "districtId" : "1",
      "nameZh" : "高鐵臺中站(15月台)",
      "pgp" : "0",
      "terminal" : "1",
      "latitude" : "24.11181",
      "inDis" : "50",
      "routeId" : "82",
      "seqNo" : "62"
   },
   {
      "GoBack" : "2",
      "longitude" : "120.61803",
      "outDis" : "50",
      "Id" : "2907",
      "oid" : "3737",
      "districtId" : "1",
      "nameZh" : "高鐵臺中站(15月台)",
      "pgp" : "0",
      "terminal" : "0",
      "latitude" : "24.11128",
      "inDis" : "50",
      "routeId" : "82",
      "seqNo" : "1"
   },
   {
      "GoBack" : "2",
      "longitude" : "120.61788",
      "outDis" : "50",
      "Id" : "2820",
      "oid" : "3738",
      "districtId" : "1",
      "nameZh" : "烏日國中",
      "pgp" : "0",
      "terminal" : "0",
      "latitude" : "24.10641",
      "inDis" : "50",
      "routeId" : "82",
      "seqNo" : "2"
   },
   {
      "GoBack" : "2",
      "longitude" : "120.62339",
      "outDis" : "50",
      "Id" : "2816",
      "oid" : "3739",
      "districtId" : "1",
      "nameZh" : "烏日",
      "pgp" : "0",
      "terminal" : "0",
      "latitude" : "24.10638",
      "inDis" : "50",
      "routeId" : "82",
      "seqNo" : "3"
   },
   {
      "GoBack" : "2",
      "longitude" : "120.62645",
      "outDis" : "50",
      "Id" : "4660",
      "oid" : "3740",
      "districtId" : "1",
      "nameZh" : "中山五光路口",
      "pgp" : "0",
      "terminal" : "0",
      "latitude" : "24.10605",
      "inDis" : "50",
      "routeId" : "82",
      "seqNo" : "4"
   },
   {
      "GoBack" : "2",
      "longitude" : "120.62824",
      "outDis" : "50",
      "Id" : "1454",
      "oid" : "3741",
      "districtId" : "1",
      "nameZh" : "中和紡織",
      "pgp" : "0",
      "terminal" : "0",
      "latitude" : "24.10574",
      "inDis" : "50",
      "routeId" : "82",
      "seqNo" : "5"
   },
   {
      "GoBack" : "2",
      "longitude" : "120.63287",
      "outDis" : "50",
      "Id" : "2821",
      "oid" : "8182",
      "districtId" : "1",
      "nameZh" : "烏日橋",
      "pgp" : "0",
      "terminal" : "0",
      "latitude" : "24.10578",
      "inDis" : "50",
      "routeId" : "82",
      "seqNo" : "6"
   },
   {
      "GoBack" : "2",
      "longitude" : "120.63707",
      "outDis" : "50",
      "Id" : "2365",
      "oid" : "3742",
      "districtId" : "1",
      "nameZh" : "明道中學",
      "pgp" : "0",
      "terminal" : "0",
      "latitude" : "24.10751",
      "inDis" : "50",
      "routeId" : "82",
      "seqNo" : "7"
   },
   {
      "GoBack" : "2",
      "longitude" : "120.63859",
      "outDis" : "50",
      "Id" : "2366",
      "oid" : "3743",
      "districtId" : "1",
      "nameZh" : "明道花園城",
      "pgp" : "0",
      "terminal" : "0",
      "latitude" : "24.10799",
      "inDis" : "50",
      "routeId" : "82",
      "seqNo" : "8"
   },
   {
      "GoBack" : "2",
      "longitude" : "120.64169",
      "outDis" : "50",
      "Id" : "0994",
      "oid" : "3744",
      "districtId" : "1",
      "nameZh" : "九張犁",
      "pgp" : "0",
      "terminal" : "0",
      "latitude" : "24.1089",
      "inDis" : "50",
      "routeId" : "82",
      "seqNo" : "9"
   },
   {
      "GoBack" : "2",
      "longitude" : "120.64588",
      "outDis" : "50",
      "Id" : "3790",
      "oid" : "3745",
      "districtId" : "1",
      "nameZh" : "樹仔腳",
      "pgp" : "0",
      "terminal" : "0",
      "latitude" : "24.11023",
      "inDis" : "50",
      "routeId" : "82",
      "seqNo" : "10"
   },
   {
      "GoBack" : "2",
      "longitude" : "120.64799",
      "outDis" : "50",
      "Id" : "5195",
      "oid" : "3746",
      "districtId" : "1",
      "nameZh" : "復興環中路口",
      "pgp" : "0",
      "terminal" : "0",
      "latitude" : "24.11096",
      "inDis" : "50",
      "routeId" : "82",
      "seqNo" : "11"
   },
   {
      "GoBack" : "2",
      "longitude" : "120.65113",
      "outDis" : "50",
      "Id" : "3330",
      "oid" : "3747",
      "districtId" : "1",
      "nameZh" : "勤工派出所",
      "pgp" : "0",
      "terminal" : "0",
      "latitude" : "24.11225",
      "inDis" : "50",
      "routeId" : "82",
      "seqNo" : "12"
   },
   {
      "GoBack" : "2",
      "longitude" : "120.65426",
      "outDis" : "50",
      "Id" : "4536",
      "oid" : "3748",
      "districtId" : "1",
      "nameZh" : "復興大慶街口",
      "pgp" : "0",
      "terminal" : "0",
      "latitude" : "24.11438",
      "inDis" : "50",
      "routeId" : "82",
      "seqNo" : "13"
   },
   {
      "GoBack" : "2",
      "longitude" : "120.65586",
      "outDis" : "50",
      "Id" : "0130",
      "oid" : "8174",
      "districtId" : "1",
      "nameZh" : "樹義里",
      "pgp" : "0",
      "terminal" : "0",
      "latitude" : "24.11562",
      "inDis" : "50",
      "routeId" : "82",
      "seqNo" : "14"
   },
   {
      "GoBack" : "2",
      "longitude" : "120.65793",
      "outDis" : "50",
      "Id" : "4538",
      "oid" : "3750",
      "districtId" : "1",
      "nameZh" : "臺中高工(復興路)",
      "pgp" : "0",
      "terminal" : "0",
      "latitude" : "24.11726",
      "inDis" : "50",
      "routeId" : "82",
      "seqNo" : "15"
   },
   {
      "GoBack" : "2",
      "longitude" : "120.65954",
      "outDis" : "50",
      "Id" : "0129",
      "oid" : "3751",
      "districtId" : "1",
      "nameZh" : "宜寧中學",
      "pgp" : "0",
      "terminal" : "0",
      "latitude" : "24.11891",
      "inDis" : "50",
      "routeId" : "82",
      "seqNo" : "16"
   },
   {
      "GoBack" : "2",
      "longitude" : "120.66112",
      "outDis" : "50",
      "Id" : "0128",
      "oid" : "3752",
      "districtId" : "1",
      "nameZh" : "和平國小",
      "pgp" : "0",
      "terminal" : "0",
      "latitude" : "24.1211",
      "inDis" : "50",
      "routeId" : "82",
      "seqNo" : "17"
   },
   {
      "GoBack" : "2",
      "longitude" : "120.66332",
      "outDis" : "50",
      "Id" : "3395",
      "oid" : "3753",
      "districtId" : "1",
      "nameZh" : "復興新和街口",
      "pgp" : "0",
      "terminal" : "0",
      "latitude" : "24.12391",
      "inDis" : "50",
      "routeId" : "82",
      "seqNo" : "18"
   },
   {
      "GoBack" : "2",
      "longitude" : "120.66569",
      "outDis" : "50",
      "Id" : "0543",
      "oid" : "3754",
      "districtId" : "1",
      "nameZh" : "四育國中",
      "pgp" : "0",
      "terminal" : "0",
      "latitude" : "24.12704",
      "inDis" : "50",
      "routeId" : "82",
      "seqNo" : "19"
   },
   {
      "GoBack" : "2",
      "longitude" : "120.66837",
      "outDis" : "50",
      "Id" : "5478",
      "oid" : "319311008",
      "districtId" : "1",
      "nameZh" : "高等法院臺中分院",
      "pgp" : "0",
      "terminal" : "0",
      "latitude" : "24.12838",
      "inDis" : "50",
      "routeId" : "82",
      "seqNo" : "20"
   },
   {
      "GoBack" : "2",
      "longitude" : "120.67196",
      "outDis" : "50",
      "Id" : "5393",
      "oid" : "312954998",
      "districtId" : "1",
      "nameZh" : "公共資訊圖書館(復興路)",
      "pgp" : "0",
      "terminal" : "0",
      "latitude" : "24.12985",
      "inDis" : "50",
      "routeId" : "82",
      "seqNo" : "21"
   },
   {
      "GoBack" : "2",
      "longitude" : "120.67428",
      "outDis" : "50",
      "Id" : "0178",
      "oid" : "3757",
      "districtId" : "1",
      "nameZh" : "第三分局",
      "pgp" : "0",
      "terminal" : "0",
      "latitude" : "24.13086",
      "inDis" : "50",
      "routeId" : "82",
      "seqNo" : "22"
   },
   {
      "GoBack" : "2",
      "longitude" : "120.67606",
      "outDis" : "50",
      "Id" : "4604",
      "oid" : "3758",
      "districtId" : "1",
      "nameZh" : "復興有恆街口",
      "pgp" : "0",
      "terminal" : "0",
      "latitude" : "24.13163",
      "inDis" : "50",
      "routeId" : "82",
      "seqNo" : "23"
   },
   {
      "GoBack" : "2",
      "longitude" : "120.67785",
      "outDis" : "50",
      "Id" : "0180",
      "oid" : "3759",
      "districtId" : "1",
      "nameZh" : "林祖厝",
      "pgp" : "0",
      "terminal" : "0",
      "latitude" : "24.13235",
      "inDis" : "50",
      "routeId" : "82",
      "seqNo" : "24"
   },
   {
      "GoBack" : "2",
      "longitude" : "120.67994",
      "outDis" : "50",
      "Id" : "1659",
      "oid" : "3760",
      "districtId" : "1",
      "nameZh" : "文化創意園區",
      "pgp" : "0",
      "terminal" : "0",
      "latitude" : "24.13317",
      "inDis" : "50",
      "routeId" : "82",
      "seqNo" : "25"
   },
   {
      "GoBack" : "2",
      "longitude" : "120.68154",
      "outDis" : "50",
      "Id" : "0518",
      "oid" : "99DDB9E7E5D74644A776349363113C49",
      "districtId" : "1",
      "nameZh" : "臺中酒廠(復興路)",
      "pgp" : "0",
      "terminal" : "0",
      "latitude" : "24.1338",
      "inDis" : "50",
      "routeId" : "82",
      "seqNo" : "26"
   },
   {
      "GoBack" : "2",
      "longitude" : "120.68462",
      "outDis" : "50",
      "Id" : "1824",
      "oid" : "3762",
      "districtId" : "1",
      "nameZh" : "臺中火車站",
      "pgp" : "0",
      "terminal" : "0",
      "latitude" : "24.13794",
      "inDis" : "50",
      "routeId" : "82",
      "seqNo" : "27"
   },
   {
      "GoBack" : "2",
      "longitude" : "120.68358",
      "outDis" : "50",
      "Id" : "0151",
      "oid" : "3763",
      "districtId" : "1",
      "nameZh" : "第一廣場",
      "pgp" : "0",
      "terminal" : "0",
      "latitude" : "24.13897",
      "inDis" : "50",
      "routeId" : "82",
      "seqNo" : "28"
   },
   {
      "GoBack" : "2",
      "longitude" : "120.68259",
      "outDis" : "50",
      "Id" : "0206",
      "oid" : "3764",
      "districtId" : "1",
      "nameZh" : "第一信用",
      "pgp" : "0",
      "terminal" : "0",
      "latitude" : "24.13969",
      "inDis" : "50",
      "routeId" : "82",
      "seqNo" : "29"
   },
   {
      "GoBack" : "2",
      "longitude" : "120.68003",
      "outDis" : "50",
      "Id" : "4395",
      "oid" : "3765",
      "districtId" : "1",
      "nameZh" : "第二市場(臺灣大道)",
      "pgp" : "0",
      "terminal" : "0",
      "latitude" : "24.14213",
      "inDis" : "50",
      "routeId" : "82",
      "seqNo" : "30"
   },
   {
      "GoBack" : "2",
      "longitude" : "120.68111",
      "outDis" : "50",
      "Id" : "5506",
      "oid" : "3766",
      "districtId" : "1",
      "nameZh" : "光復國小(三民路)",
      "pgp" : "0",
      "terminal" : "0",
      "latitude" : "24.14397",
      "inDis" : "50",
      "routeId" : "82",
      "seqNo" : "31"
   },
   {
      "GoBack" : "2",
      "longitude" : "120.68212",
      "outDis" : "50",
      "Id" : "4543",
      "oid" : "3767",
      "districtId" : "1",
      "nameZh" : "臺中公園(三民路)",
      "pgp" : "0",
      "terminal" : "0",
      "latitude" : "24.14507",
      "inDis" : "50",
      "routeId" : "82",
      "seqNo" : "32"
   },
   {
      "GoBack" : "2",
      "longitude" : "120.68397",
      "outDis" : "50",
      "Id" : "0045",
      "oid" : "3768",
      "districtId" : "1",
      "nameZh" : "國立臺中科技大學",
      "pgp" : "0",
      "terminal" : "0",
      "latitude" : "24.14955",
      "inDis" : "50",
      "routeId" : "82",
      "seqNo" : "33"
   },
   {
      "GoBack" : "2",
      "longitude" : "120.68502",
      "outDis" : "50",
      "Id" : "0046",
      "oid" : "3769",
      "districtId" : "1",
      "nameZh" : "中友百貨",
      "pgp" : "0",
      "terminal" : "0",
      "latitude" : "24.15198",
      "inDis" : "50",
      "routeId" : "82",
      "seqNo" : "34"
   },
   {
      "GoBack" : "2",
      "longitude" : "120.68578",
      "outDis" : "50",
      "Id" : "0047",
      "oid" : "3770",
      "districtId" : "1",
      "nameZh" : "一心市場",
      "pgp" : "0",
      "terminal" : "0",
      "latitude" : "24.1541",
      "inDis" : "50",
      "routeId" : "82",
      "seqNo" : "35"
   },
   {
      "GoBack" : "2",
      "longitude" : "120.6871",
      "outDis" : "50",
      "Id" : "0934",
      "oid" : "A369F80BD1F74F92A75B79E3B1367FC9",
      "districtId" : "1",
      "nameZh" : "三民錦中街口",
      "pgp" : "0",
      "terminal" : "0",
      "latitude" : "24.15556",
      "inDis" : "50",
      "routeId" : "82",
      "seqNo" : "36"
   },
   {
      "GoBack" : "2",
      "longitude" : "120.68794",
      "outDis" : "50",
      "Id" : "4399",
      "oid" : "3771",
      "districtId" : "1",
      "nameZh" : "新民高中(三民路)",
      "pgp" : "0",
      "terminal" : "0",
      "latitude" : "24.15622",
      "inDis" : "50",
      "routeId" : "82",
      "seqNo" : "37"
   },
   {
      "GoBack" : "2",
      "longitude" : "120.68973",
      "outDis" : "50",
      "Id" : "0960",
      "oid" : "3772",
      "districtId" : "1",
      "nameZh" : "寶覺寺",
      "pgp" : "0",
      "terminal" : "0",
      "latitude" : "24.15774",
      "inDis" : "50",
      "routeId" : "82",
      "seqNo" : "38"
   },
   {
      "GoBack" : "2",
      "longitude" : "120.69207",
      "outDis" : "50",
      "Id" : "0892",
      "oid" : "3773",
      "districtId" : "1",
      "nameZh" : "監理站",
      "pgp" : "0",
      "terminal" : "0",
      "latitude" : "24.16101",
      "inDis" : "50",
      "routeId" : "82",
      "seqNo" : "39"
   },
   {
      "GoBack" : "2",
      "longitude" : "120.69194",
      "outDis" : "50",
      "Id" : "5515",
      "oid" : "315467329",
      "districtId" : "1",
      "nameZh" : "北屯國小(進化北路)",
      "pgp" : "0",
      "terminal" : "0",
      "latitude" : "24.16284",
      "inDis" : "50",
      "routeId" : "82",
      "seqNo" : "40"
   },
   {
      "GoBack" : "2",
      "longitude" : "120.68986",
      "outDis" : "50",
      "Id" : "0493",
      "oid" : "12684",
      "districtId" : "1",
      "nameZh" : "北屯市場",
      "pgp" : "0",
      "terminal" : "0",
      "latitude" : "24.16306",
      "inDis" : "50",
      "routeId" : "82",
      "seqNo" : "41"
   },
   {
      "GoBack" : "2",
      "longitude" : "120.68796",
      "outDis" : "50",
      "Id" : "0830",
      "oid" : "3775",
      "districtId" : "1",
      "nameZh" : "稅務新村",
      "pgp" : "0",
      "terminal" : "0",
      "latitude" : "24.16302",
      "inDis" : "50",
      "routeId" : "82",
      "seqNo" : "42"
   },
   {
      "GoBack" : "2",
      "longitude" : "120.68642",
      "outDis" : "50",
      "Id" : "0800",
      "oid" : "3776",
      "districtId" : "1",
      "nameZh" : "頂厝里",
      "pgp" : "0",
      "terminal" : "0",
      "latitude" : "24.16304",
      "inDis" : "50",
      "routeId" : "82",
      "seqNo" : "43"
   },
   {
      "GoBack" : "2",
      "longitude" : "120.68497",
      "outDis" : "50",
      "Id" : "0098",
      "oid" : "3777",
      "districtId" : "1",
      "nameZh" : "崇德橋",
      "pgp" : "0",
      "terminal" : "0",
      "latitude" : "24.16411",
      "inDis" : "50",
      "routeId" : "82",
      "seqNo" : "44"
   },
   {
      "GoBack" : "2",
      "longitude" : "120.68498",
      "outDis" : "50",
      "Id" : "3511",
      "oid" : "3778",
      "districtId" : "1",
      "nameZh" : "聖德禪寺",
      "pgp" : "0",
      "terminal" : "0",
      "latitude" : "24.16793",
      "inDis" : "50",
      "routeId" : "82",
      "seqNo" : "45"
   },
   {
      "GoBack" : "2",
      "longitude" : "120.68522",
      "outDis" : "50",
      "Id" : "1768",
      "oid" : "3779",
      "districtId" : "1",
      "nameZh" : "崇德北平路口",
      "pgp" : "0",
      "terminal" : "0",
      "latitude" : "24.17051",
      "inDis" : "50",
      "routeId" : "82",
      "seqNo" : "46"
   },
   {
      "GoBack" : "2",
      "longitude" : "120.68239",
      "outDis" : "50",
      "Id" : "0224",
      "oid" : "3781",
      "districtId" : "1",
      "nameZh" : "文心國小",
      "pgp" : "0",
      "terminal" : "0",
      "latitude" : "24.17251",
      "inDis" : "50",
      "routeId" : "82",
      "seqNo" : "47"
   },
   {
      "GoBack" : "2",
      "longitude" : "120.67883",
      "outDis" : "50",
      "Id" : "4414",
      "oid" : "304254703",
      "districtId" : "1",
      "nameZh" : "文心梅川路口",
      "pgp" : "0",
      "terminal" : "0",
      "latitude" : "24.17299",
      "inDis" : "50",
      "routeId" : "82",
      "seqNo" : "48"
   },
   {
      "GoBack" : "2",
      "longitude" : "120.67696",
      "outDis" : "50",
      "Id" : "4277",
      "oid" : "3783",
      "districtId" : "1",
      "nameZh" : "文心山西路口",
      "pgp" : "0",
      "terminal" : "0",
      "latitude" : "24.17325",
      "inDis" : "50",
      "routeId" : "82",
      "seqNo" : "49"
   },
   {
      "GoBack" : "2",
      "longitude" : "120.67506",
      "outDis" : "50",
      "Id" : "4276",
      "oid" : "3784",
      "districtId" : "1",
      "nameZh" : "文心青島東街口",
      "pgp" : "0",
      "terminal" : "0",
      "latitude" : "24.17373",
      "inDis" : "50",
      "routeId" : "82",
      "seqNo" : "50"
   },
   {
      "GoBack" : "2",
      "longitude" : "120.67281",
      "outDis" : "50",
      "Id" : "4265",
      "oid" : "3785",
      "districtId" : "1",
      "nameZh" : "文心中清路口",
      "pgp" : "0",
      "terminal" : "0",
      "latitude" : "24.17392",
      "inDis" : "50",
      "routeId" : "82",
      "seqNo" : "51"
   },
   {
      "GoBack" : "2",
      "longitude" : "120.67119",
      "outDis" : "50",
      "Id" : "0334",
      "oid" : "3786",
      "districtId" : "1",
      "nameZh" : "下水湳",
      "pgp" : "0",
      "terminal" : "0",
      "latitude" : "24.17516",
      "inDis" : "50",
      "routeId" : "82",
      "seqNo" : "52"
   },
   {
      "GoBack" : "2",
      "longitude" : "120.67008",
      "outDis" : "30",
      "Id" : "0486",
      "oid" : "308022314",
      "districtId" : "1",
      "nameZh" : "水湳",
      "pgp" : "0",
      "terminal" : "0",
      "latitude" : "24.17636",
      "inDis" : "30",
      "routeId" : "82",
      "seqNo" : "53"
   },
   {
      "GoBack" : "2",
      "longitude" : "120.66916",
      "outDis" : "50",
      "Id" : "5100",
      "oid" : "3788",
      "districtId" : "1",
      "nameZh" : "水湳市場(中清路)",
      "pgp" : "0",
      "terminal" : "0",
      "latitude" : "24.17756",
      "inDis" : "50",
      "routeId" : "82",
      "seqNo" : "54"
   },
   {
      "GoBack" : "2",
      "longitude" : "120.66791",
      "outDis" : "50",
      "Id" : "0385",
      "oid" : "3789",
      "districtId" : "1",
      "nameZh" : "大德國中",
      "pgp" : "0",
      "terminal" : "0",
      "latitude" : "24.17938",
      "inDis" : "50",
      "routeId" : "82",
      "seqNo" : "55"
   },
   {
      "GoBack" : "2",
      "longitude" : "120.66655",
      "outDis" : "50",
      "Id" : "0593",
      "oid" : "3790",
      "districtId" : "1",
      "nameZh" : "全民醫院",
      "pgp" : "0",
      "terminal" : "0",
      "latitude" : "24.18127",
      "inDis" : "50",
      "routeId" : "82",
      "seqNo" : "56"
   },
   {
      "GoBack" : "2",
      "longitude" : "120.66584",
      "outDis" : "50",
      "Id" : "0789",
      "oid" : "3791",
      "districtId" : "1",
      "nameZh" : "陳平",
      "pgp" : "0",
      "terminal" : "0",
      "latitude" : "24.18275",
      "inDis" : "50",
      "routeId" : "82",
      "seqNo" : "57"
   },
   {
      "GoBack" : "2",
      "longitude" : "120.66496",
      "outDis" : "50",
      "Id" : "0801",
      "oid" : "3792",
      "districtId" : "1",
      "nameZh" : "頂陳平",
      "pgp" : "0",
      "terminal" : "0",
      "latitude" : "24.18437",
      "inDis" : "50",
      "routeId" : "82",
      "seqNo" : "58"
   },
   {
      "GoBack" : "2",
      "longitude" : "120.66396",
      "outDis" : "50",
      "Id" : "2638",
      "oid" : "3793",
      "districtId" : "1",
      "nameZh" : "后庄仔",
      "pgp" : "0",
      "terminal" : "0",
      "latitude" : "24.18601",
      "inDis" : "50",
      "routeId" : "82",
      "seqNo" : "59"
   },
   {
      "GoBack" : "2",
      "longitude" : "120.66282",
      "outDis" : "50",
      "Id" : "0989",
      "oid" : "3794",
      "districtId" : "1",
      "nameZh" : "中清后庄路口",
      "pgp" : "0",
      "terminal" : "0",
      "latitude" : "24.18802",
      "inDis" : "50",
      "routeId" : "82",
      "seqNo" : "60"
   },
   {
      "GoBack" : "2",
      "longitude" : "120.66161",
      "outDis" : "50",
      "Id" : "0708",
      "oid" : "3795",
      "districtId" : "1",
      "nameZh" : "后庄國宅",
      "pgp" : "0",
      "terminal" : "0",
      "latitude" : "24.1901",
      "inDis" : "50",
      "routeId" : "82",
      "seqNo" : "61"
   },
   {
      "GoBack" : "2",
      "longitude" : "120.66008",
      "outDis" : "50",
      "Id" : "3293",
      "oid" : "3796",
      "districtId" : "1",
      "nameZh" : "貿易三村",
      "pgp" : "0",
      "terminal" : "0",
      "latitude" : "24.19257",
      "inDis" : "50",
      "routeId" : "82",
      "seqNo" : "62"
   }
]
