[
   {
      "GoBack" : "1",
      "longitude" : "120.68387",
      "outDis" : "170",
      "Id" : "1824",
      "oid" : "5545",
      "districtId" : "1",
      "nameZh" : "臺中火車站",
      "pgp" : "0",
      "terminal" : "0",
      "latitude" : "24.13663",
      "inDis" : "50",
      "routeId" : "288",
      "seqNo" : "1"
   },
   {
      "GoBack" : "1",
      "longitude" : "120.68367",
      "outDis" : "50",
      "Id" : "0183",
      "oid" : "6337",
      "districtId" : "1",
      "nameZh" : "臺中家商",
      "pgp" : "0",
      "terminal" : "0",
      "latitude" : "24.13473",
      "inDis" : "50",
      "routeId" : "288",
      "seqNo" : "2"
   },
   {
      "GoBack" : "1",
      "longitude" : "120.68629",
      "outDis" : "50",
      "Id" : "0184",
      "oid" : "6022",
      "districtId" : "1",
      "nameZh" : "後火車站",
      "pgp" : "0",
      "terminal" : "0",
      "latitude" : "24.1358",
      "inDis" : "50",
      "routeId" : "288",
      "seqNo" : "3"
   },
   {
      "GoBack" : "1",
      "longitude" : "120.68804",
      "outDis" : "50",
      "Id" : "0185",
      "oid" : "9BA00BD0B58B41F6A5888BA89C541E51",
      "districtId" : "1",
      "nameZh" : "新時代購物中心",
      "pgp" : "0",
      "terminal" : "0",
      "latitude" : "24.13597",
      "inDis" : "50",
      "routeId" : "288",
      "seqNo" : "4"
   },
   {
      "GoBack" : "1",
      "longitude" : "120.68984",
      "outDis" : "50",
      "Id" : "0186",
      "oid" : "5850",
      "districtId" : "1",
      "nameZh" : "大智忠孝路口",
      "pgp" : "0",
      "terminal" : "0",
      "latitude" : "24.1325",
      "inDis" : "50",
      "routeId" : "288",
      "seqNo" : "5"
   },
   {
      "GoBack" : "1",
      "longitude" : "120.69233",
      "outDis" : "50",
      "Id" : "4362",
      "oid" : "AE8C3775B4774AB188B1DA065EC4EBC4",
      "districtId" : "1",
      "nameZh" : "建成大振街口",
      "pgp" : "0",
      "terminal" : "0",
      "latitude" : "24.13251",
      "inDis" : "50",
      "routeId" : "288",
      "seqNo" : "6"
   },
   {
      "GoBack" : "1",
      "longitude" : "120.69403",
      "outDis" : "50",
      "Id" : "4654",
      "oid" : "5235",
      "districtId" : "1",
      "nameZh" : "大東紡織(振興路)",
      "pgp" : "0",
      "terminal" : "0",
      "latitude" : "24.13289",
      "inDis" : "50",
      "routeId" : "288",
      "seqNo" : "7"
   },
   {
      "GoBack" : "1",
      "longitude" : "120.69636",
      "outDis" : "50",
      "Id" : "3617",
      "oid" : "6536",
      "districtId" : "1",
      "nameZh" : "漢聲電臺",
      "pgp" : "0",
      "terminal" : "0",
      "latitude" : "24.13303",
      "inDis" : "50",
      "routeId" : "288",
      "seqNo" : "8"
   },
   {
      "GoBack" : "1",
      "longitude" : "120.6981",
      "outDis" : "50",
      "Id" : "0190",
      "oid" : "5886",
      "districtId" : "1",
      "nameZh" : "東門橋",
      "pgp" : "0",
      "terminal" : "0",
      "latitude" : "24.13315",
      "inDis" : "50",
      "routeId" : "288",
      "seqNo" : "9"
   },
   {
      "GoBack" : "1",
      "longitude" : "120.70261",
      "outDis" : "50",
      "Id" : "2236",
      "oid" : "5786",
      "districtId" : "1",
      "nameZh" : "旱溪",
      "pgp" : "0",
      "terminal" : "0",
      "latitude" : "24.13143",
      "inDis" : "50",
      "routeId" : "288",
      "seqNo" : "10"
   },
   {
      "GoBack" : "1",
      "longitude" : "120.70528",
      "outDis" : "50",
      "Id" : "1642",
      "oid" : "5444",
      "districtId" : "1",
      "nameZh" : "太平橋前",
      "pgp" : "0",
      "terminal" : "0",
      "latitude" : "24.13024",
      "inDis" : "50",
      "routeId" : "288",
      "seqNo" : "11"
   },
   {
      "GoBack" : "1",
      "longitude" : "120.70883",
      "outDis" : "50",
      "Id" : "1185",
      "oid" : "5142",
      "districtId" : "1",
      "nameZh" : "下部仔",
      "pgp" : "0",
      "terminal" : "0",
      "latitude" : "24.1281",
      "inDis" : "50",
      "routeId" : "288",
      "seqNo" : "12"
   },
   {
      "GoBack" : "1",
      "longitude" : "120.71057",
      "outDis" : "50",
      "Id" : "4218",
      "oid" : "5509",
      "districtId" : "1",
      "nameZh" : "中油太平站",
      "pgp" : "0",
      "terminal" : "0",
      "latitude" : "24.12709",
      "inDis" : "50",
      "routeId" : "288",
      "seqNo" : "13"
   },
   {
      "GoBack" : "1",
      "longitude" : "120.71239",
      "outDis" : "50",
      "Id" : "1128",
      "oid" : "5110",
      "districtId" : "1",
      "nameZh" : "下太平",
      "pgp" : "0",
      "terminal" : "0",
      "latitude" : "24.12594",
      "inDis" : "50",
      "routeId" : "288",
      "seqNo" : "14"
   },
   {
      "GoBack" : "1",
      "longitude" : "120.71578",
      "outDis" : "50",
      "Id" : "1427",
      "oid" : "5311",
      "districtId" : "1",
      "nameZh" : "中太平",
      "pgp" : "0",
      "terminal" : "0",
      "latitude" : "24.12722",
      "inDis" : "50",
      "routeId" : "288",
      "seqNo" : "15"
   },
   {
      "GoBack" : "1",
      "longitude" : "120.71705",
      "outDis" : "50",
      "Id" : "4220",
      "oid" : "5439",
      "districtId" : "1",
      "nameZh" : "太平國小",
      "pgp" : "0",
      "terminal" : "0",
      "latitude" : "24.12805",
      "inDis" : "50",
      "routeId" : "288",
      "seqNo" : "16"
   },
   {
      "GoBack" : "1",
      "longitude" : "120.7168",
      "outDis" : "50",
      "Id" : "4716",
      "oid" : "306250856",
      "districtId" : "1",
      "nameZh" : "新平永平路口",
      "pgp" : "0",
      "terminal" : "0",
      "latitude" : "24.13163",
      "inDis" : "50",
      "routeId" : "288",
      "seqNo" : "17"
   },
   {
      "GoBack" : "1",
      "longitude" : "120.71864",
      "outDis" : "50",
      "Id" : "4717",
      "oid" : "306250858",
      "districtId" : "1",
      "nameZh" : "崇正寶宮",
      "pgp" : "0",
      "terminal" : "0",
      "latitude" : "24.13364",
      "inDis" : "50",
      "routeId" : "288",
      "seqNo" : "18"
   },
   {
      "GoBack" : "1",
      "longitude" : "120.72104",
      "outDis" : "50",
      "Id" : "4718",
      "oid" : "306376948",
      "districtId" : "1",
      "nameZh" : "東平中平路口",
      "pgp" : "0",
      "terminal" : "0",
      "latitude" : "24.13376",
      "inDis" : "50",
      "routeId" : "288",
      "seqNo" : "19"
   },
   {
      "GoBack" : "1",
      "longitude" : "120.72273",
      "outDis" : "50",
      "Id" : "4667",
      "oid" : "5883",
      "districtId" : "1",
      "nameZh" : "東平國小(東平路)",
      "pgp" : "0",
      "terminal" : "0",
      "latitude" : "24.1338",
      "inDis" : "50",
      "routeId" : "288",
      "seqNo" : "20"
   },
   {
      "GoBack" : "1",
      "longitude" : "120.72418",
      "outDis" : "50",
      "Id" : "1056",
      "oid" : "5064",
      "districtId" : "1",
      "nameZh" : "三叉",
      "pgp" : "0",
      "terminal" : "0",
      "latitude" : "24.13386",
      "inDis" : "50",
      "routeId" : "288",
      "seqNo" : "21"
   },
   {
      "GoBack" : "1",
      "longitude" : "120.72623",
      "outDis" : "50",
      "Id" : "1508",
      "oid" : "5354",
      "districtId" : "1",
      "nameZh" : "東平中興東路口",
      "pgp" : "0",
      "terminal" : "0",
      "latitude" : "24.13407",
      "inDis" : "50",
      "routeId" : "288",
      "seqNo" : "22"
   },
   {
      "GoBack" : "1",
      "longitude" : "120.72863",
      "outDis" : "50",
      "Id" : "3088",
      "oid" : "6278",
      "districtId" : "1",
      "nameZh" : "頂三叉",
      "pgp" : "0",
      "terminal" : "0",
      "latitude" : "24.13468",
      "inDis" : "50",
      "routeId" : "288",
      "seqNo" : "23"
   },
   {
      "GoBack" : "1",
      "longitude" : "120.7317",
      "outDis" : "50",
      "Id" : "1396",
      "oid" : "5292",
      "districtId" : "1",
      "nameZh" : "山腳",
      "pgp" : "0",
      "terminal" : "0",
      "latitude" : "24.13475",
      "inDis" : "50",
      "routeId" : "288",
      "seqNo" : "24"
   },
   {
      "GoBack" : "1",
      "longitude" : "120.73561",
      "outDis" : "50",
      "Id" : "0977",
      "oid" : "5730",
      "districtId" : "1",
      "nameZh" : "一江橋",
      "pgp" : "0",
      "terminal" : "0",
      "latitude" : "24.13352",
      "inDis" : "50",
      "routeId" : "288",
      "seqNo" : "25"
   },
   {
      "GoBack" : "1",
      "longitude" : "120.73919",
      "outDis" : "50",
      "Id" : "5259",
      "oid" : "310787826",
      "districtId" : "1",
      "nameZh" : "腦館(長龍路)",
      "pgp" : "0",
      "terminal" : "0",
      "latitude" : "24.13102",
      "inDis" : "50",
      "routeId" : "288",
      "seqNo" : "26"
   },
   {
      "GoBack" : "1",
      "longitude" : "120.74155",
      "outDis" : "50",
      "Id" : "3677",
      "oid" : "6569",
      "districtId" : "1",
      "nameZh" : "福嚴寺",
      "pgp" : "0",
      "terminal" : "0",
      "latitude" : "24.13101",
      "inDis" : "50",
      "routeId" : "288",
      "seqNo" : "27"
   },
   {
      "GoBack" : "1",
      "longitude" : "120.74455",
      "outDis" : "50",
      "Id" : "2731",
      "oid" : "6084",
      "districtId" : "1",
      "nameZh" : "香蕉市場",
      "pgp" : "0",
      "terminal" : "0",
      "latitude" : "24.13078",
      "inDis" : "50",
      "routeId" : "288",
      "seqNo" : "28"
   },
   {
      "GoBack" : "1",
      "longitude" : "120.74783",
      "outDis" : "50",
      "Id" : "1569",
      "oid" : "5389",
      "districtId" : "1",
      "nameZh" : "內城橋",
      "pgp" : "0",
      "terminal" : "0",
      "latitude" : "24.12654",
      "inDis" : "50",
      "routeId" : "288",
      "seqNo" : "29"
   },
   {
      "GoBack" : "1",
      "longitude" : "120.74906",
      "outDis" : "50",
      "Id" : "3827",
      "oid" : "6640",
      "districtId" : "1",
      "nameZh" : "頭汴坑",
      "pgp" : "0",
      "terminal" : "0",
      "latitude" : "24.12462",
      "inDis" : "50",
      "routeId" : "288",
      "seqNo" : "30"
   },
   {
      "GoBack" : "1",
      "longitude" : "120.75052",
      "outDis" : "50",
      "Id" : "3830",
      "oid" : "6643",
      "districtId" : "1",
      "nameZh" : "頭汴國小",
      "pgp" : "0",
      "terminal" : "0",
      "latitude" : "24.12314",
      "inDis" : "50",
      "routeId" : "288",
      "seqNo" : "31"
   },
   {
      "GoBack" : "1",
      "longitude" : "120.75138",
      "outDis" : "50",
      "Id" : "3179",
      "oid" : "6316",
      "districtId" : "1",
      "nameZh" : "頂頭汴坑",
      "pgp" : "0",
      "terminal" : "0",
      "latitude" : "24.12213",
      "inDis" : "50",
      "routeId" : "288",
      "seqNo" : "32"
   },
   {
      "GoBack" : "1",
      "longitude" : "120.757",
      "outDis" : "50",
      "Id" : "3861",
      "oid" : "6659",
      "districtId" : "1",
      "nameZh" : "龍眼腳",
      "pgp" : "0",
      "terminal" : "0",
      "latitude" : "24.11995",
      "inDis" : "50",
      "routeId" : "288",
      "seqNo" : "34"
   },
   {
      "GoBack" : "1",
      "longitude" : "120.75857",
      "outDis" : "50",
      "Id" : "2538",
      "oid" : "5964",
      "districtId" : "1",
      "nameZh" : "長龍吊橋",
      "pgp" : "0",
      "terminal" : "0",
      "latitude" : "24.11763",
      "inDis" : "50",
      "routeId" : "288",
      "seqNo" : "35"
   },
   {
      "GoBack" : "1",
      "longitude" : "120.76243",
      "outDis" : "50",
      "Id" : "3641",
      "oid" : "6547",
      "districtId" : "1",
      "nameZh" : "福利社",
      "pgp" : "0",
      "terminal" : "0",
      "latitude" : "24.11509",
      "inDis" : "50",
      "routeId" : "288",
      "seqNo" : "36"
   },
   {
      "GoBack" : "1",
      "longitude" : "120.76286",
      "outDis" : "50",
      "Id" : "2076",
      "oid" : "5702",
      "districtId" : "1",
      "nameZh" : "吊橋頭",
      "pgp" : "0",
      "terminal" : "0",
      "latitude" : "24.11296",
      "inDis" : "50",
      "routeId" : "288",
      "seqNo" : "37"
   },
   {
      "GoBack" : "1",
      "longitude" : "120.76489",
      "outDis" : "50",
      "Id" : "1101",
      "oid" : "5094",
      "districtId" : "1",
      "nameZh" : "三號橋",
      "pgp" : "0",
      "terminal" : "0",
      "latitude" : "24.10992",
      "inDis" : "50",
      "routeId" : "288",
      "seqNo" : "38"
   },
   {
      "GoBack" : "1",
      "longitude" : "120.76612",
      "outDis" : "50",
      "Id" : "5251",
      "oid" : "310787810",
      "districtId" : "1",
      "nameZh" : "草嶺橋",
      "pgp" : "0",
      "terminal" : "0",
      "latitude" : "24.10671",
      "inDis" : "50",
      "routeId" : "288",
      "seqNo" : "39"
   },
   {
      "GoBack" : "1",
      "longitude" : "120.76944",
      "outDis" : "50",
      "Id" : "5290",
      "oid" : "311033697",
      "districtId" : "1",
      "nameZh" : "佛恩寺",
      "pgp" : "0",
      "terminal" : "0",
      "latitude" : "24.10442",
      "inDis" : "50",
      "routeId" : "288",
      "seqNo" : "40"
   },
   {
      "GoBack" : "1",
      "longitude" : "120.77255",
      "outDis" : "50",
      "Id" : "4204",
      "oid" : "12289",
      "districtId" : "1",
      "nameZh" : "土地公崁",
      "pgp" : "0",
      "terminal" : "0",
      "latitude" : "24.10297",
      "inDis" : "50",
      "routeId" : "288",
      "seqNo" : "41"
   },
   {
      "GoBack" : "1",
      "longitude" : "120.77432",
      "outDis" : "50",
      "Id" : "1189",
      "oid" : "5147",
      "districtId" : "1",
      "nameZh" : "下湖",
      "pgp" : "0",
      "terminal" : "0",
      "latitude" : "24.10311",
      "inDis" : "50",
      "routeId" : "288",
      "seqNo" : "42"
   },
   {
      "GoBack" : "1",
      "longitude" : "120.77481",
      "outDis" : "50",
      "Id" : "1853",
      "oid" : "5580",
      "districtId" : "1",
      "nameZh" : "四號橋",
      "pgp" : "0",
      "terminal" : "0",
      "latitude" : "24.10419",
      "inDis" : "50",
      "routeId" : "288",
      "seqNo" : "43"
   },
   {
      "GoBack" : "1",
      "longitude" : "120.77677",
      "outDis" : "50",
      "Id" : "3028",
      "oid" : "6235",
      "districtId" : "1",
      "nameZh" : "清涼寺",
      "pgp" : "0",
      "terminal" : "0",
      "latitude" : "24.10591",
      "inDis" : "50",
      "routeId" : "288",
      "seqNo" : "44"
   },
   {
      "GoBack" : "1",
      "longitude" : "120.77842",
      "outDis" : "50",
      "Id" : "1749",
      "oid" : "5505",
      "districtId" : "1",
      "nameZh" : "仙子洞",
      "pgp" : "0",
      "terminal" : "0",
      "latitude" : "24.10716",
      "inDis" : "50",
      "routeId" : "288",
      "seqNo" : "45"
   },
   {
      "GoBack" : "1",
      "longitude" : "120.78012",
      "outDis" : "50",
      "Id" : "1541",
      "oid" : "5375",
      "districtId" : "1",
      "nameZh" : "五號橋",
      "pgp" : "0",
      "terminal" : "0",
      "latitude" : "24.10863",
      "inDis" : "50",
      "routeId" : "288",
      "seqNo" : "46"
   },
   {
      "GoBack" : "1",
      "longitude" : "120.78042",
      "outDis" : "50",
      "Id" : "3757",
      "oid" : "6608",
      "districtId" : "1",
      "nameZh" : "蝙蝠洞",
      "pgp" : "0",
      "terminal" : "0",
      "latitude" : "24.10903",
      "inDis" : "50",
      "routeId" : "288",
      "seqNo" : "47"
   },
   {
      "GoBack" : "1",
      "longitude" : "120.78167",
      "outDis" : "50",
      "Id" : "2769",
      "oid" : "6098",
      "districtId" : "1",
      "nameZh" : "埔鹽林",
      "pgp" : "0",
      "terminal" : "0",
      "latitude" : "24.11171",
      "inDis" : "50",
      "routeId" : "288",
      "seqNo" : "48"
   },
   {
      "GoBack" : "1",
      "longitude" : "120.78335",
      "outDis" : "50",
      "Id" : "3138",
      "oid" : "6301",
      "districtId" : "1",
      "nameZh" : "頂埔鹽林",
      "pgp" : "0",
      "terminal" : "0",
      "latitude" : "24.11349",
      "inDis" : "50",
      "routeId" : "288",
      "seqNo" : "49"
   },
   {
      "GoBack" : "1",
      "longitude" : "120.78466",
      "outDis" : "50",
      "Id" : "1723",
      "oid" : "5492",
      "districtId" : "1",
      "nameZh" : "水壩頭",
      "pgp" : "0",
      "terminal" : "0",
      "latitude" : "24.11494",
      "inDis" : "50",
      "routeId" : "288",
      "seqNo" : "50"
   },
   {
      "GoBack" : "1",
      "longitude" : "120.78826",
      "outDis" : "50",
      "Id" : "2848",
      "oid" : "6148",
      "districtId" : "1",
      "nameZh" : "荔枝頭",
      "pgp" : "0",
      "terminal" : "0",
      "latitude" : "24.11577",
      "inDis" : "50",
      "routeId" : "288",
      "seqNo" : "51"
   },
   {
      "GoBack" : "1",
      "longitude" : "120.79118",
      "outDis" : "50",
      "Id" : "5245",
      "oid" : "310787798",
      "districtId" : "1",
      "nameZh" : "長興橋",
      "pgp" : "0",
      "terminal" : "0",
      "latitude" : "24.11799",
      "inDis" : "50",
      "routeId" : "288",
      "seqNo" : "52"
   },
   {
      "GoBack" : "1",
      "longitude" : "120.79467",
      "outDis" : "50",
      "Id" : "5243",
      "oid" : "310787794",
      "districtId" : "1",
      "nameZh" : "東汴社區",
      "pgp" : "0",
      "terminal" : "0",
      "latitude" : "24.11857",
      "inDis" : "50",
      "routeId" : "288",
      "seqNo" : "53"
   },
   {
      "GoBack" : "1",
      "longitude" : "120.79658",
      "outDis" : "50",
      "Id" : "2704",
      "oid" : "6061",
      "districtId" : "1",
      "nameZh" : "茅埔",
      "pgp" : "0",
      "terminal" : "0",
      "latitude" : "24.11746",
      "inDis" : "50",
      "routeId" : "288",
      "seqNo" : "54"
   },
   {
      "GoBack" : "1",
      "longitude" : "120.80203",
      "outDis" : "50",
      "Id" : "5475",
      "oid" : "314344304",
      "districtId" : "1",
      "nameZh" : "天圓彌勒院",
      "pgp" : "0",
      "terminal" : "0",
      "latitude" : "24.11798",
      "inDis" : "50",
      "routeId" : "288",
      "seqNo" : "55"
   },
   {
      "GoBack" : "2",
      "longitude" : "120.80203",
      "outDis" : "50",
      "Id" : "5475",
      "oid" : "314344304",
      "districtId" : "1",
      "nameZh" : "天圓彌勒院",
      "pgp" : "0",
      "terminal" : "0",
      "latitude" : "24.11798",
      "inDis" : "50",
      "routeId" : "288",
      "seqNo" : "1"
   },
   {
      "GoBack" : "2",
      "longitude" : "120.79658",
      "outDis" : "50",
      "Id" : "2704",
      "oid" : "6061",
      "districtId" : "1",
      "nameZh" : "茅埔",
      "pgp" : "0",
      "terminal" : "0",
      "latitude" : "24.11746",
      "inDis" : "50",
      "routeId" : "288",
      "seqNo" : "2"
   },
   {
      "GoBack" : "2",
      "longitude" : "120.79467",
      "outDis" : "50",
      "Id" : "5243",
      "oid" : "310787795",
      "districtId" : "1",
      "nameZh" : "東汴社區",
      "pgp" : "0",
      "terminal" : "0",
      "latitude" : "24.11857",
      "inDis" : "50",
      "routeId" : "288",
      "seqNo" : "3"
   },
   {
      "GoBack" : "2",
      "longitude" : "120.79118",
      "outDis" : "50",
      "Id" : "5245",
      "oid" : "310787799",
      "districtId" : "1",
      "nameZh" : "長興橋",
      "pgp" : "0",
      "terminal" : "0",
      "latitude" : "24.11799",
      "inDis" : "50",
      "routeId" : "288",
      "seqNo" : "4"
   },
   {
      "GoBack" : "2",
      "longitude" : "120.78826",
      "outDis" : "50",
      "Id" : "2848",
      "oid" : "6148",
      "districtId" : "1",
      "nameZh" : "荔枝頭",
      "pgp" : "0",
      "terminal" : "0",
      "latitude" : "24.11577",
      "inDis" : "50",
      "routeId" : "288",
      "seqNo" : "5"
   },
   {
      "GoBack" : "2",
      "longitude" : "120.78466",
      "outDis" : "50",
      "Id" : "1723",
      "oid" : "5492",
      "districtId" : "1",
      "nameZh" : "水壩頭",
      "pgp" : "0",
      "terminal" : "0",
      "latitude" : "24.11494",
      "inDis" : "50",
      "routeId" : "288",
      "seqNo" : "6"
   },
   {
      "GoBack" : "2",
      "longitude" : "120.78335",
      "outDis" : "50",
      "Id" : "3138",
      "oid" : "6301",
      "districtId" : "1",
      "nameZh" : "頂埔鹽林",
      "pgp" : "0",
      "terminal" : "0",
      "latitude" : "24.11349",
      "inDis" : "50",
      "routeId" : "288",
      "seqNo" : "7"
   },
   {
      "GoBack" : "2",
      "longitude" : "120.78167",
      "outDis" : "50",
      "Id" : "2769",
      "oid" : "6098",
      "districtId" : "1",
      "nameZh" : "埔鹽林",
      "pgp" : "0",
      "terminal" : "0",
      "latitude" : "24.11171",
      "inDis" : "50",
      "routeId" : "288",
      "seqNo" : "8"
   },
   {
      "GoBack" : "2",
      "longitude" : "120.78042",
      "outDis" : "50",
      "Id" : "3757",
      "oid" : "6608",
      "districtId" : "1",
      "nameZh" : "蝙蝠洞",
      "pgp" : "0",
      "terminal" : "0",
      "latitude" : "24.10903",
      "inDis" : "50",
      "routeId" : "288",
      "seqNo" : "9"
   },
   {
      "GoBack" : "2",
      "longitude" : "120.78012",
      "outDis" : "50",
      "Id" : "1541",
      "oid" : "5375",
      "districtId" : "1",
      "nameZh" : "五號橋",
      "pgp" : "0",
      "terminal" : "0",
      "latitude" : "24.10863",
      "inDis" : "50",
      "routeId" : "288",
      "seqNo" : "10"
   },
   {
      "GoBack" : "2",
      "longitude" : "120.77842",
      "outDis" : "50",
      "Id" : "1749",
      "oid" : "5505",
      "districtId" : "1",
      "nameZh" : "仙子洞",
      "pgp" : "0",
      "terminal" : "0",
      "latitude" : "24.10716",
      "inDis" : "50",
      "routeId" : "288",
      "seqNo" : "11"
   },
   {
      "GoBack" : "2",
      "longitude" : "120.77677",
      "outDis" : "50",
      "Id" : "3028",
      "oid" : "6235",
      "districtId" : "1",
      "nameZh" : "清涼寺",
      "pgp" : "0",
      "terminal" : "0",
      "latitude" : "24.10591",
      "inDis" : "50",
      "routeId" : "288",
      "seqNo" : "12"
   },
   {
      "GoBack" : "2",
      "longitude" : "120.77481",
      "outDis" : "50",
      "Id" : "1853",
      "oid" : "5580",
      "districtId" : "1",
      "nameZh" : "四號橋",
      "pgp" : "0",
      "terminal" : "0",
      "latitude" : "24.10419",
      "inDis" : "50",
      "routeId" : "288",
      "seqNo" : "13"
   },
   {
      "GoBack" : "2",
      "longitude" : "120.77432",
      "outDis" : "50",
      "Id" : "1189",
      "oid" : "5147",
      "districtId" : "1",
      "nameZh" : "下湖",
      "pgp" : "0",
      "terminal" : "0",
      "latitude" : "24.10311",
      "inDis" : "50",
      "routeId" : "288",
      "seqNo" : "14"
   },
   {
      "GoBack" : "2",
      "longitude" : "120.77255",
      "outDis" : "50",
      "Id" : "4204",
      "oid" : "12289",
      "districtId" : "1",
      "nameZh" : "土地公崁",
      "pgp" : "0",
      "terminal" : "0",
      "latitude" : "24.10297",
      "inDis" : "50",
      "routeId" : "288",
      "seqNo" : "15"
   },
   {
      "GoBack" : "2",
      "longitude" : "120.76944",
      "outDis" : "50",
      "Id" : "5290",
      "oid" : "311033697",
      "districtId" : "1",
      "nameZh" : "佛恩寺",
      "pgp" : "0",
      "terminal" : "0",
      "latitude" : "24.10442",
      "inDis" : "50",
      "routeId" : "288",
      "seqNo" : "16"
   },
   {
      "GoBack" : "2",
      "longitude" : "120.76612",
      "outDis" : "50",
      "Id" : "5251",
      "oid" : "310787811",
      "districtId" : "1",
      "nameZh" : "草嶺橋",
      "pgp" : "0",
      "terminal" : "0",
      "latitude" : "24.10671",
      "inDis" : "50",
      "routeId" : "288",
      "seqNo" : "17"
   },
   {
      "GoBack" : "2",
      "longitude" : "120.76489",
      "outDis" : "50",
      "Id" : "1101",
      "oid" : "5094",
      "districtId" : "1",
      "nameZh" : "三號橋",
      "pgp" : "0",
      "terminal" : "0",
      "latitude" : "24.10992",
      "inDis" : "50",
      "routeId" : "288",
      "seqNo" : "18"
   },
   {
      "GoBack" : "2",
      "longitude" : "120.76286",
      "outDis" : "50",
      "Id" : "2076",
      "oid" : "5702",
      "districtId" : "1",
      "nameZh" : "吊橋頭",
      "pgp" : "0",
      "terminal" : "0",
      "latitude" : "24.11296",
      "inDis" : "50",
      "routeId" : "288",
      "seqNo" : "19"
   },
   {
      "GoBack" : "2",
      "longitude" : "120.76243",
      "outDis" : "50",
      "Id" : "3641",
      "oid" : "6547",
      "districtId" : "1",
      "nameZh" : "福利社",
      "pgp" : "0",
      "terminal" : "0",
      "latitude" : "24.11509",
      "inDis" : "50",
      "routeId" : "288",
      "seqNo" : "20"
   },
   {
      "GoBack" : "2",
      "longitude" : "120.75857",
      "outDis" : "50",
      "Id" : "2538",
      "oid" : "5964",
      "districtId" : "1",
      "nameZh" : "長龍吊橋",
      "pgp" : "0",
      "terminal" : "0",
      "latitude" : "24.11763",
      "inDis" : "50",
      "routeId" : "288",
      "seqNo" : "21"
   },
   {
      "GoBack" : "2",
      "longitude" : "120.757",
      "outDis" : "50",
      "Id" : "3861",
      "oid" : "6659",
      "districtId" : "1",
      "nameZh" : "龍眼腳",
      "pgp" : "0",
      "terminal" : "0",
      "latitude" : "24.11995",
      "inDis" : "50",
      "routeId" : "288",
      "seqNo" : "22"
   },
   {
      "GoBack" : "2",
      "longitude" : "120.75138",
      "outDis" : "50",
      "Id" : "3179",
      "oid" : "6316",
      "districtId" : "1",
      "nameZh" : "頂頭汴坑",
      "pgp" : "0",
      "terminal" : "0",
      "latitude" : "24.12213",
      "inDis" : "50",
      "routeId" : "288",
      "seqNo" : "24"
   },
   {
      "GoBack" : "2",
      "longitude" : "120.75052",
      "outDis" : "50",
      "Id" : "3830",
      "oid" : "6643",
      "districtId" : "1",
      "nameZh" : "頭汴國小",
      "pgp" : "0",
      "terminal" : "0",
      "latitude" : "24.12314",
      "inDis" : "50",
      "routeId" : "288",
      "seqNo" : "25"
   },
   {
      "GoBack" : "2",
      "longitude" : "120.74906",
      "outDis" : "50",
      "Id" : "3827",
      "oid" : "6640",
      "districtId" : "1",
      "nameZh" : "頭汴坑",
      "pgp" : "0",
      "terminal" : "0",
      "latitude" : "24.12462",
      "inDis" : "50",
      "routeId" : "288",
      "seqNo" : "26"
   },
   {
      "GoBack" : "2",
      "longitude" : "120.74783",
      "outDis" : "50",
      "Id" : "1569",
      "oid" : "5389",
      "districtId" : "1",
      "nameZh" : "內城橋",
      "pgp" : "0",
      "terminal" : "0",
      "latitude" : "24.12654",
      "inDis" : "50",
      "routeId" : "288",
      "seqNo" : "27"
   },
   {
      "GoBack" : "2",
      "longitude" : "120.74455",
      "outDis" : "50",
      "Id" : "2731",
      "oid" : "6084",
      "districtId" : "1",
      "nameZh" : "香蕉市場",
      "pgp" : "0",
      "terminal" : "0",
      "latitude" : "24.13078",
      "inDis" : "50",
      "routeId" : "288",
      "seqNo" : "28"
   },
   {
      "GoBack" : "2",
      "longitude" : "120.74155",
      "outDis" : "50",
      "Id" : "3677",
      "oid" : "6569",
      "districtId" : "1",
      "nameZh" : "福嚴寺",
      "pgp" : "0",
      "terminal" : "0",
      "latitude" : "24.13101",
      "inDis" : "50",
      "routeId" : "288",
      "seqNo" : "29"
   },
   {
      "GoBack" : "2",
      "longitude" : "120.73919",
      "outDis" : "50",
      "Id" : "5259",
      "oid" : "310787827",
      "districtId" : "1",
      "nameZh" : "腦館(長龍路)",
      "pgp" : "0",
      "terminal" : "0",
      "latitude" : "24.13102",
      "inDis" : "50",
      "routeId" : "288",
      "seqNo" : "30"
   },
   {
      "GoBack" : "2",
      "longitude" : "120.73561",
      "outDis" : "50",
      "Id" : "0977",
      "oid" : "5730",
      "districtId" : "1",
      "nameZh" : "一江橋",
      "pgp" : "0",
      "terminal" : "0",
      "latitude" : "24.13352",
      "inDis" : "50",
      "routeId" : "288",
      "seqNo" : "31"
   },
   {
      "GoBack" : "2",
      "longitude" : "120.7317",
      "outDis" : "50",
      "Id" : "1396",
      "oid" : "5292",
      "districtId" : "1",
      "nameZh" : "山腳",
      "pgp" : "0",
      "terminal" : "0",
      "latitude" : "24.13475",
      "inDis" : "50",
      "routeId" : "288",
      "seqNo" : "32"
   },
   {
      "GoBack" : "2",
      "longitude" : "120.72863",
      "outDis" : "50",
      "Id" : "3088",
      "oid" : "6278",
      "districtId" : "1",
      "nameZh" : "頂三叉",
      "pgp" : "0",
      "terminal" : "0",
      "latitude" : "24.13468",
      "inDis" : "50",
      "routeId" : "288",
      "seqNo" : "33"
   },
   {
      "GoBack" : "2",
      "longitude" : "120.72623",
      "outDis" : "50",
      "Id" : "1508",
      "oid" : "5354",
      "districtId" : "1",
      "nameZh" : "東平中興東路口",
      "pgp" : "0",
      "terminal" : "0",
      "latitude" : "24.13407",
      "inDis" : "50",
      "routeId" : "288",
      "seqNo" : "34"
   },
   {
      "GoBack" : "2",
      "longitude" : "120.72418",
      "outDis" : "50",
      "Id" : "1056",
      "oid" : "5064",
      "districtId" : "1",
      "nameZh" : "三叉",
      "pgp" : "0",
      "terminal" : "0",
      "latitude" : "24.13386",
      "inDis" : "50",
      "routeId" : "288",
      "seqNo" : "35"
   },
   {
      "GoBack" : "2",
      "longitude" : "120.72273",
      "outDis" : "50",
      "Id" : "4667",
      "oid" : "5883",
      "districtId" : "1",
      "nameZh" : "東平國小(東平路)",
      "pgp" : "0",
      "terminal" : "0",
      "latitude" : "24.1338",
      "inDis" : "50",
      "routeId" : "288",
      "seqNo" : "36"
   },
   {
      "GoBack" : "2",
      "longitude" : "120.72104",
      "outDis" : "50",
      "Id" : "4718",
      "oid" : "306376948",
      "districtId" : "1",
      "nameZh" : "東平中平路口",
      "pgp" : "0",
      "terminal" : "0",
      "latitude" : "24.13376",
      "inDis" : "50",
      "routeId" : "288",
      "seqNo" : "37"
   },
   {
      "GoBack" : "2",
      "longitude" : "120.71864",
      "outDis" : "50",
      "Id" : "4717",
      "oid" : "306250858",
      "districtId" : "1",
      "nameZh" : "崇正寶宮",
      "pgp" : "0",
      "terminal" : "0",
      "latitude" : "24.13364",
      "inDis" : "50",
      "routeId" : "288",
      "seqNo" : "38"
   },
   {
      "GoBack" : "2",
      "longitude" : "120.7168",
      "outDis" : "50",
      "Id" : "4716",
      "oid" : "306250856",
      "districtId" : "1",
      "nameZh" : "新平永平路口",
      "pgp" : "0",
      "terminal" : "0",
      "latitude" : "24.13163",
      "inDis" : "50",
      "routeId" : "288",
      "seqNo" : "39"
   },
   {
      "GoBack" : "2",
      "longitude" : "120.71705",
      "outDis" : "50",
      "Id" : "4220",
      "oid" : "5439",
      "districtId" : "1",
      "nameZh" : "太平國小",
      "pgp" : "0",
      "terminal" : "0",
      "latitude" : "24.12805",
      "inDis" : "50",
      "routeId" : "288",
      "seqNo" : "40"
   },
   {
      "GoBack" : "2",
      "longitude" : "120.71578",
      "outDis" : "50",
      "Id" : "1427",
      "oid" : "5311",
      "districtId" : "1",
      "nameZh" : "中太平",
      "pgp" : "0",
      "terminal" : "0",
      "latitude" : "24.12722",
      "inDis" : "50",
      "routeId" : "288",
      "seqNo" : "41"
   },
   {
      "GoBack" : "2",
      "longitude" : "120.71239",
      "outDis" : "50",
      "Id" : "1128",
      "oid" : "5110",
      "districtId" : "1",
      "nameZh" : "下太平",
      "pgp" : "0",
      "terminal" : "0",
      "latitude" : "24.12594",
      "inDis" : "50",
      "routeId" : "288",
      "seqNo" : "42"
   },
   {
      "GoBack" : "2",
      "longitude" : "120.71057",
      "outDis" : "50",
      "Id" : "4218",
      "oid" : "5509",
      "districtId" : "1",
      "nameZh" : "中油太平站",
      "pgp" : "0",
      "terminal" : "0",
      "latitude" : "24.12709",
      "inDis" : "50",
      "routeId" : "288",
      "seqNo" : "43"
   },
   {
      "GoBack" : "2",
      "longitude" : "120.70883",
      "outDis" : "50",
      "Id" : "1185",
      "oid" : "5142",
      "districtId" : "1",
      "nameZh" : "下部仔",
      "pgp" : "0",
      "terminal" : "0",
      "latitude" : "24.1281",
      "inDis" : "50",
      "routeId" : "288",
      "seqNo" : "44"
   },
   {
      "GoBack" : "2",
      "longitude" : "120.70528",
      "outDis" : "50",
      "Id" : "1642",
      "oid" : "5444",
      "districtId" : "1",
      "nameZh" : "太平橋前",
      "pgp" : "0",
      "terminal" : "0",
      "latitude" : "24.13024",
      "inDis" : "50",
      "routeId" : "288",
      "seqNo" : "45"
   },
   {
      "GoBack" : "2",
      "longitude" : "120.70261",
      "outDis" : "50",
      "Id" : "2236",
      "oid" : "5786",
      "districtId" : "1",
      "nameZh" : "旱溪",
      "pgp" : "0",
      "terminal" : "0",
      "latitude" : "24.13143",
      "inDis" : "50",
      "routeId" : "288",
      "seqNo" : "46"
   },
   {
      "GoBack" : "2",
      "longitude" : "120.6981",
      "outDis" : "50",
      "Id" : "0190",
      "oid" : "5886",
      "districtId" : "1",
      "nameZh" : "東門橋",
      "pgp" : "0",
      "terminal" : "0",
      "latitude" : "24.13315",
      "inDis" : "50",
      "routeId" : "288",
      "seqNo" : "47"
   },
   {
      "GoBack" : "2",
      "longitude" : "120.69636",
      "outDis" : "50",
      "Id" : "3617",
      "oid" : "6536",
      "districtId" : "1",
      "nameZh" : "漢聲電臺",
      "pgp" : "0",
      "terminal" : "0",
      "latitude" : "24.13303",
      "inDis" : "50",
      "routeId" : "288",
      "seqNo" : "48"
   },
   {
      "GoBack" : "2",
      "longitude" : "120.69403",
      "outDis" : "50",
      "Id" : "4654",
      "oid" : "5235",
      "districtId" : "1",
      "nameZh" : "大東紡織(振興路)",
      "pgp" : "0",
      "terminal" : "0",
      "latitude" : "24.13289",
      "inDis" : "50",
      "routeId" : "288",
      "seqNo" : "49"
   },
   {
      "GoBack" : "2",
      "longitude" : "120.69233",
      "outDis" : "50",
      "Id" : "4362",
      "oid" : "AE8C3775B4774AB188B1DA065EC4EBC4",
      "districtId" : "1",
      "nameZh" : "建成大振街口",
      "pgp" : "0",
      "terminal" : "0",
      "latitude" : "24.13251",
      "inDis" : "50",
      "routeId" : "288",
      "seqNo" : "50"
   },
   {
      "GoBack" : "2",
      "longitude" : "120.68984",
      "outDis" : "50",
      "Id" : "0186",
      "oid" : "5850",
      "districtId" : "1",
      "nameZh" : "大智忠孝路口",
      "pgp" : "0",
      "terminal" : "0",
      "latitude" : "24.1325",
      "inDis" : "50",
      "routeId" : "288",
      "seqNo" : "51"
   },
   {
      "GoBack" : "2",
      "longitude" : "120.68804",
      "outDis" : "50",
      "Id" : "0185",
      "oid" : "9BA00BD0B58B41F6A5888BA89C541E51",
      "districtId" : "1",
      "nameZh" : "新時代購物中心",
      "pgp" : "0",
      "terminal" : "0",
      "latitude" : "24.13597",
      "inDis" : "50",
      "routeId" : "288",
      "seqNo" : "52"
   },
   {
      "GoBack" : "2",
      "longitude" : "120.68629",
      "outDis" : "50",
      "Id" : "0184",
      "oid" : "6022",
      "districtId" : "1",
      "nameZh" : "後火車站",
      "pgp" : "0",
      "terminal" : "0",
      "latitude" : "24.1358",
      "inDis" : "50",
      "routeId" : "288",
      "seqNo" : "53"
   },
   {
      "GoBack" : "2",
      "longitude" : "120.68367",
      "outDis" : "50",
      "Id" : "0183",
      "oid" : "6337",
      "districtId" : "1",
      "nameZh" : "臺中家商",
      "pgp" : "0",
      "terminal" : "0",
      "latitude" : "24.13473",
      "inDis" : "50",
      "routeId" : "288",
      "seqNo" : "54"
   },
   {
      "GoBack" : "2",
      "longitude" : "120.68387",
      "outDis" : "170",
      "Id" : "1824",
      "oid" : "5545",
      "districtId" : "1",
      "nameZh" : "臺中火車站",
      "pgp" : "0",
      "terminal" : "0",
      "latitude" : "24.13663",
      "inDis" : "50",
      "routeId" : "288",
      "seqNo" : "55"
   }
]
