[
   {
      "GoBack" : "1",
      "longitude" : "120.65468",
      "outDis" : "50",
      "Id" : "5534",
      "oid" : "316349761",
      "districtId" : "1",
      "nameZh" : "大慶活動中心",
      "pgp" : "0",
      "terminal" : "0",
      "latitude" : "24.11954",
      "inDis" : "50",
      "routeId" : "58",
      "seqNo" : "1"
   },
   {
      "GoBack" : "1",
      "longitude" : "120.65569",
      "outDis" : "50",
      "Id" : "5535",
      "oid" : "316349763",
      "districtId" : "1",
      "nameZh" : "東興復興北路口",
      "pgp" : "0",
      "terminal" : "0",
      "latitude" : "24.12035",
      "inDis" : "50",
      "routeId" : "58",
      "seqNo" : "2"
   },
   {
      "GoBack" : "1",
      "longitude" : "120.65753",
      "outDis" : "50",
      "Id" : "0134",
      "oid" : "316349765",
      "districtId" : "1",
      "nameZh" : "東興樹義一巷口",
      "pgp" : "0",
      "terminal" : "0",
      "latitude" : "24.11829",
      "inDis" : "50",
      "routeId" : "58",
      "seqNo" : "3"
   },
   {
      "GoBack" : "1",
      "longitude" : "120.66048",
      "outDis" : "50",
      "Id" : "5474",
      "oid" : "314316879",
      "districtId" : "1",
      "nameZh" : "臺中高工(工學六街)",
      "pgp" : "0",
      "terminal" : "0",
      "latitude" : "24.11667",
      "inDis" : "50",
      "routeId" : "58",
      "seqNo" : "4"
   },
   {
      "GoBack" : "1",
      "longitude" : "120.66241",
      "outDis" : "50",
      "Id" : "4537",
      "oid" : "13141",
      "districtId" : "1",
      "nameZh" : "臺中高工(高工路)",
      "pgp" : "0",
      "terminal" : "0",
      "latitude" : "24.11325",
      "inDis" : "50",
      "routeId" : "58",
      "seqNo" : "5"
   },
   {
      "GoBack" : "1",
      "longitude" : "120.66527",
      "outDis" : "50",
      "Id" : "4258",
      "oid" : "21176B71C89744EEBC020FD2A8159A37",
      "districtId" : "1",
      "nameZh" : "工學一街口",
      "pgp" : "0",
      "terminal" : "0",
      "latitude" : "24.11389",
      "inDis" : "50",
      "routeId" : "58",
      "seqNo" : "6"
   },
   {
      "GoBack" : "1",
      "longitude" : "120.66795",
      "outDis" : "50",
      "Id" : "4367",
      "oid" : "13236",
      "districtId" : "1",
      "nameZh" : "僑泰中學(高工路)",
      "pgp" : "0",
      "terminal" : "0",
      "latitude" : "24.11431",
      "inDis" : "50",
      "routeId" : "58",
      "seqNo" : "7"
   },
   {
      "GoBack" : "1",
      "longitude" : "120.67171",
      "outDis" : "50",
      "Id" : "4305",
      "oid" : "13232",
      "districtId" : "1",
      "nameZh" : "積善公園",
      "pgp" : "0",
      "terminal" : "0",
      "latitude" : "24.11476",
      "inDis" : "50",
      "routeId" : "58",
      "seqNo" : "8"
   },
   {
      "GoBack" : "1",
      "longitude" : "120.67597",
      "outDis" : "50",
      "Id" : "4257",
      "oid" : "12484",
      "districtId" : "1",
      "nameZh" : "大明爽文路口",
      "pgp" : "0",
      "terminal" : "0",
      "latitude" : "24.11493",
      "inDis" : "50",
      "routeId" : "58",
      "seqNo" : "9"
   },
   {
      "GoBack" : "1",
      "longitude" : "120.67838",
      "outDis" : "50",
      "Id" : "4256",
      "oid" : "13078",
      "districtId" : "1",
      "nameZh" : "大明國光路口",
      "pgp" : "0",
      "terminal" : "0",
      "latitude" : "24.11505",
      "inDis" : "50",
      "routeId" : "58",
      "seqNo" : "10"
   },
   {
      "GoBack" : "1",
      "longitude" : "120.67937",
      "outDis" : "50",
      "Id" : "2930",
      "oid" : "303568455",
      "districtId" : "1",
      "nameZh" : "國光橋",
      "pgp" : "0",
      "terminal" : "0",
      "latitude" : "24.11606",
      "inDis" : "50",
      "routeId" : "58",
      "seqNo" : "11"
   },
   {
      "GoBack" : "1",
      "longitude" : "120.67942",
      "outDis" : "50",
      "Id" : "4292",
      "oid" : "12612",
      "districtId" : "1",
      "nameZh" : "國光忠明南路口",
      "pgp" : "0",
      "terminal" : "0",
      "latitude" : "24.11823",
      "inDis" : "50",
      "routeId" : "58",
      "seqNo" : "12"
   },
   {
      "GoBack" : "1",
      "longitude" : "120.68199",
      "outDis" : "50",
      "Id" : "4535",
      "oid" : "303568456",
      "districtId" : "1",
      "nameZh" : "忠明南國光路口",
      "pgp" : "0",
      "terminal" : "0",
      "latitude" : "24.11886",
      "inDis" : "50",
      "routeId" : "58",
      "seqNo" : "13"
   },
   {
      "GoBack" : "1",
      "longitude" : "120.68407",
      "outDis" : "50",
      "Id" : "4618",
      "oid" : "13310",
      "districtId" : "1",
      "nameZh" : "明德高中(明德街)",
      "pgp" : "0",
      "terminal" : "0",
      "latitude" : "24.12079",
      "inDis" : "50",
      "routeId" : "58",
      "seqNo" : "14"
   },
   {
      "GoBack" : "1",
      "longitude" : "120.68425",
      "outDis" : "50",
      "Id" : "0255",
      "oid" : "12392",
      "districtId" : "1",
      "nameZh" : "南門仔",
      "pgp" : "0",
      "terminal" : "0",
      "latitude" : "24.12529",
      "inDis" : "50",
      "routeId" : "58",
      "seqNo" : "15"
   },
   {
      "GoBack" : "1",
      "longitude" : "120.68465",
      "outDis" : "50",
      "Id" : "5607",
      "oid" : "7004",
      "districtId" : "1",
      "nameZh" : "興大附農(臺中路)",
      "pgp" : "0",
      "terminal" : "0",
      "latitude" : "24.12803",
      "inDis" : "50",
      "routeId" : "58",
      "seqNo" : "16"
   },
   {
      "GoBack" : "1",
      "longitude" : "120.68459",
      "outDis" : "50",
      "Id" : "0257",
      "oid" : "12356",
      "districtId" : "1",
      "nameZh" : "臺中國小",
      "pgp" : "0",
      "terminal" : "0",
      "latitude" : "24.13137",
      "inDis" : "50",
      "routeId" : "58",
      "seqNo" : "17"
   },
   {
      "GoBack" : "1",
      "longitude" : "120.68341",
      "outDis" : "50",
      "Id" : "0049",
      "oid" : "13317",
      "districtId" : "1",
      "nameZh" : "第三市場(臺中家商)",
      "pgp" : "0",
      "terminal" : "0",
      "latitude" : "24.13371",
      "inDis" : "50",
      "routeId" : "58",
      "seqNo" : "18"
   },
   {
      "GoBack" : "1",
      "longitude" : "120.6847",
      "outDis" : "50",
      "Id" : "1824",
      "oid" : "13282",
      "districtId" : "1",
      "nameZh" : "臺中火車站",
      "pgp" : "0",
      "terminal" : "0",
      "latitude" : "24.13734",
      "inDis" : "50",
      "routeId" : "58",
      "seqNo" : "19"
   },
   {
      "GoBack" : "1",
      "longitude" : "120.6861",
      "outDis" : "50",
      "Id" : "0402",
      "oid" : "12493",
      "districtId" : "1",
      "nameZh" : "干城站",
      "pgp" : "0",
      "terminal" : "0",
      "latitude" : "24.14082",
      "inDis" : "50",
      "routeId" : "58",
      "seqNo" : "20"
   },
   {
      "GoBack" : "1",
      "longitude" : "120.68611",
      "outDis" : "50",
      "Id" : "4544",
      "oid" : "13290",
      "districtId" : "1",
      "nameZh" : "臺中公園(雙十路)",
      "pgp" : "0",
      "terminal" : "0",
      "latitude" : "24.1441",
      "inDis" : "50",
      "routeId" : "58",
      "seqNo" : "21"
   },
   {
      "GoBack" : "1",
      "longitude" : "120.68448",
      "outDis" : "50",
      "Id" : "1513",
      "oid" : "15989",
      "districtId" : "1",
      "nameZh" : "中興堂",
      "pgp" : "0",
      "terminal" : "0",
      "latitude" : "24.14626",
      "inDis" : "50",
      "routeId" : "58",
      "seqNo" : "22"
   },
   {
      "GoBack" : "1",
      "longitude" : "120.6838",
      "outDis" : "50",
      "Id" : "0045",
      "oid" : "13292",
      "districtId" : "1",
      "nameZh" : "國立臺中科技大學",
      "pgp" : "0",
      "terminal" : "0",
      "latitude" : "24.14918",
      "inDis" : "50",
      "routeId" : "58",
      "seqNo" : "23"
   },
   {
      "GoBack" : "1",
      "longitude" : "120.68516",
      "outDis" : "50",
      "Id" : "0046",
      "oid" : "12314",
      "districtId" : "1",
      "nameZh" : "中友百貨",
      "pgp" : "0",
      "terminal" : "0",
      "latitude" : "24.15241",
      "inDis" : "50",
      "routeId" : "58",
      "seqNo" : "24"
   },
   {
      "GoBack" : "1",
      "longitude" : "120.68538",
      "outDis" : "50",
      "Id" : "0203",
      "oid" : "12359",
      "districtId" : "1",
      "nameZh" : "市立殯儀館",
      "pgp" : "0",
      "terminal" : "0",
      "latitude" : "24.15651",
      "inDis" : "50",
      "routeId" : "58",
      "seqNo" : "25"
   },
   {
      "GoBack" : "1",
      "longitude" : "120.68505",
      "outDis" : "50",
      "Id" : "4607",
      "oid" : "13321",
      "districtId" : "1",
      "nameZh" : "新民高中(崇德路)",
      "pgp" : "0",
      "terminal" : "0",
      "latitude" : "24.15953",
      "inDis" : "50",
      "routeId" : "58",
      "seqNo" : "26"
   },
   {
      "GoBack" : "1",
      "longitude" : "120.68507",
      "outDis" : "50",
      "Id" : "4576",
      "oid" : "12429",
      "districtId" : "1",
      "nameZh" : "崇德德化街口",
      "pgp" : "0",
      "terminal" : "0",
      "latitude" : "24.16169",
      "inDis" : "50",
      "routeId" : "58",
      "seqNo" : "27"
   },
   {
      "GoBack" : "1",
      "longitude" : "120.68503",
      "outDis" : "50",
      "Id" : "0098",
      "oid" : "12406",
      "districtId" : "1",
      "nameZh" : "崇德橋",
      "pgp" : "0",
      "terminal" : "0",
      "latitude" : "24.16474",
      "inDis" : "50",
      "routeId" : "58",
      "seqNo" : "28"
   },
   {
      "GoBack" : "1",
      "longitude" : "120.68529",
      "outDis" : "50",
      "Id" : "3511",
      "oid" : "13323",
      "districtId" : "1",
      "nameZh" : "聖德禪寺",
      "pgp" : "0",
      "terminal" : "0",
      "latitude" : "24.16818",
      "inDis" : "50",
      "routeId" : "58",
      "seqNo" : "29"
   },
   {
      "GoBack" : "1",
      "longitude" : "120.68535",
      "outDis" : "50",
      "Id" : "1768",
      "oid" : "12339",
      "districtId" : "1",
      "nameZh" : "崇德北平路口",
      "pgp" : "0",
      "terminal" : "0",
      "latitude" : "24.17052",
      "inDis" : "50",
      "routeId" : "58",
      "seqNo" : "30"
   },
   {
      "GoBack" : "1",
      "longitude" : "120.68539",
      "outDis" : "50",
      "Id" : "4339",
      "oid" : "301782125",
      "districtId" : "1",
      "nameZh" : "崇德文心路口",
      "pgp" : "0",
      "terminal" : "0",
      "latitude" : "24.1717",
      "inDis" : "50",
      "routeId" : "58",
      "seqNo" : "31"
   },
   {
      "GoBack" : "1",
      "longitude" : "120.6855",
      "outDis" : "50",
      "Id" : "0199",
      "oid" : "12452",
      "districtId" : "1",
      "nameZh" : "崇德瀋陽路口",
      "pgp" : "0",
      "terminal" : "0",
      "latitude" : "24.17308",
      "inDis" : "50",
      "routeId" : "58",
      "seqNo" : "32"
   },
   {
      "GoBack" : "1",
      "longitude" : "120.68571",
      "outDis" : "50",
      "Id" : "5131",
      "oid" : "13301",
      "districtId" : "1",
      "nameZh" : "崇德國中(民俗公園)",
      "pgp" : "0",
      "terminal" : "0",
      "latitude" : "24.17488",
      "inDis" : "50",
      "routeId" : "58",
      "seqNo" : "33"
   },
   {
      "GoBack" : "1",
      "longitude" : "120.68575",
      "outDis" : "50",
      "Id" : "0196",
      "oid" : "12401",
      "districtId" : "1",
      "nameZh" : "崇德一路口",
      "pgp" : "0",
      "terminal" : "0",
      "latitude" : "24.17686",
      "inDis" : "50",
      "routeId" : "58",
      "seqNo" : "34"
   },
   {
      "GoBack" : "1",
      "longitude" : "120.68588",
      "outDis" : "50",
      "Id" : "0195",
      "oid" : "12404",
      "districtId" : "1",
      "nameZh" : "崇德五路口",
      "pgp" : "0",
      "terminal" : "0",
      "latitude" : "24.17879",
      "inDis" : "50",
      "routeId" : "58",
      "seqNo" : "35"
   },
   {
      "GoBack" : "1",
      "longitude" : "120.68608",
      "outDis" : "50",
      "Id" : "5387",
      "oid" : "313288983",
      "districtId" : "1",
      "nameZh" : "崇德六路口",
      "pgp" : "0",
      "terminal" : "0",
      "latitude" : "24.18086",
      "inDis" : "50",
      "routeId" : "58",
      "seqNo" : "36"
   },
   {
      "GoBack" : "1",
      "longitude" : "120.68619",
      "outDis" : "50",
      "Id" : "0194",
      "oid" : "12338",
      "districtId" : "1",
      "nameZh" : "北屯區行政大樓",
      "pgp" : "0",
      "terminal" : "0",
      "latitude" : "24.18243",
      "inDis" : "50",
      "routeId" : "58",
      "seqNo" : "37"
   },
   {
      "GoBack" : "1",
      "longitude" : "120.68618",
      "outDis" : "50",
      "Id" : "1393",
      "oid" : "12310",
      "districtId" : "1",
      "nameZh" : "崇德山西路口",
      "pgp" : "0",
      "terminal" : "0",
      "latitude" : "24.18506",
      "inDis" : "50",
      "routeId" : "58",
      "seqNo" : "38"
   },
   {
      "GoBack" : "1",
      "longitude" : "120.68619",
      "outDis" : "50",
      "Id" : "2958",
      "oid" : "B38650F6D9E54C1E841E05929BD8D9B2",
      "districtId" : "1",
      "nameZh" : "崇德九路口",
      "pgp" : "0",
      "terminal" : "0",
      "latitude" : "24.18759",
      "inDis" : "50",
      "routeId" : "58",
      "seqNo" : "39"
   },
   {
      "GoBack" : "1",
      "longitude" : "120.6863",
      "outDis" : "50",
      "Id" : "2959",
      "oid" : "12402",
      "districtId" : "1",
      "nameZh" : "崇德十路口",
      "pgp" : "0",
      "terminal" : "0",
      "latitude" : "24.18955",
      "inDis" : "50",
      "routeId" : "58",
      "seqNo" : "40"
   },
   {
      "GoBack" : "1",
      "longitude" : "120.68638",
      "outDis" : "50",
      "Id" : "4252",
      "oid" : "13341",
      "districtId" : "1",
      "nameZh" : "崇德豐樂路口",
      "pgp" : "0",
      "terminal" : "0",
      "latitude" : "24.19293",
      "inDis" : "50",
      "routeId" : "58",
      "seqNo" : "41"
   },
   {
      "GoBack" : "1",
      "longitude" : "120.6865",
      "outDis" : "50",
      "Id" : "3818",
      "oid" : "12448",
      "districtId" : "1",
      "nameZh" : "錦村市場",
      "pgp" : "0",
      "terminal" : "0",
      "latitude" : "24.19613",
      "inDis" : "50",
      "routeId" : "58",
      "seqNo" : "42"
   },
   {
      "GoBack" : "1",
      "longitude" : "120.68656",
      "outDis" : "50",
      "Id" : "4359",
      "oid" : "13294",
      "districtId" : "1",
      "nameZh" : "臺中洲際棒球場",
      "pgp" : "0",
      "terminal" : "0",
      "latitude" : "24.19932",
      "inDis" : "50",
      "routeId" : "58",
      "seqNo" : "43"
   },
   {
      "GoBack" : "1",
      "longitude" : "120.68662",
      "outDis" : "50",
      "Id" : "4647",
      "oid" : "12450",
      "districtId" : "1",
      "nameZh" : "崇德環中路口",
      "pgp" : "0",
      "terminal" : "0",
      "latitude" : "24.20251",
      "inDis" : "50",
      "routeId" : "58",
      "seqNo" : "44"
   },
   {
      "GoBack" : "1",
      "longitude" : "120.68662",
      "outDis" : "50",
      "Id" : "4406",
      "oid" : "13257",
      "districtId" : "1",
      "nameZh" : "中油鴻陞加油站",
      "pgp" : "0",
      "terminal" : "0",
      "latitude" : "24.20622",
      "inDis" : "50",
      "routeId" : "58",
      "seqNo" : "45"
   },
   {
      "GoBack" : "1",
      "longitude" : "120.68678",
      "outDis" : "50",
      "Id" : "4301",
      "oid" : "12403",
      "districtId" : "1",
      "nameZh" : "崇德大豐一路口",
      "pgp" : "0",
      "terminal" : "0",
      "latitude" : "24.21086",
      "inDis" : "50",
      "routeId" : "58",
      "seqNo" : "46"
   },
   {
      "GoBack" : "1",
      "longitude" : "120.68802",
      "outDis" : "50",
      "Id" : "4300",
      "oid" : "13316",
      "districtId" : "1",
      "nameZh" : "崇德雅潭路口",
      "pgp" : "0",
      "terminal" : "0",
      "latitude" : "24.21531",
      "inDis" : "50",
      "routeId" : "58",
      "seqNo" : "47"
   },
   {
      "GoBack" : "1",
      "longitude" : "120.69051",
      "outDis" : "50",
      "Id" : "4303",
      "oid" : "12415",
      "districtId" : "1",
      "nameZh" : "雅潭大豐路口",
      "pgp" : "0",
      "terminal" : "0",
      "latitude" : "24.21589",
      "inDis" : "50",
      "routeId" : "58",
      "seqNo" : "48"
   },
   {
      "GoBack" : "1",
      "longitude" : "120.69414",
      "outDis" : "50",
      "Id" : "4222",
      "oid" : "12340",
      "districtId" : "1",
      "nameZh" : "北基加油站雅潭站",
      "pgp" : "0",
      "terminal" : "0",
      "latitude" : "24.216",
      "inDis" : "50",
      "routeId" : "58",
      "seqNo" : "49"
   },
   {
      "GoBack" : "1",
      "longitude" : "120.69991",
      "outDis" : "50",
      "Id" : "4242",
      "oid" : "13333",
      "districtId" : "1",
      "nameZh" : "潭秀國中",
      "pgp" : "0",
      "terminal" : "0",
      "latitude" : "24.21634",
      "inDis" : "50",
      "routeId" : "58",
      "seqNo" : "50"
   },
   {
      "GoBack" : "1",
      "longitude" : "120.70421",
      "outDis" : "40",
      "Id" : "4235",
      "oid" : "12416",
      "districtId" : "1",
      "nameZh" : "雅潭中山路口",
      "pgp" : "0",
      "terminal" : "0",
      "latitude" : "24.2158",
      "inDis" : "40",
      "routeId" : "58",
      "seqNo" : "51"
   },
   {
      "GoBack" : "1",
      "longitude" : "120.7051",
      "outDis" : "50",
      "Id" : "3740",
      "oid" : "13327",
      "districtId" : "1",
      "nameZh" : "潭子",
      "pgp" : "0",
      "terminal" : "0",
      "latitude" : "24.21499",
      "inDis" : "50",
      "routeId" : "58",
      "seqNo" : "52"
   },
   {
      "GoBack" : "1",
      "longitude" : "120.70532",
      "outDis" : "50",
      "Id" : "4240",
      "oid" : "13328",
      "districtId" : "1",
      "nameZh" : "潭子火車站",
      "pgp" : "0",
      "terminal" : "0",
      "latitude" : "24.21274",
      "inDis" : "50",
      "routeId" : "58",
      "seqNo" : "53"
   },
   {
      "GoBack" : "1",
      "longitude" : "120.70537",
      "outDis" : "50",
      "Id" : "3742",
      "oid" : "303235815",
      "districtId" : "1",
      "nameZh" : "潭子區公所",
      "pgp" : "0",
      "terminal" : "0",
      "latitude" : "24.21022",
      "inDis" : "50",
      "routeId" : "58",
      "seqNo" : "54"
   },
   {
      "GoBack" : "1",
      "longitude" : "120.70526",
      "outDis" : "50",
      "Id" : "4370",
      "oid" : "303235813",
      "districtId" : "1",
      "nameZh" : "中山圓通南路口",
      "pgp" : "0",
      "terminal" : "0",
      "latitude" : "24.20789",
      "inDis" : "50",
      "routeId" : "58",
      "seqNo" : "55"
   },
   {
      "GoBack" : "1",
      "longitude" : "120.70284",
      "outDis" : "50",
      "Id" : "4369",
      "oid" : "303235811",
      "districtId" : "1",
      "nameZh" : "圓通南興華一路口",
      "pgp" : "0",
      "terminal" : "0",
      "latitude" : "24.20734",
      "inDis" : "50",
      "routeId" : "58",
      "seqNo" : "56"
   },
   {
      "GoBack" : "1",
      "longitude" : "120.70097",
      "outDis" : "50",
      "Id" : "4368",
      "oid" : "303235809",
      "districtId" : "1",
      "nameZh" : "潭子勝利運動公園",
      "pgp" : "0",
      "terminal" : "0",
      "latitude" : "24.20943",
      "inDis" : "50",
      "routeId" : "58",
      "seqNo" : "57"
   },
   {
      "GoBack" : "1",
      "longitude" : "120.70072",
      "outDis" : "50",
      "Id" : "4227",
      "oid" : "13304",
      "districtId" : "1",
      "nameZh" : "甘蔗里活動中心",
      "pgp" : "0",
      "terminal" : "0",
      "latitude" : "24.21336",
      "inDis" : "50",
      "routeId" : "58",
      "seqNo" : "58"
   },
   {
      "GoBack" : "2",
      "longitude" : "120.70072",
      "outDis" : "50",
      "Id" : "4227",
      "oid" : "13304",
      "districtId" : "1",
      "nameZh" : "甘蔗里活動中心",
      "pgp" : "0",
      "terminal" : "0",
      "latitude" : "24.21336",
      "inDis" : "50",
      "routeId" : "58",
      "seqNo" : "1"
   },
   {
      "GoBack" : "2",
      "longitude" : "120.70097",
      "outDis" : "50",
      "Id" : "4368",
      "oid" : "303235808",
      "districtId" : "1",
      "nameZh" : "潭子勝利運動公園",
      "pgp" : "0",
      "terminal" : "0",
      "latitude" : "24.20943",
      "inDis" : "50",
      "routeId" : "58",
      "seqNo" : "2"
   },
   {
      "GoBack" : "2",
      "longitude" : "120.70284",
      "outDis" : "50",
      "Id" : "4369",
      "oid" : "303235810",
      "districtId" : "1",
      "nameZh" : "圓通南興華一路口",
      "pgp" : "0",
      "terminal" : "0",
      "latitude" : "24.20734",
      "inDis" : "50",
      "routeId" : "58",
      "seqNo" : "3"
   },
   {
      "GoBack" : "2",
      "longitude" : "120.70521",
      "outDis" : "50",
      "Id" : "4370",
      "oid" : "303235812",
      "districtId" : "1",
      "nameZh" : "中山圓通南路口",
      "pgp" : "0",
      "terminal" : "0",
      "latitude" : "24.20789",
      "inDis" : "50",
      "routeId" : "58",
      "seqNo" : "4"
   },
   {
      "GoBack" : "2",
      "longitude" : "120.70544",
      "outDis" : "50",
      "Id" : "3742",
      "oid" : "303235814",
      "districtId" : "1",
      "nameZh" : "潭子區公所",
      "pgp" : "0",
      "terminal" : "0",
      "latitude" : "24.21024",
      "inDis" : "50",
      "routeId" : "58",
      "seqNo" : "5"
   },
   {
      "GoBack" : "2",
      "longitude" : "120.70532",
      "outDis" : "50",
      "Id" : "4240",
      "oid" : "13328",
      "districtId" : "1",
      "nameZh" : "潭子火車站",
      "pgp" : "0",
      "terminal" : "0",
      "latitude" : "24.21274",
      "inDis" : "50",
      "routeId" : "58",
      "seqNo" : "6"
   },
   {
      "GoBack" : "2",
      "longitude" : "120.70421",
      "outDis" : "40",
      "Id" : "4235",
      "oid" : "12416",
      "districtId" : "1",
      "nameZh" : "雅潭中山路口",
      "pgp" : "0",
      "terminal" : "0",
      "latitude" : "24.2158",
      "inDis" : "40",
      "routeId" : "58",
      "seqNo" : "7"
   },
   {
      "GoBack" : "2",
      "longitude" : "120.69991",
      "outDis" : "50",
      "Id" : "4242",
      "oid" : "13333",
      "districtId" : "1",
      "nameZh" : "潭秀國中",
      "pgp" : "0",
      "terminal" : "0",
      "latitude" : "24.21634",
      "inDis" : "50",
      "routeId" : "58",
      "seqNo" : "8"
   },
   {
      "GoBack" : "2",
      "longitude" : "120.69414",
      "outDis" : "50",
      "Id" : "4222",
      "oid" : "303337559",
      "districtId" : "1",
      "nameZh" : "北基加油站雅潭站 ",
      "pgp" : "0",
      "terminal" : "0",
      "latitude" : "24.216",
      "inDis" : "50",
      "routeId" : "58",
      "seqNo" : "9"
   },
   {
      "GoBack" : "2",
      "longitude" : "120.69051",
      "outDis" : "50",
      "Id" : "4303",
      "oid" : "12415",
      "districtId" : "1",
      "nameZh" : "雅潭大豐路口",
      "pgp" : "0",
      "terminal" : "0",
      "latitude" : "24.21589",
      "inDis" : "50",
      "routeId" : "58",
      "seqNo" : "10"
   },
   {
      "GoBack" : "2",
      "longitude" : "120.68802",
      "outDis" : "50",
      "Id" : "4300",
      "oid" : "13316",
      "districtId" : "1",
      "nameZh" : "崇德雅潭路口",
      "pgp" : "0",
      "terminal" : "0",
      "latitude" : "24.21531",
      "inDis" : "50",
      "routeId" : "58",
      "seqNo" : "11"
   },
   {
      "GoBack" : "2",
      "longitude" : "120.68678",
      "outDis" : "50",
      "Id" : "4301",
      "oid" : "12403",
      "districtId" : "1",
      "nameZh" : "崇德大豐一路口",
      "pgp" : "0",
      "terminal" : "0",
      "latitude" : "24.21086",
      "inDis" : "50",
      "routeId" : "58",
      "seqNo" : "12"
   },
   {
      "GoBack" : "2",
      "longitude" : "120.68662",
      "outDis" : "50",
      "Id" : "4406",
      "oid" : "13257",
      "districtId" : "1",
      "nameZh" : "中油鴻陞加油站",
      "pgp" : "0",
      "terminal" : "0",
      "latitude" : "24.20622",
      "inDis" : "50",
      "routeId" : "58",
      "seqNo" : "13"
   },
   {
      "GoBack" : "2",
      "longitude" : "120.68662",
      "outDis" : "50",
      "Id" : "4647",
      "oid" : "12450",
      "districtId" : "1",
      "nameZh" : "崇德環中路口",
      "pgp" : "0",
      "terminal" : "0",
      "latitude" : "24.20251",
      "inDis" : "50",
      "routeId" : "58",
      "seqNo" : "14"
   },
   {
      "GoBack" : "2",
      "longitude" : "120.68656",
      "outDis" : "50",
      "Id" : "4359",
      "oid" : "13294",
      "districtId" : "1",
      "nameZh" : "臺中洲際棒球場",
      "pgp" : "0",
      "terminal" : "0",
      "latitude" : "24.19932",
      "inDis" : "50",
      "routeId" : "58",
      "seqNo" : "15"
   },
   {
      "GoBack" : "2",
      "longitude" : "120.6865",
      "outDis" : "50",
      "Id" : "3818",
      "oid" : "12448",
      "districtId" : "1",
      "nameZh" : "錦村市場",
      "pgp" : "0",
      "terminal" : "0",
      "latitude" : "24.19613",
      "inDis" : "50",
      "routeId" : "58",
      "seqNo" : "16"
   },
   {
      "GoBack" : "2",
      "longitude" : "120.68638",
      "outDis" : "50",
      "Id" : "4252",
      "oid" : "13341",
      "districtId" : "1",
      "nameZh" : "崇德豐樂路口",
      "pgp" : "0",
      "terminal" : "0",
      "latitude" : "24.19293",
      "inDis" : "50",
      "routeId" : "58",
      "seqNo" : "17"
   },
   {
      "GoBack" : "2",
      "longitude" : "120.6863",
      "outDis" : "50",
      "Id" : "2959",
      "oid" : "12402",
      "districtId" : "1",
      "nameZh" : "崇德十路口",
      "pgp" : "0",
      "terminal" : "0",
      "latitude" : "24.18955",
      "inDis" : "50",
      "routeId" : "58",
      "seqNo" : "18"
   },
   {
      "GoBack" : "2",
      "longitude" : "120.68622",
      "outDis" : "50",
      "Id" : "2958",
      "oid" : "DD047587CF8A4CD88A0A329373FBC18B",
      "districtId" : "1",
      "nameZh" : "崇德九路口",
      "pgp" : "0",
      "terminal" : "0",
      "latitude" : "24.18756",
      "inDis" : "50",
      "routeId" : "58",
      "seqNo" : "19"
   },
   {
      "GoBack" : "2",
      "longitude" : "120.68618",
      "outDis" : "50",
      "Id" : "1393",
      "oid" : "12310",
      "districtId" : "1",
      "nameZh" : "崇德山西路口",
      "pgp" : "0",
      "terminal" : "0",
      "latitude" : "24.18506",
      "inDis" : "50",
      "routeId" : "58",
      "seqNo" : "20"
   },
   {
      "GoBack" : "2",
      "longitude" : "120.68619",
      "outDis" : "50",
      "Id" : "0194",
      "oid" : "12338",
      "districtId" : "1",
      "nameZh" : "北屯區行政大樓",
      "pgp" : "0",
      "terminal" : "0",
      "latitude" : "24.18243",
      "inDis" : "50",
      "routeId" : "58",
      "seqNo" : "21"
   },
   {
      "GoBack" : "2",
      "longitude" : "120.68608",
      "outDis" : "50",
      "Id" : "5387",
      "oid" : "313288983",
      "districtId" : "1",
      "nameZh" : "崇德六路口",
      "pgp" : "0",
      "terminal" : "0",
      "latitude" : "24.18086",
      "inDis" : "50",
      "routeId" : "58",
      "seqNo" : "22"
   },
   {
      "GoBack" : "2",
      "longitude" : "120.68588",
      "outDis" : "50",
      "Id" : "0195",
      "oid" : "12404",
      "districtId" : "1",
      "nameZh" : "崇德五路口",
      "pgp" : "0",
      "terminal" : "0",
      "latitude" : "24.17879",
      "inDis" : "50",
      "routeId" : "58",
      "seqNo" : "23"
   },
   {
      "GoBack" : "2",
      "longitude" : "120.68577",
      "outDis" : "50",
      "Id" : "0196",
      "oid" : "6A2D5559ADA34ACBA7ECFB3EFBE252FC",
      "districtId" : "1",
      "nameZh" : "崇德一路口",
      "pgp" : "0",
      "terminal" : "0",
      "latitude" : "24.17701",
      "inDis" : "50",
      "routeId" : "58",
      "seqNo" : "24"
   },
   {
      "GoBack" : "2",
      "longitude" : "120.68564",
      "outDis" : "50",
      "Id" : "5131",
      "oid" : "1F2714EF98D045458EC7DF003836A6F7",
      "districtId" : "1",
      "nameZh" : "崇德國中(民俗公園)",
      "pgp" : "0",
      "terminal" : "0",
      "latitude" : "24.17516",
      "inDis" : "50",
      "routeId" : "58",
      "seqNo" : "25"
   },
   {
      "GoBack" : "2",
      "longitude" : "120.6855",
      "outDis" : "50",
      "Id" : "0199",
      "oid" : "12452",
      "districtId" : "1",
      "nameZh" : "崇德瀋陽路口",
      "pgp" : "0",
      "terminal" : "0",
      "latitude" : "24.17308",
      "inDis" : "50",
      "routeId" : "58",
      "seqNo" : "26"
   },
   {
      "GoBack" : "2",
      "longitude" : "120.68539",
      "outDis" : "50",
      "Id" : "4339",
      "oid" : "301782125",
      "districtId" : "1",
      "nameZh" : "崇德文心路口",
      "pgp" : "0",
      "terminal" : "0",
      "latitude" : "24.1717",
      "inDis" : "50",
      "routeId" : "58",
      "seqNo" : "27"
   },
   {
      "GoBack" : "2",
      "longitude" : "120.68535",
      "outDis" : "50",
      "Id" : "1768",
      "oid" : "12339",
      "districtId" : "1",
      "nameZh" : "崇德北平路口",
      "pgp" : "0",
      "terminal" : "0",
      "latitude" : "24.17052",
      "inDis" : "50",
      "routeId" : "58",
      "seqNo" : "28"
   },
   {
      "GoBack" : "2",
      "longitude" : "120.68529",
      "outDis" : "50",
      "Id" : "3511",
      "oid" : "13323",
      "districtId" : "1",
      "nameZh" : "聖德禪寺",
      "pgp" : "0",
      "terminal" : "0",
      "latitude" : "24.16818",
      "inDis" : "50",
      "routeId" : "58",
      "seqNo" : "29"
   },
   {
      "GoBack" : "2",
      "longitude" : "120.68503",
      "outDis" : "50",
      "Id" : "0098",
      "oid" : "12406",
      "districtId" : "1",
      "nameZh" : "崇德橋",
      "pgp" : "0",
      "terminal" : "0",
      "latitude" : "24.16474",
      "inDis" : "50",
      "routeId" : "58",
      "seqNo" : "30"
   },
   {
      "GoBack" : "2",
      "longitude" : "120.68507",
      "outDis" : "50",
      "Id" : "4576",
      "oid" : "12429",
      "districtId" : "1",
      "nameZh" : "崇德德化街口",
      "pgp" : "0",
      "terminal" : "0",
      "latitude" : "24.16169",
      "inDis" : "50",
      "routeId" : "58",
      "seqNo" : "31"
   },
   {
      "GoBack" : "2",
      "longitude" : "120.68505",
      "outDis" : "50",
      "Id" : "4607",
      "oid" : "13321",
      "districtId" : "1",
      "nameZh" : "新民高中(崇德路)",
      "pgp" : "0",
      "terminal" : "0",
      "latitude" : "24.15953",
      "inDis" : "50",
      "routeId" : "58",
      "seqNo" : "32"
   },
   {
      "GoBack" : "2",
      "longitude" : "120.68538",
      "outDis" : "50",
      "Id" : "0203",
      "oid" : "12359",
      "districtId" : "1",
      "nameZh" : "市立殯儀館",
      "pgp" : "0",
      "terminal" : "0",
      "latitude" : "24.15651",
      "inDis" : "50",
      "routeId" : "58",
      "seqNo" : "33"
   },
   {
      "GoBack" : "2",
      "longitude" : "120.68591",
      "outDis" : "50",
      "Id" : "0047",
      "oid" : "069F77FABB4D46339035176855001608",
      "districtId" : "1",
      "nameZh" : "一心市場",
      "pgp" : "0",
      "terminal" : "0",
      "latitude" : "24.15417",
      "inDis" : "50",
      "routeId" : "58",
      "seqNo" : "34"
   },
   {
      "GoBack" : "2",
      "longitude" : "120.68516",
      "outDis" : "50",
      "Id" : "0046",
      "oid" : "12314",
      "districtId" : "1",
      "nameZh" : "中友百貨",
      "pgp" : "0",
      "terminal" : "0",
      "latitude" : "24.15241",
      "inDis" : "50",
      "routeId" : "58",
      "seqNo" : "35"
   },
   {
      "GoBack" : "2",
      "longitude" : "120.6838",
      "outDis" : "50",
      "Id" : "0045",
      "oid" : "13292",
      "districtId" : "1",
      "nameZh" : "國立臺中科技大學",
      "pgp" : "0",
      "terminal" : "0",
      "latitude" : "24.14918",
      "inDis" : "50",
      "routeId" : "58",
      "seqNo" : "36"
   },
   {
      "GoBack" : "2",
      "longitude" : "120.68463",
      "outDis" : "50",
      "Id" : "1513",
      "oid" : "16096",
      "districtId" : "1",
      "nameZh" : "中興堂",
      "pgp" : "0",
      "terminal" : "0",
      "latitude" : "24.14621",
      "inDis" : "50",
      "routeId" : "58",
      "seqNo" : "37"
   },
   {
      "GoBack" : "2",
      "longitude" : "120.68611",
      "outDis" : "50",
      "Id" : "4544",
      "oid" : "13290",
      "districtId" : "1",
      "nameZh" : "臺中公園(雙十路)",
      "pgp" : "0",
      "terminal" : "0",
      "latitude" : "24.1441",
      "inDis" : "50",
      "routeId" : "58",
      "seqNo" : "38"
   },
   {
      "GoBack" : "2",
      "longitude" : "120.6861",
      "outDis" : "50",
      "Id" : "0402",
      "oid" : "12493",
      "districtId" : "1",
      "nameZh" : "干城站",
      "pgp" : "0",
      "terminal" : "0",
      "latitude" : "24.14082",
      "inDis" : "50",
      "routeId" : "58",
      "seqNo" : "39"
   },
   {
      "GoBack" : "2",
      "longitude" : "120.6847",
      "outDis" : "50",
      "Id" : "1824",
      "oid" : "13282",
      "districtId" : "1",
      "nameZh" : "臺中火車站",
      "pgp" : "0",
      "terminal" : "0",
      "latitude" : "24.13734",
      "inDis" : "50",
      "routeId" : "58",
      "seqNo" : "40"
   },
   {
      "GoBack" : "2",
      "longitude" : "120.68341",
      "outDis" : "50",
      "Id" : "0049",
      "oid" : "13317",
      "districtId" : "1",
      "nameZh" : "第三市場(臺中家商)",
      "pgp" : "0",
      "terminal" : "0",
      "latitude" : "24.13371",
      "inDis" : "50",
      "routeId" : "58",
      "seqNo" : "41"
   },
   {
      "GoBack" : "2",
      "longitude" : "120.68459",
      "outDis" : "50",
      "Id" : "0257",
      "oid" : "12356",
      "districtId" : "1",
      "nameZh" : "臺中國小",
      "pgp" : "0",
      "terminal" : "0",
      "latitude" : "24.13137",
      "inDis" : "50",
      "routeId" : "58",
      "seqNo" : "42"
   },
   {
      "GoBack" : "2",
      "longitude" : "120.68443",
      "outDis" : "50",
      "Id" : "5607",
      "oid" : "7003",
      "districtId" : "1",
      "nameZh" : "興大附農(臺中路)",
      "pgp" : "0",
      "terminal" : "0",
      "latitude" : "24.12723",
      "inDis" : "50",
      "routeId" : "58",
      "seqNo" : "43"
   },
   {
      "GoBack" : "2",
      "longitude" : "120.68425",
      "outDis" : "50",
      "Id" : "0255",
      "oid" : "12392",
      "districtId" : "1",
      "nameZh" : "南門仔",
      "pgp" : "0",
      "terminal" : "0",
      "latitude" : "24.12529",
      "inDis" : "50",
      "routeId" : "58",
      "seqNo" : "44"
   },
   {
      "GoBack" : "2",
      "longitude" : "120.68416",
      "outDis" : "50",
      "Id" : "0254",
      "oid" : "6690",
      "districtId" : "1",
      "nameZh" : "明德高中",
      "pgp" : "0",
      "terminal" : "0",
      "latitude" : "24.1228",
      "inDis" : "50",
      "routeId" : "58",
      "seqNo" : "45"
   },
   {
      "GoBack" : "2",
      "longitude" : "120.68407",
      "outDis" : "50",
      "Id" : "4618",
      "oid" : "13310",
      "districtId" : "1",
      "nameZh" : "明德高中(明德街)",
      "pgp" : "0",
      "terminal" : "0",
      "latitude" : "24.12079",
      "inDis" : "50",
      "routeId" : "58",
      "seqNo" : "46"
   },
   {
      "GoBack" : "2",
      "longitude" : "120.68199",
      "outDis" : "50",
      "Id" : "4535",
      "oid" : "303568456",
      "districtId" : "1",
      "nameZh" : "忠明南國光路口",
      "pgp" : "0",
      "terminal" : "0",
      "latitude" : "24.11886",
      "inDis" : "50",
      "routeId" : "58",
      "seqNo" : "47"
   },
   {
      "GoBack" : "2",
      "longitude" : "120.67943",
      "outDis" : "50",
      "Id" : "4292",
      "oid" : "12611",
      "districtId" : "1",
      "nameZh" : "國光忠明南路口",
      "pgp" : "0",
      "terminal" : "0",
      "latitude" : "24.11824",
      "inDis" : "50",
      "routeId" : "58",
      "seqNo" : "48"
   },
   {
      "GoBack" : "2",
      "longitude" : "120.67937",
      "outDis" : "50",
      "Id" : "2930",
      "oid" : "303568455",
      "districtId" : "1",
      "nameZh" : "國光橋",
      "pgp" : "0",
      "terminal" : "0",
      "latitude" : "24.11606",
      "inDis" : "50",
      "routeId" : "58",
      "seqNo" : "49"
   },
   {
      "GoBack" : "2",
      "longitude" : "120.67797",
      "outDis" : "50",
      "Id" : "4256",
      "oid" : "13077",
      "districtId" : "1",
      "nameZh" : "大明國光路口",
      "pgp" : "0",
      "terminal" : "0",
      "latitude" : "24.11488",
      "inDis" : "50",
      "routeId" : "58",
      "seqNo" : "50"
   },
   {
      "GoBack" : "2",
      "longitude" : "120.67591",
      "outDis" : "50",
      "Id" : "4257",
      "oid" : "12485",
      "districtId" : "1",
      "nameZh" : "大明爽文路口",
      "pgp" : "0",
      "terminal" : "0",
      "latitude" : "24.11493",
      "inDis" : "50",
      "routeId" : "58",
      "seqNo" : "51"
   },
   {
      "GoBack" : "2",
      "longitude" : "120.67142",
      "outDis" : "50",
      "Id" : "4305",
      "oid" : "13235",
      "districtId" : "1",
      "nameZh" : "積善公園",
      "pgp" : "0",
      "terminal" : "0",
      "latitude" : "24.11474",
      "inDis" : "50",
      "routeId" : "58",
      "seqNo" : "52"
   },
   {
      "GoBack" : "2",
      "longitude" : "120.66795",
      "outDis" : "50",
      "Id" : "4367",
      "oid" : "13231",
      "districtId" : "1",
      "nameZh" : "僑泰中學(高工路)",
      "pgp" : "0",
      "terminal" : "0",
      "latitude" : "24.11431",
      "inDis" : "50",
      "routeId" : "58",
      "seqNo" : "53"
   },
   {
      "GoBack" : "2",
      "longitude" : "120.66517",
      "outDis" : "50",
      "Id" : "4258",
      "oid" : "F22E3FE3B92149248B0C15B8494DE21B",
      "districtId" : "1",
      "nameZh" : "工學一街口",
      "pgp" : "0",
      "terminal" : "0",
      "latitude" : "24.11385",
      "inDis" : "50",
      "routeId" : "58",
      "seqNo" : "54"
   },
   {
      "GoBack" : "2",
      "longitude" : "120.66198",
      "outDis" : "50",
      "Id" : "4537",
      "oid" : "13142",
      "districtId" : "1",
      "nameZh" : "臺中高工(高工路)",
      "pgp" : "0",
      "terminal" : "0",
      "latitude" : "24.11335",
      "inDis" : "50",
      "routeId" : "58",
      "seqNo" : "55"
   },
   {
      "GoBack" : "2",
      "longitude" : "120.66048",
      "outDis" : "50",
      "Id" : "5474",
      "oid" : "314316879",
      "districtId" : "1",
      "nameZh" : "臺中高工(工學六街)",
      "pgp" : "0",
      "terminal" : "0",
      "latitude" : "24.11667",
      "inDis" : "50",
      "routeId" : "58",
      "seqNo" : "56"
   },
   {
      "GoBack" : "2",
      "longitude" : "120.65775",
      "outDis" : "50",
      "Id" : "0134",
      "oid" : "316349766",
      "districtId" : "1",
      "nameZh" : "東興樹義一巷口",
      "pgp" : "0",
      "terminal" : "0",
      "latitude" : "24.11819",
      "inDis" : "50",
      "routeId" : "58",
      "seqNo" : "57"
   },
   {
      "GoBack" : "2",
      "longitude" : "120.65596",
      "outDis" : "50",
      "Id" : "5535",
      "oid" : "316349764",
      "districtId" : "1",
      "nameZh" : "東興復興北路口",
      "pgp" : "0",
      "terminal" : "0",
      "latitude" : "24.12017",
      "inDis" : "50",
      "routeId" : "58",
      "seqNo" : "58"
   },
   {
      "GoBack" : "2",
      "longitude" : "120.65462",
      "outDis" : "50",
      "Id" : "5534",
      "oid" : "316349762",
      "districtId" : "1",
      "nameZh" : "大慶活動中心",
      "pgp" : "0",
      "terminal" : "0",
      "latitude" : "24.1196",
      "inDis" : "50",
      "routeId" : "58",
      "seqNo" : "59"
   }
]
