[
   {
      "GoBack" : "1",
      "longitude" : "120.82862",
      "outDis" : "50",
      "Id" : "2428",
      "oid" : "5900",
      "districtId" : "1",
      "nameZh" : "東勢",
      "pgp" : "0",
      "terminal" : "0",
      "latitude" : "24.25742",
      "inDis" : "50",
      "routeId" : "262",
      "seqNo" : "1"
   },
   {
      "GoBack" : "1",
      "longitude" : "120.8272",
      "outDis" : "80",
      "Id" : "4500",
      "oid" : "5745",
      "districtId" : "1",
      "nameZh" : "東勢老人會館",
      "pgp" : "0",
      "terminal" : "0",
      "latitude" : "24.26098",
      "inDis" : "50",
      "routeId" : "262",
      "seqNo" : "2"
   },
   {
      "GoBack" : "1",
      "longitude" : "120.82676",
      "outDis" : "80",
      "Id" : "2434",
      "oid" : "5905",
      "districtId" : "1",
      "nameZh" : "東新國中",
      "pgp" : "0",
      "terminal" : "0",
      "latitude" : "24.26256",
      "inDis" : "50",
      "routeId" : "262",
      "seqNo" : "3"
   },
   {
      "GoBack" : "1",
      "longitude" : "120.826",
      "outDis" : "50",
      "Id" : "1200",
      "oid" : "5154",
      "districtId" : "1",
      "nameZh" : "下新社區",
      "pgp" : "0",
      "terminal" : "0",
      "latitude" : "24.26491",
      "inDis" : "50",
      "routeId" : "262",
      "seqNo" : "4"
   },
   {
      "GoBack" : "1",
      "longitude" : "120.8248",
      "outDis" : "50",
      "Id" : "1197",
      "oid" : "5150",
      "districtId" : "1",
      "nameZh" : "下新",
      "pgp" : "0",
      "terminal" : "0",
      "latitude" : "24.26667",
      "inDis" : "50",
      "routeId" : "262",
      "seqNo" : "5"
   },
   {
      "GoBack" : "1",
      "longitude" : "120.82331",
      "outDis" : "50",
      "Id" : "2190",
      "oid" : "5762",
      "districtId" : "1",
      "nameZh" : "東蘭西門巷口",
      "pgp" : "0",
      "terminal" : "0",
      "latitude" : "24.26853",
      "inDis" : "50",
      "routeId" : "262",
      "seqNo" : "6"
   },
   {
      "GoBack" : "1",
      "longitude" : "120.82224",
      "outDis" : "50",
      "Id" : "1019",
      "oid" : "5042",
      "districtId" : "1",
      "nameZh" : "八分",
      "pgp" : "0",
      "terminal" : "0",
      "latitude" : "24.2716",
      "inDis" : "50",
      "routeId" : "262",
      "seqNo" : "7"
   },
   {
      "GoBack" : "1",
      "longitude" : "120.82082",
      "outDis" : "50",
      "Id" : "2044",
      "oid" : "5683",
      "districtId" : "1",
      "nameZh" : "東蘭光明路口",
      "pgp" : "0",
      "terminal" : "0",
      "latitude" : "24.27315",
      "inDis" : "50",
      "routeId" : "262",
      "seqNo" : "8"
   },
   {
      "GoBack" : "1",
      "longitude" : "120.81871",
      "outDis" : "50",
      "Id" : "1977",
      "oid" : "5635",
      "districtId" : "1",
      "nameZh" : "田中央",
      "pgp" : "0",
      "terminal" : "0",
      "latitude" : "24.27559",
      "inDis" : "50",
      "routeId" : "262",
      "seqNo" : "9"
   },
   {
      "GoBack" : "1",
      "longitude" : "120.81678",
      "outDis" : "50",
      "Id" : "3640",
      "oid" : "6546",
      "districtId" : "1",
      "nameZh" : "福成橋",
      "pgp" : "0",
      "terminal" : "0",
      "latitude" : "24.27817",
      "inDis" : "50",
      "routeId" : "262",
      "seqNo" : "10"
   },
   {
      "GoBack" : "1",
      "longitude" : "120.81301",
      "outDis" : "50",
      "Id" : "4653",
      "oid" : "5234",
      "districtId" : "1",
      "nameZh" : "東蘭大明路口",
      "pgp" : "0",
      "terminal" : "0",
      "latitude" : "24.28103",
      "inDis" : "50",
      "routeId" : "262",
      "seqNo" : "11"
   },
   {
      "GoBack" : "1",
      "longitude" : "120.81048",
      "outDis" : "50",
      "Id" : "2786",
      "oid" : "6107",
      "districtId" : "1",
      "nameZh" : "校栗埔",
      "pgp" : "0",
      "terminal" : "0",
      "latitude" : "24.2819",
      "inDis" : "50",
      "routeId" : "262",
      "seqNo" : "12"
   },
   {
      "GoBack" : "1",
      "longitude" : "120.80814",
      "outDis" : "50",
      "Id" : "1089",
      "oid" : "5085",
      "districtId" : "1",
      "nameZh" : "三清宮",
      "pgp" : "0",
      "terminal" : "0",
      "latitude" : "24.28331",
      "inDis" : "50",
      "routeId" : "262",
      "seqNo" : "13"
   },
   {
      "GoBack" : "1",
      "longitude" : "120.80343",
      "outDis" : "50",
      "Id" : "1175",
      "oid" : "5136",
      "districtId" : "1",
      "nameZh" : "下校栗埔",
      "pgp" : "0",
      "terminal" : "0",
      "latitude" : "24.28411",
      "inDis" : "50",
      "routeId" : "262",
      "seqNo" : "14"
   },
   {
      "GoBack" : "1",
      "longitude" : "120.8014",
      "outDis" : "50",
      "Id" : "1925",
      "oid" : "5609",
      "districtId" : "1",
      "nameZh" : "民誠宮",
      "pgp" : "0",
      "terminal" : "0",
      "latitude" : "24.28486",
      "inDis" : "50",
      "routeId" : "262",
      "seqNo" : "15"
   },
   {
      "GoBack" : "1",
      "longitude" : "120.79774",
      "outDis" : "50",
      "Id" : "2010",
      "oid" : "5663",
      "districtId" : "1",
      "nameZh" : "石城橋頭",
      "pgp" : "0",
      "terminal" : "0",
      "latitude" : "24.28518",
      "inDis" : "50",
      "routeId" : "262",
      "seqNo" : "16"
   },
   {
      "GoBack" : "1",
      "longitude" : "120.79187",
      "outDis" : "50",
      "Id" : "2009",
      "oid" : "5662",
      "districtId" : "1",
      "nameZh" : "石城國小",
      "pgp" : "0",
      "terminal" : "0",
      "latitude" : "24.28539",
      "inDis" : "50",
      "routeId" : "262",
      "seqNo" : "17"
   },
   {
      "GoBack" : "1",
      "longitude" : "120.78906",
      "outDis" : "50",
      "Id" : "2797",
      "oid" : "6113",
      "districtId" : "1",
      "nameZh" : "泰興里",
      "pgp" : "0",
      "terminal" : "0",
      "latitude" : "24.28522",
      "inDis" : "50",
      "routeId" : "262",
      "seqNo" : "18"
   },
   {
      "GoBack" : "1",
      "longitude" : "120.78191",
      "outDis" : "50",
      "Id" : "2531",
      "oid" : "5962",
      "districtId" : "1",
      "nameZh" : "長庚橋",
      "pgp" : "0",
      "terminal" : "0",
      "latitude" : "24.28612",
      "inDis" : "50",
      "routeId" : "262",
      "seqNo" : "19"
   },
   {
      "GoBack" : "1",
      "longitude" : "120.77932",
      "outDis" : "50",
      "Id" : "2096",
      "oid" : "5709",
      "districtId" : "1",
      "nameZh" : "圳寮",
      "pgp" : "0",
      "terminal" : "0",
      "latitude" : "24.2858",
      "inDis" : "50",
      "routeId" : "262",
      "seqNo" : "20"
   },
   {
      "GoBack" : "1",
      "longitude" : "120.77031",
      "outDis" : "50",
      "Id" : "3136",
      "oid" : "6300",
      "districtId" : "1",
      "nameZh" : "頂埔",
      "pgp" : "0",
      "terminal" : "0",
      "latitude" : "24.28488",
      "inDis" : "50",
      "routeId" : "262",
      "seqNo" : "22"
   },
   {
      "GoBack" : "1",
      "longitude" : "120.76766",
      "outDis" : "50",
      "Id" : "2007",
      "oid" : "5660",
      "districtId" : "1",
      "nameZh" : "石岡壩",
      "pgp" : "0",
      "terminal" : "0",
      "latitude" : "24.28409",
      "inDis" : "50",
      "routeId" : "262",
      "seqNo" : "23"
   },
   {
      "GoBack" : "1",
      "longitude" : "120.76049",
      "outDis" : "50",
      "Id" : "2948",
      "oid" : "6185",
      "districtId" : "1",
      "nameZh" : "埤頭里",
      "pgp" : "0",
      "terminal" : "0",
      "latitude" : "24.28455",
      "inDis" : "50",
      "routeId" : "262",
      "seqNo" : "24"
   },
   {
      "GoBack" : "2",
      "longitude" : "120.76049",
      "outDis" : "50",
      "Id" : "2948",
      "oid" : "6185",
      "districtId" : "1",
      "nameZh" : "埤頭里",
      "pgp" : "0",
      "terminal" : "0",
      "latitude" : "24.28455",
      "inDis" : "50",
      "routeId" : "262",
      "seqNo" : "1"
   },
   {
      "GoBack" : "2",
      "longitude" : "120.76766",
      "outDis" : "50",
      "Id" : "2007",
      "oid" : "5660",
      "districtId" : "1",
      "nameZh" : "石岡壩",
      "pgp" : "0",
      "terminal" : "0",
      "latitude" : "24.28409",
      "inDis" : "50",
      "routeId" : "262",
      "seqNo" : "2"
   },
   {
      "GoBack" : "2",
      "longitude" : "120.77031",
      "outDis" : "50",
      "Id" : "3136",
      "oid" : "6300",
      "districtId" : "1",
      "nameZh" : "頂埔",
      "pgp" : "0",
      "terminal" : "0",
      "latitude" : "24.28488",
      "inDis" : "50",
      "routeId" : "262",
      "seqNo" : "3"
   },
   {
      "GoBack" : "2",
      "longitude" : "120.77932",
      "outDis" : "50",
      "Id" : "2096",
      "oid" : "5709",
      "districtId" : "1",
      "nameZh" : "圳寮",
      "pgp" : "0",
      "terminal" : "0",
      "latitude" : "24.2858",
      "inDis" : "50",
      "routeId" : "262",
      "seqNo" : "5"
   },
   {
      "GoBack" : "2",
      "longitude" : "120.78191",
      "outDis" : "50",
      "Id" : "2531",
      "oid" : "5962",
      "districtId" : "1",
      "nameZh" : "長庚橋",
      "pgp" : "0",
      "terminal" : "0",
      "latitude" : "24.28612",
      "inDis" : "50",
      "routeId" : "262",
      "seqNo" : "6"
   },
   {
      "GoBack" : "2",
      "longitude" : "120.78906",
      "outDis" : "50",
      "Id" : "2797",
      "oid" : "6113",
      "districtId" : "1",
      "nameZh" : "泰興里",
      "pgp" : "0",
      "terminal" : "0",
      "latitude" : "24.28522",
      "inDis" : "50",
      "routeId" : "262",
      "seqNo" : "7"
   },
   {
      "GoBack" : "2",
      "longitude" : "120.79187",
      "outDis" : "50",
      "Id" : "2009",
      "oid" : "5662",
      "districtId" : "1",
      "nameZh" : "石城國小",
      "pgp" : "0",
      "terminal" : "0",
      "latitude" : "24.28539",
      "inDis" : "50",
      "routeId" : "262",
      "seqNo" : "8"
   },
   {
      "GoBack" : "2",
      "longitude" : "120.79774",
      "outDis" : "50",
      "Id" : "2010",
      "oid" : "5663",
      "districtId" : "1",
      "nameZh" : "石城橋頭",
      "pgp" : "0",
      "terminal" : "0",
      "latitude" : "24.28518",
      "inDis" : "50",
      "routeId" : "262",
      "seqNo" : "9"
   },
   {
      "GoBack" : "2",
      "longitude" : "120.8014",
      "outDis" : "50",
      "Id" : "1925",
      "oid" : "5609",
      "districtId" : "1",
      "nameZh" : "民誠宮",
      "pgp" : "0",
      "terminal" : "0",
      "latitude" : "24.28486",
      "inDis" : "50",
      "routeId" : "262",
      "seqNo" : "10"
   },
   {
      "GoBack" : "2",
      "longitude" : "120.80343",
      "outDis" : "50",
      "Id" : "1175",
      "oid" : "5136",
      "districtId" : "1",
      "nameZh" : "下校栗埔",
      "pgp" : "0",
      "terminal" : "0",
      "latitude" : "24.28411",
      "inDis" : "50",
      "routeId" : "262",
      "seqNo" : "11"
   },
   {
      "GoBack" : "2",
      "longitude" : "120.80814",
      "outDis" : "50",
      "Id" : "1089",
      "oid" : "5085",
      "districtId" : "1",
      "nameZh" : "三清宮",
      "pgp" : "0",
      "terminal" : "0",
      "latitude" : "24.28331",
      "inDis" : "50",
      "routeId" : "262",
      "seqNo" : "12"
   },
   {
      "GoBack" : "2",
      "longitude" : "120.81048",
      "outDis" : "50",
      "Id" : "2786",
      "oid" : "6107",
      "districtId" : "1",
      "nameZh" : "校栗埔",
      "pgp" : "0",
      "terminal" : "0",
      "latitude" : "24.2819",
      "inDis" : "50",
      "routeId" : "262",
      "seqNo" : "13"
   },
   {
      "GoBack" : "2",
      "longitude" : "120.81301",
      "outDis" : "50",
      "Id" : "4653",
      "oid" : "5234",
      "districtId" : "1",
      "nameZh" : "東蘭大明路口",
      "pgp" : "0",
      "terminal" : "0",
      "latitude" : "24.28103",
      "inDis" : "50",
      "routeId" : "262",
      "seqNo" : "14"
   },
   {
      "GoBack" : "2",
      "longitude" : "120.81678",
      "outDis" : "50",
      "Id" : "3640",
      "oid" : "6546",
      "districtId" : "1",
      "nameZh" : "福成橋",
      "pgp" : "0",
      "terminal" : "0",
      "latitude" : "24.27817",
      "inDis" : "50",
      "routeId" : "262",
      "seqNo" : "15"
   },
   {
      "GoBack" : "2",
      "longitude" : "120.81871",
      "outDis" : "50",
      "Id" : "1977",
      "oid" : "5635",
      "districtId" : "1",
      "nameZh" : "田中央",
      "pgp" : "0",
      "terminal" : "0",
      "latitude" : "24.27559",
      "inDis" : "50",
      "routeId" : "262",
      "seqNo" : "16"
   },
   {
      "GoBack" : "2",
      "longitude" : "120.82082",
      "outDis" : "50",
      "Id" : "2044",
      "oid" : "5683",
      "districtId" : "1",
      "nameZh" : "東蘭光明路口",
      "pgp" : "0",
      "terminal" : "0",
      "latitude" : "24.27315",
      "inDis" : "50",
      "routeId" : "262",
      "seqNo" : "17"
   },
   {
      "GoBack" : "2",
      "longitude" : "120.82224",
      "outDis" : "50",
      "Id" : "1019",
      "oid" : "5042",
      "districtId" : "1",
      "nameZh" : "八分",
      "pgp" : "0",
      "terminal" : "0",
      "latitude" : "24.2716",
      "inDis" : "50",
      "routeId" : "262",
      "seqNo" : "18"
   },
   {
      "GoBack" : "2",
      "longitude" : "120.82331",
      "outDis" : "50",
      "Id" : "2190",
      "oid" : "5762",
      "districtId" : "1",
      "nameZh" : "東蘭西門巷口",
      "pgp" : "0",
      "terminal" : "0",
      "latitude" : "24.26853",
      "inDis" : "50",
      "routeId" : "262",
      "seqNo" : "19"
   },
   {
      "GoBack" : "2",
      "longitude" : "120.8248",
      "outDis" : "50",
      "Id" : "1197",
      "oid" : "5150",
      "districtId" : "1",
      "nameZh" : "下新",
      "pgp" : "0",
      "terminal" : "0",
      "latitude" : "24.26667",
      "inDis" : "50",
      "routeId" : "262",
      "seqNo" : "20"
   },
   {
      "GoBack" : "2",
      "longitude" : "120.826",
      "outDis" : "50",
      "Id" : "1200",
      "oid" : "5154",
      "districtId" : "1",
      "nameZh" : "下新社區",
      "pgp" : "0",
      "terminal" : "0",
      "latitude" : "24.26491",
      "inDis" : "50",
      "routeId" : "262",
      "seqNo" : "21"
   },
   {
      "GoBack" : "2",
      "longitude" : "120.82676",
      "outDis" : "80",
      "Id" : "2434",
      "oid" : "5905",
      "districtId" : "1",
      "nameZh" : "東新國中",
      "pgp" : "0",
      "terminal" : "0",
      "latitude" : "24.26256",
      "inDis" : "50",
      "routeId" : "262",
      "seqNo" : "22"
   },
   {
      "GoBack" : "2",
      "longitude" : "120.8272",
      "outDis" : "80",
      "Id" : "4500",
      "oid" : "5745",
      "districtId" : "1",
      "nameZh" : "東勢老人會館",
      "pgp" : "0",
      "terminal" : "0",
      "latitude" : "24.26098",
      "inDis" : "50",
      "routeId" : "262",
      "seqNo" : "23"
   },
   {
      "GoBack" : "2",
      "longitude" : "120.82862",
      "outDis" : "50",
      "Id" : "2428",
      "oid" : "5900",
      "districtId" : "1",
      "nameZh" : "東勢",
      "pgp" : "0",
      "terminal" : "0",
      "latitude" : "24.25742",
      "inDis" : "50",
      "routeId" : "262",
      "seqNo" : "24"
   }
]
