[
   {
      "GoBack" : "1",
      "longitude" : "120.68387",
      "outDis" : "170",
      "Id" : "1824",
      "oid" : "5545",
      "districtId" : "1",
      "nameZh" : "臺中火車站",
      "pgp" : "0",
      "terminal" : "0",
      "latitude" : "24.13663",
      "inDis" : "50",
      "routeId" : "289",
      "seqNo" : "1"
   },
   {
      "GoBack" : "1",
      "longitude" : "120.68367",
      "outDis" : "50",
      "Id" : "0183",
      "oid" : "6337",
      "districtId" : "1",
      "nameZh" : "臺中家商",
      "pgp" : "0",
      "terminal" : "0",
      "latitude" : "24.13473",
      "inDis" : "50",
      "routeId" : "289",
      "seqNo" : "2"
   },
   {
      "GoBack" : "1",
      "longitude" : "120.68629",
      "outDis" : "50",
      "Id" : "0184",
      "oid" : "6022",
      "districtId" : "1",
      "nameZh" : "後火車站",
      "pgp" : "0",
      "terminal" : "0",
      "latitude" : "24.1358",
      "inDis" : "50",
      "routeId" : "289",
      "seqNo" : "3"
   },
   {
      "GoBack" : "1",
      "longitude" : "120.68806",
      "outDis" : "50",
      "Id" : "0185",
      "oid" : "13227",
      "districtId" : "1",
      "nameZh" : "新時代購物中心",
      "pgp" : "0",
      "terminal" : "0",
      "latitude" : "24.13603",
      "inDis" : "50",
      "routeId" : "289",
      "seqNo" : "4"
   },
   {
      "GoBack" : "1",
      "longitude" : "120.68984",
      "outDis" : "50",
      "Id" : "0186",
      "oid" : "5850",
      "districtId" : "1",
      "nameZh" : "大智忠孝路口",
      "pgp" : "0",
      "terminal" : "0",
      "latitude" : "24.1325",
      "inDis" : "50",
      "routeId" : "289",
      "seqNo" : "5"
   },
   {
      "GoBack" : "1",
      "longitude" : "120.69146",
      "outDis" : "50",
      "Id" : "4362",
      "oid" : "13183",
      "districtId" : "1",
      "nameZh" : "建成大振街口",
      "pgp" : "0",
      "terminal" : "0",
      "latitude" : "24.13218",
      "inDis" : "50",
      "routeId" : "289",
      "seqNo" : "6"
   },
   {
      "GoBack" : "1",
      "longitude" : "120.69403",
      "outDis" : "50",
      "Id" : "4654",
      "oid" : "5235",
      "districtId" : "1",
      "nameZh" : "大東紡織(振興路)",
      "pgp" : "0",
      "terminal" : "0",
      "latitude" : "24.13289",
      "inDis" : "50",
      "routeId" : "289",
      "seqNo" : "7"
   },
   {
      "GoBack" : "1",
      "longitude" : "120.69636",
      "outDis" : "50",
      "Id" : "3617",
      "oid" : "6536",
      "districtId" : "1",
      "nameZh" : "漢聲電臺",
      "pgp" : "0",
      "terminal" : "0",
      "latitude" : "24.13303",
      "inDis" : "50",
      "routeId" : "289",
      "seqNo" : "8"
   },
   {
      "GoBack" : "1",
      "longitude" : "120.6981",
      "outDis" : "50",
      "Id" : "0190",
      "oid" : "5886",
      "districtId" : "1",
      "nameZh" : "東門橋",
      "pgp" : "0",
      "terminal" : "0",
      "latitude" : "24.13315",
      "inDis" : "50",
      "routeId" : "289",
      "seqNo" : "9"
   },
   {
      "GoBack" : "1",
      "longitude" : "120.70261",
      "outDis" : "50",
      "Id" : "2236",
      "oid" : "5786",
      "districtId" : "1",
      "nameZh" : "旱溪",
      "pgp" : "0",
      "terminal" : "0",
      "latitude" : "24.13143",
      "inDis" : "50",
      "routeId" : "289",
      "seqNo" : "10"
   },
   {
      "GoBack" : "1",
      "longitude" : "120.70528",
      "outDis" : "50",
      "Id" : "1642",
      "oid" : "5444",
      "districtId" : "1",
      "nameZh" : "太平橋前",
      "pgp" : "0",
      "terminal" : "0",
      "latitude" : "24.13024",
      "inDis" : "50",
      "routeId" : "289",
      "seqNo" : "11"
   },
   {
      "GoBack" : "1",
      "longitude" : "120.70883",
      "outDis" : "50",
      "Id" : "1185",
      "oid" : "5142",
      "districtId" : "1",
      "nameZh" : "下部仔",
      "pgp" : "0",
      "terminal" : "0",
      "latitude" : "24.1281",
      "inDis" : "50",
      "routeId" : "289",
      "seqNo" : "12"
   },
   {
      "GoBack" : "1",
      "longitude" : "120.71057",
      "outDis" : "50",
      "Id" : "4218",
      "oid" : "5509",
      "districtId" : "1",
      "nameZh" : "中油太平站",
      "pgp" : "0",
      "terminal" : "0",
      "latitude" : "24.12709",
      "inDis" : "50",
      "routeId" : "289",
      "seqNo" : "13"
   },
   {
      "GoBack" : "1",
      "longitude" : "120.71239",
      "outDis" : "50",
      "Id" : "1128",
      "oid" : "5110",
      "districtId" : "1",
      "nameZh" : "下太平",
      "pgp" : "0",
      "terminal" : "0",
      "latitude" : "24.12594",
      "inDis" : "50",
      "routeId" : "289",
      "seqNo" : "14"
   },
   {
      "GoBack" : "1",
      "longitude" : "120.71481",
      "outDis" : "50",
      "Id" : "4664",
      "oid" : "5438",
      "districtId" : "1",
      "nameZh" : "太平農會",
      "pgp" : "0",
      "terminal" : "0",
      "latitude" : "24.12482",
      "inDis" : "50",
      "routeId" : "289",
      "seqNo" : "15"
   },
   {
      "GoBack" : "1",
      "longitude" : "120.71645",
      "outDis" : "50",
      "Id" : "5009",
      "oid" : "309414083",
      "districtId" : "1",
      "nameZh" : "太平中平路口",
      "pgp" : "0",
      "terminal" : "0",
      "latitude" : "24.12442",
      "inDis" : "50",
      "routeId" : "289",
      "seqNo" : "16"
   },
   {
      "GoBack" : "1",
      "longitude" : "120.7182",
      "outDis" : "50",
      "Id" : "1436",
      "oid" : "5315",
      "districtId" : "1",
      "nameZh" : "中平國中",
      "pgp" : "0",
      "terminal" : "0",
      "latitude" : "24.12268",
      "inDis" : "50",
      "routeId" : "289",
      "seqNo" : "17"
   },
   {
      "GoBack" : "1",
      "longitude" : "120.7199",
      "outDis" : "50",
      "Id" : "3685",
      "oid" : "6575",
      "districtId" : "1",
      "nameZh" : "精美社區",
      "pgp" : "0",
      "terminal" : "0",
      "latitude" : "24.12118",
      "inDis" : "50",
      "routeId" : "289",
      "seqNo" : "18"
   },
   {
      "GoBack" : "1",
      "longitude" : "120.71824",
      "outDis" : "50",
      "Id" : "4947",
      "oid" : "309054915",
      "districtId" : "1",
      "nameZh" : "太平游泳池",
      "pgp" : "0",
      "terminal" : "0",
      "latitude" : "24.12027",
      "inDis" : "50",
      "routeId" : "289",
      "seqNo" : "19"
   },
   {
      "GoBack" : "1",
      "longitude" : "120.71658",
      "outDis" : "50",
      "Id" : "4948",
      "oid" : "309054916",
      "districtId" : "1",
      "nameZh" : "長億六永成北路口",
      "pgp" : "0",
      "terminal" : "0",
      "latitude" : "24.11832",
      "inDis" : "50",
      "routeId" : "289",
      "seqNo" : "20"
   },
   {
      "GoBack" : "1",
      "longitude" : "120.71947",
      "outDis" : "50",
      "Id" : "4949",
      "oid" : "309054917",
      "districtId" : "1",
      "nameZh" : "長億六太平一街口",
      "pgp" : "0",
      "terminal" : "0",
      "latitude" : "24.11543",
      "inDis" : "50",
      "routeId" : "289",
      "seqNo" : "21"
   },
   {
      "GoBack" : "1",
      "longitude" : "120.72109",
      "outDis" : "50",
      "Id" : "4518",
      "oid" : "305398431",
      "districtId" : "1",
      "nameZh" : "長億高中",
      "pgp" : "0",
      "terminal" : "0",
      "latitude" : "24.11396",
      "inDis" : "50",
      "routeId" : "289",
      "seqNo" : "22"
   },
   {
      "GoBack" : "1",
      "longitude" : "120.72167",
      "outDis" : "50",
      "Id" : "4946",
      "oid" : "309054914",
      "districtId" : "1",
      "nameZh" : "太平精美路口",
      "pgp" : "0",
      "terminal" : "0",
      "latitude" : "24.11962",
      "inDis" : "50",
      "routeId" : "289",
      "seqNo" : "23"
   },
   {
      "GoBack" : "1",
      "longitude" : "120.723",
      "outDis" : "50",
      "Id" : "1105",
      "oid" : "5096",
      "districtId" : "1",
      "nameZh" : "三豐社區",
      "pgp" : "0",
      "terminal" : "0",
      "latitude" : "24.12227",
      "inDis" : "50",
      "routeId" : "289",
      "seqNo" : "24"
   },
   {
      "GoBack" : "1",
      "longitude" : "120.72605",
      "outDis" : "50",
      "Id" : "2392",
      "oid" : "5882",
      "districtId" : "1",
      "nameZh" : "東平社區",
      "pgp" : "0",
      "terminal" : "0",
      "latitude" : "24.12509",
      "inDis" : "50",
      "routeId" : "289",
      "seqNo" : "25"
   },
   {
      "GoBack" : "2",
      "longitude" : "120.72605",
      "outDis" : "50",
      "Id" : "2392",
      "oid" : "5882",
      "districtId" : "1",
      "nameZh" : "東平社區",
      "pgp" : "0",
      "terminal" : "0",
      "latitude" : "24.12509",
      "inDis" : "50",
      "routeId" : "289",
      "seqNo" : "1"
   },
   {
      "GoBack" : "2",
      "longitude" : "120.723",
      "outDis" : "50",
      "Id" : "1105",
      "oid" : "5096",
      "districtId" : "1",
      "nameZh" : "三豐社區",
      "pgp" : "0",
      "terminal" : "0",
      "latitude" : "24.12227",
      "inDis" : "50",
      "routeId" : "289",
      "seqNo" : "2"
   },
   {
      "GoBack" : "2",
      "longitude" : "120.72167",
      "outDis" : "50",
      "Id" : "4946",
      "oid" : "309054914",
      "districtId" : "1",
      "nameZh" : "太平精美路口",
      "pgp" : "0",
      "terminal" : "0",
      "latitude" : "24.11962",
      "inDis" : "50",
      "routeId" : "289",
      "seqNo" : "3"
   },
   {
      "GoBack" : "2",
      "longitude" : "120.72109",
      "outDis" : "50",
      "Id" : "4518",
      "oid" : "305398431",
      "districtId" : "1",
      "nameZh" : "長億高中",
      "pgp" : "0",
      "terminal" : "0",
      "latitude" : "24.11396",
      "inDis" : "50",
      "routeId" : "289",
      "seqNo" : "4"
   },
   {
      "GoBack" : "2",
      "longitude" : "120.71947",
      "outDis" : "50",
      "Id" : "4949",
      "oid" : "309054917",
      "districtId" : "1",
      "nameZh" : "長億六太平一街口",
      "pgp" : "0",
      "terminal" : "0",
      "latitude" : "24.11543",
      "inDis" : "50",
      "routeId" : "289",
      "seqNo" : "5"
   },
   {
      "GoBack" : "2",
      "longitude" : "120.71658",
      "outDis" : "50",
      "Id" : "4948",
      "oid" : "309054916",
      "districtId" : "1",
      "nameZh" : "長億六永成北路口",
      "pgp" : "0",
      "terminal" : "0",
      "latitude" : "24.11832",
      "inDis" : "50",
      "routeId" : "289",
      "seqNo" : "6"
   },
   {
      "GoBack" : "2",
      "longitude" : "120.71824",
      "outDis" : "50",
      "Id" : "4947",
      "oid" : "309054915",
      "districtId" : "1",
      "nameZh" : "太平游泳池",
      "pgp" : "0",
      "terminal" : "0",
      "latitude" : "24.12027",
      "inDis" : "50",
      "routeId" : "289",
      "seqNo" : "7"
   },
   {
      "GoBack" : "2",
      "longitude" : "120.7199",
      "outDis" : "50",
      "Id" : "3685",
      "oid" : "6575",
      "districtId" : "1",
      "nameZh" : "精美社區",
      "pgp" : "0",
      "terminal" : "0",
      "latitude" : "24.12118",
      "inDis" : "50",
      "routeId" : "289",
      "seqNo" : "8"
   },
   {
      "GoBack" : "2",
      "longitude" : "120.7182",
      "outDis" : "50",
      "Id" : "1436",
      "oid" : "5315",
      "districtId" : "1",
      "nameZh" : "中平國中",
      "pgp" : "0",
      "terminal" : "0",
      "latitude" : "24.12268",
      "inDis" : "50",
      "routeId" : "289",
      "seqNo" : "9"
   },
   {
      "GoBack" : "2",
      "longitude" : "120.71645",
      "outDis" : "50",
      "Id" : "5009",
      "oid" : "309414083",
      "districtId" : "1",
      "nameZh" : "太平中平路口",
      "pgp" : "0",
      "terminal" : "0",
      "latitude" : "24.12442",
      "inDis" : "50",
      "routeId" : "289",
      "seqNo" : "10"
   },
   {
      "GoBack" : "2",
      "longitude" : "120.71481",
      "outDis" : "50",
      "Id" : "4664",
      "oid" : "5438",
      "districtId" : "1",
      "nameZh" : "太平農會",
      "pgp" : "0",
      "terminal" : "0",
      "latitude" : "24.12482",
      "inDis" : "50",
      "routeId" : "289",
      "seqNo" : "11"
   },
   {
      "GoBack" : "2",
      "longitude" : "120.71239",
      "outDis" : "50",
      "Id" : "1128",
      "oid" : "5110",
      "districtId" : "1",
      "nameZh" : "下太平",
      "pgp" : "0",
      "terminal" : "0",
      "latitude" : "24.12594",
      "inDis" : "50",
      "routeId" : "289",
      "seqNo" : "12"
   },
   {
      "GoBack" : "2",
      "longitude" : "120.71057",
      "outDis" : "50",
      "Id" : "4218",
      "oid" : "5509",
      "districtId" : "1",
      "nameZh" : "中油太平站",
      "pgp" : "0",
      "terminal" : "0",
      "latitude" : "24.12709",
      "inDis" : "50",
      "routeId" : "289",
      "seqNo" : "13"
   },
   {
      "GoBack" : "2",
      "longitude" : "120.70883",
      "outDis" : "50",
      "Id" : "1185",
      "oid" : "5142",
      "districtId" : "1",
      "nameZh" : "下部仔",
      "pgp" : "0",
      "terminal" : "0",
      "latitude" : "24.1281",
      "inDis" : "50",
      "routeId" : "289",
      "seqNo" : "14"
   },
   {
      "GoBack" : "2",
      "longitude" : "120.70528",
      "outDis" : "50",
      "Id" : "1642",
      "oid" : "5444",
      "districtId" : "1",
      "nameZh" : "太平橋前",
      "pgp" : "0",
      "terminal" : "0",
      "latitude" : "24.13024",
      "inDis" : "50",
      "routeId" : "289",
      "seqNo" : "15"
   },
   {
      "GoBack" : "2",
      "longitude" : "120.70261",
      "outDis" : "50",
      "Id" : "2236",
      "oid" : "5786",
      "districtId" : "1",
      "nameZh" : "旱溪",
      "pgp" : "0",
      "terminal" : "0",
      "latitude" : "24.13143",
      "inDis" : "50",
      "routeId" : "289",
      "seqNo" : "16"
   },
   {
      "GoBack" : "2",
      "longitude" : "120.6981",
      "outDis" : "50",
      "Id" : "0190",
      "oid" : "5886",
      "districtId" : "1",
      "nameZh" : "東門橋",
      "pgp" : "0",
      "terminal" : "0",
      "latitude" : "24.13315",
      "inDis" : "50",
      "routeId" : "289",
      "seqNo" : "17"
   },
   {
      "GoBack" : "2",
      "longitude" : "120.69636",
      "outDis" : "50",
      "Id" : "3617",
      "oid" : "6536",
      "districtId" : "1",
      "nameZh" : "漢聲電臺",
      "pgp" : "0",
      "terminal" : "0",
      "latitude" : "24.13303",
      "inDis" : "50",
      "routeId" : "289",
      "seqNo" : "18"
   },
   {
      "GoBack" : "2",
      "longitude" : "120.69403",
      "outDis" : "50",
      "Id" : "4654",
      "oid" : "5235",
      "districtId" : "1",
      "nameZh" : "大東紡織(振興路)",
      "pgp" : "0",
      "terminal" : "0",
      "latitude" : "24.13289",
      "inDis" : "50",
      "routeId" : "289",
      "seqNo" : "19"
   },
   {
      "GoBack" : "2",
      "longitude" : "120.69119",
      "outDis" : "50",
      "Id" : "4362",
      "oid" : "13184",
      "districtId" : "1",
      "nameZh" : "建成大振街口",
      "pgp" : "0",
      "terminal" : "0",
      "latitude" : "24.13219",
      "inDis" : "50",
      "routeId" : "289",
      "seqNo" : "20"
   },
   {
      "GoBack" : "2",
      "longitude" : "120.68984",
      "outDis" : "50",
      "Id" : "0186",
      "oid" : "5850",
      "districtId" : "1",
      "nameZh" : "大智忠孝路口",
      "pgp" : "0",
      "terminal" : "0",
      "latitude" : "24.1325",
      "inDis" : "50",
      "routeId" : "289",
      "seqNo" : "21"
   },
   {
      "GoBack" : "2",
      "longitude" : "120.68814",
      "outDis" : "50",
      "Id" : "0185",
      "oid" : "13228",
      "districtId" : "1",
      "nameZh" : "新時代購物中心",
      "pgp" : "0",
      "terminal" : "0",
      "latitude" : "24.13583",
      "inDis" : "50",
      "routeId" : "289",
      "seqNo" : "22"
   },
   {
      "GoBack" : "2",
      "longitude" : "120.68629",
      "outDis" : "50",
      "Id" : "0184",
      "oid" : "6022",
      "districtId" : "1",
      "nameZh" : "後火車站",
      "pgp" : "0",
      "terminal" : "0",
      "latitude" : "24.1358",
      "inDis" : "50",
      "routeId" : "289",
      "seqNo" : "23"
   },
   {
      "GoBack" : "2",
      "longitude" : "120.68367",
      "outDis" : "50",
      "Id" : "0183",
      "oid" : "6337",
      "districtId" : "1",
      "nameZh" : "臺中家商",
      "pgp" : "0",
      "terminal" : "0",
      "latitude" : "24.13473",
      "inDis" : "50",
      "routeId" : "289",
      "seqNo" : "24"
   },
   {
      "GoBack" : "2",
      "longitude" : "120.68387",
      "outDis" : "170",
      "Id" : "1824",
      "oid" : "5545",
      "districtId" : "1",
      "nameZh" : "臺中火車站",
      "pgp" : "0",
      "terminal" : "0",
      "latitude" : "24.13663",
      "inDis" : "50",
      "routeId" : "289",
      "seqNo" : "26"
   }
]
