[
   {
      "GoBack" : "1",
      "longitude" : "120.6861",
      "outDis" : "50",
      "Id" : "0402",
      "oid" : "12493",
      "districtId" : "1",
      "nameZh" : "干城站",
      "pgp" : "0",
      "terminal" : "0",
      "latitude" : "24.14082",
      "inDis" : "50",
      "routeId" : "56",
      "seqNo" : "1"
   },
   {
      "GoBack" : "1",
      "longitude" : "120.68617",
      "outDis" : "50",
      "Id" : "4544",
      "oid" : "12557",
      "districtId" : "1",
      "nameZh" : "臺中公園(雙十路)",
      "pgp" : "0",
      "terminal" : "0",
      "latitude" : "24.14391",
      "inDis" : "50",
      "routeId" : "56",
      "seqNo" : "2"
   },
   {
      "GoBack" : "1",
      "longitude" : "120.68617",
      "outDis" : "50",
      "Id" : "4695",
      "oid" : "12628",
      "districtId" : "1",
      "nameZh" : "臺灣體大游泳池",
      "pgp" : "0",
      "terminal" : "0",
      "latitude" : "24.14693",
      "inDis" : "50",
      "routeId" : "56",
      "seqNo" : "3"
   },
   {
      "GoBack" : "1",
      "longitude" : "120.68733",
      "outDis" : "50",
      "Id" : "0149",
      "oid" : "12553",
      "districtId" : "1",
      "nameZh" : "臺中一中",
      "pgp" : "0",
      "terminal" : "0",
      "latitude" : "24.14951",
      "inDis" : "50",
      "routeId" : "56",
      "seqNo" : "4"
   },
   {
      "GoBack" : "1",
      "longitude" : "120.68844",
      "outDis" : "50",
      "Id" : "4694",
      "oid" : "12651",
      "districtId" : "1",
      "nameZh" : "臺灣體大體育場",
      "pgp" : "0",
      "terminal" : "0",
      "latitude" : "24.15212",
      "inDis" : "50",
      "routeId" : "56",
      "seqNo" : "5"
   },
   {
      "GoBack" : "1",
      "longitude" : "120.68818",
      "outDis" : "50",
      "Id" : "0048",
      "oid" : "12625",
      "districtId" : "1",
      "nameZh" : "莒光新城",
      "pgp" : "0",
      "terminal" : "0",
      "latitude" : "24.15388",
      "inDis" : "50",
      "routeId" : "56",
      "seqNo" : "6"
   },
   {
      "GoBack" : "1",
      "longitude" : "120.68384",
      "outDis" : "50",
      "Id" : "3772",
      "oid" : "12637",
      "districtId" : "1",
      "nameZh" : "五權學士路口",
      "pgp" : "0",
      "terminal" : "0",
      "latitude" : "24.1538",
      "inDis" : "50",
      "routeId" : "56",
      "seqNo" : "7"
   },
   {
      "GoBack" : "1",
      "longitude" : "120.68074",
      "outDis" : "50",
      "Id" : "0146",
      "oid" : "12502",
      "districtId" : "1",
      "nameZh" : "五常里",
      "pgp" : "0",
      "terminal" : "0",
      "latitude" : "24.15265",
      "inDis" : "50",
      "routeId" : "56",
      "seqNo" : "8"
   },
   {
      "GoBack" : "1",
      "longitude" : "120.67856",
      "outDis" : "50",
      "Id" : "0145",
      "oid" : "12575",
      "districtId" : "1",
      "nameZh" : "光大里",
      "pgp" : "0",
      "terminal" : "0",
      "latitude" : "24.15179",
      "inDis" : "50",
      "routeId" : "56",
      "seqNo" : "9"
   },
   {
      "GoBack" : "1",
      "longitude" : "120.67685",
      "outDis" : "50",
      "Id" : "4626",
      "oid" : "12516",
      "districtId" : "1",
      "nameZh" : "五權公園路口",
      "pgp" : "0",
      "terminal" : "0",
      "latitude" : "24.15087",
      "inDis" : "50",
      "routeId" : "56",
      "seqNo" : "10"
   },
   {
      "GoBack" : "1",
      "longitude" : "120.67544",
      "outDis" : "50",
      "Id" : "0144",
      "oid" : "12495",
      "districtId" : "1",
      "nameZh" : "中央市場",
      "pgp" : "0",
      "terminal" : "0",
      "latitude" : "24.14946",
      "inDis" : "50",
      "routeId" : "56",
      "seqNo" : "11"
   },
   {
      "GoBack" : "1",
      "longitude" : "120.67269",
      "outDis" : "50",
      "Id" : "5628",
      "oid" : "317223824",
      "districtId" : "1",
      "nameZh" : "五權臺灣大道口",
      "pgp" : "0",
      "terminal" : "0",
      "latitude" : "24.1469",
      "inDis" : "50",
      "routeId" : "56",
      "seqNo" : "12"
   },
   {
      "GoBack" : "1",
      "longitude" : "120.67022",
      "outDis" : "50",
      "Id" : "4260",
      "oid" : "12506",
      "districtId" : "1",
      "nameZh" : "五權民生路口",
      "pgp" : "0",
      "terminal" : "0",
      "latitude" : "24.14435",
      "inDis" : "50",
      "routeId" : "56",
      "seqNo" : "13"
   },
   {
      "GoBack" : "1",
      "longitude" : "120.66838",
      "outDis" : "50",
      "Id" : "4261",
      "oid" : "12508",
      "districtId" : "1",
      "nameZh" : "五權自立街口",
      "pgp" : "0",
      "terminal" : "0",
      "latitude" : "24.14276",
      "inDis" : "50",
      "routeId" : "56",
      "seqNo" : "14"
   },
   {
      "GoBack" : "1",
      "longitude" : "120.6663",
      "outDis" : "50",
      "Id" : "5088",
      "oid" : "12523",
      "districtId" : "1",
      "nameZh" : "大墩文化中心(五權路)",
      "pgp" : "0",
      "terminal" : "0",
      "latitude" : "24.14082",
      "inDis" : "50",
      "routeId" : "56",
      "seqNo" : "15"
   },
   {
      "GoBack" : "1",
      "longitude" : "120.66353",
      "outDis" : "50",
      "Id" : "4556",
      "oid" : "12597",
      "districtId" : "1",
      "nameZh" : "美術館(五權西路)",
      "pgp" : "0",
      "terminal" : "0",
      "latitude" : "24.14017",
      "inDis" : "50",
      "routeId" : "56",
      "seqNo" : "16"
   },
   {
      "GoBack" : "1",
      "longitude" : "120.65819",
      "outDis" : "50",
      "Id" : "0035",
      "oid" : "12583",
      "districtId" : "1",
      "nameZh" : "五權西忠明南路口",
      "pgp" : "0",
      "terminal" : "0",
      "latitude" : "24.14021",
      "inDis" : "50",
      "routeId" : "56",
      "seqNo" : "17"
   },
   {
      "GoBack" : "1",
      "longitude" : "120.65346",
      "outDis" : "50",
      "Id" : "4551",
      "oid" : "12587",
      "districtId" : "1",
      "nameZh" : "五權西東興路口",
      "pgp" : "0",
      "terminal" : "0",
      "latitude" : "24.14014",
      "inDis" : "50",
      "routeId" : "56",
      "seqNo" : "18"
   },
   {
      "GoBack" : "1",
      "longitude" : "120.65072",
      "outDis" : "50",
      "Id" : "4594",
      "oid" : "12489",
      "districtId" : "1",
      "nameZh" : "五權西大墩路口",
      "pgp" : "0",
      "terminal" : "0",
      "latitude" : "24.14014",
      "inDis" : "50",
      "routeId" : "56",
      "seqNo" : "19"
   },
   {
      "GoBack" : "1",
      "longitude" : "120.64778",
      "outDis" : "50",
      "Id" : "4262",
      "oid" : "12510",
      "districtId" : "1",
      "nameZh" : "五權西文心路口",
      "pgp" : "0",
      "terminal" : "0",
      "latitude" : "24.14021",
      "inDis" : "50",
      "routeId" : "56",
      "seqNo" : "20"
   },
   {
      "GoBack" : "1",
      "longitude" : "120.64522",
      "outDis" : "50",
      "Id" : "4961",
      "oid" : "308409776",
      "districtId" : "1",
      "nameZh" : "五權西向心路口",
      "pgp" : "0",
      "terminal" : "0",
      "latitude" : "24.14023",
      "inDis" : "50",
      "routeId" : "56",
      "seqNo" : "21"
   },
   {
      "GoBack" : "1",
      "longitude" : "120.64132",
      "outDis" : "50",
      "Id" : "4549",
      "oid" : "12634",
      "districtId" : "1",
      "nameZh" : "五權西萬和路口",
      "pgp" : "0",
      "terminal" : "0",
      "latitude" : "24.14125",
      "inDis" : "50",
      "routeId" : "56",
      "seqNo" : "22"
   },
   {
      "GoBack" : "1",
      "longitude" : "120.63862",
      "outDis" : "50",
      "Id" : "0062",
      "oid" : "12593",
      "districtId" : "1",
      "nameZh" : "南屯",
      "pgp" : "0",
      "terminal" : "0",
      "latitude" : "24.14205",
      "inDis" : "50",
      "routeId" : "56",
      "seqNo" : "23"
   },
   {
      "GoBack" : "1",
      "longitude" : "120.63602",
      "outDis" : "50",
      "Id" : "5093",
      "oid" : "12469",
      "districtId" : "1",
      "nameZh" : "五權西三厝街口",
      "pgp" : "0",
      "terminal" : "0",
      "latitude" : "24.14309",
      "inDis" : "50",
      "routeId" : "56",
      "seqNo" : "24"
   },
   {
      "GoBack" : "1",
      "longitude" : "120.63375",
      "outDis" : "50",
      "Id" : "5606",
      "oid" : "12569",
      "districtId" : "1",
      "nameZh" : "五權西永春東七路口",
      "pgp" : "0",
      "terminal" : "0",
      "latitude" : "24.1445",
      "inDis" : "50",
      "routeId" : "56",
      "seqNo" : "25"
   },
   {
      "GoBack" : "1",
      "longitude" : "120.63047",
      "outDis" : "50",
      "Id" : "5430",
      "oid" : "313359733",
      "districtId" : "1",
      "nameZh" : "中村加油站",
      "pgp" : "0",
      "terminal" : "0",
      "latitude" : "24.14677",
      "inDis" : "50",
      "routeId" : "56",
      "seqNo" : "26"
   },
   {
      "GoBack" : "1",
      "longitude" : "120.62557",
      "outDis" : "50",
      "Id" : "0164",
      "oid" : "12632",
      "districtId" : "1",
      "nameZh" : "新生里(哈魚碼頭)",
      "pgp" : "0",
      "terminal" : "0",
      "latitude" : "24.14891",
      "inDis" : "50",
      "routeId" : "56",
      "seqNo" : "27"
   },
   {
      "GoBack" : "1",
      "longitude" : "120.61629",
      "outDis" : "50",
      "Id" : "5488",
      "oid" : "C0EF86DDE2FE4F9691725663784DE5BE",
      "districtId" : "1",
      "nameZh" : "忠勇寶山東二街口",
      "pgp" : "0",
      "terminal" : "0",
      "latitude" : "24.15275",
      "inDis" : "50",
      "routeId" : "56",
      "seqNo" : "28"
   },
   {
      "GoBack" : "1",
      "longitude" : "120.6157",
      "outDis" : "50",
      "Id" : "5489",
      "oid" : "12627",
      "districtId" : "1",
      "nameZh" : "寶山里土地公",
      "pgp" : "0",
      "terminal" : "0",
      "latitude" : "24.15073",
      "inDis" : "50",
      "routeId" : "56",
      "seqNo" : "29"
   },
   {
      "GoBack" : "1",
      "longitude" : "120.61561",
      "outDis" : "50",
      "Id" : "0165",
      "oid" : "4B90641C67CE406BB199990BA5C02BF6",
      "districtId" : "1",
      "nameZh" : "文山國小(忠勇路)",
      "pgp" : "0",
      "terminal" : "0",
      "latitude" : "24.14961",
      "inDis" : "50",
      "routeId" : "56",
      "seqNo" : "30"
   },
   {
      "GoBack" : "1",
      "longitude" : "120.61488",
      "outDis" : "50",
      "Id" : "0160",
      "oid" : "12519",
      "districtId" : "1",
      "nameZh" : "文山里",
      "pgp" : "0",
      "terminal" : "0",
      "latitude" : "24.14632",
      "inDis" : "50",
      "routeId" : "56",
      "seqNo" : "31"
   },
   {
      "GoBack" : "1",
      "longitude" : "120.61471",
      "outDis" : "50",
      "Id" : "0159",
      "oid" : "12461",
      "districtId" : "1",
      "nameZh" : "一善堂",
      "pgp" : "0",
      "terminal" : "0",
      "latitude" : "24.14467",
      "inDis" : "50",
      "routeId" : "56",
      "seqNo" : "32"
   },
   {
      "GoBack" : "1",
      "longitude" : "120.61372",
      "outDis" : "50",
      "Id" : "0158",
      "oid" : "10232",
      "districtId" : "1",
      "nameZh" : "下文山",
      "pgp" : "0",
      "terminal" : "0",
      "latitude" : "24.14275",
      "inDis" : "50",
      "routeId" : "56",
      "seqNo" : "33"
   },
   {
      "GoBack" : "1",
      "longitude" : "120.61317",
      "outDis" : "50",
      "Id" : "0157",
      "oid" : "12463",
      "districtId" : "1",
      "nameZh" : "七星橋",
      "pgp" : "0",
      "terminal" : "0",
      "latitude" : "24.14041",
      "inDis" : "50",
      "routeId" : "56",
      "seqNo" : "34"
   },
   {
      "GoBack" : "1",
      "longitude" : "120.61287",
      "outDis" : "50",
      "Id" : "4599",
      "oid" : "5F65E406123E4647A5674D01E93E5A06",
      "districtId" : "1",
      "nameZh" : "春社里(忠勇路)",
      "pgp" : "0",
      "terminal" : "0",
      "latitude" : "24.13912",
      "inDis" : "50",
      "routeId" : "56",
      "seqNo" : "35"
   },
   {
      "GoBack" : "1",
      "longitude" : "120.61139",
      "outDis" : "50",
      "Id" : "3874",
      "oid" : "12640",
      "districtId" : "1",
      "nameZh" : "嶺東高中",
      "pgp" : "0",
      "terminal" : "0",
      "latitude" : "24.13857",
      "inDis" : "50",
      "routeId" : "56",
      "seqNo" : "36"
   },
   {
      "GoBack" : "1",
      "longitude" : "120.60893",
      "outDis" : "50",
      "Id" : "5162",
      "oid" : "12638",
      "districtId" : "1",
      "nameZh" : "嶺東科技大學(永春南路)",
      "pgp" : "0",
      "terminal" : "0",
      "latitude" : "24.13849",
      "inDis" : "50",
      "routeId" : "56",
      "seqNo" : "37"
   },
   {
      "GoBack" : "2",
      "longitude" : "120.60893",
      "outDis" : "50",
      "Id" : "5162",
      "oid" : "12638",
      "districtId" : "1",
      "nameZh" : "嶺東科技大學(永春南路)",
      "pgp" : "0",
      "terminal" : "0",
      "latitude" : "24.13849",
      "inDis" : "50",
      "routeId" : "56",
      "seqNo" : "1"
   },
   {
      "GoBack" : "2",
      "longitude" : "120.61109",
      "outDis" : "50",
      "Id" : "3874",
      "oid" : "12639",
      "districtId" : "1",
      "nameZh" : "嶺東高中",
      "pgp" : "0",
      "terminal" : "0",
      "latitude" : "24.13835",
      "inDis" : "50",
      "routeId" : "56",
      "seqNo" : "2"
   },
   {
      "GoBack" : "2",
      "longitude" : "120.61287",
      "outDis" : "50",
      "Id" : "4599",
      "oid" : "5F65E406123E4647A5674D01E93E5A06",
      "districtId" : "1",
      "nameZh" : "春社里(忠勇路)",
      "pgp" : "0",
      "terminal" : "0",
      "latitude" : "24.13912",
      "inDis" : "50",
      "routeId" : "56",
      "seqNo" : "3"
   },
   {
      "GoBack" : "2",
      "longitude" : "120.61321",
      "outDis" : "50",
      "Id" : "0157",
      "oid" : "12462",
      "districtId" : "1",
      "nameZh" : "七星橋",
      "pgp" : "0",
      "terminal" : "0",
      "latitude" : "24.14047",
      "inDis" : "50",
      "routeId" : "56",
      "seqNo" : "4"
   },
   {
      "GoBack" : "2",
      "longitude" : "120.61372",
      "outDis" : "50",
      "Id" : "0158",
      "oid" : "10232",
      "districtId" : "1",
      "nameZh" : "下文山",
      "pgp" : "0",
      "terminal" : "0",
      "latitude" : "24.14275",
      "inDis" : "50",
      "routeId" : "56",
      "seqNo" : "5"
   },
   {
      "GoBack" : "2",
      "longitude" : "120.6148",
      "outDis" : "50",
      "Id" : "0159",
      "oid" : "12460",
      "districtId" : "1",
      "nameZh" : "一善堂",
      "pgp" : "0",
      "terminal" : "0",
      "latitude" : "24.14465",
      "inDis" : "50",
      "routeId" : "56",
      "seqNo" : "6"
   },
   {
      "GoBack" : "2",
      "longitude" : "120.61502",
      "outDis" : "50",
      "Id" : "0160",
      "oid" : "12518",
      "districtId" : "1",
      "nameZh" : "文山里",
      "pgp" : "0",
      "terminal" : "0",
      "latitude" : "24.14648",
      "inDis" : "50",
      "routeId" : "56",
      "seqNo" : "7"
   },
   {
      "GoBack" : "2",
      "longitude" : "120.6156",
      "outDis" : "50",
      "Id" : "0165",
      "oid" : "7CFC43E343584124A6201DA976758821",
      "districtId" : "1",
      "nameZh" : "文山國小(忠勇路)",
      "pgp" : "0",
      "terminal" : "0",
      "latitude" : "24.14938",
      "inDis" : "50",
      "routeId" : "56",
      "seqNo" : "8"
   },
   {
      "GoBack" : "2",
      "longitude" : "120.6157",
      "outDis" : "50",
      "Id" : "5489",
      "oid" : "12627",
      "districtId" : "1",
      "nameZh" : "寶山里土地公",
      "pgp" : "0",
      "terminal" : "0",
      "latitude" : "24.15073",
      "inDis" : "50",
      "routeId" : "56",
      "seqNo" : "9"
   },
   {
      "GoBack" : "2",
      "longitude" : "120.61641",
      "outDis" : "50",
      "Id" : "5488",
      "oid" : "B749E9C5251843EF9B30E5D3BA0A4B92",
      "districtId" : "1",
      "nameZh" : "忠勇寶山東二街口",
      "pgp" : "0",
      "terminal" : "0",
      "latitude" : "24.15269",
      "inDis" : "50",
      "routeId" : "56",
      "seqNo" : "10"
   },
   {
      "GoBack" : "2",
      "longitude" : "120.62551",
      "outDis" : "50",
      "Id" : "0164",
      "oid" : "12631",
      "districtId" : "1",
      "nameZh" : "新生里(哈魚碼頭)",
      "pgp" : "0",
      "terminal" : "0",
      "latitude" : "24.14865",
      "inDis" : "50",
      "routeId" : "56",
      "seqNo" : "11"
   },
   {
      "GoBack" : "2",
      "longitude" : "120.63029",
      "outDis" : "50",
      "Id" : "5430",
      "oid" : "313359734",
      "districtId" : "1",
      "nameZh" : "中村加油站",
      "pgp" : "0",
      "terminal" : "0",
      "latitude" : "24.14692",
      "inDis" : "50",
      "routeId" : "56",
      "seqNo" : "12"
   },
   {
      "GoBack" : "2",
      "longitude" : "120.63364",
      "outDis" : "50",
      "Id" : "0166",
      "oid" : "12568",
      "districtId" : "1",
      "nameZh" : "五權西永春東七路口",
      "pgp" : "0",
      "terminal" : "0",
      "latitude" : "24.14442",
      "inDis" : "50",
      "routeId" : "56",
      "seqNo" : "13"
   },
   {
      "GoBack" : "2",
      "longitude" : "120.63598",
      "outDis" : "50",
      "Id" : "5093",
      "oid" : "12468",
      "districtId" : "1",
      "nameZh" : "五權西三厝街口",
      "pgp" : "0",
      "terminal" : "0",
      "latitude" : "24.14307",
      "inDis" : "50",
      "routeId" : "56",
      "seqNo" : "14"
   },
   {
      "GoBack" : "2",
      "longitude" : "120.63855",
      "outDis" : "50",
      "Id" : "0062",
      "oid" : "12592",
      "districtId" : "1",
      "nameZh" : "南屯",
      "pgp" : "0",
      "terminal" : "0",
      "latitude" : "24.14209",
      "inDis" : "50",
      "routeId" : "56",
      "seqNo" : "15"
   },
   {
      "GoBack" : "2",
      "longitude" : "120.64128",
      "outDis" : "50",
      "Id" : "4549",
      "oid" : "12633",
      "districtId" : "1",
      "nameZh" : "五權西萬和路口",
      "pgp" : "0",
      "terminal" : "0",
      "latitude" : "24.14121",
      "inDis" : "50",
      "routeId" : "56",
      "seqNo" : "16"
   },
   {
      "GoBack" : "2",
      "longitude" : "120.64522",
      "outDis" : "50",
      "Id" : "4961",
      "oid" : "308409776",
      "districtId" : "1",
      "nameZh" : "五權西向心路口",
      "pgp" : "0",
      "terminal" : "0",
      "latitude" : "24.14023",
      "inDis" : "50",
      "routeId" : "56",
      "seqNo" : "17"
   },
   {
      "GoBack" : "2",
      "longitude" : "120.64773",
      "outDis" : "50",
      "Id" : "4262",
      "oid" : "12509",
      "districtId" : "1",
      "nameZh" : "五權西文心路口",
      "pgp" : "0",
      "terminal" : "0",
      "latitude" : "24.13991",
      "inDis" : "50",
      "routeId" : "56",
      "seqNo" : "18"
   },
   {
      "GoBack" : "2",
      "longitude" : "120.65069",
      "outDis" : "50",
      "Id" : "4594",
      "oid" : "12488",
      "districtId" : "1",
      "nameZh" : "五權西大墩路口",
      "pgp" : "0",
      "terminal" : "0",
      "latitude" : "24.14006",
      "inDis" : "50",
      "routeId" : "56",
      "seqNo" : "19"
   },
   {
      "GoBack" : "2",
      "longitude" : "120.65356",
      "outDis" : "50",
      "Id" : "4551",
      "oid" : "12586",
      "districtId" : "1",
      "nameZh" : "五權西東興路口",
      "pgp" : "0",
      "terminal" : "0",
      "latitude" : "24.14006",
      "inDis" : "50",
      "routeId" : "56",
      "seqNo" : "20"
   },
   {
      "GoBack" : "2",
      "longitude" : "120.65824",
      "outDis" : "50",
      "Id" : "0035",
      "oid" : "12582",
      "districtId" : "1",
      "nameZh" : "五權西忠明南路口",
      "pgp" : "0",
      "terminal" : "0",
      "latitude" : "24.14015",
      "inDis" : "50",
      "routeId" : "56",
      "seqNo" : "21"
   },
   {
      "GoBack" : "2",
      "longitude" : "120.66315",
      "outDis" : "50",
      "Id" : "4556",
      "oid" : "12596",
      "districtId" : "1",
      "nameZh" : "美術館(五權西路)",
      "pgp" : "0",
      "terminal" : "0",
      "latitude" : "24.14018",
      "inDis" : "50",
      "routeId" : "56",
      "seqNo" : "22"
   },
   {
      "GoBack" : "2",
      "longitude" : "120.66634",
      "outDis" : "50",
      "Id" : "5088",
      "oid" : "12522",
      "districtId" : "1",
      "nameZh" : "大墩文化中心(五權路)",
      "pgp" : "0",
      "terminal" : "0",
      "latitude" : "24.14079",
      "inDis" : "50",
      "routeId" : "56",
      "seqNo" : "23"
   },
   {
      "GoBack" : "2",
      "longitude" : "120.66836",
      "outDis" : "50",
      "Id" : "4261",
      "oid" : "12507",
      "districtId" : "1",
      "nameZh" : "五權自立街口",
      "pgp" : "0",
      "terminal" : "0",
      "latitude" : "24.14269",
      "inDis" : "50",
      "routeId" : "56",
      "seqNo" : "24"
   },
   {
      "GoBack" : "2",
      "longitude" : "120.66955",
      "outDis" : "50",
      "Id" : "4260",
      "oid" : "12505",
      "districtId" : "1",
      "nameZh" : "五權民生路口",
      "pgp" : "0",
      "terminal" : "0",
      "latitude" : "24.14388",
      "inDis" : "50",
      "routeId" : "56",
      "seqNo" : "25"
   },
   {
      "GoBack" : "2",
      "longitude" : "120.67269",
      "outDis" : "50",
      "Id" : "5628",
      "oid" : "317223824",
      "districtId" : "1",
      "nameZh" : "五權臺灣大道口",
      "pgp" : "0",
      "terminal" : "0",
      "latitude" : "24.1469",
      "inDis" : "50",
      "routeId" : "56",
      "seqNo" : "26"
   },
   {
      "GoBack" : "2",
      "longitude" : "120.67543",
      "outDis" : "50",
      "Id" : "0144",
      "oid" : "12494",
      "districtId" : "1",
      "nameZh" : "中央市場",
      "pgp" : "0",
      "terminal" : "0",
      "latitude" : "24.14952",
      "inDis" : "50",
      "routeId" : "56",
      "seqNo" : "27"
   },
   {
      "GoBack" : "2",
      "longitude" : "120.67695",
      "outDis" : "50",
      "Id" : "4626",
      "oid" : "12515",
      "districtId" : "1",
      "nameZh" : "五權公園路口",
      "pgp" : "0",
      "terminal" : "0",
      "latitude" : "24.15101",
      "inDis" : "50",
      "routeId" : "56",
      "seqNo" : "28"
   },
   {
      "GoBack" : "2",
      "longitude" : "120.67856",
      "outDis" : "50",
      "Id" : "0145",
      "oid" : "12575",
      "districtId" : "1",
      "nameZh" : "光大里",
      "pgp" : "0",
      "terminal" : "0",
      "latitude" : "24.15179",
      "inDis" : "50",
      "routeId" : "56",
      "seqNo" : "29"
   },
   {
      "GoBack" : "2",
      "longitude" : "120.68021",
      "outDis" : "50",
      "Id" : "0146",
      "oid" : "12501",
      "districtId" : "1",
      "nameZh" : "五常里",
      "pgp" : "0",
      "terminal" : "0",
      "latitude" : "24.15238",
      "inDis" : "50",
      "routeId" : "56",
      "seqNo" : "30"
   },
   {
      "GoBack" : "2",
      "longitude" : "120.68384",
      "outDis" : "50",
      "Id" : "3772",
      "oid" : "12637",
      "districtId" : "1",
      "nameZh" : "五權學士路口",
      "pgp" : "0",
      "terminal" : "0",
      "latitude" : "24.1538",
      "inDis" : "50",
      "routeId" : "56",
      "seqNo" : "31"
   },
   {
      "GoBack" : "2",
      "longitude" : "120.68797",
      "outDis" : "50",
      "Id" : "0048",
      "oid" : "12624",
      "districtId" : "1",
      "nameZh" : "莒光新城",
      "pgp" : "0",
      "terminal" : "0",
      "latitude" : "24.15401",
      "inDis" : "50",
      "routeId" : "56",
      "seqNo" : "32"
   },
   {
      "GoBack" : "2",
      "longitude" : "120.68866",
      "outDis" : "50",
      "Id" : "4694",
      "oid" : "12652",
      "districtId" : "1",
      "nameZh" : "臺灣體大體育場",
      "pgp" : "0",
      "terminal" : "0",
      "latitude" : "24.15269",
      "inDis" : "50",
      "routeId" : "56",
      "seqNo" : "33"
   },
   {
      "GoBack" : "2",
      "longitude" : "120.68745",
      "outDis" : "50",
      "Id" : "0149",
      "oid" : "12554",
      "districtId" : "1",
      "nameZh" : "臺中一中",
      "pgp" : "0",
      "terminal" : "0",
      "latitude" : "24.1495",
      "inDis" : "50",
      "routeId" : "56",
      "seqNo" : "34"
   },
   {
      "GoBack" : "2",
      "longitude" : "120.68632",
      "outDis" : "50",
      "Id" : "4695",
      "oid" : "7486",
      "districtId" : "1",
      "nameZh" : "臺灣體大游泳池",
      "pgp" : "0",
      "terminal" : "0",
      "latitude" : "24.14687",
      "inDis" : "50",
      "routeId" : "56",
      "seqNo" : "35"
   },
   {
      "GoBack" : "2",
      "longitude" : "120.68623",
      "outDis" : "50",
      "Id" : "4544",
      "oid" : "12558",
      "districtId" : "1",
      "nameZh" : "臺中公園(雙十路)",
      "pgp" : "0",
      "terminal" : "0",
      "latitude" : "24.14405",
      "inDis" : "50",
      "routeId" : "56",
      "seqNo" : "36"
   },
   {
      "GoBack" : "2",
      "longitude" : "120.68574",
      "outDis" : "50",
      "Id" : "0402",
      "oid" : "12492",
      "districtId" : "1",
      "nameZh" : "干城站",
      "pgp" : "0",
      "terminal" : "0",
      "latitude" : "24.14119",
      "inDis" : "50",
      "routeId" : "56",
      "seqNo" : "37"
   }
]
