[
   {
      "GoBack" : "1",
      "longitude" : "120.56252",
      "outDis" : "50",
      "Id" : "3017",
      "oid" : "2030",
      "districtId" : "1",
      "nameZh" : "清水國中",
      "pgp" : "0",
      "terminal" : "0",
      "latitude" : "24.26778",
      "inDis" : "50",
      "routeId" : "165",
      "seqNo" : "1"
   },
   {
      "GoBack" : "1",
      "longitude" : "120.58249",
      "outDis" : "50",
      "Id" : "4137",
      "oid" : "2031",
      "districtId" : "1",
      "nameZh" : "嘉陽高中",
      "pgp" : "0",
      "terminal" : "0",
      "latitude" : "24.2659",
      "inDis" : "50",
      "routeId" : "165",
      "seqNo" : "2"
   },
   {
      "GoBack" : "1",
      "longitude" : "120.59534",
      "outDis" : "50",
      "Id" : "4083",
      "oid" : "2032",
      "districtId" : "1",
      "nameZh" : "公館國小",
      "pgp" : "0",
      "terminal" : "0",
      "latitude" : "24.26088",
      "inDis" : "50",
      "routeId" : "165",
      "seqNo" : "3"
   },
   {
      "GoBack" : "1",
      "longitude" : "120.59853",
      "outDis" : "50",
      "Id" : "4101",
      "oid" : "2033",
      "districtId" : "1",
      "nameZh" : "西勢里",
      "pgp" : "0",
      "terminal" : "0",
      "latitude" : "24.25996",
      "inDis" : "50",
      "routeId" : "165",
      "seqNo" : "4"
   },
   {
      "GoBack" : "1",
      "longitude" : "120.60197",
      "outDis" : "50",
      "Id" : "4790",
      "oid" : "2034",
      "districtId" : "1",
      "nameZh" : "友仁公司",
      "pgp" : "0",
      "terminal" : "0",
      "latitude" : "24.25929",
      "inDis" : "50",
      "routeId" : "165",
      "seqNo" : "5"
   },
   {
      "GoBack" : "1",
      "longitude" : "120.60407",
      "outDis" : "50",
      "Id" : "3295",
      "oid" : "2035",
      "districtId" : "1",
      "nameZh" : "澔明公司",
      "pgp" : "0",
      "terminal" : "0",
      "latitude" : "24.26222",
      "inDis" : "50",
      "routeId" : "165",
      "seqNo" : "6"
   },
   {
      "GoBack" : "1",
      "longitude" : "120.60642",
      "outDis" : "50",
      "Id" : "2223",
      "oid" : "2036",
      "districtId" : "1",
      "nameZh" : "吳厝里",
      "pgp" : "0",
      "terminal" : "0",
      "latitude" : "24.2666",
      "inDis" : "50",
      "routeId" : "165",
      "seqNo" : "7"
   },
   {
      "GoBack" : "1",
      "longitude" : "120.59972",
      "outDis" : "50",
      "Id" : "4803",
      "oid" : "2037",
      "districtId" : "1",
      "nameZh" : "永安宮",
      "pgp" : "0",
      "terminal" : "0",
      "latitude" : "24.26827",
      "inDis" : "50",
      "routeId" : "165",
      "seqNo" : "8"
   },
   {
      "GoBack" : "1",
      "longitude" : "120.60777",
      "outDis" : "50",
      "Id" : "3434",
      "oid" : "2038",
      "districtId" : "1",
      "nameZh" : "新興社區",
      "pgp" : "0",
      "terminal" : "0",
      "latitude" : "24.2694",
      "inDis" : "50",
      "routeId" : "165",
      "seqNo" : "9"
   },
   {
      "GoBack" : "1",
      "longitude" : "120.6111",
      "outDis" : "50",
      "Id" : "3119",
      "oid" : "2039",
      "districtId" : "1",
      "nameZh" : "頂吳厝里",
      "pgp" : "0",
      "terminal" : "0",
      "latitude" : "24.27625",
      "inDis" : "50",
      "routeId" : "165",
      "seqNo" : "10"
   },
   {
      "GoBack" : "1",
      "longitude" : "120.61287",
      "outDis" : "50",
      "Id" : "3071",
      "oid" : "2040",
      "districtId" : "1",
      "nameZh" : "許厝里",
      "pgp" : "0",
      "terminal" : "0",
      "latitude" : "24.27944",
      "inDis" : "50",
      "routeId" : "165",
      "seqNo" : "11"
   },
   {
      "GoBack" : "1",
      "longitude" : "120.61334",
      "outDis" : "50",
      "Id" : "1203",
      "oid" : "2041",
      "districtId" : "1",
      "nameZh" : "下楊厝里",
      "pgp" : "0",
      "terminal" : "0",
      "latitude" : "24.28542",
      "inDis" : "50",
      "routeId" : "165",
      "seqNo" : "12"
   },
   {
      "GoBack" : "1",
      "longitude" : "120.61558",
      "outDis" : "50",
      "Id" : "3448",
      "oid" : "2042",
      "districtId" : "1",
      "nameZh" : "楊厝里",
      "pgp" : "0",
      "terminal" : "0",
      "latitude" : "24.28931",
      "inDis" : "50",
      "routeId" : "165",
      "seqNo" : "13"
   },
   {
      "GoBack" : "1",
      "longitude" : "120.61938",
      "outDis" : "50",
      "Id" : "2806",
      "oid" : "2043",
      "districtId" : "1",
      "nameZh" : "海風路口",
      "pgp" : "0",
      "terminal" : "0",
      "latitude" : "24.29252",
      "inDis" : "50",
      "routeId" : "165",
      "seqNo" : "14"
   },
   {
      "GoBack" : "1",
      "longitude" : "120.62557",
      "outDis" : "50",
      "Id" : "2271",
      "oid" : "2044",
      "districtId" : "1",
      "nameZh" : "良逸公司",
      "pgp" : "0",
      "terminal" : "0",
      "latitude" : "24.29238",
      "inDis" : "50",
      "routeId" : "165",
      "seqNo" : "15"
   },
   {
      "GoBack" : "1",
      "longitude" : "120.63044",
      "outDis" : "50",
      "Id" : "1215",
      "oid" : "2045",
      "districtId" : "1",
      "nameZh" : "下舊庄",
      "pgp" : "0",
      "terminal" : "0",
      "latitude" : "24.29263",
      "inDis" : "50",
      "routeId" : "165",
      "seqNo" : "16"
   },
   {
      "GoBack" : "1",
      "longitude" : "120.63264",
      "outDis" : "50",
      "Id" : "3918",
      "oid" : "2046",
      "districtId" : "1",
      "nameZh" : "舊庄",
      "pgp" : "0",
      "terminal" : "0",
      "latitude" : "24.2914",
      "inDis" : "50",
      "routeId" : "165",
      "seqNo" : "17"
   },
   {
      "GoBack" : "2",
      "longitude" : "120.63281",
      "outDis" : "50",
      "Id" : "3918",
      "oid" : "2047",
      "districtId" : "1",
      "nameZh" : "舊庄",
      "pgp" : "0",
      "terminal" : "0",
      "latitude" : "24.29181",
      "inDis" : "50",
      "routeId" : "165",
      "seqNo" : "1"
   },
   {
      "GoBack" : "2",
      "longitude" : "120.63038",
      "outDis" : "50",
      "Id" : "1215",
      "oid" : "2048",
      "districtId" : "1",
      "nameZh" : "下舊庄",
      "pgp" : "0",
      "terminal" : "0",
      "latitude" : "24.29262",
      "inDis" : "50",
      "routeId" : "165",
      "seqNo" : "2"
   },
   {
      "GoBack" : "2",
      "longitude" : "120.62555",
      "outDis" : "50",
      "Id" : "2271",
      "oid" : "2049",
      "districtId" : "1",
      "nameZh" : "良逸公司",
      "pgp" : "0",
      "terminal" : "0",
      "latitude" : "24.29263",
      "inDis" : "50",
      "routeId" : "165",
      "seqNo" : "3"
   },
   {
      "GoBack" : "2",
      "longitude" : "120.61952",
      "outDis" : "50",
      "Id" : "2806",
      "oid" : "2050",
      "districtId" : "1",
      "nameZh" : "海風路口",
      "pgp" : "0",
      "terminal" : "0",
      "latitude" : "24.29256",
      "inDis" : "50",
      "routeId" : "165",
      "seqNo" : "4"
   },
   {
      "GoBack" : "2",
      "longitude" : "120.61588",
      "outDis" : "50",
      "Id" : "3448",
      "oid" : "2051",
      "districtId" : "1",
      "nameZh" : "楊厝里",
      "pgp" : "0",
      "terminal" : "0",
      "latitude" : "24.28928",
      "inDis" : "50",
      "routeId" : "165",
      "seqNo" : "5"
   },
   {
      "GoBack" : "2",
      "longitude" : "120.61336",
      "outDis" : "50",
      "Id" : "1203",
      "oid" : "2052",
      "districtId" : "1",
      "nameZh" : "下楊厝里",
      "pgp" : "0",
      "terminal" : "0",
      "latitude" : "24.28537",
      "inDis" : "50",
      "routeId" : "165",
      "seqNo" : "6"
   },
   {
      "GoBack" : "2",
      "longitude" : "120.61307",
      "outDis" : "50",
      "Id" : "3071",
      "oid" : "2053",
      "districtId" : "1",
      "nameZh" : "許厝里",
      "pgp" : "0",
      "terminal" : "0",
      "latitude" : "24.27969",
      "inDis" : "50",
      "routeId" : "165",
      "seqNo" : "7"
   },
   {
      "GoBack" : "2",
      "longitude" : "120.61122",
      "outDis" : "50",
      "Id" : "3119",
      "oid" : "2054",
      "districtId" : "1",
      "nameZh" : "頂吳厝里",
      "pgp" : "0",
      "terminal" : "0",
      "latitude" : "24.27619",
      "inDis" : "50",
      "routeId" : "165",
      "seqNo" : "8"
   },
   {
      "GoBack" : "2",
      "longitude" : "120.60756",
      "outDis" : "50",
      "Id" : "3434",
      "oid" : "2055",
      "districtId" : "1",
      "nameZh" : "新興社區",
      "pgp" : "0",
      "terminal" : "0",
      "latitude" : "24.26899",
      "inDis" : "50",
      "routeId" : "165",
      "seqNo" : "9"
   },
   {
      "GoBack" : "2",
      "longitude" : "120.59972",
      "outDis" : "50",
      "Id" : "4803",
      "oid" : "2056",
      "districtId" : "1",
      "nameZh" : "永安宮",
      "pgp" : "0",
      "terminal" : "0",
      "latitude" : "24.26827",
      "inDis" : "50",
      "routeId" : "165",
      "seqNo" : "10"
   },
   {
      "GoBack" : "2",
      "longitude" : "120.60613",
      "outDis" : "50",
      "Id" : "2223",
      "oid" : "2057",
      "districtId" : "1",
      "nameZh" : "吳厝里",
      "pgp" : "0",
      "terminal" : "0",
      "latitude" : "24.2661",
      "inDis" : "50",
      "routeId" : "165",
      "seqNo" : "11"
   },
   {
      "GoBack" : "2",
      "longitude" : "120.60411",
      "outDis" : "50",
      "Id" : "3295",
      "oid" : "2058",
      "districtId" : "1",
      "nameZh" : "澔明公司",
      "pgp" : "0",
      "terminal" : "0",
      "latitude" : "24.26231",
      "inDis" : "50",
      "routeId" : "165",
      "seqNo" : "12"
   },
   {
      "GoBack" : "2",
      "longitude" : "120.602",
      "outDis" : "50",
      "Id" : "4790",
      "oid" : "2059",
      "districtId" : "1",
      "nameZh" : "友仁公司",
      "pgp" : "0",
      "terminal" : "0",
      "latitude" : "24.25926",
      "inDis" : "50",
      "routeId" : "165",
      "seqNo" : "13"
   },
   {
      "GoBack" : "2",
      "longitude" : "120.59843",
      "outDis" : "50",
      "Id" : "4101",
      "oid" : "2060",
      "districtId" : "1",
      "nameZh" : "西勢里",
      "pgp" : "0",
      "terminal" : "0",
      "latitude" : "24.25989",
      "inDis" : "50",
      "routeId" : "165",
      "seqNo" : "14"
   },
   {
      "GoBack" : "2",
      "longitude" : "120.59535",
      "outDis" : "50",
      "Id" : "4083",
      "oid" : "2061",
      "districtId" : "1",
      "nameZh" : "公館國小",
      "pgp" : "0",
      "terminal" : "0",
      "latitude" : "24.2609",
      "inDis" : "50",
      "routeId" : "165",
      "seqNo" : "15"
   },
   {
      "GoBack" : "2",
      "longitude" : "120.58273",
      "outDis" : "50",
      "Id" : "4137",
      "oid" : "2062",
      "districtId" : "1",
      "nameZh" : "嘉陽高中",
      "pgp" : "0",
      "terminal" : "0",
      "latitude" : "24.26616",
      "inDis" : "50",
      "routeId" : "165",
      "seqNo" : "16"
   },
   {
      "GoBack" : "2",
      "longitude" : "120.56293",
      "outDis" : "50",
      "Id" : "3017",
      "oid" : "2063",
      "districtId" : "1",
      "nameZh" : "清水國中",
      "pgp" : "0",
      "terminal" : "0",
      "latitude" : "24.26786",
      "inDis" : "50",
      "routeId" : "165",
      "seqNo" : "17"
   }
]
