[
   {
      "GoBack" : "1",
      "longitude" : "120.72154",
      "outDis" : "70",
      "Id" : "3935",
      "oid" : "6693",
      "districtId" : "1",
      "nameZh" : "豐原",
      "pgp" : "0",
      "terminal" : "0",
      "latitude" : "24.2538",
      "inDis" : "70",
      "routeId" : "207",
      "seqNo" : "1"
   },
   {
      "GoBack" : "1",
      "longitude" : "120.7212",
      "outDis" : "50",
      "Id" : "3157",
      "oid" : "13609",
      "districtId" : "1",
      "nameZh" : "頂街",
      "pgp" : "0",
      "terminal" : "0",
      "latitude" : "24.25229",
      "inDis" : "50",
      "routeId" : "207",
      "seqNo" : "2"
   },
   {
      "GoBack" : "1",
      "longitude" : "120.72394",
      "outDis" : "50",
      "Id" : "4203",
      "oid" : "6447",
      "districtId" : "1",
      "nameZh" : "新都酒店",
      "pgp" : "0",
      "terminal" : "0",
      "latitude" : "24.25221",
      "inDis" : "50",
      "routeId" : "207",
      "seqNo" : "3"
   },
   {
      "GoBack" : "1",
      "longitude" : "120.72603",
      "outDis" : "50",
      "Id" : "4408",
      "oid" : "5744",
      "districtId" : "1",
      "nameZh" : "豐原老人會館",
      "pgp" : "0",
      "terminal" : "0",
      "latitude" : "24.25219",
      "inDis" : "50",
      "routeId" : "207",
      "seqNo" : "4"
   },
   {
      "GoBack" : "1",
      "longitude" : "120.72786",
      "outDis" : "50",
      "Id" : "4457",
      "oid" : "6393",
      "districtId" : "1",
      "nameZh" : "向陽圓環東路口",
      "pgp" : "0",
      "terminal" : "0",
      "latitude" : "24.25133",
      "inDis" : "50",
      "routeId" : "207",
      "seqNo" : "5"
   },
   {
      "GoBack" : "1",
      "longitude" : "120.72976",
      "outDis" : "50",
      "Id" : "5544",
      "oid" : "316462696",
      "districtId" : "1",
      "nameZh" : "葫蘆墩文化中心",
      "pgp" : "0",
      "terminal" : "0",
      "latitude" : "24.25299",
      "inDis" : "50",
      "routeId" : "207",
      "seqNo" : "6"
   },
   {
      "GoBack" : "1",
      "longitude" : "120.72983",
      "outDis" : "50",
      "Id" : "4478",
      "oid" : "5488",
      "districtId" : "1",
      "nameZh" : "圓環東水源路口",
      "pgp" : "0",
      "terminal" : "0",
      "latitude" : "24.25577",
      "inDis" : "50",
      "routeId" : "207",
      "seqNo" : "7"
   },
   {
      "GoBack" : "1",
      "longitude" : "120.73227",
      "outDis" : "50",
      "Id" : "4407",
      "oid" : "5626",
      "districtId" : "1",
      "nameZh" : "永豐原紙廠",
      "pgp" : "0",
      "terminal" : "0",
      "latitude" : "24.2587",
      "inDis" : "50",
      "routeId" : "207",
      "seqNo" : "8"
   },
   {
      "GoBack" : "1",
      "longitude" : "120.73593",
      "outDis" : "50",
      "Id" : "2843",
      "oid" : "6144",
      "districtId" : "1",
      "nameZh" : "翁子",
      "pgp" : "0",
      "terminal" : "0",
      "latitude" : "24.26058",
      "inDis" : "50",
      "routeId" : "207",
      "seqNo" : "9"
   },
   {
      "GoBack" : "1",
      "longitude" : "120.73947",
      "outDis" : "50",
      "Id" : "2844",
      "oid" : "6145",
      "districtId" : "1",
      "nameZh" : "翁子保養場",
      "pgp" : "0",
      "terminal" : "0",
      "latitude" : "24.26226",
      "inDis" : "50",
      "routeId" : "207",
      "seqNo" : "10"
   },
   {
      "GoBack" : "1",
      "longitude" : "120.74277",
      "outDis" : "50",
      "Id" : "2845",
      "oid" : "6146",
      "districtId" : "1",
      "nameZh" : "翁子國小",
      "pgp" : "0",
      "terminal" : "0",
      "latitude" : "24.26379",
      "inDis" : "50",
      "routeId" : "207",
      "seqNo" : "11"
   },
   {
      "GoBack" : "1",
      "longitude" : "120.74564",
      "outDis" : "50",
      "Id" : "1806",
      "oid" : "5541",
      "districtId" : "1",
      "nameZh" : "半張",
      "pgp" : "0",
      "terminal" : "0",
      "latitude" : "24.26517",
      "inDis" : "50",
      "routeId" : "207",
      "seqNo" : "12"
   },
   {
      "GoBack" : "1",
      "longitude" : "120.74924",
      "outDis" : "50",
      "Id" : "4490",
      "oid" : "5728",
      "districtId" : "1",
      "nameZh" : "豐勢國豐路口",
      "pgp" : "0",
      "terminal" : "0",
      "latitude" : "24.2678",
      "inDis" : "50",
      "routeId" : "207",
      "seqNo" : "13"
   },
   {
      "GoBack" : "1",
      "longitude" : "120.75175",
      "outDis" : "50",
      "Id" : "4412",
      "oid" : "304270264",
      "districtId" : "1",
      "nameZh" : "國家教育研究院",
      "pgp" : "0",
      "terminal" : "0",
      "latitude" : "24.27084",
      "inDis" : "50",
      "routeId" : "207",
      "seqNo" : "14"
   },
   {
      "GoBack" : "1",
      "longitude" : "120.75398",
      "outDis" : "50",
      "Id" : "2128",
      "oid" : "5729",
      "districtId" : "1",
      "nameZh" : "朴子口",
      "pgp" : "0",
      "terminal" : "0",
      "latitude" : "24.27345",
      "inDis" : "50",
      "routeId" : "207",
      "seqNo" : "15"
   },
   {
      "GoBack" : "1",
      "longitude" : "120.75652",
      "outDis" : "50",
      "Id" : "4454",
      "oid" : "6472",
      "districtId" : "1",
      "nameZh" : "民安",
      "pgp" : "0",
      "terminal" : "0",
      "latitude" : "24.27507",
      "inDis" : "50",
      "routeId" : "207",
      "seqNo" : "16"
   },
   {
      "GoBack" : "1",
      "longitude" : "120.75916",
      "outDis" : "50",
      "Id" : "2947",
      "oid" : "6184",
      "districtId" : "1",
      "nameZh" : "埤頭",
      "pgp" : "0",
      "terminal" : "0",
      "latitude" : "24.27657",
      "inDis" : "50",
      "routeId" : "207",
      "seqNo" : "17"
   },
   {
      "GoBack" : "1",
      "longitude" : "120.76675",
      "outDis" : "50",
      "Id" : "2005",
      "oid" : "5658",
      "districtId" : "1",
      "nameZh" : "石岡水壩",
      "pgp" : "0",
      "terminal" : "0",
      "latitude" : "24.27812",
      "inDis" : "50",
      "routeId" : "207",
      "seqNo" : "18"
   },
   {
      "GoBack" : "1",
      "longitude" : "120.7719",
      "outDis" : "50",
      "Id" : "2337",
      "oid" : "5848",
      "districtId" : "1",
      "nameZh" : "岡尾",
      "pgp" : "0",
      "terminal" : "0",
      "latitude" : "24.27755",
      "inDis" : "50",
      "routeId" : "207",
      "seqNo" : "19"
   },
   {
      "GoBack" : "1",
      "longitude" : "120.77635",
      "outDis" : "50",
      "Id" : "2004",
      "oid" : "5657",
      "districtId" : "1",
      "nameZh" : "石岡",
      "pgp" : "0",
      "terminal" : "0",
      "latitude" : "24.27653",
      "inDis" : "50",
      "routeId" : "207",
      "seqNo" : "20"
   },
   {
      "GoBack" : "1",
      "longitude" : "120.78075",
      "outDis" : "50",
      "Id" : "4456",
      "oid" : "5659",
      "districtId" : "1",
      "nameZh" : "石岡區公所",
      "pgp" : "0",
      "terminal" : "0",
      "latitude" : "24.27492",
      "inDis" : "50",
      "routeId" : "207",
      "seqNo" : "21"
   },
   {
      "GoBack" : "1",
      "longitude" : "120.78428",
      "outDis" : "50",
      "Id" : "0992",
      "oid" : "5029",
      "districtId" : "1",
      "nameZh" : "九房厝",
      "pgp" : "0",
      "terminal" : "0",
      "latitude" : "24.27447",
      "inDis" : "50",
      "routeId" : "207",
      "seqNo" : "22"
   },
   {
      "GoBack" : "1",
      "longitude" : "120.78874",
      "outDis" : "50",
      "Id" : "2983",
      "oid" : "6194",
      "districtId" : "1",
      "nameZh" : "情人木橋",
      "pgp" : "0",
      "terminal" : "0",
      "latitude" : "24.27386",
      "inDis" : "50",
      "routeId" : "207",
      "seqNo" : "23"
   },
   {
      "GoBack" : "1",
      "longitude" : "120.79172",
      "outDis" : "50",
      "Id" : "2496",
      "oid" : "5947",
      "districtId" : "1",
      "nameZh" : "社寮角",
      "pgp" : "0",
      "terminal" : "0",
      "latitude" : "24.2726",
      "inDis" : "50",
      "routeId" : "207",
      "seqNo" : "24"
   },
   {
      "GoBack" : "1",
      "longitude" : "120.79646",
      "outDis" : "50",
      "Id" : "3440",
      "oid" : "6460",
      "districtId" : "1",
      "nameZh" : "新豐冷凍",
      "pgp" : "0",
      "terminal" : "0",
      "latitude" : "24.27049",
      "inDis" : "50",
      "routeId" : "207",
      "seqNo" : "25"
   },
   {
      "GoBack" : "1",
      "longitude" : "120.80127",
      "outDis" : "50",
      "Id" : "3003",
      "oid" : "6213",
      "districtId" : "1",
      "nameZh" : "梅子",
      "pgp" : "0",
      "terminal" : "0",
      "latitude" : "24.26864",
      "inDis" : "50",
      "routeId" : "207",
      "seqNo" : "26"
   },
   {
      "GoBack" : "1",
      "longitude" : "120.80419",
      "outDis" : "50",
      "Id" : "2357",
      "oid" : "5865",
      "districtId" : "1",
      "nameZh" : "明山寺",
      "pgp" : "0",
      "terminal" : "0",
      "latitude" : "24.26745",
      "inDis" : "50",
      "routeId" : "207",
      "seqNo" : "27"
   },
   {
      "GoBack" : "1",
      "longitude" : "120.80692",
      "outDis" : "50",
      "Id" : "1114",
      "oid" : "5101",
      "districtId" : "1",
      "nameZh" : "下土牛",
      "pgp" : "0",
      "terminal" : "0",
      "latitude" : "24.26608",
      "inDis" : "50",
      "routeId" : "207",
      "seqNo" : "28"
   },
   {
      "GoBack" : "1",
      "longitude" : "120.81019",
      "outDis" : "50",
      "Id" : "3074",
      "oid" : "6268",
      "districtId" : "1",
      "nameZh" : "連厝",
      "pgp" : "0",
      "terminal" : "0",
      "latitude" : "24.26398",
      "inDis" : "50",
      "routeId" : "207",
      "seqNo" : "29"
   },
   {
      "GoBack" : "1",
      "longitude" : "120.8127",
      "outDis" : "50",
      "Id" : "3728",
      "oid" : "6595",
      "districtId" : "1",
      "nameZh" : "德興里",
      "pgp" : "0",
      "terminal" : "0",
      "latitude" : "24.26237",
      "inDis" : "50",
      "routeId" : "207",
      "seqNo" : "30"
   },
   {
      "GoBack" : "1",
      "longitude" : "120.81608",
      "outDis" : "50",
      "Id" : "4430",
      "oid" : "5198",
      "districtId" : "1",
      "nameZh" : "土牛(豐勢路)",
      "pgp" : "0",
      "terminal" : "0",
      "latitude" : "24.26021",
      "inDis" : "50",
      "routeId" : "207",
      "seqNo" : "31"
   },
   {
      "GoBack" : "1",
      "longitude" : "120.82456",
      "outDis" : "50",
      "Id" : "4415",
      "oid" : "304371955",
      "districtId" : "1",
      "nameZh" : "東勢游泳池",
      "pgp" : "0",
      "terminal" : "0",
      "latitude" : "24.26119",
      "inDis" : "50",
      "routeId" : "207",
      "seqNo" : "32"
   },
   {
      "GoBack" : "1",
      "longitude" : "120.82784",
      "outDis" : "80",
      "Id" : "2428",
      "oid" : "5899",
      "districtId" : "1",
      "nameZh" : "東勢",
      "pgp" : "0",
      "terminal" : "0",
      "latitude" : "24.25838",
      "inDis" : "50",
      "routeId" : "207",
      "seqNo" : "33"
   },
   {
      "GoBack" : "1",
      "longitude" : "120.82934",
      "outDis" : "80",
      "Id" : "2570",
      "oid" : "5987",
      "districtId" : "1",
      "nameZh" : "南平里",
      "pgp" : "0",
      "terminal" : "0",
      "latitude" : "24.25515",
      "inDis" : "50",
      "routeId" : "207",
      "seqNo" : "34"
   },
   {
      "GoBack" : "1",
      "longitude" : "120.83003",
      "outDis" : "80",
      "Id" : "1415",
      "oid" : "5302",
      "districtId" : "1",
      "nameZh" : "中嵙口",
      "pgp" : "0",
      "terminal" : "0",
      "latitude" : "24.25251",
      "inDis" : "50",
      "routeId" : "207",
      "seqNo" : "35"
   },
   {
      "GoBack" : "1",
      "longitude" : "120.83063",
      "outDis" : "80",
      "Id" : "4409",
      "oid" : "5889",
      "districtId" : "1",
      "nameZh" : "東勢南站",
      "pgp" : "0",
      "terminal" : "0",
      "latitude" : "24.24998",
      "inDis" : "50",
      "routeId" : "207",
      "seqNo" : "36"
   },
   {
      "GoBack" : "1",
      "longitude" : "120.83189",
      "outDis" : "80",
      "Id" : "2002",
      "oid" : "5654",
      "districtId" : "1",
      "nameZh" : "石角口",
      "pgp" : "0",
      "terminal" : "0",
      "latitude" : "24.24803",
      "inDis" : "50",
      "routeId" : "207",
      "seqNo" : "37"
   },
   {
      "GoBack" : "1",
      "longitude" : "120.83329",
      "outDis" : "50",
      "Id" : "0312",
      "oid" : "13647",
      "districtId" : "1",
      "nameZh" : "新盛里(東勢高工)",
      "pgp" : "0",
      "terminal" : "0",
      "latitude" : "24.24339",
      "inDis" : "50",
      "routeId" : "207",
      "seqNo" : "38"
   },
   {
      "GoBack" : "1",
      "longitude" : "120.83439",
      "outDis" : "50",
      "Id" : "2229",
      "oid" : "5784",
      "districtId" : "1",
      "nameZh" : "尾社",
      "pgp" : "0",
      "terminal" : "0",
      "latitude" : "24.23876",
      "inDis" : "50",
      "routeId" : "207",
      "seqNo" : "39"
   },
   {
      "GoBack" : "1",
      "longitude" : "120.83546",
      "outDis" : "50",
      "Id" : "1107",
      "oid" : "5097",
      "districtId" : "1",
      "nameZh" : "三鑫公司",
      "pgp" : "0",
      "terminal" : "0",
      "latitude" : "24.23498",
      "inDis" : "50",
      "routeId" : "207",
      "seqNo" : "40"
   },
   {
      "GoBack" : "1",
      "longitude" : "120.83637",
      "outDis" : "50",
      "Id" : "4466",
      "oid" : "6543",
      "districtId" : "1",
      "nameZh" : "東關福山路口",
      "pgp" : "0",
      "terminal" : "0",
      "latitude" : "24.23179",
      "inDis" : "50",
      "routeId" : "207",
      "seqNo" : "41"
   },
   {
      "GoBack" : "1",
      "longitude" : "120.83723",
      "outDis" : "50",
      "Id" : "3391",
      "oid" : "6427",
      "districtId" : "1",
      "nameZh" : "新伯公",
      "pgp" : "0",
      "terminal" : "0",
      "latitude" : "24.22845",
      "inDis" : "50",
      "routeId" : "207",
      "seqNo" : "42"
   },
   {
      "GoBack" : "1",
      "longitude" : "120.83827",
      "outDis" : "50",
      "Id" : "3329",
      "oid" : "6389",
      "districtId" : "1",
      "nameZh" : "詒新",
      "pgp" : "0",
      "terminal" : "0",
      "latitude" : "24.22503",
      "inDis" : "50",
      "routeId" : "207",
      "seqNo" : "43"
   },
   {
      "GoBack" : "1",
      "longitude" : "120.83849",
      "outDis" : "50",
      "Id" : "1167",
      "oid" : "5130",
      "districtId" : "1",
      "nameZh" : "下城里",
      "pgp" : "0",
      "terminal" : "0",
      "latitude" : "24.22229",
      "inDis" : "50",
      "routeId" : "207",
      "seqNo" : "44"
   },
   {
      "GoBack" : "1",
      "longitude" : "120.83825",
      "outDis" : "50",
      "Id" : "1238",
      "oid" : "5183",
      "districtId" : "1",
      "nameZh" : "上城里",
      "pgp" : "0",
      "terminal" : "0",
      "latitude" : "24.21803",
      "inDis" : "50",
      "routeId" : "207",
      "seqNo" : "45"
   },
   {
      "GoBack" : "1",
      "longitude" : "120.83881",
      "outDis" : "50",
      "Id" : "3828",
      "oid" : "6641",
      "districtId" : "1",
      "nameZh" : "頭汴角",
      "pgp" : "0",
      "terminal" : "0",
      "latitude" : "24.21252",
      "inDis" : "50",
      "routeId" : "207",
      "seqNo" : "46"
   },
   {
      "GoBack" : "1",
      "longitude" : "120.83937",
      "outDis" : "50",
      "Id" : "2118",
      "oid" : "5725",
      "districtId" : "1",
      "nameZh" : "成功新村",
      "pgp" : "0",
      "terminal" : "0",
      "latitude" : "24.20619",
      "inDis" : "50",
      "routeId" : "207",
      "seqNo" : "47"
   },
   {
      "GoBack" : "1",
      "longitude" : "120.83965",
      "outDis" : "50",
      "Id" : "1326",
      "oid" : "5249",
      "districtId" : "1",
      "nameZh" : "大茅埔",
      "pgp" : "0",
      "terminal" : "0",
      "latitude" : "24.20401",
      "inDis" : "50",
      "routeId" : "207",
      "seqNo" : "48"
   },
   {
      "GoBack" : "1",
      "longitude" : "120.83925",
      "outDis" : "50",
      "Id" : "3730",
      "oid" : "6598",
      "districtId" : "1",
      "nameZh" : "慶福里",
      "pgp" : "0",
      "terminal" : "0",
      "latitude" : "24.19282",
      "inDis" : "50",
      "routeId" : "207",
      "seqNo" : "50"
   },
   {
      "GoBack" : "1",
      "longitude" : "120.84023",
      "outDis" : "50",
      "Id" : "1170",
      "oid" : "5133",
      "districtId" : "1",
      "nameZh" : "下段",
      "pgp" : "0",
      "terminal" : "0",
      "latitude" : "24.18874",
      "inDis" : "50",
      "routeId" : "207",
      "seqNo" : "51"
   },
   {
      "GoBack" : "1",
      "longitude" : "120.84056",
      "outDis" : "50",
      "Id" : "1239",
      "oid" : "5184",
      "districtId" : "1",
      "nameZh" : "上段",
      "pgp" : "0",
      "terminal" : "0",
      "latitude" : "24.184",
      "inDis" : "50",
      "routeId" : "207",
      "seqNo" : "52"
   },
   {
      "GoBack" : "1",
      "longitude" : "120.83894",
      "outDis" : "50",
      "Id" : "1722",
      "oid" : "5491",
      "districtId" : "1",
      "nameZh" : "水簡頭",
      "pgp" : "0",
      "terminal" : "0",
      "latitude" : "24.17564",
      "inDis" : "50",
      "routeId" : "207",
      "seqNo" : "53"
   },
   {
      "GoBack" : "1",
      "longitude" : "120.83959",
      "outDis" : "50",
      "Id" : "2902",
      "oid" : "6167",
      "districtId" : "1",
      "nameZh" : "馬鞍寮",
      "pgp" : "0",
      "terminal" : "0",
      "latitude" : "24.17144",
      "inDis" : "50",
      "routeId" : "207",
      "seqNo" : "54"
   },
   {
      "GoBack" : "1",
      "longitude" : "120.84295",
      "outDis" : "50",
      "Id" : "4465",
      "oid" : "6353",
      "districtId" : "1",
      "nameZh" : "東關湖楓路口",
      "pgp" : "0",
      "terminal" : "0",
      "latitude" : "24.1681",
      "inDis" : "50",
      "routeId" : "207",
      "seqNo" : "55"
   },
   {
      "GoBack" : "1",
      "longitude" : "120.84701",
      "outDis" : "50",
      "Id" : "2163",
      "oid" : "5748",
      "districtId" : "1",
      "nameZh" : "老楓樹下",
      "pgp" : "0",
      "terminal" : "0",
      "latitude" : "24.16308",
      "inDis" : "50",
      "routeId" : "207",
      "seqNo" : "56"
   },
   {
      "GoBack" : "1",
      "longitude" : "120.85086",
      "outDis" : "50",
      "Id" : "3453",
      "oid" : "6469",
      "districtId" : "1",
      "nameZh" : "楓樹下",
      "pgp" : "0",
      "terminal" : "0",
      "latitude" : "24.16229",
      "inDis" : "50",
      "routeId" : "207",
      "seqNo" : "57"
   },
   {
      "GoBack" : "1",
      "longitude" : "120.8604",
      "outDis" : "50",
      "Id" : "1627",
      "oid" : "5432",
      "districtId" : "1",
      "nameZh" : "天冷",
      "pgp" : "0",
      "terminal" : "0",
      "latitude" : "24.16097",
      "inDis" : "50",
      "routeId" : "207",
      "seqNo" : "58"
   },
   {
      "GoBack" : "1",
      "longitude" : "120.86339",
      "outDis" : "50",
      "Id" : "1287",
      "oid" : "5220",
      "districtId" : "1",
      "nameZh" : "大同橋",
      "pgp" : "0",
      "terminal" : "0",
      "latitude" : "24.16457",
      "inDis" : "50",
      "routeId" : "207",
      "seqNo" : "59"
   },
   {
      "GoBack" : "1",
      "longitude" : "120.86698",
      "outDis" : "50",
      "Id" : "3887",
      "oid" : "6669",
      "districtId" : "1",
      "nameZh" : "燥坑",
      "pgp" : "0",
      "terminal" : "0",
      "latitude" : "24.16719",
      "inDis" : "50",
      "routeId" : "207",
      "seqNo" : "60"
   },
   {
      "GoBack" : "1",
      "longitude" : "120.86967",
      "outDis" : "50",
      "Id" : "2312",
      "oid" : "5838",
      "districtId" : "1",
      "nameZh" : "和合",
      "pgp" : "0",
      "terminal" : "0",
      "latitude" : "24.16944",
      "inDis" : "50",
      "routeId" : "207",
      "seqNo" : "61"
   },
   {
      "GoBack" : "1",
      "longitude" : "120.87264",
      "outDis" : "50",
      "Id" : "4464",
      "oid" : "5839",
      "districtId" : "1",
      "nameZh" : "東關和榮路口",
      "pgp" : "0",
      "terminal" : "0",
      "latitude" : "24.17065",
      "inDis" : "50",
      "routeId" : "207",
      "seqNo" : "62"
   },
   {
      "GoBack" : "1",
      "longitude" : "120.87776",
      "outDis" : "50",
      "Id" : "1864",
      "oid" : "5586",
      "districtId" : "1",
      "nameZh" : "外和平",
      "pgp" : "0",
      "terminal" : "0",
      "latitude" : "24.17319",
      "inDis" : "50",
      "routeId" : "207",
      "seqNo" : "63"
   },
   {
      "GoBack" : "1",
      "longitude" : "120.88207",
      "outDis" : "50",
      "Id" : "2307",
      "oid" : "5830",
      "districtId" : "1",
      "nameZh" : "和平",
      "pgp" : "0",
      "terminal" : "0",
      "latitude" : "24.17506",
      "inDis" : "50",
      "routeId" : "207",
      "seqNo" : "64"
   },
   {
      "GoBack" : "1",
      "longitude" : "120.88386",
      "outDis" : "50",
      "Id" : "5043",
      "oid" : "13673",
      "districtId" : "1",
      "nameZh" : "和平區農會",
      "pgp" : "0",
      "terminal" : "0",
      "latitude" : "24.17472",
      "inDis" : "50",
      "routeId" : "207",
      "seqNo" : "65"
   },
   {
      "GoBack" : "1",
      "longitude" : "120.88895",
      "outDis" : "50",
      "Id" : "4463",
      "oid" : "6610",
      "districtId" : "1",
      "nameZh" : "和平衛生所",
      "pgp" : "0",
      "terminal" : "0",
      "latitude" : "24.17389",
      "inDis" : "50",
      "routeId" : "207",
      "seqNo" : "66"
   },
   {
      "GoBack" : "1",
      "longitude" : "120.89539",
      "outDis" : "50",
      "Id" : "0128",
      "oid" : "5833",
      "districtId" : "1",
      "nameZh" : "和平國小",
      "pgp" : "0",
      "terminal" : "0",
      "latitude" : "24.17177",
      "inDis" : "50",
      "routeId" : "207",
      "seqNo" : "67"
   },
   {
      "GoBack" : "1",
      "longitude" : "120.89688",
      "outDis" : "50",
      "Id" : "2611",
      "oid" : "6013",
      "districtId" : "1",
      "nameZh" : "南勢(東關路)",
      "pgp" : "0",
      "terminal" : "0",
      "latitude" : "24.16919",
      "inDis" : "50",
      "routeId" : "207",
      "seqNo" : "68"
   },
   {
      "GoBack" : "1",
      "longitude" : "120.90418",
      "outDis" : "50",
      "Id" : "1141",
      "oid" : "5121",
      "districtId" : "1",
      "nameZh" : "下白鹿",
      "pgp" : "0",
      "terminal" : "0",
      "latitude" : "24.16919",
      "inDis" : "50",
      "routeId" : "207",
      "seqNo" : "69"
   },
   {
      "GoBack" : "1",
      "longitude" : "120.9095",
      "outDis" : "50",
      "Id" : "1998",
      "oid" : "5651",
      "districtId" : "1",
      "nameZh" : "白鹿橋頭",
      "pgp" : "0",
      "terminal" : "0",
      "latitude" : "24.17542",
      "inDis" : "50",
      "routeId" : "207",
      "seqNo" : "70"
   },
   {
      "GoBack" : "1",
      "longitude" : "120.91257",
      "outDis" : "50",
      "Id" : "5747",
      "oid" : "320569662",
      "districtId" : "1",
      "nameZh" : "馬鞍壩",
      "pgp" : "0",
      "terminal" : "0",
      "latitude" : "24.18374",
      "inDis" : "50",
      "routeId" : "207",
      "seqNo" : "71"
   },
   {
      "GoBack" : "1",
      "longitude" : "120.91939",
      "outDis" : "50",
      "Id" : "4003",
      "oid" : "6736",
      "districtId" : "1",
      "nameZh" : "鐵線橋頭",
      "pgp" : "0",
      "terminal" : "0",
      "latitude" : "24.18705",
      "inDis" : "50",
      "routeId" : "207",
      "seqNo" : "72"
   },
   {
      "GoBack" : "1",
      "longitude" : "120.92502",
      "outDis" : "50",
      "Id" : "1997",
      "oid" : "5650",
      "districtId" : "1",
      "nameZh" : "白冷",
      "pgp" : "0",
      "terminal" : "0",
      "latitude" : "24.18316",
      "inDis" : "50",
      "routeId" : "207",
      "seqNo" : "73"
   },
   {
      "GoBack" : "1",
      "longitude" : "120.92889",
      "outDis" : "50",
      "Id" : "1633",
      "oid" : "303690759",
      "districtId" : "1",
      "nameZh" : "天輪",
      "pgp" : "0",
      "terminal" : "0",
      "latitude" : "24.17859",
      "inDis" : "50",
      "routeId" : "207",
      "seqNo" : "74"
   },
   {
      "GoBack" : "1",
      "longitude" : "120.93122",
      "outDis" : "50",
      "Id" : "1634",
      "oid" : "5436",
      "districtId" : "1",
      "nameZh" : "天輪新村",
      "pgp" : "0",
      "terminal" : "0",
      "latitude" : "24.1755",
      "inDis" : "50",
      "routeId" : "207",
      "seqNo" : "75"
   },
   {
      "GoBack" : "1",
      "longitude" : "120.9414",
      "outDis" : "50",
      "Id" : "1358",
      "oid" : "5272",
      "districtId" : "1",
      "nameZh" : "大道院",
      "pgp" : "0",
      "terminal" : "0",
      "latitude" : "24.17067",
      "inDis" : "50",
      "routeId" : "207",
      "seqNo" : "76"
   },
   {
      "GoBack" : "1",
      "longitude" : "120.94867",
      "outDis" : "50",
      "Id" : "3564",
      "oid" : "6519",
      "districtId" : "1",
      "nameZh" : "裡冷",
      "pgp" : "0",
      "terminal" : "0",
      "latitude" : "24.16679",
      "inDis" : "50",
      "routeId" : "207",
      "seqNo" : "77"
   },
   {
      "GoBack" : "1",
      "longitude" : "120.95499",
      "outDis" : "50",
      "Id" : "1265",
      "oid" : "5208",
      "districtId" : "1",
      "nameZh" : "土場",
      "pgp" : "0",
      "terminal" : "0",
      "latitude" : "24.16915",
      "inDis" : "50",
      "routeId" : "207",
      "seqNo" : "78"
   },
   {
      "GoBack" : "1",
      "longitude" : "120.95944",
      "outDis" : "50",
      "Id" : "1188",
      "oid" : "5144",
      "districtId" : "1",
      "nameZh" : "下博愛",
      "pgp" : "0",
      "terminal" : "0",
      "latitude" : "24.16843",
      "inDis" : "50",
      "routeId" : "207",
      "seqNo" : "79"
   },
   {
      "GoBack" : "1",
      "longitude" : "120.96393",
      "outDis" : "50",
      "Id" : "2477",
      "oid" : "12293",
      "districtId" : "1",
      "nameZh" : "武漢技訓中心",
      "pgp" : "0",
      "terminal" : "0",
      "latitude" : "24.17199",
      "inDis" : "50",
      "routeId" : "207",
      "seqNo" : "80"
   },
   {
      "GoBack" : "1",
      "longitude" : "120.97265",
      "outDis" : "50",
      "Id" : "3210",
      "oid" : "6326",
      "districtId" : "1",
      "nameZh" : "博愛",
      "pgp" : "0",
      "terminal" : "0",
      "latitude" : "24.17443",
      "inDis" : "50",
      "routeId" : "207",
      "seqNo" : "81"
   },
   {
      "GoBack" : "1",
      "longitude" : "120.97911",
      "outDis" : "50",
      "Id" : "2468",
      "oid" : "5927",
      "districtId" : "1",
      "nameZh" : "松鶴",
      "pgp" : "0",
      "terminal" : "0",
      "latitude" : "24.17936",
      "inDis" : "50",
      "routeId" : "207",
      "seqNo" : "82"
   },
   {
      "GoBack" : "1",
      "longitude" : "120.98943",
      "outDis" : "50",
      "Id" : "3984",
      "oid" : "6728",
      "districtId" : "1",
      "nameZh" : "麗陽",
      "pgp" : "0",
      "terminal" : "0",
      "latitude" : "24.18691",
      "inDis" : "50",
      "routeId" : "207",
      "seqNo" : "83"
   },
   {
      "GoBack" : "1",
      "longitude" : "120.99045",
      "outDis" : "50",
      "Id" : "4665",
      "oid" : "5511",
      "districtId" : "1",
      "nameZh" : "中麗陽",
      "pgp" : "0",
      "terminal" : "0",
      "latitude" : "24.18831",
      "inDis" : "50",
      "routeId" : "207",
      "seqNo" : "84"
   },
   {
      "GoBack" : "1",
      "longitude" : "120.99456",
      "outDis" : "50",
      "Id" : "1251",
      "oid" : "5191",
      "districtId" : "1",
      "nameZh" : "上麗陽",
      "pgp" : "0",
      "terminal" : "0",
      "latitude" : "24.19404",
      "inDis" : "50",
      "routeId" : "207",
      "seqNo" : "85"
   },
   {
      "GoBack" : "1",
      "longitude" : "121.00015",
      "outDis" : "50",
      "Id" : "1041",
      "oid" : "7898",
      "districtId" : "1",
      "nameZh" : "十文溪",
      "pgp" : "0",
      "terminal" : "0",
      "latitude" : "24.19807",
      "inDis" : "50",
      "routeId" : "207",
      "seqNo" : "86"
   },
   {
      "GoBack" : "1",
      "longitude" : "121.00157",
      "outDis" : "50",
      "Id" : "2290",
      "oid" : "5818",
      "districtId" : "1",
      "nameZh" : "佳保臺",
      "pgp" : "0",
      "terminal" : "0",
      "latitude" : "24.2009",
      "inDis" : "50",
      "routeId" : "207",
      "seqNo" : "87"
   },
   {
      "GoBack" : "1",
      "longitude" : "121.00436",
      "outDis" : "50",
      "Id" : "3852",
      "oid" : "6655",
      "districtId" : "1",
      "nameZh" : "龍谷樂園",
      "pgp" : "0",
      "terminal" : "0",
      "latitude" : "24.20283",
      "inDis" : "50",
      "routeId" : "207",
      "seqNo" : "88"
   },
   {
      "GoBack" : "1",
      "longitude" : "121.00817",
      "outDis" : "80",
      "Id" : "2274",
      "oid" : "5808",
      "districtId" : "1",
      "nameZh" : "谷關",
      "pgp" : "0",
      "terminal" : "0",
      "latitude" : "24.20299",
      "inDis" : "80",
      "routeId" : "207",
      "seqNo" : "89"
   },
   {
      "GoBack" : "2",
      "longitude" : "121.00817",
      "outDis" : "80",
      "Id" : "2274",
      "oid" : "5808",
      "districtId" : "1",
      "nameZh" : "谷關",
      "pgp" : "0",
      "terminal" : "0",
      "latitude" : "24.20299",
      "inDis" : "80",
      "routeId" : "207",
      "seqNo" : "1"
   },
   {
      "GoBack" : "2",
      "longitude" : "121.00436",
      "outDis" : "50",
      "Id" : "3852",
      "oid" : "6655",
      "districtId" : "1",
      "nameZh" : "龍谷樂園",
      "pgp" : "0",
      "terminal" : "0",
      "latitude" : "24.20283",
      "inDis" : "50",
      "routeId" : "207",
      "seqNo" : "2"
   },
   {
      "GoBack" : "2",
      "longitude" : "121.00157",
      "outDis" : "50",
      "Id" : "2290",
      "oid" : "5818",
      "districtId" : "1",
      "nameZh" : "佳保臺",
      "pgp" : "0",
      "terminal" : "0",
      "latitude" : "24.2009",
      "inDis" : "50",
      "routeId" : "207",
      "seqNo" : "3"
   },
   {
      "GoBack" : "2",
      "longitude" : "121.00015",
      "outDis" : "50",
      "Id" : "1041",
      "oid" : "7898",
      "districtId" : "1",
      "nameZh" : "十文溪",
      "pgp" : "0",
      "terminal" : "0",
      "latitude" : "24.19807",
      "inDis" : "50",
      "routeId" : "207",
      "seqNo" : "4"
   },
   {
      "GoBack" : "2",
      "longitude" : "120.99456",
      "outDis" : "50",
      "Id" : "1251",
      "oid" : "5191",
      "districtId" : "1",
      "nameZh" : "上麗陽",
      "pgp" : "0",
      "terminal" : "0",
      "latitude" : "24.19404",
      "inDis" : "50",
      "routeId" : "207",
      "seqNo" : "5"
   },
   {
      "GoBack" : "2",
      "longitude" : "120.99045",
      "outDis" : "50",
      "Id" : "4665",
      "oid" : "5511",
      "districtId" : "1",
      "nameZh" : "中麗陽",
      "pgp" : "0",
      "terminal" : "0",
      "latitude" : "24.18831",
      "inDis" : "50",
      "routeId" : "207",
      "seqNo" : "6"
   },
   {
      "GoBack" : "2",
      "longitude" : "120.98943",
      "outDis" : "50",
      "Id" : "3984",
      "oid" : "6728",
      "districtId" : "1",
      "nameZh" : "麗陽",
      "pgp" : "0",
      "terminal" : "0",
      "latitude" : "24.18691",
      "inDis" : "50",
      "routeId" : "207",
      "seqNo" : "7"
   },
   {
      "GoBack" : "2",
      "longitude" : "120.97911",
      "outDis" : "50",
      "Id" : "2468",
      "oid" : "5927",
      "districtId" : "1",
      "nameZh" : "松鶴",
      "pgp" : "0",
      "terminal" : "0",
      "latitude" : "24.17936",
      "inDis" : "50",
      "routeId" : "207",
      "seqNo" : "8"
   },
   {
      "GoBack" : "2",
      "longitude" : "120.97265",
      "outDis" : "50",
      "Id" : "3210",
      "oid" : "6326",
      "districtId" : "1",
      "nameZh" : "博愛",
      "pgp" : "0",
      "terminal" : "0",
      "latitude" : "24.17443",
      "inDis" : "50",
      "routeId" : "207",
      "seqNo" : "9"
   },
   {
      "GoBack" : "2",
      "longitude" : "120.96393",
      "outDis" : "50",
      "Id" : "2477",
      "oid" : "12293",
      "districtId" : "1",
      "nameZh" : "武漢技訓中心",
      "pgp" : "0",
      "terminal" : "0",
      "latitude" : "24.17199",
      "inDis" : "50",
      "routeId" : "207",
      "seqNo" : "10"
   },
   {
      "GoBack" : "2",
      "longitude" : "120.95944",
      "outDis" : "50",
      "Id" : "1188",
      "oid" : "5144",
      "districtId" : "1",
      "nameZh" : "下博愛",
      "pgp" : "0",
      "terminal" : "0",
      "latitude" : "24.16843",
      "inDis" : "50",
      "routeId" : "207",
      "seqNo" : "11"
   },
   {
      "GoBack" : "2",
      "longitude" : "120.95499",
      "outDis" : "50",
      "Id" : "1265",
      "oid" : "5208",
      "districtId" : "1",
      "nameZh" : "土場",
      "pgp" : "0",
      "terminal" : "0",
      "latitude" : "24.16915",
      "inDis" : "50",
      "routeId" : "207",
      "seqNo" : "12"
   },
   {
      "GoBack" : "2",
      "longitude" : "120.94867",
      "outDis" : "50",
      "Id" : "3564",
      "oid" : "6519",
      "districtId" : "1",
      "nameZh" : "裡冷",
      "pgp" : "0",
      "terminal" : "0",
      "latitude" : "24.16679",
      "inDis" : "50",
      "routeId" : "207",
      "seqNo" : "13"
   },
   {
      "GoBack" : "2",
      "longitude" : "120.9414",
      "outDis" : "50",
      "Id" : "1358",
      "oid" : "5272",
      "districtId" : "1",
      "nameZh" : "大道院",
      "pgp" : "0",
      "terminal" : "0",
      "latitude" : "24.17067",
      "inDis" : "50",
      "routeId" : "207",
      "seqNo" : "14"
   },
   {
      "GoBack" : "2",
      "longitude" : "120.93122",
      "outDis" : "50",
      "Id" : "1634",
      "oid" : "5436",
      "districtId" : "1",
      "nameZh" : "天輪新村",
      "pgp" : "0",
      "terminal" : "0",
      "latitude" : "24.1755",
      "inDis" : "50",
      "routeId" : "207",
      "seqNo" : "15"
   },
   {
      "GoBack" : "2",
      "longitude" : "120.92889",
      "outDis" : "50",
      "Id" : "1633",
      "oid" : "303690759",
      "districtId" : "1",
      "nameZh" : "天輪",
      "pgp" : "0",
      "terminal" : "0",
      "latitude" : "24.17859",
      "inDis" : "50",
      "routeId" : "207",
      "seqNo" : "16"
   },
   {
      "GoBack" : "2",
      "longitude" : "120.92502",
      "outDis" : "50",
      "Id" : "1997",
      "oid" : "5650",
      "districtId" : "1",
      "nameZh" : "白冷",
      "pgp" : "0",
      "terminal" : "0",
      "latitude" : "24.18316",
      "inDis" : "50",
      "routeId" : "207",
      "seqNo" : "17"
   },
   {
      "GoBack" : "2",
      "longitude" : "120.91939",
      "outDis" : "50",
      "Id" : "4003",
      "oid" : "6736",
      "districtId" : "1",
      "nameZh" : "鐵線橋頭",
      "pgp" : "0",
      "terminal" : "0",
      "latitude" : "24.18705",
      "inDis" : "50",
      "routeId" : "207",
      "seqNo" : "18"
   },
   {
      "GoBack" : "2",
      "longitude" : "120.91257",
      "outDis" : "50",
      "Id" : "5747",
      "oid" : "320569662",
      "districtId" : "1",
      "nameZh" : "馬鞍壩",
      "pgp" : "0",
      "terminal" : "0",
      "latitude" : "24.18374",
      "inDis" : "50",
      "routeId" : "207",
      "seqNo" : "19"
   },
   {
      "GoBack" : "2",
      "longitude" : "120.9095",
      "outDis" : "50",
      "Id" : "1998",
      "oid" : "5651",
      "districtId" : "1",
      "nameZh" : "白鹿橋頭",
      "pgp" : "0",
      "terminal" : "0",
      "latitude" : "24.17542",
      "inDis" : "50",
      "routeId" : "207",
      "seqNo" : "20"
   },
   {
      "GoBack" : "2",
      "longitude" : "120.90418",
      "outDis" : "50",
      "Id" : "1141",
      "oid" : "5121",
      "districtId" : "1",
      "nameZh" : "下白鹿",
      "pgp" : "0",
      "terminal" : "0",
      "latitude" : "24.16919",
      "inDis" : "50",
      "routeId" : "207",
      "seqNo" : "21"
   },
   {
      "GoBack" : "2",
      "longitude" : "120.89688",
      "outDis" : "50",
      "Id" : "2611",
      "oid" : "6013",
      "districtId" : "1",
      "nameZh" : "南勢(東關路)",
      "pgp" : "0",
      "terminal" : "0",
      "latitude" : "24.16919",
      "inDis" : "50",
      "routeId" : "207",
      "seqNo" : "22"
   },
   {
      "GoBack" : "2",
      "longitude" : "120.89539",
      "outDis" : "50",
      "Id" : "0128",
      "oid" : "5833",
      "districtId" : "1",
      "nameZh" : "和平國小",
      "pgp" : "0",
      "terminal" : "0",
      "latitude" : "24.17177",
      "inDis" : "50",
      "routeId" : "207",
      "seqNo" : "23"
   },
   {
      "GoBack" : "2",
      "longitude" : "120.88895",
      "outDis" : "50",
      "Id" : "4463",
      "oid" : "6610",
      "districtId" : "1",
      "nameZh" : "和平衛生所",
      "pgp" : "0",
      "terminal" : "0",
      "latitude" : "24.17389",
      "inDis" : "50",
      "routeId" : "207",
      "seqNo" : "24"
   },
   {
      "GoBack" : "2",
      "longitude" : "120.88386",
      "outDis" : "50",
      "Id" : "5043",
      "oid" : "13673",
      "districtId" : "1",
      "nameZh" : "和平區農會",
      "pgp" : "0",
      "terminal" : "0",
      "latitude" : "24.17472",
      "inDis" : "50",
      "routeId" : "207",
      "seqNo" : "25"
   },
   {
      "GoBack" : "2",
      "longitude" : "120.88207",
      "outDis" : "50",
      "Id" : "2307",
      "oid" : "5830",
      "districtId" : "1",
      "nameZh" : "和平",
      "pgp" : "0",
      "terminal" : "0",
      "latitude" : "24.17506",
      "inDis" : "50",
      "routeId" : "207",
      "seqNo" : "26"
   },
   {
      "GoBack" : "2",
      "longitude" : "120.87776",
      "outDis" : "50",
      "Id" : "1864",
      "oid" : "5586",
      "districtId" : "1",
      "nameZh" : "外和平",
      "pgp" : "0",
      "terminal" : "0",
      "latitude" : "24.17319",
      "inDis" : "50",
      "routeId" : "207",
      "seqNo" : "27"
   },
   {
      "GoBack" : "2",
      "longitude" : "120.87264",
      "outDis" : "50",
      "Id" : "4464",
      "oid" : "5839",
      "districtId" : "1",
      "nameZh" : "東關和榮路口",
      "pgp" : "0",
      "terminal" : "0",
      "latitude" : "24.17065",
      "inDis" : "50",
      "routeId" : "207",
      "seqNo" : "28"
   },
   {
      "GoBack" : "2",
      "longitude" : "120.86967",
      "outDis" : "50",
      "Id" : "2312",
      "oid" : "5838",
      "districtId" : "1",
      "nameZh" : "和合",
      "pgp" : "0",
      "terminal" : "0",
      "latitude" : "24.16944",
      "inDis" : "50",
      "routeId" : "207",
      "seqNo" : "29"
   },
   {
      "GoBack" : "2",
      "longitude" : "120.86698",
      "outDis" : "50",
      "Id" : "3887",
      "oid" : "6669",
      "districtId" : "1",
      "nameZh" : "燥坑",
      "pgp" : "0",
      "terminal" : "0",
      "latitude" : "24.16719",
      "inDis" : "50",
      "routeId" : "207",
      "seqNo" : "30"
   },
   {
      "GoBack" : "2",
      "longitude" : "120.86339",
      "outDis" : "50",
      "Id" : "1287",
      "oid" : "5220",
      "districtId" : "1",
      "nameZh" : "大同橋",
      "pgp" : "0",
      "terminal" : "0",
      "latitude" : "24.16457",
      "inDis" : "50",
      "routeId" : "207",
      "seqNo" : "31"
   },
   {
      "GoBack" : "2",
      "longitude" : "120.8604",
      "outDis" : "50",
      "Id" : "1627",
      "oid" : "5432",
      "districtId" : "1",
      "nameZh" : "天冷",
      "pgp" : "0",
      "terminal" : "0",
      "latitude" : "24.16097",
      "inDis" : "50",
      "routeId" : "207",
      "seqNo" : "32"
   },
   {
      "GoBack" : "2",
      "longitude" : "120.85086",
      "outDis" : "50",
      "Id" : "3453",
      "oid" : "6469",
      "districtId" : "1",
      "nameZh" : "楓樹下",
      "pgp" : "0",
      "terminal" : "0",
      "latitude" : "24.16229",
      "inDis" : "50",
      "routeId" : "207",
      "seqNo" : "33"
   },
   {
      "GoBack" : "2",
      "longitude" : "120.84701",
      "outDis" : "50",
      "Id" : "2163",
      "oid" : "5748",
      "districtId" : "1",
      "nameZh" : "老楓樹下",
      "pgp" : "0",
      "terminal" : "0",
      "latitude" : "24.16308",
      "inDis" : "50",
      "routeId" : "207",
      "seqNo" : "34"
   },
   {
      "GoBack" : "2",
      "longitude" : "120.84295",
      "outDis" : "50",
      "Id" : "4465",
      "oid" : "6353",
      "districtId" : "1",
      "nameZh" : "東關湖楓路口",
      "pgp" : "0",
      "terminal" : "0",
      "latitude" : "24.1681",
      "inDis" : "50",
      "routeId" : "207",
      "seqNo" : "35"
   },
   {
      "GoBack" : "2",
      "longitude" : "120.83959",
      "outDis" : "50",
      "Id" : "2902",
      "oid" : "6167",
      "districtId" : "1",
      "nameZh" : "馬鞍寮",
      "pgp" : "0",
      "terminal" : "0",
      "latitude" : "24.17144",
      "inDis" : "50",
      "routeId" : "207",
      "seqNo" : "36"
   },
   {
      "GoBack" : "2",
      "longitude" : "120.83894",
      "outDis" : "50",
      "Id" : "1722",
      "oid" : "5491",
      "districtId" : "1",
      "nameZh" : "水簡頭",
      "pgp" : "0",
      "terminal" : "0",
      "latitude" : "24.17564",
      "inDis" : "50",
      "routeId" : "207",
      "seqNo" : "37"
   },
   {
      "GoBack" : "2",
      "longitude" : "120.84056",
      "outDis" : "50",
      "Id" : "1239",
      "oid" : "5184",
      "districtId" : "1",
      "nameZh" : "上段",
      "pgp" : "0",
      "terminal" : "0",
      "latitude" : "24.184",
      "inDis" : "50",
      "routeId" : "207",
      "seqNo" : "38"
   },
   {
      "GoBack" : "2",
      "longitude" : "120.84023",
      "outDis" : "50",
      "Id" : "1170",
      "oid" : "5133",
      "districtId" : "1",
      "nameZh" : "下段",
      "pgp" : "0",
      "terminal" : "0",
      "latitude" : "24.18874",
      "inDis" : "50",
      "routeId" : "207",
      "seqNo" : "39"
   },
   {
      "GoBack" : "2",
      "longitude" : "120.83925",
      "outDis" : "50",
      "Id" : "3730",
      "oid" : "6598",
      "districtId" : "1",
      "nameZh" : "慶福里",
      "pgp" : "0",
      "terminal" : "0",
      "latitude" : "24.19282",
      "inDis" : "50",
      "routeId" : "207",
      "seqNo" : "40"
   },
   {
      "GoBack" : "2",
      "longitude" : "120.83965",
      "outDis" : "50",
      "Id" : "1326",
      "oid" : "5249",
      "districtId" : "1",
      "nameZh" : "大茅埔",
      "pgp" : "0",
      "terminal" : "0",
      "latitude" : "24.20401",
      "inDis" : "50",
      "routeId" : "207",
      "seqNo" : "42"
   },
   {
      "GoBack" : "2",
      "longitude" : "120.83937",
      "outDis" : "50",
      "Id" : "2118",
      "oid" : "5725",
      "districtId" : "1",
      "nameZh" : "成功新村",
      "pgp" : "0",
      "terminal" : "0",
      "latitude" : "24.20619",
      "inDis" : "50",
      "routeId" : "207",
      "seqNo" : "43"
   },
   {
      "GoBack" : "2",
      "longitude" : "120.83881",
      "outDis" : "50",
      "Id" : "3828",
      "oid" : "6641",
      "districtId" : "1",
      "nameZh" : "頭汴角",
      "pgp" : "0",
      "terminal" : "0",
      "latitude" : "24.21252",
      "inDis" : "50",
      "routeId" : "207",
      "seqNo" : "44"
   },
   {
      "GoBack" : "2",
      "longitude" : "120.83825",
      "outDis" : "50",
      "Id" : "1238",
      "oid" : "5183",
      "districtId" : "1",
      "nameZh" : "上城里",
      "pgp" : "0",
      "terminal" : "0",
      "latitude" : "24.21803",
      "inDis" : "50",
      "routeId" : "207",
      "seqNo" : "45"
   },
   {
      "GoBack" : "2",
      "longitude" : "120.83849",
      "outDis" : "50",
      "Id" : "1167",
      "oid" : "5130",
      "districtId" : "1",
      "nameZh" : "下城里",
      "pgp" : "0",
      "terminal" : "0",
      "latitude" : "24.22229",
      "inDis" : "50",
      "routeId" : "207",
      "seqNo" : "46"
   },
   {
      "GoBack" : "2",
      "longitude" : "120.83827",
      "outDis" : "50",
      "Id" : "3329",
      "oid" : "6389",
      "districtId" : "1",
      "nameZh" : "詒新",
      "pgp" : "0",
      "terminal" : "0",
      "latitude" : "24.22503",
      "inDis" : "50",
      "routeId" : "207",
      "seqNo" : "47"
   },
   {
      "GoBack" : "2",
      "longitude" : "120.83723",
      "outDis" : "50",
      "Id" : "3391",
      "oid" : "6427",
      "districtId" : "1",
      "nameZh" : "新伯公",
      "pgp" : "0",
      "terminal" : "0",
      "latitude" : "24.22845",
      "inDis" : "50",
      "routeId" : "207",
      "seqNo" : "48"
   },
   {
      "GoBack" : "2",
      "longitude" : "120.83637",
      "outDis" : "50",
      "Id" : "4466",
      "oid" : "6543",
      "districtId" : "1",
      "nameZh" : "東關福山路口",
      "pgp" : "0",
      "terminal" : "0",
      "latitude" : "24.23179",
      "inDis" : "50",
      "routeId" : "207",
      "seqNo" : "49"
   },
   {
      "GoBack" : "2",
      "longitude" : "120.83546",
      "outDis" : "50",
      "Id" : "1107",
      "oid" : "5097",
      "districtId" : "1",
      "nameZh" : "三鑫公司",
      "pgp" : "0",
      "terminal" : "0",
      "latitude" : "24.23498",
      "inDis" : "50",
      "routeId" : "207",
      "seqNo" : "50"
   },
   {
      "GoBack" : "2",
      "longitude" : "120.83439",
      "outDis" : "50",
      "Id" : "2229",
      "oid" : "5784",
      "districtId" : "1",
      "nameZh" : "尾社",
      "pgp" : "0",
      "terminal" : "0",
      "latitude" : "24.23876",
      "inDis" : "50",
      "routeId" : "207",
      "seqNo" : "51"
   },
   {
      "GoBack" : "2",
      "longitude" : "120.83329",
      "outDis" : "50",
      "Id" : "0312",
      "oid" : "13647",
      "districtId" : "1",
      "nameZh" : "新盛里(東勢高工)",
      "pgp" : "0",
      "terminal" : "0",
      "latitude" : "24.24339",
      "inDis" : "50",
      "routeId" : "207",
      "seqNo" : "52"
   },
   {
      "GoBack" : "2",
      "longitude" : "120.83189",
      "outDis" : "80",
      "Id" : "2002",
      "oid" : "5654",
      "districtId" : "1",
      "nameZh" : "石角口",
      "pgp" : "0",
      "terminal" : "0",
      "latitude" : "24.24803",
      "inDis" : "50",
      "routeId" : "207",
      "seqNo" : "53"
   },
   {
      "GoBack" : "2",
      "longitude" : "120.83063",
      "outDis" : "80",
      "Id" : "4409",
      "oid" : "5889",
      "districtId" : "1",
      "nameZh" : "東勢南站",
      "pgp" : "0",
      "terminal" : "0",
      "latitude" : "24.24998",
      "inDis" : "50",
      "routeId" : "207",
      "seqNo" : "54"
   },
   {
      "GoBack" : "2",
      "longitude" : "120.83003",
      "outDis" : "80",
      "Id" : "1415",
      "oid" : "5302",
      "districtId" : "1",
      "nameZh" : "中嵙口",
      "pgp" : "0",
      "terminal" : "0",
      "latitude" : "24.25251",
      "inDis" : "50",
      "routeId" : "207",
      "seqNo" : "55"
   },
   {
      "GoBack" : "2",
      "longitude" : "120.82934",
      "outDis" : "80",
      "Id" : "2570",
      "oid" : "5987",
      "districtId" : "1",
      "nameZh" : "南平里",
      "pgp" : "0",
      "terminal" : "0",
      "latitude" : "24.25515",
      "inDis" : "50",
      "routeId" : "207",
      "seqNo" : "56"
   },
   {
      "GoBack" : "2",
      "longitude" : "120.82784",
      "outDis" : "80",
      "Id" : "2428",
      "oid" : "5899",
      "districtId" : "1",
      "nameZh" : "東勢",
      "pgp" : "0",
      "terminal" : "0",
      "latitude" : "24.25838",
      "inDis" : "50",
      "routeId" : "207",
      "seqNo" : "57"
   },
   {
      "GoBack" : "2",
      "longitude" : "120.8272",
      "outDis" : "80",
      "Id" : "4500",
      "oid" : "5745",
      "districtId" : "1",
      "nameZh" : "東勢老人會館",
      "pgp" : "0",
      "terminal" : "0",
      "latitude" : "24.26098",
      "inDis" : "50",
      "routeId" : "207",
      "seqNo" : "58"
   },
   {
      "GoBack" : "2",
      "longitude" : "120.82676",
      "outDis" : "80",
      "Id" : "2434",
      "oid" : "5905",
      "districtId" : "1",
      "nameZh" : "東新國中",
      "pgp" : "0",
      "terminal" : "0",
      "latitude" : "24.26256",
      "inDis" : "50",
      "routeId" : "207",
      "seqNo" : "59"
   },
   {
      "GoBack" : "2",
      "longitude" : "120.82464",
      "outDis" : "50",
      "Id" : "4494",
      "oid" : "6462",
      "districtId" : "1",
      "nameZh" : "新豐新寧街口",
      "pgp" : "0",
      "terminal" : "0",
      "latitude" : "24.26264",
      "inDis" : "50",
      "routeId" : "207",
      "seqNo" : "60"
   },
   {
      "GoBack" : "2",
      "longitude" : "120.81608",
      "outDis" : "50",
      "Id" : "4430",
      "oid" : "5198",
      "districtId" : "1",
      "nameZh" : "土牛(豐勢路)",
      "pgp" : "0",
      "terminal" : "0",
      "latitude" : "24.26021",
      "inDis" : "50",
      "routeId" : "207",
      "seqNo" : "61"
   },
   {
      "GoBack" : "2",
      "longitude" : "120.8127",
      "outDis" : "50",
      "Id" : "3728",
      "oid" : "6595",
      "districtId" : "1",
      "nameZh" : "德興里",
      "pgp" : "0",
      "terminal" : "0",
      "latitude" : "24.26237",
      "inDis" : "50",
      "routeId" : "207",
      "seqNo" : "62"
   },
   {
      "GoBack" : "2",
      "longitude" : "120.81019",
      "outDis" : "50",
      "Id" : "3074",
      "oid" : "6268",
      "districtId" : "1",
      "nameZh" : "連厝",
      "pgp" : "0",
      "terminal" : "0",
      "latitude" : "24.26398",
      "inDis" : "50",
      "routeId" : "207",
      "seqNo" : "63"
   },
   {
      "GoBack" : "2",
      "longitude" : "120.80692",
      "outDis" : "50",
      "Id" : "1114",
      "oid" : "5101",
      "districtId" : "1",
      "nameZh" : "下土牛",
      "pgp" : "0",
      "terminal" : "0",
      "latitude" : "24.26608",
      "inDis" : "50",
      "routeId" : "207",
      "seqNo" : "64"
   },
   {
      "GoBack" : "2",
      "longitude" : "120.80419",
      "outDis" : "50",
      "Id" : "2357",
      "oid" : "5865",
      "districtId" : "1",
      "nameZh" : "明山寺",
      "pgp" : "0",
      "terminal" : "0",
      "latitude" : "24.26745",
      "inDis" : "50",
      "routeId" : "207",
      "seqNo" : "65"
   },
   {
      "GoBack" : "2",
      "longitude" : "120.80127",
      "outDis" : "50",
      "Id" : "3003",
      "oid" : "6213",
      "districtId" : "1",
      "nameZh" : "梅子",
      "pgp" : "0",
      "terminal" : "0",
      "latitude" : "24.26864",
      "inDis" : "50",
      "routeId" : "207",
      "seqNo" : "66"
   },
   {
      "GoBack" : "2",
      "longitude" : "120.79646",
      "outDis" : "50",
      "Id" : "3440",
      "oid" : "6460",
      "districtId" : "1",
      "nameZh" : "新豐冷凍",
      "pgp" : "0",
      "terminal" : "0",
      "latitude" : "24.27049",
      "inDis" : "50",
      "routeId" : "207",
      "seqNo" : "67"
   },
   {
      "GoBack" : "2",
      "longitude" : "120.79172",
      "outDis" : "50",
      "Id" : "2496",
      "oid" : "5947",
      "districtId" : "1",
      "nameZh" : "社寮角",
      "pgp" : "0",
      "terminal" : "0",
      "latitude" : "24.2726",
      "inDis" : "50",
      "routeId" : "207",
      "seqNo" : "68"
   },
   {
      "GoBack" : "2",
      "longitude" : "120.78874",
      "outDis" : "50",
      "Id" : "2983",
      "oid" : "6194",
      "districtId" : "1",
      "nameZh" : "情人木橋",
      "pgp" : "0",
      "terminal" : "0",
      "latitude" : "24.27386",
      "inDis" : "50",
      "routeId" : "207",
      "seqNo" : "69"
   },
   {
      "GoBack" : "2",
      "longitude" : "120.78428",
      "outDis" : "50",
      "Id" : "0992",
      "oid" : "5029",
      "districtId" : "1",
      "nameZh" : "九房厝",
      "pgp" : "0",
      "terminal" : "0",
      "latitude" : "24.27447",
      "inDis" : "50",
      "routeId" : "207",
      "seqNo" : "70"
   },
   {
      "GoBack" : "2",
      "longitude" : "120.78075",
      "outDis" : "50",
      "Id" : "4456",
      "oid" : "5659",
      "districtId" : "1",
      "nameZh" : "石岡區公所",
      "pgp" : "0",
      "terminal" : "0",
      "latitude" : "24.27492",
      "inDis" : "50",
      "routeId" : "207",
      "seqNo" : "71"
   },
   {
      "GoBack" : "2",
      "longitude" : "120.77635",
      "outDis" : "50",
      "Id" : "2004",
      "oid" : "5657",
      "districtId" : "1",
      "nameZh" : "石岡",
      "pgp" : "0",
      "terminal" : "0",
      "latitude" : "24.27653",
      "inDis" : "50",
      "routeId" : "207",
      "seqNo" : "72"
   },
   {
      "GoBack" : "2",
      "longitude" : "120.7719",
      "outDis" : "50",
      "Id" : "2337",
      "oid" : "5848",
      "districtId" : "1",
      "nameZh" : "岡尾",
      "pgp" : "0",
      "terminal" : "0",
      "latitude" : "24.27755",
      "inDis" : "50",
      "routeId" : "207",
      "seqNo" : "73"
   },
   {
      "GoBack" : "2",
      "longitude" : "120.76675",
      "outDis" : "50",
      "Id" : "2005",
      "oid" : "5658",
      "districtId" : "1",
      "nameZh" : "石岡水壩",
      "pgp" : "0",
      "terminal" : "0",
      "latitude" : "24.27812",
      "inDis" : "50",
      "routeId" : "207",
      "seqNo" : "74"
   },
   {
      "GoBack" : "2",
      "longitude" : "120.75916",
      "outDis" : "50",
      "Id" : "2947",
      "oid" : "6184",
      "districtId" : "1",
      "nameZh" : "埤頭",
      "pgp" : "0",
      "terminal" : "0",
      "latitude" : "24.27657",
      "inDis" : "50",
      "routeId" : "207",
      "seqNo" : "75"
   },
   {
      "GoBack" : "2",
      "longitude" : "120.75652",
      "outDis" : "50",
      "Id" : "4454",
      "oid" : "6472",
      "districtId" : "1",
      "nameZh" : "民安",
      "pgp" : "0",
      "terminal" : "0",
      "latitude" : "24.27507",
      "inDis" : "50",
      "routeId" : "207",
      "seqNo" : "76"
   },
   {
      "GoBack" : "2",
      "longitude" : "120.75398",
      "outDis" : "50",
      "Id" : "2128",
      "oid" : "5729",
      "districtId" : "1",
      "nameZh" : "朴子口",
      "pgp" : "0",
      "terminal" : "0",
      "latitude" : "24.27345",
      "inDis" : "50",
      "routeId" : "207",
      "seqNo" : "77"
   },
   {
      "GoBack" : "2",
      "longitude" : "120.75175",
      "outDis" : "50",
      "Id" : "4412",
      "oid" : "304270265",
      "districtId" : "1",
      "nameZh" : "國家教育研究院",
      "pgp" : "0",
      "terminal" : "0",
      "latitude" : "24.27084",
      "inDis" : "50",
      "routeId" : "207",
      "seqNo" : "78"
   },
   {
      "GoBack" : "2",
      "longitude" : "120.74924",
      "outDis" : "50",
      "Id" : "4490",
      "oid" : "5728",
      "districtId" : "1",
      "nameZh" : "豐勢國豐路口",
      "pgp" : "0",
      "terminal" : "0",
      "latitude" : "24.2678",
      "inDis" : "50",
      "routeId" : "207",
      "seqNo" : "79"
   },
   {
      "GoBack" : "2",
      "longitude" : "120.74564",
      "outDis" : "50",
      "Id" : "1806",
      "oid" : "5541",
      "districtId" : "1",
      "nameZh" : "半張",
      "pgp" : "0",
      "terminal" : "0",
      "latitude" : "24.26517",
      "inDis" : "50",
      "routeId" : "207",
      "seqNo" : "80"
   },
   {
      "GoBack" : "2",
      "longitude" : "120.74277",
      "outDis" : "50",
      "Id" : "2845",
      "oid" : "6146",
      "districtId" : "1",
      "nameZh" : "翁子國小",
      "pgp" : "0",
      "terminal" : "0",
      "latitude" : "24.26379",
      "inDis" : "50",
      "routeId" : "207",
      "seqNo" : "81"
   },
   {
      "GoBack" : "2",
      "longitude" : "120.73947",
      "outDis" : "50",
      "Id" : "2844",
      "oid" : "6145",
      "districtId" : "1",
      "nameZh" : "翁子保養場",
      "pgp" : "0",
      "terminal" : "0",
      "latitude" : "24.26226",
      "inDis" : "50",
      "routeId" : "207",
      "seqNo" : "82"
   },
   {
      "GoBack" : "2",
      "longitude" : "120.73593",
      "outDis" : "50",
      "Id" : "2843",
      "oid" : "6144",
      "districtId" : "1",
      "nameZh" : "翁子",
      "pgp" : "0",
      "terminal" : "0",
      "latitude" : "24.26058",
      "inDis" : "50",
      "routeId" : "207",
      "seqNo" : "83"
   },
   {
      "GoBack" : "2",
      "longitude" : "120.73227",
      "outDis" : "50",
      "Id" : "4407",
      "oid" : "5626",
      "districtId" : "1",
      "nameZh" : "永豐原紙廠",
      "pgp" : "0",
      "terminal" : "0",
      "latitude" : "24.2587",
      "inDis" : "50",
      "routeId" : "207",
      "seqNo" : "84"
   },
   {
      "GoBack" : "2",
      "longitude" : "120.72983",
      "outDis" : "50",
      "Id" : "4478",
      "oid" : "5488",
      "districtId" : "1",
      "nameZh" : "圓環東水源路口",
      "pgp" : "0",
      "terminal" : "0",
      "latitude" : "24.25577",
      "inDis" : "50",
      "routeId" : "207",
      "seqNo" : "85"
   },
   {
      "GoBack" : "2",
      "longitude" : "120.72976",
      "outDis" : "50",
      "Id" : "5544",
      "oid" : "316462696",
      "districtId" : "1",
      "nameZh" : "葫蘆墩文化中心",
      "pgp" : "0",
      "terminal" : "0",
      "latitude" : "24.25299",
      "inDis" : "50",
      "routeId" : "207",
      "seqNo" : "86"
   },
   {
      "GoBack" : "2",
      "longitude" : "120.72786",
      "outDis" : "50",
      "Id" : "4457",
      "oid" : "6393",
      "districtId" : "1",
      "nameZh" : "向陽圓環東路口",
      "pgp" : "0",
      "terminal" : "0",
      "latitude" : "24.25133",
      "inDis" : "50",
      "routeId" : "207",
      "seqNo" : "87"
   },
   {
      "GoBack" : "2",
      "longitude" : "120.72603",
      "outDis" : "50",
      "Id" : "4408",
      "oid" : "5744",
      "districtId" : "1",
      "nameZh" : "豐原老人會館",
      "pgp" : "0",
      "terminal" : "0",
      "latitude" : "24.25219",
      "inDis" : "50",
      "routeId" : "207",
      "seqNo" : "88"
   },
   {
      "GoBack" : "2",
      "longitude" : "120.72394",
      "outDis" : "50",
      "Id" : "4203",
      "oid" : "6447",
      "districtId" : "1",
      "nameZh" : "新都酒店",
      "pgp" : "0",
      "terminal" : "0",
      "latitude" : "24.25221",
      "inDis" : "50",
      "routeId" : "207",
      "seqNo" : "89"
   },
   {
      "GoBack" : "2",
      "longitude" : "120.71986",
      "outDis" : "50",
      "Id" : "2309",
      "oid" : "5835",
      "districtId" : "1",
      "nameZh" : "和平街",
      "pgp" : "0",
      "terminal" : "0",
      "latitude" : "24.25233",
      "inDis" : "50",
      "routeId" : "207",
      "seqNo" : "90"
   },
   {
      "GoBack" : "2",
      "longitude" : "120.72154",
      "outDis" : "70",
      "Id" : "3935",
      "oid" : "6693",
      "districtId" : "1",
      "nameZh" : "豐原",
      "pgp" : "0",
      "terminal" : "0",
      "latitude" : "24.2538",
      "inDis" : "70",
      "routeId" : "207",
      "seqNo" : "91"
   }
]
