[
   {
      "GoBack" : "1",
      "longitude" : "120.64344",
      "outDis" : "50",
      "Id" : "0170",
      "oid" : "7558F57B40844F41875C7F1DE25A5F60",
      "districtId" : "1",
      "nameZh" : "向上惠文路口",
      "pgp" : "0",
      "terminal" : "0",
      "latitude" : "24.14683",
      "inDis" : "50",
      "routeId" : "157",
      "seqNo" : "1"
   },
   {
      "GoBack" : "1",
      "longitude" : "120.64664",
      "outDis" : "50",
      "Id" : "4268",
      "oid" : "318982183",
      "districtId" : "1",
      "nameZh" : "文心公益路口",
      "pgp" : "0",
      "terminal" : "0",
      "latitude" : "24.15032",
      "inDis" : "50",
      "routeId" : "157",
      "seqNo" : "2"
   },
   {
      "GoBack" : "1",
      "longitude" : "120.64675",
      "outDis" : "50",
      "Id" : "4270",
      "oid" : "318982181",
      "districtId" : "1",
      "nameZh" : "文心市政路口",
      "pgp" : "0",
      "terminal" : "0",
      "latitude" : "24.15431",
      "inDis" : "50",
      "routeId" : "157",
      "seqNo" : "3"
   },
   {
      "GoBack" : "1",
      "longitude" : "120.64668",
      "outDis" : "50",
      "Id" : "1433",
      "oid" : "318982179",
      "districtId" : "1",
      "nameZh" : "中央健保局(文心路)",
      "pgp" : "0",
      "terminal" : "0",
      "latitude" : "24.15746",
      "inDis" : "50",
      "routeId" : "157",
      "seqNo" : "4"
   },
   {
      "GoBack" : "1",
      "longitude" : "120.6475",
      "outDis" : "50",
      "Id" : "0019",
      "oid" : "318982177",
      "districtId" : "1",
      "nameZh" : "市警局",
      "pgp" : "0",
      "terminal" : "0",
      "latitude" : "24.15979",
      "inDis" : "50",
      "routeId" : "157",
      "seqNo" : "5"
   },
   {
      "GoBack" : "1",
      "longitude" : "120.64862",
      "outDis" : "50",
      "Id" : "4266",
      "oid" : "318982175",
      "districtId" : "1",
      "nameZh" : "文心臺灣大道口",
      "pgp" : "0",
      "terminal" : "0",
      "latitude" : "24.16142",
      "inDis" : "50",
      "routeId" : "157",
      "seqNo" : "6"
   },
   {
      "GoBack" : "1",
      "longitude" : "120.648",
      "outDis" : "50",
      "Id" : "0017",
      "oid" : "318982173",
      "districtId" : "1",
      "nameZh" : "臺中市政府",
      "pgp" : "0",
      "terminal" : "0",
      "latitude" : "24.16332",
      "inDis" : "50",
      "routeId" : "157",
      "seqNo" : "7"
   },
   {
      "GoBack" : "1",
      "longitude" : "120.64422",
      "outDis" : "50",
      "Id" : "0016",
      "oid" : "318982171",
      "districtId" : "1",
      "nameZh" : "新光三越",
      "pgp" : "0",
      "terminal" : "0",
      "latitude" : "24.16569",
      "inDis" : "50",
      "routeId" : "157",
      "seqNo" : "8"
   },
   {
      "GoBack" : "1",
      "longitude" : "120.64159",
      "outDis" : "50",
      "Id" : "0015",
      "oid" : "318982169",
      "districtId" : "1",
      "nameZh" : "教師新村",
      "pgp" : "0",
      "terminal" : "0",
      "latitude" : "24.16701",
      "inDis" : "50",
      "routeId" : "157",
      "seqNo" : "9"
   },
   {
      "GoBack" : "1",
      "longitude" : "120.64149",
      "outDis" : "50",
      "Id" : "4530",
      "oid" : "319144597",
      "districtId" : "1",
      "nameZh" : "河南臺灣大道口",
      "pgp" : "0",
      "terminal" : "0",
      "latitude" : "24.16844",
      "inDis" : "50",
      "routeId" : "157",
      "seqNo" : "10"
   },
   {
      "GoBack" : "1",
      "longitude" : "120.64326",
      "outDis" : "50",
      "Id" : "4428",
      "oid" : "318982163",
      "districtId" : "1",
      "nameZh" : "青海上仁街口",
      "pgp" : "0",
      "terminal" : "0",
      "latitude" : "24.17206",
      "inDis" : "50",
      "routeId" : "157",
      "seqNo" : "11"
   },
   {
      "GoBack" : "1",
      "longitude" : "120.64082",
      "outDis" : "50",
      "Id" : "4614",
      "oid" : "318982161",
      "districtId" : "1",
      "nameZh" : "至善國中(青海路)",
      "pgp" : "0",
      "terminal" : "0",
      "latitude" : "24.17385",
      "inDis" : "50",
      "routeId" : "157",
      "seqNo" : "12"
   },
   {
      "GoBack" : "1",
      "longitude" : "120.64033",
      "outDis" : "50",
      "Id" : "5657",
      "oid" : "318989076",
      "districtId" : "1",
      "nameZh" : "至善國中(逢甲路)",
      "pgp" : "0",
      "terminal" : "0",
      "latitude" : "24.17563",
      "inDis" : "50",
      "routeId" : "157",
      "seqNo" : "13"
   },
   {
      "GoBack" : "1",
      "longitude" : "120.64325",
      "outDis" : "50",
      "Id" : "4585",
      "oid" : "318989078",
      "districtId" : "1",
      "nameZh" : "逢甲大學(逢甲路)",
      "pgp" : "0",
      "terminal" : "0",
      "latitude" : "24.17822",
      "inDis" : "50",
      "routeId" : "157",
      "seqNo" : "14"
   },
   {
      "GoBack" : "1",
      "longitude" : "120.64506",
      "outDis" : "50",
      "Id" : "4586",
      "oid" : "318989080",
      "districtId" : "1",
      "nameZh" : "逢甲大學(福星路)",
      "pgp" : "0",
      "terminal" : "0",
      "latitude" : "24.17941",
      "inDis" : "50",
      "routeId" : "157",
      "seqNo" : "15"
   },
   {
      "GoBack" : "1",
      "longitude" : "120.64505",
      "outDis" : "50",
      "Id" : "4334",
      "oid" : "318989082",
      "districtId" : "1",
      "nameZh" : "福星西安街口",
      "pgp" : "0",
      "terminal" : "0",
      "latitude" : "24.18155",
      "inDis" : "50",
      "routeId" : "157",
      "seqNo" : "16"
   },
   {
      "GoBack" : "1",
      "longitude" : "120.64472",
      "outDis" : "50",
      "Id" : "5658",
      "oid" : "318989084",
      "districtId" : "1",
      "nameZh" : "漢翔公司(星享道)",
      "pgp" : "0",
      "terminal" : "0",
      "latitude" : "24.18421",
      "inDis" : "50",
      "routeId" : "157",
      "seqNo" : "17"
   },
   {
      "GoBack" : "1",
      "longitude" : "120.64441",
      "outDis" : "50",
      "Id" : "4327",
      "oid" : "AFB98D0729204A6CBF7FABD859BEE4EF",
      "districtId" : "1",
      "nameZh" : "僑光科技大學",
      "pgp" : "0",
      "terminal" : "0",
      "latitude" : "24.18661",
      "inDis" : "50",
      "routeId" : "157",
      "seqNo" : "18"
   },
   {
      "GoBack" : "1",
      "longitude" : "120.65636",
      "outDis" : "40",
      "Id" : "1475",
      "oid" : "3573",
      "districtId" : "1",
      "nameZh" : "中清環中路口",
      "pgp" : "0",
      "terminal" : "0",
      "latitude" : "24.19826",
      "inDis" : "40",
      "routeId" : "157",
      "seqNo" : "19"
   },
   {
      "GoBack" : "1",
      "longitude" : "120.63847",
      "outDis" : "50",
      "Id" : "1278",
      "oid" : "5218",
      "districtId" : "1",
      "nameZh" : "大甲東新城",
      "pgp" : "0",
      "terminal" : "0",
      "latitude" : "24.34202",
      "inDis" : "50",
      "routeId" : "157",
      "seqNo" : "31"
   },
   {
      "GoBack" : "1",
      "longitude" : "120.63656",
      "outDis" : "50",
      "Id" : "2417",
      "oid" : "5893",
      "districtId" : "1",
      "nameZh" : "東泰新城",
      "pgp" : "0",
      "terminal" : "0",
      "latitude" : "24.34323",
      "inDis" : "50",
      "routeId" : "157",
      "seqNo" : "32"
   },
   {
      "GoBack" : "1",
      "longitude" : "120.63244",
      "outDis" : "50",
      "Id" : "5339",
      "oid" : "311364974",
      "districtId" : "1",
      "nameZh" : "甲工入口",
      "pgp" : "0",
      "terminal" : "0",
      "latitude" : "24.34568",
      "inDis" : "50",
      "routeId" : "157",
      "seqNo" : "33"
   },
   {
      "GoBack" : "1",
      "longitude" : "120.6298",
      "outDis" : "50",
      "Id" : "0509",
      "oid" : "319530978",
      "districtId" : "1",
      "nameZh" : "東陽國小",
      "pgp" : "0",
      "terminal" : "0",
      "latitude" : "24.3412",
      "inDis" : "50",
      "routeId" : "157",
      "seqNo" : "34"
   },
   {
      "GoBack" : "1",
      "longitude" : "120.63027",
      "outDis" : "50",
      "Id" : "4899",
      "oid" : "4098",
      "districtId" : "1",
      "nameZh" : "致用高中",
      "pgp" : "0",
      "terminal" : "0",
      "latitude" : "24.34018",
      "inDis" : "50",
      "routeId" : "157",
      "seqNo" : "35"
   },
   {
      "GoBack" : "1",
      "longitude" : "120.63367",
      "outDis" : "50",
      "Id" : "0275",
      "oid" : "4045",
      "districtId" : "1",
      "nameZh" : "幸福公園",
      "pgp" : "0",
      "terminal" : "0",
      "latitude" : "24.34089",
      "inDis" : "50",
      "routeId" : "157",
      "seqNo" : "36"
   },
   {
      "GoBack" : "1",
      "longitude" : "120.6367",
      "outDis" : "50",
      "Id" : "0270",
      "oid" : "4044",
      "districtId" : "1",
      "nameZh" : "甲東路36巷口",
      "pgp" : "0",
      "terminal" : "0",
      "latitude" : "24.34153",
      "inDis" : "50",
      "routeId" : "157",
      "seqNo" : "37"
   },
   {
      "GoBack" : "1",
      "longitude" : "120.64934",
      "outDis" : "50",
      "Id" : "0510",
      "oid" : "319530977",
      "districtId" : "1",
      "nameZh" : "外埔國中",
      "pgp" : "0",
      "terminal" : "0",
      "latitude" : "24.33272",
      "inDis" : "50",
      "routeId" : "157",
      "seqNo" : "38"
   },
   {
      "GoBack" : "1",
      "longitude" : "120.65249",
      "outDis" : "50",
      "Id" : "1865",
      "oid" : "4041",
      "districtId" : "1",
      "nameZh" : "外埔",
      "pgp" : "0",
      "terminal" : "0",
      "latitude" : "24.3326",
      "inDis" : "50",
      "routeId" : "157",
      "seqNo" : "39"
   },
   {
      "GoBack" : "1",
      "longitude" : "120.65574",
      "outDis" : "50",
      "Id" : "1867",
      "oid" : "5589",
      "districtId" : "1",
      "nameZh" : "外埔郵局",
      "pgp" : "0",
      "terminal" : "0",
      "latitude" : "24.32949",
      "inDis" : "50",
      "routeId" : "157",
      "seqNo" : "40"
   },
   {
      "GoBack" : "1",
      "longitude" : "120.65452",
      "outDis" : "50",
      "Id" : "3548",
      "oid" : "4040",
      "districtId" : "1",
      "nameZh" : "外埔區公所",
      "pgp" : "0",
      "terminal" : "0",
      "latitude" : "24.33195",
      "inDis" : "50",
      "routeId" : "157",
      "seqNo" : "41"
   },
   {
      "GoBack" : "2",
      "longitude" : "120.65461",
      "outDis" : "50",
      "Id" : "3548",
      "oid" : "4092",
      "districtId" : "1",
      "nameZh" : "外埔區公所",
      "pgp" : "0",
      "terminal" : "0",
      "latitude" : "24.33211",
      "inDis" : "50",
      "routeId" : "157",
      "seqNo" : "1"
   },
   {
      "GoBack" : "2",
      "longitude" : "120.65574",
      "outDis" : "50",
      "Id" : "1867",
      "oid" : "5589",
      "districtId" : "1",
      "nameZh" : "外埔郵局",
      "pgp" : "0",
      "terminal" : "0",
      "latitude" : "24.32949",
      "inDis" : "50",
      "routeId" : "157",
      "seqNo" : "2"
   },
   {
      "GoBack" : "2",
      "longitude" : "120.65369",
      "outDis" : "50",
      "Id" : "1865",
      "oid" : "4093",
      "districtId" : "1",
      "nameZh" : "外埔",
      "pgp" : "0",
      "terminal" : "0",
      "latitude" : "24.33149",
      "inDis" : "50",
      "routeId" : "157",
      "seqNo" : "3"
   },
   {
      "GoBack" : "2",
      "longitude" : "120.64927",
      "outDis" : "50",
      "Id" : "0510",
      "oid" : "319540987",
      "districtId" : "1",
      "nameZh" : "外埔國中",
      "pgp" : "0",
      "terminal" : "0",
      "latitude" : "24.33283",
      "inDis" : "50",
      "routeId" : "157",
      "seqNo" : "4"
   },
   {
      "GoBack" : "2",
      "longitude" : "120.6367",
      "outDis" : "50",
      "Id" : "0270",
      "oid" : "4096",
      "districtId" : "1",
      "nameZh" : "甲東路36巷口",
      "pgp" : "0",
      "terminal" : "0",
      "latitude" : "24.34153",
      "inDis" : "50",
      "routeId" : "157",
      "seqNo" : "5"
   },
   {
      "GoBack" : "2",
      "longitude" : "120.63367",
      "outDis" : "50",
      "Id" : "0275",
      "oid" : "4097",
      "districtId" : "1",
      "nameZh" : "幸福公園",
      "pgp" : "0",
      "terminal" : "0",
      "latitude" : "24.34089",
      "inDis" : "50",
      "routeId" : "157",
      "seqNo" : "6"
   },
   {
      "GoBack" : "2",
      "longitude" : "120.62985",
      "outDis" : "50",
      "Id" : "0509",
      "oid" : "319540988",
      "districtId" : "1",
      "nameZh" : "東陽國小",
      "pgp" : "0",
      "terminal" : "0",
      "latitude" : "24.34119",
      "inDis" : "50",
      "routeId" : "157",
      "seqNo" : "7"
   },
   {
      "GoBack" : "2",
      "longitude" : "120.63244",
      "outDis" : "50",
      "Id" : "5339",
      "oid" : "311364974",
      "districtId" : "1",
      "nameZh" : "甲工入口",
      "pgp" : "0",
      "terminal" : "0",
      "latitude" : "24.34568",
      "inDis" : "50",
      "routeId" : "157",
      "seqNo" : "8"
   },
   {
      "GoBack" : "2",
      "longitude" : "120.63656",
      "outDis" : "50",
      "Id" : "2417",
      "oid" : "5893",
      "districtId" : "1",
      "nameZh" : "東泰新城",
      "pgp" : "0",
      "terminal" : "0",
      "latitude" : "24.34323",
      "inDis" : "50",
      "routeId" : "157",
      "seqNo" : "9"
   },
   {
      "GoBack" : "2",
      "longitude" : "120.63847",
      "outDis" : "50",
      "Id" : "1278",
      "oid" : "5218",
      "districtId" : "1",
      "nameZh" : "大甲東新城",
      "pgp" : "0",
      "terminal" : "0",
      "latitude" : "24.34202",
      "inDis" : "50",
      "routeId" : "157",
      "seqNo" : "10"
   },
   {
      "GoBack" : "2",
      "longitude" : "120.65636",
      "outDis" : "40",
      "Id" : "1475",
      "oid" : "3573",
      "districtId" : "1",
      "nameZh" : "中清環中路口",
      "pgp" : "0",
      "terminal" : "0",
      "latitude" : "24.19826",
      "inDis" : "40",
      "routeId" : "157",
      "seqNo" : "22"
   },
   {
      "GoBack" : "2",
      "longitude" : "120.64441",
      "outDis" : "50",
      "Id" : "4327",
      "oid" : "AFB98D0729204A6CBF7FABD859BEE4EF",
      "districtId" : "1",
      "nameZh" : "僑光科技大學",
      "pgp" : "0",
      "terminal" : "0",
      "latitude" : "24.18661",
      "inDis" : "50",
      "routeId" : "157",
      "seqNo" : "23"
   },
   {
      "GoBack" : "2",
      "longitude" : "120.64472",
      "outDis" : "50",
      "Id" : "5658",
      "oid" : "318989098",
      "districtId" : "1",
      "nameZh" : "漢翔公司(星享道)",
      "pgp" : "0",
      "terminal" : "0",
      "latitude" : "24.18421",
      "inDis" : "50",
      "routeId" : "157",
      "seqNo" : "24"
   },
   {
      "GoBack" : "2",
      "longitude" : "120.64495",
      "outDis" : "50",
      "Id" : "4334",
      "oid" : "318989100",
      "districtId" : "1",
      "nameZh" : "福星西安街口",
      "pgp" : "0",
      "terminal" : "0",
      "latitude" : "24.18154",
      "inDis" : "50",
      "routeId" : "157",
      "seqNo" : "25"
   },
   {
      "GoBack" : "2",
      "longitude" : "120.64508",
      "outDis" : "50",
      "Id" : "4586",
      "oid" : "318989102",
      "districtId" : "1",
      "nameZh" : "逢甲大學(福星路)",
      "pgp" : "0",
      "terminal" : "0",
      "latitude" : "24.17938",
      "inDis" : "50",
      "routeId" : "157",
      "seqNo" : "26"
   },
   {
      "GoBack" : "2",
      "longitude" : "120.64417",
      "outDis" : "50",
      "Id" : "4585",
      "oid" : "318989104",
      "districtId" : "1",
      "nameZh" : "逢甲大學(逢甲路)",
      "pgp" : "0",
      "terminal" : "0",
      "latitude" : "24.17879",
      "inDis" : "50",
      "routeId" : "157",
      "seqNo" : "27"
   },
   {
      "GoBack" : "2",
      "longitude" : "120.64011",
      "outDis" : "50",
      "Id" : "5657",
      "oid" : "318989106",
      "districtId" : "1",
      "nameZh" : "至善國中(逢甲路)",
      "pgp" : "0",
      "terminal" : "0",
      "latitude" : "24.17554",
      "inDis" : "50",
      "routeId" : "157",
      "seqNo" : "28"
   },
   {
      "GoBack" : "2",
      "longitude" : "120.64082",
      "outDis" : "50",
      "Id" : "4614",
      "oid" : "318982161",
      "districtId" : "1",
      "nameZh" : "至善國中(青海路)",
      "pgp" : "0",
      "terminal" : "0",
      "latitude" : "24.17385",
      "inDis" : "50",
      "routeId" : "157",
      "seqNo" : "29"
   },
   {
      "GoBack" : "2",
      "longitude" : "120.64326",
      "outDis" : "50",
      "Id" : "4428",
      "oid" : "318982209",
      "districtId" : "1",
      "nameZh" : "青海上仁街口",
      "pgp" : "0",
      "terminal" : "0",
      "latitude" : "24.17206",
      "inDis" : "50",
      "routeId" : "157",
      "seqNo" : "30"
   },
   {
      "GoBack" : "2",
      "longitude" : "120.64348",
      "outDis" : "50",
      "Id" : "4615",
      "oid" : "319144596",
      "districtId" : "1",
      "nameZh" : "河南青海路口",
      "pgp" : "0",
      "terminal" : "0",
      "latitude" : "24.17064",
      "inDis" : "50",
      "routeId" : "157",
      "seqNo" : "31"
   },
   {
      "GoBack" : "2",
      "longitude" : "120.64149",
      "outDis" : "50",
      "Id" : "4530",
      "oid" : "319144597",
      "districtId" : "1",
      "nameZh" : "河南臺灣大道口",
      "pgp" : "0",
      "terminal" : "0",
      "latitude" : "24.16844",
      "inDis" : "50",
      "routeId" : "157",
      "seqNo" : "32"
   },
   {
      "GoBack" : "2",
      "longitude" : "120.64202",
      "outDis" : "50",
      "Id" : "0015",
      "oid" : "318982203",
      "districtId" : "1",
      "nameZh" : "教師新村",
      "pgp" : "0",
      "terminal" : "0",
      "latitude" : "24.16727",
      "inDis" : "50",
      "routeId" : "157",
      "seqNo" : "33"
   },
   {
      "GoBack" : "2",
      "longitude" : "120.64426",
      "outDis" : "50",
      "Id" : "0016",
      "oid" : "318982201",
      "districtId" : "1",
      "nameZh" : "新光三越",
      "pgp" : "0",
      "terminal" : "0",
      "latitude" : "24.16589",
      "inDis" : "50",
      "routeId" : "157",
      "seqNo" : "34"
   },
   {
      "GoBack" : "2",
      "longitude" : "120.64705",
      "outDis" : "50",
      "Id" : "0017",
      "oid" : "318982199",
      "districtId" : "1",
      "nameZh" : "臺中市政府",
      "pgp" : "0",
      "terminal" : "0",
      "latitude" : "24.16438",
      "inDis" : "50",
      "routeId" : "157",
      "seqNo" : "35"
   },
   {
      "GoBack" : "2",
      "longitude" : "120.64839",
      "outDis" : "50",
      "Id" : "4266",
      "oid" : "318982197",
      "districtId" : "1",
      "nameZh" : "文心臺灣大道口",
      "pgp" : "0",
      "terminal" : "0",
      "latitude" : "24.16064",
      "inDis" : "50",
      "routeId" : "157",
      "seqNo" : "36"
   },
   {
      "GoBack" : "2",
      "longitude" : "120.64759",
      "outDis" : "50",
      "Id" : "0019",
      "oid" : "318982195",
      "districtId" : "1",
      "nameZh" : "市警局",
      "pgp" : "0",
      "terminal" : "0",
      "latitude" : "24.15935",
      "inDis" : "50",
      "routeId" : "157",
      "seqNo" : "37"
   },
   {
      "GoBack" : "2",
      "longitude" : "120.64696",
      "outDis" : "50",
      "Id" : "1433",
      "oid" : "318982193",
      "districtId" : "1",
      "nameZh" : "中央健保局(文心路)",
      "pgp" : "0",
      "terminal" : "0",
      "latitude" : "24.15654",
      "inDis" : "50",
      "routeId" : "157",
      "seqNo" : "38"
   },
   {
      "GoBack" : "2",
      "longitude" : "120.64694",
      "outDis" : "50",
      "Id" : "4270",
      "oid" : "318982191",
      "districtId" : "1",
      "nameZh" : "文心市政路口",
      "pgp" : "0",
      "terminal" : "0",
      "latitude" : "24.15468",
      "inDis" : "50",
      "routeId" : "157",
      "seqNo" : "39"
   },
   {
      "GoBack" : "2",
      "longitude" : "120.64684",
      "outDis" : "50",
      "Id" : "4268",
      "oid" : "318982189",
      "districtId" : "1",
      "nameZh" : "文心公益路口",
      "pgp" : "0",
      "terminal" : "0",
      "latitude" : "24.15047",
      "inDis" : "50",
      "routeId" : "157",
      "seqNo" : "40"
   },
   {
      "GoBack" : "2",
      "longitude" : "120.6465",
      "outDis" : "50",
      "Id" : "4356",
      "oid" : "318982187",
      "districtId" : "1",
      "nameZh" : "文心森林公園",
      "pgp" : "0",
      "terminal" : "0",
      "latitude" : "24.14631",
      "inDis" : "50",
      "routeId" : "157",
      "seqNo" : "41"
   },
   {
      "GoBack" : "2",
      "longitude" : "120.6466",
      "outDis" : "50",
      "Id" : "5477",
      "oid" : "13279",
      "districtId" : "1",
      "nameZh" : "文心大墩七街口",
      "pgp" : "0",
      "terminal" : "0",
      "latitude" : "24.14419",
      "inDis" : "50",
      "routeId" : "157",
      "seqNo" : "42"
   },
   {
      "GoBack" : "2",
      "longitude" : "120.64342",
      "outDis" : "50",
      "Id" : "0170",
      "oid" : "E01F52D06C3B46F8A644B5F41C8849B6",
      "districtId" : "1",
      "nameZh" : "向上惠文路口",
      "pgp" : "0",
      "terminal" : "0",
      "latitude" : "24.1469",
      "inDis" : "50",
      "routeId" : "157",
      "seqNo" : "43"
   }
]
