[
   {
      "GoBack" : "1",
      "longitude" : "120.67433",
      "outDis" : "50",
      "Id" : "4091",
      "oid" : "310050556",
      "districtId" : "1",
      "nameZh" : "光明國中(貴和街)",
      "pgp" : "0",
      "terminal" : "0",
      "latitude" : "24.1332",
      "inDis" : "50",
      "routeId" : "55",
      "seqNo" : "1"
   },
   {
      "GoBack" : "1",
      "longitude" : "120.67607",
      "outDis" : "50",
      "Id" : "0070",
      "oid" : "13306",
      "districtId" : "1",
      "nameZh" : "地方法院",
      "pgp" : "0",
      "terminal" : "0",
      "latitude" : "24.13406",
      "inDis" : "50",
      "routeId" : "55",
      "seqNo" : "2"
   },
   {
      "GoBack" : "1",
      "longitude" : "120.67803",
      "outDis" : "50",
      "Id" : "0071",
      "oid" : "13288",
      "districtId" : "1",
      "nameZh" : "臺中女中",
      "pgp" : "0",
      "terminal" : "0",
      "latitude" : "24.13596",
      "inDis" : "50",
      "routeId" : "55",
      "seqNo" : "3"
   },
   {
      "GoBack" : "1",
      "longitude" : "120.68111",
      "outDis" : "50",
      "Id" : "4284",
      "oid" : "13343",
      "districtId" : "1",
      "nameZh" : "民權繼光街口",
      "pgp" : "0",
      "terminal" : "0",
      "latitude" : "24.1366",
      "inDis" : "50",
      "routeId" : "55",
      "seqNo" : "4"
   },
   {
      "GoBack" : "1",
      "longitude" : "120.68387",
      "outDis" : "50",
      "Id" : "1824",
      "oid" : "319048633",
      "districtId" : "1",
      "nameZh" : "臺中火車站",
      "pgp" : "0",
      "terminal" : "0",
      "latitude" : "24.13663",
      "inDis" : "50",
      "routeId" : "55",
      "seqNo" : "5"
   },
   {
      "GoBack" : "1",
      "longitude" : "120.68599",
      "outDis" : "50",
      "Id" : "0402",
      "oid" : "13253",
      "districtId" : "1",
      "nameZh" : "干城站",
      "pgp" : "0",
      "terminal" : "0",
      "latitude" : "24.14089",
      "inDis" : "50",
      "routeId" : "55",
      "seqNo" : "6"
   },
   {
      "GoBack" : "1",
      "longitude" : "120.68612",
      "outDis" : "50",
      "Id" : "4544",
      "oid" : "13289",
      "districtId" : "1",
      "nameZh" : "臺中公園(雙十路)",
      "pgp" : "0",
      "terminal" : "0",
      "latitude" : "24.14399",
      "inDis" : "50",
      "routeId" : "55",
      "seqNo" : "7"
   },
   {
      "GoBack" : "1",
      "longitude" : "120.68448",
      "outDis" : "50",
      "Id" : "1513",
      "oid" : "15989",
      "districtId" : "1",
      "nameZh" : "中興堂",
      "pgp" : "0",
      "terminal" : "0",
      "latitude" : "24.14626",
      "inDis" : "50",
      "routeId" : "55",
      "seqNo" : "8"
   },
   {
      "GoBack" : "1",
      "longitude" : "120.68413",
      "outDis" : "50",
      "Id" : "0045",
      "oid" : "13293",
      "districtId" : "1",
      "nameZh" : "國立臺中科技大學",
      "pgp" : "0",
      "terminal" : "0",
      "latitude" : "24.14987",
      "inDis" : "50",
      "routeId" : "55",
      "seqNo" : "9"
   },
   {
      "GoBack" : "1",
      "longitude" : "120.6852",
      "outDis" : "50",
      "Id" : "0046",
      "oid" : "13255",
      "districtId" : "1",
      "nameZh" : "中友百貨",
      "pgp" : "0",
      "terminal" : "0",
      "latitude" : "24.15251",
      "inDis" : "50",
      "routeId" : "55",
      "seqNo" : "10"
   },
   {
      "GoBack" : "1",
      "longitude" : "120.68571",
      "outDis" : "50",
      "Id" : "0047",
      "oid" : "13251",
      "districtId" : "1",
      "nameZh" : "一心市場",
      "pgp" : "0",
      "terminal" : "0",
      "latitude" : "24.15366",
      "inDis" : "50",
      "routeId" : "55",
      "seqNo" : "11"
   },
   {
      "GoBack" : "1",
      "longitude" : "120.68695",
      "outDis" : "50",
      "Id" : "0934",
      "oid" : "0D7AF382298E449C9856AF45F92F27F9",
      "districtId" : "1",
      "nameZh" : "三民錦中街口",
      "pgp" : "0",
      "terminal" : "0",
      "latitude" : "24.15528",
      "inDis" : "50",
      "routeId" : "55",
      "seqNo" : "12"
   },
   {
      "GoBack" : "1",
      "longitude" : "120.6885",
      "outDis" : "50",
      "Id" : "4399",
      "oid" : "13322",
      "districtId" : "1",
      "nameZh" : "新民高中(三民路)",
      "pgp" : "0",
      "terminal" : "0",
      "latitude" : "24.1568",
      "inDis" : "50",
      "routeId" : "55",
      "seqNo" : "13"
   },
   {
      "GoBack" : "1",
      "longitude" : "120.68992",
      "outDis" : "50",
      "Id" : "0960",
      "oid" : "13342",
      "districtId" : "1",
      "nameZh" : "寶覺寺",
      "pgp" : "0",
      "terminal" : "0",
      "latitude" : "24.15803",
      "inDis" : "50",
      "routeId" : "55",
      "seqNo" : "14"
   },
   {
      "GoBack" : "1",
      "longitude" : "120.69209",
      "outDis" : "50",
      "Id" : "0892",
      "oid" : "13326",
      "districtId" : "1",
      "nameZh" : "監理站",
      "pgp" : "0",
      "terminal" : "0",
      "latitude" : "24.16106",
      "inDis" : "50",
      "routeId" : "55",
      "seqNo" : "15"
   },
   {
      "GoBack" : "1",
      "longitude" : "120.69318",
      "outDis" : "50",
      "Id" : "5405",
      "oid" : "13346",
      "districtId" : "1",
      "nameZh" : "北屯國小(北屯路)",
      "pgp" : "0",
      "terminal" : "0",
      "latitude" : "24.16325",
      "inDis" : "50",
      "routeId" : "55",
      "seqNo" : "16"
   },
   {
      "GoBack" : "1",
      "longitude" : "120.69418",
      "outDis" : "50",
      "Id" : "0492",
      "oid" : "13283",
      "districtId" : "1",
      "nameZh" : "北屯",
      "pgp" : "0",
      "terminal" : "0",
      "latitude" : "24.16504",
      "inDis" : "50",
      "routeId" : "55",
      "seqNo" : "17"
   },
   {
      "GoBack" : "1",
      "longitude" : "120.69591",
      "outDis" : "50",
      "Id" : "5511",
      "oid" : "13259",
      "districtId" : "1",
      "nameZh" : "三光國中",
      "pgp" : "0",
      "terminal" : "0",
      "latitude" : "24.16762",
      "inDis" : "50",
      "routeId" : "55",
      "seqNo" : "18"
   },
   {
      "GoBack" : "1",
      "longitude" : "120.69716",
      "outDis" : "50",
      "Id" : "0103",
      "oid" : "13284",
      "districtId" : "1",
      "nameZh" : "大坑口",
      "pgp" : "0",
      "terminal" : "0",
      "latitude" : "24.16973",
      "inDis" : "50",
      "routeId" : "55",
      "seqNo" : "19"
   },
   {
      "GoBack" : "1",
      "longitude" : "120.69855",
      "outDis" : "50",
      "Id" : "0364",
      "oid" : "13314",
      "districtId" : "1",
      "nameZh" : "特力屋北屯店",
      "pgp" : "0",
      "terminal" : "0",
      "latitude" : "24.17407",
      "inDis" : "50",
      "routeId" : "55",
      "seqNo" : "20"
   },
   {
      "GoBack" : "1",
      "longitude" : "120.69932",
      "outDis" : "50",
      "Id" : "0200",
      "oid" : "13299",
      "districtId" : "1",
      "nameZh" : "北屯崇德二路口",
      "pgp" : "0",
      "terminal" : "0",
      "latitude" : "24.17585",
      "inDis" : "50",
      "routeId" : "55",
      "seqNo" : "21"
   },
   {
      "GoBack" : "1",
      "longitude" : "120.70034",
      "outDis" : "50",
      "Id" : "0105",
      "oid" : "13286",
      "districtId" : "1",
      "nameZh" : "北新國中",
      "pgp" : "0",
      "terminal" : "0",
      "latitude" : "24.17842",
      "inDis" : "50",
      "routeId" : "55",
      "seqNo" : "22"
   },
   {
      "GoBack" : "1",
      "longitude" : "120.70176",
      "outDis" : "50",
      "Id" : "4582",
      "oid" : "0A244FA7BBB54956B854433CC469ECE1",
      "districtId" : "1",
      "nameZh" : "舊社公園(北屯路)",
      "pgp" : "0",
      "terminal" : "0",
      "latitude" : "24.18118",
      "inDis" : "50",
      "routeId" : "55",
      "seqNo" : "23"
   },
   {
      "GoBack" : "1",
      "longitude" : "120.7024",
      "outDis" : "50",
      "Id" : "4673",
      "oid" : "13325",
      "districtId" : "1",
      "nameZh" : "中山路一巷口",
      "pgp" : "0",
      "terminal" : "0",
      "latitude" : "24.18759",
      "inDis" : "50",
      "routeId" : "55",
      "seqNo" : "24"
   },
   {
      "GoBack" : "1",
      "longitude" : "120.70243",
      "outDis" : "50",
      "Id" : "4659",
      "oid" : "13260",
      "districtId" : "1",
      "nameZh" : "中山中興路口",
      "pgp" : "0",
      "terminal" : "0",
      "latitude" : "24.1916",
      "inDis" : "50",
      "routeId" : "55",
      "seqNo" : "25"
   },
   {
      "GoBack" : "1",
      "longitude" : "120.70243",
      "outDis" : "50",
      "Id" : "3836",
      "oid" : "13336",
      "districtId" : "1",
      "nameZh" : "頭家厝",
      "pgp" : "0",
      "terminal" : "0",
      "latitude" : "24.1954",
      "inDis" : "50",
      "routeId" : "55",
      "seqNo" : "26"
   },
   {
      "GoBack" : "1",
      "longitude" : "120.70322",
      "outDis" : "50",
      "Id" : "1972",
      "oid" : "310872631",
      "districtId" : "1",
      "nameZh" : "瓦窯",
      "pgp" : "0",
      "terminal" : "0",
      "latitude" : "24.19994",
      "inDis" : "50",
      "routeId" : "55",
      "seqNo" : "27"
   },
   {
      "GoBack" : "1",
      "longitude" : "120.7039",
      "outDis" : "50",
      "Id" : "3567",
      "oid" : "13230",
      "districtId" : "1",
      "nameZh" : "僑忠國小",
      "pgp" : "0",
      "terminal" : "0",
      "latitude" : "24.20285",
      "inDis" : "50",
      "routeId" : "55",
      "seqNo" : "28"
   },
   {
      "GoBack" : "1",
      "longitude" : "120.70432",
      "outDis" : "50",
      "Id" : "4658",
      "oid" : "13095",
      "districtId" : "1",
      "nameZh" : "中山合作街口",
      "pgp" : "0",
      "terminal" : "0",
      "latitude" : "24.2044",
      "inDis" : "50",
      "routeId" : "55",
      "seqNo" : "29"
   },
   {
      "GoBack" : "1",
      "longitude" : "120.70523",
      "outDis" : "50",
      "Id" : "4370",
      "oid" : "13319",
      "districtId" : "1",
      "nameZh" : "中山圓通南路口",
      "pgp" : "0",
      "terminal" : "0",
      "latitude" : "24.20761",
      "inDis" : "50",
      "routeId" : "55",
      "seqNo" : "30"
   },
   {
      "GoBack" : "1",
      "longitude" : "120.70537",
      "outDis" : "50",
      "Id" : "3742",
      "oid" : "13331",
      "districtId" : "1",
      "nameZh" : "潭子區公所",
      "pgp" : "0",
      "terminal" : "0",
      "latitude" : "24.20977",
      "inDis" : "50",
      "routeId" : "55",
      "seqNo" : "31"
   },
   {
      "GoBack" : "1",
      "longitude" : "120.70542",
      "outDis" : "50",
      "Id" : "4240",
      "oid" : "13329",
      "districtId" : "1",
      "nameZh" : "潭子火車站",
      "pgp" : "0",
      "terminal" : "0",
      "latitude" : "24.2126",
      "inDis" : "50",
      "routeId" : "55",
      "seqNo" : "32"
   },
   {
      "GoBack" : "1",
      "longitude" : "120.7051",
      "outDis" : "50",
      "Id" : "3740",
      "oid" : "13327",
      "districtId" : "1",
      "nameZh" : "潭子",
      "pgp" : "0",
      "terminal" : "0",
      "latitude" : "24.21499",
      "inDis" : "50",
      "routeId" : "55",
      "seqNo" : "33"
   },
   {
      "GoBack" : "1",
      "longitude" : "120.70569",
      "outDis" : "50",
      "Id" : "3741",
      "oid" : "13330",
      "districtId" : "1",
      "nameZh" : "潭子加工區",
      "pgp" : "0",
      "terminal" : "0",
      "latitude" : "24.21797",
      "inDis" : "50",
      "routeId" : "55",
      "seqNo" : "34"
   },
   {
      "GoBack" : "1",
      "longitude" : "120.70642",
      "outDis" : "50",
      "Id" : "3743",
      "oid" : "13332",
      "districtId" : "1",
      "nameZh" : "潭秀里",
      "pgp" : "0",
      "terminal" : "0",
      "latitude" : "24.22131",
      "inDis" : "50",
      "routeId" : "55",
      "seqNo" : "35"
   },
   {
      "GoBack" : "1",
      "longitude" : "120.70731",
      "outDis" : "50",
      "Id" : "4361",
      "oid" : "13311",
      "districtId" : "1",
      "nameZh" : "矽品精密",
      "pgp" : "0",
      "terminal" : "0",
      "latitude" : "24.22424",
      "inDis" : "50",
      "routeId" : "55",
      "seqNo" : "36"
   },
   {
      "GoBack" : "1",
      "longitude" : "120.7077",
      "outDis" : "50",
      "Id" : "1909",
      "oid" : "13300",
      "districtId" : "1",
      "nameZh" : "弘文中學",
      "pgp" : "0",
      "terminal" : "0",
      "latitude" : "24.22655",
      "inDis" : "50",
      "routeId" : "55",
      "seqNo" : "37"
   },
   {
      "GoBack" : "1",
      "longitude" : "120.70814",
      "outDis" : "50",
      "Id" : "0539",
      "oid" : "319729706",
      "districtId" : "1",
      "nameZh" : "中山祥和路口",
      "pgp" : "0",
      "terminal" : "0",
      "latitude" : "24.22825",
      "inDis" : "50",
      "routeId" : "55",
      "seqNo" : "38"
   },
   {
      "GoBack" : "1",
      "longitude" : "120.7087",
      "outDis" : "50",
      "Id" : "2785",
      "oid" : "13313",
      "districtId" : "1",
      "nameZh" : "校栗林",
      "pgp" : "0",
      "terminal" : "0",
      "latitude" : "24.23151",
      "inDis" : "50",
      "routeId" : "55",
      "seqNo" : "39"
   },
   {
      "GoBack" : "1",
      "longitude" : "120.70964",
      "outDis" : "50",
      "Id" : "1965",
      "oid" : "13302",
      "districtId" : "1",
      "nameZh" : "永豐螺絲",
      "pgp" : "0",
      "terminal" : "0",
      "latitude" : "24.2351",
      "inDis" : "50",
      "routeId" : "55",
      "seqNo" : "40"
   },
   {
      "GoBack" : "1",
      "longitude" : "120.7103",
      "outDis" : "50",
      "Id" : "3282",
      "oid" : "13318",
      "districtId" : "1",
      "nameZh" : "菸廠",
      "pgp" : "0",
      "terminal" : "0",
      "latitude" : "24.23688",
      "inDis" : "50",
      "routeId" : "55",
      "seqNo" : "41"
   },
   {
      "GoBack" : "1",
      "longitude" : "120.71085",
      "outDis" : "50",
      "Id" : "1661",
      "oid" : "13264",
      "districtId" : "1",
      "nameZh" : "文化新村",
      "pgp" : "0",
      "terminal" : "0",
      "latitude" : "24.23837",
      "inDis" : "50",
      "routeId" : "55",
      "seqNo" : "42"
   },
   {
      "GoBack" : "1",
      "longitude" : "120.7127",
      "outDis" : "50",
      "Id" : "3817",
      "oid" : "13335",
      "districtId" : "1",
      "nameZh" : "輸配電",
      "pgp" : "0",
      "terminal" : "0",
      "latitude" : "24.24153",
      "inDis" : "50",
      "routeId" : "55",
      "seqNo" : "43"
   },
   {
      "GoBack" : "1",
      "longitude" : "120.71377",
      "outDis" : "50",
      "Id" : "3993",
      "oid" : "13345",
      "districtId" : "1",
      "nameZh" : "警察局",
      "pgp" : "0",
      "terminal" : "0",
      "latitude" : "24.24355",
      "inDis" : "50",
      "routeId" : "55",
      "seqNo" : "44"
   },
   {
      "GoBack" : "1",
      "longitude" : "120.7153",
      "outDis" : "50",
      "Id" : "3938",
      "oid" : "13339",
      "districtId" : "1",
      "nameZh" : "豐原高商",
      "pgp" : "0",
      "terminal" : "0",
      "latitude" : "24.24754",
      "inDis" : "50",
      "routeId" : "55",
      "seqNo" : "45"
   },
   {
      "GoBack" : "1",
      "longitude" : "120.71475",
      "outDis" : "50",
      "Id" : "0033",
      "oid" : "13324",
      "districtId" : "1",
      "nameZh" : "豐原電信局",
      "pgp" : "0",
      "terminal" : "0",
      "latitude" : "24.25003",
      "inDis" : "50",
      "routeId" : "55",
      "seqNo" : "46"
   },
   {
      "GoBack" : "1",
      "longitude" : "120.71526",
      "outDis" : "50",
      "Id" : "3939",
      "oid" : "13243",
      "districtId" : "1",
      "nameZh" : "豐原郵局",
      "pgp" : "0",
      "terminal" : "0",
      "latitude" : "24.25136",
      "inDis" : "50",
      "routeId" : "55",
      "seqNo" : "47"
   },
   {
      "GoBack" : "1",
      "longitude" : "120.71851",
      "outDis" : "50",
      "Id" : "3343",
      "oid" : "13320",
      "districtId" : "1",
      "nameZh" : "媽祖廟",
      "pgp" : "0",
      "terminal" : "0",
      "latitude" : "24.25157",
      "inDis" : "50",
      "routeId" : "55",
      "seqNo" : "48"
   },
   {
      "GoBack" : "1",
      "longitude" : "120.71986",
      "outDis" : "50",
      "Id" : "2309",
      "oid" : "13308",
      "districtId" : "1",
      "nameZh" : "和平街",
      "pgp" : "0",
      "terminal" : "0",
      "latitude" : "24.25233",
      "inDis" : "50",
      "routeId" : "55",
      "seqNo" : "49"
   },
   {
      "GoBack" : "1",
      "longitude" : "120.72188",
      "outDis" : "50",
      "Id" : "3935",
      "oid" : "13338",
      "districtId" : "1",
      "nameZh" : "豐原",
      "pgp" : "0",
      "terminal" : "0",
      "latitude" : "24.25388",
      "inDis" : "50",
      "routeId" : "55",
      "seqNo" : "50"
   },
   {
      "GoBack" : "2",
      "longitude" : "120.72188",
      "outDis" : "50",
      "Id" : "3935",
      "oid" : "13338",
      "districtId" : "1",
      "nameZh" : "豐原",
      "pgp" : "0",
      "terminal" : "0",
      "latitude" : "24.25388",
      "inDis" : "50",
      "routeId" : "55",
      "seqNo" : "1"
   },
   {
      "GoBack" : "2",
      "longitude" : "120.71851",
      "outDis" : "50",
      "Id" : "3343",
      "oid" : "13320",
      "districtId" : "1",
      "nameZh" : "媽祖廟",
      "pgp" : "0",
      "terminal" : "0",
      "latitude" : "24.25157",
      "inDis" : "50",
      "routeId" : "55",
      "seqNo" : "2"
   },
   {
      "GoBack" : "2",
      "longitude" : "120.71552",
      "outDis" : "50",
      "Id" : "3939",
      "oid" : "13244",
      "districtId" : "1",
      "nameZh" : "豐原郵局",
      "pgp" : "0",
      "terminal" : "0",
      "latitude" : "24.2514",
      "inDis" : "50",
      "routeId" : "55",
      "seqNo" : "3"
   },
   {
      "GoBack" : "2",
      "longitude" : "120.71475",
      "outDis" : "50",
      "Id" : "0033",
      "oid" : "13324",
      "districtId" : "1",
      "nameZh" : "豐原電信局",
      "pgp" : "0",
      "terminal" : "0",
      "latitude" : "24.25003",
      "inDis" : "50",
      "routeId" : "55",
      "seqNo" : "4"
   },
   {
      "GoBack" : "2",
      "longitude" : "120.7153",
      "outDis" : "50",
      "Id" : "3938",
      "oid" : "13339",
      "districtId" : "1",
      "nameZh" : "豐原高商",
      "pgp" : "0",
      "terminal" : "0",
      "latitude" : "24.24754",
      "inDis" : "50",
      "routeId" : "55",
      "seqNo" : "5"
   },
   {
      "GoBack" : "2",
      "longitude" : "120.71377",
      "outDis" : "50",
      "Id" : "3993",
      "oid" : "13345",
      "districtId" : "1",
      "nameZh" : "警察局",
      "pgp" : "0",
      "terminal" : "0",
      "latitude" : "24.24355",
      "inDis" : "50",
      "routeId" : "55",
      "seqNo" : "6"
   },
   {
      "GoBack" : "2",
      "longitude" : "120.7127",
      "outDis" : "50",
      "Id" : "3817",
      "oid" : "13335",
      "districtId" : "1",
      "nameZh" : "輸配電",
      "pgp" : "0",
      "terminal" : "0",
      "latitude" : "24.24153",
      "inDis" : "50",
      "routeId" : "55",
      "seqNo" : "7"
   },
   {
      "GoBack" : "2",
      "longitude" : "120.71085",
      "outDis" : "50",
      "Id" : "1661",
      "oid" : "13264",
      "districtId" : "1",
      "nameZh" : "文化新村",
      "pgp" : "0",
      "terminal" : "0",
      "latitude" : "24.23837",
      "inDis" : "50",
      "routeId" : "55",
      "seqNo" : "8"
   },
   {
      "GoBack" : "2",
      "longitude" : "120.7103",
      "outDis" : "50",
      "Id" : "3282",
      "oid" : "13318",
      "districtId" : "1",
      "nameZh" : "菸廠",
      "pgp" : "0",
      "terminal" : "0",
      "latitude" : "24.23688",
      "inDis" : "50",
      "routeId" : "55",
      "seqNo" : "9"
   },
   {
      "GoBack" : "2",
      "longitude" : "120.70964",
      "outDis" : "50",
      "Id" : "1965",
      "oid" : "13302",
      "districtId" : "1",
      "nameZh" : "永豐螺絲",
      "pgp" : "0",
      "terminal" : "0",
      "latitude" : "24.2351",
      "inDis" : "50",
      "routeId" : "55",
      "seqNo" : "10"
   },
   {
      "GoBack" : "2",
      "longitude" : "120.7087",
      "outDis" : "50",
      "Id" : "2785",
      "oid" : "13313",
      "districtId" : "1",
      "nameZh" : "校栗林",
      "pgp" : "0",
      "terminal" : "0",
      "latitude" : "24.23151",
      "inDis" : "50",
      "routeId" : "55",
      "seqNo" : "11"
   },
   {
      "GoBack" : "2",
      "longitude" : "120.70814",
      "outDis" : "50",
      "Id" : "0539",
      "oid" : "319729706",
      "districtId" : "1",
      "nameZh" : "中山祥和路口",
      "pgp" : "0",
      "terminal" : "0",
      "latitude" : "24.22825",
      "inDis" : "50",
      "routeId" : "55",
      "seqNo" : "12"
   },
   {
      "GoBack" : "2",
      "longitude" : "120.7077",
      "outDis" : "50",
      "Id" : "1909",
      "oid" : "13300",
      "districtId" : "1",
      "nameZh" : "弘文中學",
      "pgp" : "0",
      "terminal" : "0",
      "latitude" : "24.22655",
      "inDis" : "50",
      "routeId" : "55",
      "seqNo" : "13"
   },
   {
      "GoBack" : "2",
      "longitude" : "120.70731",
      "outDis" : "50",
      "Id" : "4361",
      "oid" : "13311",
      "districtId" : "1",
      "nameZh" : "矽品精密",
      "pgp" : "0",
      "terminal" : "0",
      "latitude" : "24.22424",
      "inDis" : "50",
      "routeId" : "55",
      "seqNo" : "14"
   },
   {
      "GoBack" : "2",
      "longitude" : "120.70642",
      "outDis" : "50",
      "Id" : "3743",
      "oid" : "13332",
      "districtId" : "1",
      "nameZh" : "潭秀里",
      "pgp" : "0",
      "terminal" : "0",
      "latitude" : "24.22131",
      "inDis" : "50",
      "routeId" : "55",
      "seqNo" : "15"
   },
   {
      "GoBack" : "2",
      "longitude" : "120.70569",
      "outDis" : "50",
      "Id" : "3741",
      "oid" : "13330",
      "districtId" : "1",
      "nameZh" : "潭子加工區",
      "pgp" : "0",
      "terminal" : "0",
      "latitude" : "24.21797",
      "inDis" : "50",
      "routeId" : "55",
      "seqNo" : "16"
   },
   {
      "GoBack" : "2",
      "longitude" : "120.7051",
      "outDis" : "50",
      "Id" : "3740",
      "oid" : "13327",
      "districtId" : "1",
      "nameZh" : "潭子",
      "pgp" : "0",
      "terminal" : "0",
      "latitude" : "24.21499",
      "inDis" : "50",
      "routeId" : "55",
      "seqNo" : "17"
   },
   {
      "GoBack" : "2",
      "longitude" : "120.70542",
      "outDis" : "50",
      "Id" : "4240",
      "oid" : "13329",
      "districtId" : "1",
      "nameZh" : "潭子火車站",
      "pgp" : "0",
      "terminal" : "0",
      "latitude" : "24.2126",
      "inDis" : "50",
      "routeId" : "55",
      "seqNo" : "18"
   },
   {
      "GoBack" : "2",
      "longitude" : "120.70537",
      "outDis" : "50",
      "Id" : "3742",
      "oid" : "13331",
      "districtId" : "1",
      "nameZh" : "潭子區公所",
      "pgp" : "0",
      "terminal" : "0",
      "latitude" : "24.20977",
      "inDis" : "50",
      "routeId" : "55",
      "seqNo" : "19"
   },
   {
      "GoBack" : "2",
      "longitude" : "120.70523",
      "outDis" : "50",
      "Id" : "4370",
      "oid" : "13319",
      "districtId" : "1",
      "nameZh" : "中山圓通南路口",
      "pgp" : "0",
      "terminal" : "0",
      "latitude" : "24.20761",
      "inDis" : "50",
      "routeId" : "55",
      "seqNo" : "20"
   },
   {
      "GoBack" : "2",
      "longitude" : "120.70441",
      "outDis" : "50",
      "Id" : "4658",
      "oid" : "13096",
      "districtId" : "1",
      "nameZh" : "中山合作街口",
      "pgp" : "0",
      "terminal" : "0",
      "latitude" : "24.20486",
      "inDis" : "50",
      "routeId" : "55",
      "seqNo" : "21"
   },
   {
      "GoBack" : "2",
      "longitude" : "120.7037",
      "outDis" : "50",
      "Id" : "3567",
      "oid" : "13229",
      "districtId" : "1",
      "nameZh" : "僑忠國小",
      "pgp" : "0",
      "terminal" : "0",
      "latitude" : "24.2021",
      "inDis" : "50",
      "routeId" : "55",
      "seqNo" : "22"
   },
   {
      "GoBack" : "2",
      "longitude" : "120.70322",
      "outDis" : "50",
      "Id" : "1972",
      "oid" : "310872631",
      "districtId" : "1",
      "nameZh" : "瓦窯",
      "pgp" : "0",
      "terminal" : "0",
      "latitude" : "24.19994",
      "inDis" : "50",
      "routeId" : "55",
      "seqNo" : "23"
   },
   {
      "GoBack" : "2",
      "longitude" : "120.70243",
      "outDis" : "50",
      "Id" : "3836",
      "oid" : "13336",
      "districtId" : "1",
      "nameZh" : "頭家厝",
      "pgp" : "0",
      "terminal" : "0",
      "latitude" : "24.1954",
      "inDis" : "50",
      "routeId" : "55",
      "seqNo" : "24"
   },
   {
      "GoBack" : "2",
      "longitude" : "120.70243",
      "outDis" : "50",
      "Id" : "4659",
      "oid" : "13260",
      "districtId" : "1",
      "nameZh" : "中山中興路口",
      "pgp" : "0",
      "terminal" : "0",
      "latitude" : "24.1916",
      "inDis" : "50",
      "routeId" : "55",
      "seqNo" : "25"
   },
   {
      "GoBack" : "2",
      "longitude" : "120.7024",
      "outDis" : "50",
      "Id" : "4673",
      "oid" : "13325",
      "districtId" : "1",
      "nameZh" : "中山路一巷口",
      "pgp" : "0",
      "terminal" : "0",
      "latitude" : "24.18759",
      "inDis" : "50",
      "routeId" : "55",
      "seqNo" : "26"
   },
   {
      "GoBack" : "2",
      "longitude" : "120.70167",
      "outDis" : "50",
      "Id" : "4582",
      "oid" : "7041BD9F0C3C42B2B73B2A54D3FF9E21",
      "districtId" : "1",
      "nameZh" : "舊社公園(北屯路)",
      "pgp" : "0",
      "terminal" : "0",
      "latitude" : "24.18155",
      "inDis" : "50",
      "routeId" : "55",
      "seqNo" : "27"
   },
   {
      "GoBack" : "2",
      "longitude" : "120.70034",
      "outDis" : "50",
      "Id" : "0105",
      "oid" : "13286",
      "districtId" : "1",
      "nameZh" : "北新國中",
      "pgp" : "0",
      "terminal" : "0",
      "latitude" : "24.17842",
      "inDis" : "50",
      "routeId" : "55",
      "seqNo" : "28"
   },
   {
      "GoBack" : "2",
      "longitude" : "120.69932",
      "outDis" : "50",
      "Id" : "0200",
      "oid" : "13299",
      "districtId" : "1",
      "nameZh" : "北屯崇德二路口",
      "pgp" : "0",
      "terminal" : "0",
      "latitude" : "24.17585",
      "inDis" : "50",
      "routeId" : "55",
      "seqNo" : "29"
   },
   {
      "GoBack" : "2",
      "longitude" : "120.69855",
      "outDis" : "50",
      "Id" : "0364",
      "oid" : "13314",
      "districtId" : "1",
      "nameZh" : "特力屋北屯店",
      "pgp" : "0",
      "terminal" : "0",
      "latitude" : "24.17407",
      "inDis" : "50",
      "routeId" : "55",
      "seqNo" : "30"
   },
   {
      "GoBack" : "2",
      "longitude" : "120.69716",
      "outDis" : "50",
      "Id" : "0103",
      "oid" : "13284",
      "districtId" : "1",
      "nameZh" : "大坑口",
      "pgp" : "0",
      "terminal" : "0",
      "latitude" : "24.16973",
      "inDis" : "50",
      "routeId" : "55",
      "seqNo" : "31"
   },
   {
      "GoBack" : "2",
      "longitude" : "120.69591",
      "outDis" : "50",
      "Id" : "5511",
      "oid" : "13259",
      "districtId" : "1",
      "nameZh" : "三光國中",
      "pgp" : "0",
      "terminal" : "0",
      "latitude" : "24.16762",
      "inDis" : "50",
      "routeId" : "55",
      "seqNo" : "32"
   },
   {
      "GoBack" : "2",
      "longitude" : "120.69418",
      "outDis" : "50",
      "Id" : "0492",
      "oid" : "13283",
      "districtId" : "1",
      "nameZh" : "北屯",
      "pgp" : "0",
      "terminal" : "0",
      "latitude" : "24.16504",
      "inDis" : "50",
      "routeId" : "55",
      "seqNo" : "33"
   },
   {
      "GoBack" : "2",
      "longitude" : "120.69318",
      "outDis" : "50",
      "Id" : "5405",
      "oid" : "13346",
      "districtId" : "1",
      "nameZh" : "北屯國小(北屯路)",
      "pgp" : "0",
      "terminal" : "0",
      "latitude" : "24.16325",
      "inDis" : "50",
      "routeId" : "55",
      "seqNo" : "34"
   },
   {
      "GoBack" : "2",
      "longitude" : "120.69209",
      "outDis" : "50",
      "Id" : "0892",
      "oid" : "13326",
      "districtId" : "1",
      "nameZh" : "監理站",
      "pgp" : "0",
      "terminal" : "0",
      "latitude" : "24.16106",
      "inDis" : "50",
      "routeId" : "55",
      "seqNo" : "35"
   },
   {
      "GoBack" : "2",
      "longitude" : "120.68992",
      "outDis" : "50",
      "Id" : "0960",
      "oid" : "13342",
      "districtId" : "1",
      "nameZh" : "寶覺寺",
      "pgp" : "0",
      "terminal" : "0",
      "latitude" : "24.15803",
      "inDis" : "50",
      "routeId" : "55",
      "seqNo" : "36"
   },
   {
      "GoBack" : "2",
      "longitude" : "120.6885",
      "outDis" : "50",
      "Id" : "4399",
      "oid" : "13322",
      "districtId" : "1",
      "nameZh" : "新民高中(三民路)",
      "pgp" : "0",
      "terminal" : "0",
      "latitude" : "24.1568",
      "inDis" : "50",
      "routeId" : "55",
      "seqNo" : "37"
   },
   {
      "GoBack" : "2",
      "longitude" : "120.6871",
      "outDis" : "50",
      "Id" : "0934",
      "oid" : "A369F80BD1F74F92A75B79E3B1367FC9",
      "districtId" : "1",
      "nameZh" : "三民錦中街口",
      "pgp" : "0",
      "terminal" : "0",
      "latitude" : "24.15556",
      "inDis" : "50",
      "routeId" : "55",
      "seqNo" : "38"
   },
   {
      "GoBack" : "2",
      "longitude" : "120.68571",
      "outDis" : "50",
      "Id" : "0047",
      "oid" : "13251",
      "districtId" : "1",
      "nameZh" : "一心市場",
      "pgp" : "0",
      "terminal" : "0",
      "latitude" : "24.15366",
      "inDis" : "50",
      "routeId" : "55",
      "seqNo" : "39"
   },
   {
      "GoBack" : "2",
      "longitude" : "120.6852",
      "outDis" : "50",
      "Id" : "0046",
      "oid" : "13255",
      "districtId" : "1",
      "nameZh" : "中友百貨",
      "pgp" : "0",
      "terminal" : "0",
      "latitude" : "24.15251",
      "inDis" : "50",
      "routeId" : "55",
      "seqNo" : "40"
   },
   {
      "GoBack" : "2",
      "longitude" : "120.68413",
      "outDis" : "50",
      "Id" : "0045",
      "oid" : "13293",
      "districtId" : "1",
      "nameZh" : "國立臺中科技大學",
      "pgp" : "0",
      "terminal" : "0",
      "latitude" : "24.14987",
      "inDis" : "50",
      "routeId" : "55",
      "seqNo" : "41"
   },
   {
      "GoBack" : "2",
      "longitude" : "120.68463",
      "outDis" : "50",
      "Id" : "1513",
      "oid" : "16096",
      "districtId" : "1",
      "nameZh" : "中興堂",
      "pgp" : "0",
      "terminal" : "0",
      "latitude" : "24.14621",
      "inDis" : "50",
      "routeId" : "55",
      "seqNo" : "42"
   },
   {
      "GoBack" : "2",
      "longitude" : "120.68612",
      "outDis" : "50",
      "Id" : "4544",
      "oid" : "13289",
      "districtId" : "1",
      "nameZh" : "臺中公園(雙十路)",
      "pgp" : "0",
      "terminal" : "0",
      "latitude" : "24.14399",
      "inDis" : "50",
      "routeId" : "55",
      "seqNo" : "43"
   },
   {
      "GoBack" : "2",
      "longitude" : "120.68599",
      "outDis" : "50",
      "Id" : "0402",
      "oid" : "13253",
      "districtId" : "1",
      "nameZh" : "干城站",
      "pgp" : "0",
      "terminal" : "0",
      "latitude" : "24.14089",
      "inDis" : "50",
      "routeId" : "55",
      "seqNo" : "44"
   },
   {
      "GoBack" : "2",
      "longitude" : "120.6837",
      "outDis" : "170",
      "Id" : "1824",
      "oid" : "13291",
      "districtId" : "1",
      "nameZh" : "臺中火車站",
      "pgp" : "0",
      "terminal" : "0",
      "latitude" : "24.1366",
      "inDis" : "50",
      "routeId" : "55",
      "seqNo" : "45"
   },
   {
      "GoBack" : "2",
      "longitude" : "120.68112",
      "outDis" : "50",
      "Id" : "4284",
      "oid" : "13344",
      "districtId" : "1",
      "nameZh" : "民權繼光街口",
      "pgp" : "0",
      "terminal" : "0",
      "latitude" : "24.13698",
      "inDis" : "50",
      "routeId" : "55",
      "seqNo" : "46"
   },
   {
      "GoBack" : "2",
      "longitude" : "120.67785",
      "outDis" : "50",
      "Id" : "0071",
      "oid" : "13287",
      "districtId" : "1",
      "nameZh" : "臺中女中",
      "pgp" : "0",
      "terminal" : "0",
      "latitude" : "24.13571",
      "inDis" : "50",
      "routeId" : "55",
      "seqNo" : "47"
   },
   {
      "GoBack" : "2",
      "longitude" : "120.67577",
      "outDis" : "50",
      "Id" : "0070",
      "oid" : "13305",
      "districtId" : "1",
      "nameZh" : "地方法院",
      "pgp" : "0",
      "terminal" : "0",
      "latitude" : "24.13387",
      "inDis" : "50",
      "routeId" : "55",
      "seqNo" : "48"
   },
   {
      "GoBack" : "2",
      "longitude" : "120.67433",
      "outDis" : "50",
      "Id" : "4091",
      "oid" : "310050556",
      "districtId" : "1",
      "nameZh" : "光明國中(貴和街)",
      "pgp" : "0",
      "terminal" : "0",
      "latitude" : "24.1332",
      "inDis" : "50",
      "routeId" : "55",
      "seqNo" : "49"
   }
]
