[
   {
      "GoBack" : "1",
      "longitude" : "120.68572",
      "outDis" : "50",
      "Id" : "1829",
      "oid" : "10758",
      "districtId" : "1",
      "nameZh" : "臺中站",
      "pgp" : "0",
      "terminal" : "0",
      "latitude" : "24.13861",
      "inDis" : "50",
      "routeId" : "168",
      "seqNo" : "1"
   },
   {
      "GoBack" : "1",
      "longitude" : "120.68388",
      "outDis" : "50",
      "Id" : "5670",
      "oid" : "317714375",
      "districtId" : "1",
      "nameZh" : "公園自由路口",
      "pgp" : "0",
      "terminal" : "0",
      "latitude" : "24.14269",
      "inDis" : "50",
      "routeId" : "168",
      "seqNo" : "2"
   },
   {
      "GoBack" : "1",
      "longitude" : "120.68133",
      "outDis" : "50",
      "Id" : "5506",
      "oid" : "03A219CFF5FC4781B1DB1B13165218AB",
      "districtId" : "1",
      "nameZh" : "光復國小(三民路)",
      "pgp" : "0",
      "terminal" : "0",
      "latitude" : "24.14407",
      "inDis" : "50",
      "routeId" : "168",
      "seqNo" : "3"
   },
   {
      "GoBack" : "1",
      "longitude" : "120.67935",
      "outDis" : "50",
      "Id" : "4395",
      "oid" : "030D5B61BA024223B0C4CFE04E1D9865",
      "districtId" : "1",
      "nameZh" : "第二市場(臺灣大道)",
      "pgp" : "0",
      "terminal" : "0",
      "latitude" : "24.14271",
      "inDis" : "50",
      "routeId" : "168",
      "seqNo" : "4"
   },
   {
      "GoBack" : "1",
      "longitude" : "120.6769",
      "outDis" : "50",
      "Id" : "4375",
      "oid" : "13432",
      "districtId" : "1",
      "nameZh" : "臺灣大道中華路口",
      "pgp" : "0",
      "terminal" : "0",
      "latitude" : "24.14482",
      "inDis" : "50",
      "routeId" : "168",
      "seqNo" : "6"
   },
   {
      "GoBack" : "1",
      "longitude" : "120.67483",
      "outDis" : "50",
      "Id" : "5092",
      "oid" : "13433",
      "districtId" : "1",
      "nameZh" : "臺灣大道原子街口",
      "pgp" : "0",
      "terminal" : "0",
      "latitude" : "24.14663",
      "inDis" : "50",
      "routeId" : "168",
      "seqNo" : "7"
   },
   {
      "GoBack" : "1",
      "longitude" : "120.67189",
      "outDis" : "50",
      "Id" : "0723",
      "oid" : "073AFC946EFC46EC90FEF4BB47F09BF7",
      "districtId" : "1",
      "nameZh" : "茄苳腳",
      "pgp" : "0",
      "terminal" : "0",
      "latitude" : "24.14909",
      "inDis" : "50",
      "routeId" : "168",
      "seqNo" : "8"
   },
   {
      "GoBack" : "1",
      "longitude" : "120.66942",
      "outDis" : "50",
      "Id" : "4619",
      "oid" : "13436",
      "districtId" : "1",
      "nameZh" : "臺灣大道民權路口",
      "pgp" : "0",
      "terminal" : "0",
      "latitude" : "24.15159",
      "inDis" : "50",
      "routeId" : "168",
      "seqNo" : "9"
   },
   {
      "GoBack" : "1",
      "longitude" : "120.66735",
      "outDis" : "50",
      "Id" : "0419",
      "oid" : "315867756",
      "districtId" : "1",
      "nameZh" : "中正國小",
      "pgp" : "0",
      "terminal" : "0",
      "latitude" : "24.15314",
      "inDis" : "50",
      "routeId" : "168",
      "seqNo" : "10"
   },
   {
      "GoBack" : "1",
      "longitude" : "120.66313",
      "outDis" : "50",
      "Id" : "0320",
      "oid" : "319472665",
      "districtId" : "1",
      "nameZh" : "科學博物館(臺灣大道)",
      "pgp" : "0",
      "terminal" : "0",
      "latitude" : "24.1552",
      "inDis" : "50",
      "routeId" : "168",
      "seqNo" : "11"
   },
   {
      "GoBack" : "1",
      "longitude" : "120.65868",
      "outDis" : "50",
      "Id" : "0087",
      "oid" : "04C3EC0C95744F4EA6A8615AF29D9C12",
      "districtId" : "1",
      "nameZh" : "忠明國小",
      "pgp" : "0",
      "terminal" : "0",
      "latitude" : "24.15792",
      "inDis" : "50",
      "routeId" : "168",
      "seqNo" : "12"
   },
   {
      "GoBack" : "1",
      "longitude" : "120.65645",
      "outDis" : "50",
      "Id" : "4569",
      "oid" : "13538",
      "districtId" : "1",
      "nameZh" : "頂何厝(臺灣大道)",
      "pgp" : "0",
      "terminal" : "0",
      "latitude" : "24.15903",
      "inDis" : "50",
      "routeId" : "168",
      "seqNo" : "13"
   },
   {
      "GoBack" : "1",
      "longitude" : "120.65387",
      "outDis" : "50",
      "Id" : "4566",
      "oid" : "103E08F45CF94692973C8BFB427F0AD2",
      "districtId" : "1",
      "nameZh" : "何厝(臺灣大道)",
      "pgp" : "0",
      "terminal" : "0",
      "latitude" : "24.16042",
      "inDis" : "50",
      "routeId" : "168",
      "seqNo" : "14"
   },
   {
      "GoBack" : "1",
      "longitude" : "120.65135",
      "outDis" : "50",
      "Id" : "4564",
      "oid" : "00E778884698495ABD19639707E06F9F",
      "districtId" : "1",
      "nameZh" : "臺灣大道文心路口",
      "pgp" : "0",
      "terminal" : "0",
      "latitude" : "24.16204",
      "inDis" : "50",
      "routeId" : "168",
      "seqNo" : "15"
   },
   {
      "GoBack" : "1",
      "longitude" : "120.64666",
      "outDis" : "50",
      "Id" : "0017",
      "oid" : "10698EEFECE3463880FA467DDB40B4C8",
      "districtId" : "1",
      "nameZh" : "臺中市政府",
      "pgp" : "0",
      "terminal" : "0",
      "latitude" : "24.16435",
      "inDis" : "50",
      "routeId" : "168",
      "seqNo" : "16"
   },
   {
      "GoBack" : "1",
      "longitude" : "120.64422",
      "outDis" : "50",
      "Id" : "0016",
      "oid" : "0025AA1FB56E4774A73EF509BAA985C1",
      "districtId" : "1",
      "nameZh" : "新光三越",
      "pgp" : "0",
      "terminal" : "0",
      "latitude" : "24.16569",
      "inDis" : "50",
      "routeId" : "168",
      "seqNo" : "17"
   },
   {
      "GoBack" : "1",
      "longitude" : "120.64137",
      "outDis" : "50",
      "Id" : "0015",
      "oid" : "10837",
      "districtId" : "1",
      "nameZh" : "教師新村",
      "pgp" : "0",
      "terminal" : "0",
      "latitude" : "24.1672",
      "inDis" : "50",
      "routeId" : "168",
      "seqNo" : "18"
   },
   {
      "GoBack" : "1",
      "longitude" : "120.63968",
      "outDis" : "50",
      "Id" : "0826",
      "oid" : "03CA4F73B9E04875BB748A72CBCC68FB",
      "districtId" : "1",
      "nameZh" : "秋紅谷(朝陽橋)",
      "pgp" : "0",
      "terminal" : "0",
      "latitude" : "24.16904",
      "inDis" : "50",
      "routeId" : "168",
      "seqNo" : "19"
   },
   {
      "GoBack" : "1",
      "longitude" : "120.63717",
      "outDis" : "50",
      "Id" : "0054",
      "oid" : "313524993",
      "districtId" : "1",
      "nameZh" : "朝馬(臺灣大道)",
      "pgp" : "0",
      "terminal" : "0",
      "latitude" : "24.17059",
      "inDis" : "50",
      "routeId" : "168",
      "seqNo" : "20"
   },
   {
      "GoBack" : "1",
      "longitude" : "120.6257",
      "outDis" : "50",
      "Id" : "5149",
      "oid" : "17360",
      "districtId" : "1",
      "nameZh" : "福安里(臺灣大道)",
      "pgp" : "0",
      "terminal" : "0",
      "latitude" : "24.178",
      "inDis" : "50",
      "routeId" : "168",
      "seqNo" : "21"
   },
   {
      "GoBack" : "1",
      "longitude" : "120.62232",
      "outDis" : "50",
      "Id" : "3060",
      "oid" : "04CD0ACF4D084074A490CB8D9F5C27B4",
      "districtId" : "1",
      "nameZh" : "統聯轉運站",
      "pgp" : "0",
      "terminal" : "0",
      "latitude" : "24.17983",
      "inDis" : "50",
      "routeId" : "168",
      "seqNo" : "22"
   },
   {
      "GoBack" : "1",
      "longitude" : "120.619",
      "outDis" : "50",
      "Id" : "0008",
      "oid" : "17362",
      "districtId" : "1",
      "nameZh" : "中港新城",
      "pgp" : "0",
      "terminal" : "0",
      "latitude" : "24.18145",
      "inDis" : "50",
      "routeId" : "168",
      "seqNo" : "23"
   },
   {
      "GoBack" : "1",
      "longitude" : "120.61606",
      "outDis" : "50",
      "Id" : "0430",
      "oid" : "11184",
      "districtId" : "1",
      "nameZh" : "中港澄清醫院",
      "pgp" : "0",
      "terminal" : "0",
      "latitude" : "24.18284",
      "inDis" : "50",
      "routeId" : "168",
      "seqNo" : "24"
   },
   {
      "GoBack" : "1",
      "longitude" : "120.613",
      "outDis" : "50",
      "Id" : "0006",
      "oid" : "303569501",
      "districtId" : "1",
      "nameZh" : "臺中捐血中心",
      "pgp" : "0",
      "terminal" : "0",
      "latitude" : "24.1844",
      "inDis" : "50",
      "routeId" : "168",
      "seqNo" : "25"
   },
   {
      "GoBack" : "1",
      "longitude" : "120.6109",
      "outDis" : "50",
      "Id" : "4335",
      "oid" : "17365",
      "districtId" : "1",
      "nameZh" : "臺灣大道玉門路口",
      "pgp" : "0",
      "terminal" : "0",
      "latitude" : "24.1847",
      "inDis" : "50",
      "routeId" : "168",
      "seqNo" : "26"
   },
   {
      "GoBack" : "1",
      "longitude" : "120.60841",
      "outDis" : "50",
      "Id" : "0004",
      "oid" : "10867",
      "districtId" : "1",
      "nameZh" : "普濟寺",
      "pgp" : "0",
      "terminal" : "0",
      "latitude" : "24.184",
      "inDis" : "50",
      "routeId" : "168",
      "seqNo" : "27"
   },
   {
      "GoBack" : "1",
      "longitude" : "120.60657",
      "outDis" : "50",
      "Id" : "2378",
      "oid" : "03AB2CCC5A54474AAE13E068FBE1BAA8",
      "districtId" : "1",
      "nameZh" : "東大附中",
      "pgp" : "0",
      "terminal" : "0",
      "latitude" : "24.18358",
      "inDis" : "50",
      "routeId" : "168",
      "seqNo" : "28"
   },
   {
      "GoBack" : "1",
      "longitude" : "120.60491",
      "outDis" : "50",
      "Id" : "5386",
      "oid" : "2260",
      "districtId" : "1",
      "nameZh" : "臺中榮總(臺灣大道)",
      "pgp" : "0",
      "terminal" : "0",
      "latitude" : "24.18349",
      "inDis" : "50",
      "routeId" : "168",
      "seqNo" : "29"
   },
   {
      "GoBack" : "1",
      "longitude" : "120.59749",
      "outDis" : "50",
      "Id" : "0526",
      "oid" : "11189",
      "districtId" : "1",
      "nameZh" : "台中精機",
      "pgp" : "0",
      "terminal" : "0",
      "latitude" : "24.18212",
      "inDis" : "50",
      "routeId" : "168",
      "seqNo" : "30"
   },
   {
      "GoBack" : "1",
      "longitude" : "120.59375",
      "outDis" : "50",
      "Id" : "0240",
      "oid" : "6CC4ACBA022E400EAA879E5848F7CA08",
      "districtId" : "1",
      "nameZh" : "東海別墅",
      "pgp" : "0",
      "terminal" : "0",
      "latitude" : "24.1829",
      "inDis" : "50",
      "routeId" : "168",
      "seqNo" : "31"
   },
   {
      "GoBack" : "1",
      "longitude" : "120.59128",
      "outDis" : "50",
      "Id" : "4383",
      "oid" : "13470",
      "districtId" : "1",
      "nameZh" : "臺糖公營學苑",
      "pgp" : "0",
      "terminal" : "0",
      "latitude" : "24.1838",
      "inDis" : "50",
      "routeId" : "168",
      "seqNo" : "32"
   },
   {
      "GoBack" : "1",
      "longitude" : "120.58816",
      "outDis" : "50",
      "Id" : "5304",
      "oid" : "311454628",
      "districtId" : "1",
      "nameZh" : "東海街口",
      "pgp" : "0",
      "terminal" : "0",
      "latitude" : "24.18523",
      "inDis" : "50",
      "routeId" : "168",
      "seqNo" : "33"
   },
   {
      "GoBack" : "1",
      "longitude" : "120.58505",
      "outDis" : "50",
      "Id" : "2325",
      "oid" : "17523",
      "districtId" : "1",
      "nameZh" : "坪頂",
      "pgp" : "0",
      "terminal" : "0",
      "latitude" : "24.1866",
      "inDis" : "50",
      "routeId" : "168",
      "seqNo" : "34"
   },
   {
      "GoBack" : "1",
      "longitude" : "120.58298",
      "outDis" : "50",
      "Id" : "4061",
      "oid" : "311466313",
      "districtId" : "1",
      "nameZh" : "下坪頂",
      "pgp" : "0",
      "terminal" : "0",
      "latitude" : "24.18753",
      "inDis" : "50",
      "routeId" : "168",
      "seqNo" : "35"
   },
   {
      "GoBack" : "1",
      "longitude" : "120.58064",
      "outDis" : "50",
      "Id" : "4388",
      "oid" : "13481",
      "districtId" : "1",
      "nameZh" : "后厝仔",
      "pgp" : "0",
      "terminal" : "0",
      "latitude" : "24.19927",
      "inDis" : "50",
      "routeId" : "168",
      "seqNo" : "36"
   },
   {
      "GoBack" : "1",
      "longitude" : "120.5815",
      "outDis" : "50",
      "Id" : "4136",
      "oid" : "14266",
      "districtId" : "1",
      "nameZh" : "祿清宮",
      "pgp" : "0",
      "terminal" : "0",
      "latitude" : "24.2102",
      "inDis" : "50",
      "routeId" : "168",
      "seqNo" : "37"
   },
   {
      "GoBack" : "1",
      "longitude" : "120.58095",
      "outDis" : "50",
      "Id" : "4124",
      "oid" : "10856",
      "districtId" : "1",
      "nameZh" : "頂六路",
      "pgp" : "0",
      "terminal" : "0",
      "latitude" : "24.21321",
      "inDis" : "50",
      "routeId" : "168",
      "seqNo" : "38"
   },
   {
      "GoBack" : "1",
      "longitude" : "120.5806",
      "outDis" : "50",
      "Id" : "4386",
      "oid" : "303569505",
      "districtId" : "1",
      "nameZh" : "弘光科技大學",
      "pgp" : "0",
      "terminal" : "0",
      "latitude" : "24.21742",
      "inDis" : "50",
      "routeId" : "168",
      "seqNo" : "39"
   },
   {
      "GoBack" : "1",
      "longitude" : "120.5794",
      "outDis" : "50",
      "Id" : "4111",
      "oid" : "17529",
      "districtId" : "1",
      "nameZh" : "晉江里",
      "pgp" : "0",
      "terminal" : "0",
      "latitude" : "24.2219",
      "inDis" : "50",
      "routeId" : "168",
      "seqNo" : "40"
   },
   {
      "GoBack" : "1",
      "longitude" : "120.57831",
      "outDis" : "50",
      "Id" : "4062",
      "oid" : "10695",
      "districtId" : "1",
      "nameZh" : "下晉江",
      "pgp" : "0",
      "terminal" : "0",
      "latitude" : "24.22334",
      "inDis" : "50",
      "routeId" : "168",
      "seqNo" : "41"
   },
   {
      "GoBack" : "1",
      "longitude" : "120.57681",
      "outDis" : "50",
      "Id" : "4147",
      "oid" : "10911",
      "districtId" : "1",
      "nameZh" : "靜宜大學",
      "pgp" : "0",
      "terminal" : "0",
      "latitude" : "24.22606",
      "inDis" : "50",
      "routeId" : "168",
      "seqNo" : "42"
   },
   {
      "GoBack" : "1",
      "longitude" : "120.57408",
      "outDis" : "100",
      "Id" : "4086",
      "oid" : "13454",
      "districtId" : "1",
      "nameZh" : "臺灣大道北勢路口",
      "pgp" : "0",
      "terminal" : "0",
      "latitude" : "24.2301",
      "inDis" : "50",
      "routeId" : "168",
      "seqNo" : "43"
   },
   {
      "GoBack" : "1",
      "longitude" : "120.57198",
      "outDis" : "100",
      "Id" : "4392",
      "oid" : "13510",
      "districtId" : "1",
      "nameZh" : "紅竹巷",
      "pgp" : "0",
      "terminal" : "0",
      "latitude" : "24.23325",
      "inDis" : "50",
      "routeId" : "168",
      "seqNo" : "44"
   },
   {
      "GoBack" : "1",
      "longitude" : "120.56918",
      "outDis" : "50",
      "Id" : "5221",
      "oid" : "310787748",
      "districtId" : "1",
      "nameZh" : "中山臺灣大道口",
      "pgp" : "0",
      "terminal" : "0",
      "latitude" : "24.2371",
      "inDis" : "50",
      "routeId" : "168",
      "seqNo" : "45"
   },
   {
      "GoBack" : "1",
      "longitude" : "120.56673",
      "outDis" : "50",
      "Id" : "5222",
      "oid" : "310787750",
      "districtId" : "1",
      "nameZh" : "中山鎮政路口",
      "pgp" : "0",
      "terminal" : "0",
      "latitude" : "24.23698",
      "inDis" : "50",
      "routeId" : "168",
      "seqNo" : "46"
   },
   {
      "GoBack" : "1",
      "longitude" : "120.56455",
      "outDis" : "50",
      "Id" : "4390",
      "oid" : "307279327",
      "districtId" : "1",
      "nameZh" : "沙鹿高工(中山路)",
      "pgp" : "0",
      "terminal" : "0",
      "latitude" : "24.23731",
      "inDis" : "50",
      "routeId" : "168",
      "seqNo" : "47"
   },
   {
      "GoBack" : "1",
      "longitude" : "120.56236",
      "outDis" : "50",
      "Id" : "2682",
      "oid" : "312574878",
      "districtId" : "1",
      "nameZh" : "洛泉里",
      "pgp" : "0",
      "terminal" : "0",
      "latitude" : "24.23768",
      "inDis" : "50",
      "routeId" : "168",
      "seqNo" : "48"
   },
   {
      "GoBack" : "1",
      "longitude" : "120.56106",
      "outDis" : "50",
      "Id" : "2248",
      "oid" : "10784",
      "districtId" : "1",
      "nameZh" : "沙鹿站",
      "pgp" : "0",
      "terminal" : "0",
      "latitude" : "24.23783",
      "inDis" : "50",
      "routeId" : "168",
      "seqNo" : "49"
   },
   {
      "GoBack" : "1",
      "longitude" : "120.56",
      "outDis" : "50",
      "Id" : "5135",
      "oid" : "14046",
      "districtId" : "1",
      "nameZh" : "第一銀行(沙鹿分行)",
      "pgp" : "0",
      "terminal" : "0",
      "latitude" : "24.23932",
      "inDis" : "50",
      "routeId" : "168",
      "seqNo" : "50"
   },
   {
      "GoBack" : "1",
      "longitude" : "120.56127",
      "outDis" : "50",
      "Id" : "5140",
      "oid" : "10581",
      "districtId" : "1",
      "nameZh" : "童綜合醫院(沙鹿院區)",
      "pgp" : "0",
      "terminal" : "0",
      "latitude" : "24.24245",
      "inDis" : "50",
      "routeId" : "168",
      "seqNo" : "51"
   },
   {
      "GoBack" : "1",
      "longitude" : "120.56221",
      "outDis" : "50",
      "Id" : "4042",
      "oid" : "10582",
      "districtId" : "1",
      "nameZh" : "文化莊",
      "pgp" : "0",
      "terminal" : "0",
      "latitude" : "24.24518",
      "inDis" : "50",
      "routeId" : "168",
      "seqNo" : "52"
   },
   {
      "GoBack" : "1",
      "longitude" : "120.56269",
      "outDis" : "50",
      "Id" : "4110",
      "oid" : "10819",
      "districtId" : "1",
      "nameZh" : "家扶中心",
      "pgp" : "0",
      "terminal" : "0",
      "latitude" : "24.24674",
      "inDis" : "50",
      "routeId" : "168",
      "seqNo" : "53"
   },
   {
      "GoBack" : "1",
      "longitude" : "120.56484",
      "outDis" : "50",
      "Id" : "5138",
      "oid" : "14049",
      "districtId" : "1",
      "nameZh" : "鹿寮成衣商圈",
      "pgp" : "0",
      "terminal" : "0",
      "latitude" : "24.2489",
      "inDis" : "50",
      "routeId" : "168",
      "seqNo" : "54"
   },
   {
      "GoBack" : "1",
      "longitude" : "120.56679",
      "outDis" : "50",
      "Id" : "4044",
      "oid" : "10584",
      "districtId" : "1",
      "nameZh" : "鹿寮",
      "pgp" : "0",
      "terminal" : "0",
      "latitude" : "24.25177",
      "inDis" : "50",
      "routeId" : "168",
      "seqNo" : "55"
   },
   {
      "GoBack" : "1",
      "longitude" : "120.56786",
      "outDis" : "50",
      "Id" : "5392",
      "oid" : "312897794",
      "districtId" : "1",
      "nameZh" : "中山長春路口",
      "pgp" : "0",
      "terminal" : "0",
      "latitude" : "24.2537",
      "inDis" : "50",
      "routeId" : "168",
      "seqNo" : "56"
   },
   {
      "GoBack" : "1",
      "longitude" : "120.56885",
      "outDis" : "50",
      "Id" : "4045",
      "oid" : "10585",
      "districtId" : "1",
      "nameZh" : "中峰",
      "pgp" : "0",
      "terminal" : "0",
      "latitude" : "24.25542",
      "inDis" : "50",
      "routeId" : "168",
      "seqNo" : "57"
   },
   {
      "GoBack" : "1",
      "longitude" : "120.57005",
      "outDis" : "50",
      "Id" : "4471",
      "oid" : "14052",
      "districtId" : "1",
      "nameZh" : "勞工育樂中心",
      "pgp" : "0",
      "terminal" : "0",
      "latitude" : "24.25766",
      "inDis" : "50",
      "routeId" : "168",
      "seqNo" : "58"
   },
   {
      "GoBack" : "1",
      "longitude" : "120.57075",
      "outDis" : "50",
      "Id" : "4129",
      "oid" : "10864",
      "districtId" : "1",
      "nameZh" : "鹿峰里",
      "pgp" : "0",
      "terminal" : "0",
      "latitude" : "24.25885",
      "inDis" : "50",
      "routeId" : "168",
      "seqNo" : "59"
   },
   {
      "GoBack" : "1",
      "longitude" : "120.5714",
      "outDis" : "50",
      "Id" : "4441",
      "oid" : "307275657",
      "districtId" : "1",
      "nameZh" : "中山星河路口",
      "pgp" : "0",
      "terminal" : "0",
      "latitude" : "24.25997",
      "inDis" : "50",
      "routeId" : "168",
      "seqNo" : "60"
   },
   {
      "GoBack" : "1",
      "longitude" : "120.57262",
      "outDis" : "50",
      "Id" : "4121",
      "oid" : "2291",
      "districtId" : "1",
      "nameZh" : "清水電信局",
      "pgp" : "0",
      "terminal" : "0",
      "latitude" : "24.26214",
      "inDis" : "50",
      "routeId" : "168",
      "seqNo" : "61"
   },
   {
      "GoBack" : "1",
      "longitude" : "120.5743",
      "outDis" : "50",
      "Id" : "4119",
      "oid" : "10845",
      "districtId" : "1",
      "nameZh" : "清水高中",
      "pgp" : "0",
      "terminal" : "0",
      "latitude" : "24.26588",
      "inDis" : "50",
      "routeId" : "168",
      "seqNo" : "62"
   },
   {
      "GoBack" : "1",
      "longitude" : "120.57516",
      "outDis" : "50",
      "Id" : "5141",
      "oid" : "14057",
      "districtId" : "1",
      "nameZh" : "華南銀行(清水分行)",
      "pgp" : "0",
      "terminal" : "0",
      "latitude" : "24.2683",
      "inDis" : "50",
      "routeId" : "168",
      "seqNo" : "63"
   },
   {
      "GoBack" : "1",
      "longitude" : "120.57594",
      "outDis" : "50",
      "Id" : "3013",
      "oid" : "10843",
      "districtId" : "1",
      "nameZh" : "清水",
      "pgp" : "0",
      "terminal" : "0",
      "latitude" : "24.2703",
      "inDis" : "50",
      "routeId" : "168",
      "seqNo" : "64"
   },
   {
      "GoBack" : "1",
      "longitude" : "120.57687",
      "outDis" : "50",
      "Id" : "4521",
      "oid" : "305513525",
      "districtId" : "1",
      "nameZh" : "中山董公街口",
      "pgp" : "0",
      "terminal" : "0",
      "latitude" : "24.27284",
      "inDis" : "50",
      "routeId" : "168",
      "seqNo" : "65"
   },
   {
      "GoBack" : "1",
      "longitude" : "120.57725",
      "outDis" : "50",
      "Id" : "4442",
      "oid" : "10830",
      "districtId" : "1",
      "nameZh" : "中山高美路口",
      "pgp" : "0",
      "terminal" : "0",
      "latitude" : "24.27461",
      "inDis" : "50",
      "routeId" : "168",
      "seqNo" : "66"
   },
   {
      "GoBack" : "1",
      "longitude" : "120.57983",
      "outDis" : "50",
      "Id" : "4065",
      "oid" : "10699",
      "districtId" : "1",
      "nameZh" : "下湳加油站",
      "pgp" : "0",
      "terminal" : "0",
      "latitude" : "24.27912",
      "inDis" : "50",
      "routeId" : "168",
      "seqNo" : "67"
   },
   {
      "GoBack" : "1",
      "longitude" : "120.5807",
      "outDis" : "50",
      "Id" : "4130",
      "oid" : "10870",
      "districtId" : "1",
      "nameZh" : "朝興宮",
      "pgp" : "0",
      "terminal" : "0",
      "latitude" : "24.28013",
      "inDis" : "50",
      "routeId" : "168",
      "seqNo" : "68"
   },
   {
      "GoBack" : "1",
      "longitude" : "120.58299",
      "outDis" : "50",
      "Id" : "4063",
      "oid" : "10697",
      "districtId" : "1",
      "nameZh" : "下湳子",
      "pgp" : "0",
      "terminal" : "0",
      "latitude" : "24.28316",
      "inDis" : "50",
      "routeId" : "168",
      "seqNo" : "69"
   },
   {
      "GoBack" : "1",
      "longitude" : "120.58569",
      "outDis" : "50",
      "Id" : "4058",
      "oid" : "10688",
      "districtId" : "1",
      "nameZh" : "三田國小",
      "pgp" : "0",
      "terminal" : "0",
      "latitude" : "24.2878",
      "inDis" : "50",
      "routeId" : "168",
      "seqNo" : "70"
   },
   {
      "GoBack" : "1",
      "longitude" : "120.58698",
      "outDis" : "50",
      "Id" : "4139",
      "oid" : "10893",
      "districtId" : "1",
      "nameZh" : "福元批發",
      "pgp" : "0",
      "terminal" : "0",
      "latitude" : "24.29013",
      "inDis" : "50",
      "routeId" : "168",
      "seqNo" : "71"
   },
   {
      "GoBack" : "1",
      "longitude" : "120.58798",
      "outDis" : "50",
      "Id" : "4127",
      "oid" : "10861",
      "districtId" : "1",
      "nameZh" : "頂湳子",
      "pgp" : "0",
      "terminal" : "0",
      "latitude" : "24.29194",
      "inDis" : "50",
      "routeId" : "168",
      "seqNo" : "72"
   },
   {
      "GoBack" : "1",
      "longitude" : "120.59118",
      "outDis" : "50",
      "Id" : "4150",
      "oid" : "10917",
      "districtId" : "1",
      "nameZh" : "轉播站",
      "pgp" : "0",
      "terminal" : "0",
      "latitude" : "24.29611",
      "inDis" : "50",
      "routeId" : "168",
      "seqNo" : "73"
   },
   {
      "GoBack" : "1",
      "longitude" : "120.59315",
      "outDis" : "50",
      "Id" : "4144",
      "oid" : "10903",
      "districtId" : "1",
      "nameZh" : "震陽工廠",
      "pgp" : "0",
      "terminal" : "0",
      "latitude" : "24.29807",
      "inDis" : "50",
      "routeId" : "168",
      "seqNo" : "74"
   },
   {
      "GoBack" : "1",
      "longitude" : "120.59554",
      "outDis" : "50",
      "Id" : "4134",
      "oid" : "10881",
      "districtId" : "1",
      "nameZh" : "菁埔里",
      "pgp" : "0",
      "terminal" : "0",
      "latitude" : "24.30063",
      "inDis" : "50",
      "routeId" : "168",
      "seqNo" : "75"
   },
   {
      "GoBack" : "1",
      "longitude" : "120.60074",
      "outDis" : "50",
      "Id" : "1993",
      "oid" : "10765",
      "districtId" : "1",
      "nameZh" : "甲南",
      "pgp" : "0",
      "terminal" : "0",
      "latitude" : "24.30368",
      "inDis" : "50",
      "routeId" : "168",
      "seqNo" : "76"
   },
   {
      "GoBack" : "1",
      "longitude" : "120.60333",
      "outDis" : "50",
      "Id" : "4071",
      "oid" : "10707",
      "districtId" : "1",
      "nameZh" : "大甲溪橋",
      "pgp" : "0",
      "terminal" : "0",
      "latitude" : "24.31046",
      "inDis" : "50",
      "routeId" : "168",
      "seqNo" : "77"
   },
   {
      "GoBack" : "1",
      "longitude" : "120.60744",
      "outDis" : "50",
      "Id" : "1705",
      "oid" : "10748",
      "districtId" : "1",
      "nameZh" : "水汴頭",
      "pgp" : "0",
      "terminal" : "0",
      "latitude" : "24.32384",
      "inDis" : "50",
      "routeId" : "168",
      "seqNo" : "78"
   },
   {
      "GoBack" : "1",
      "longitude" : "120.61307",
      "outDis" : "50",
      "Id" : "4133",
      "oid" : "312321236",
      "districtId" : "1",
      "nameZh" : "番子寮",
      "pgp" : "0",
      "terminal" : "0",
      "latitude" : "24.33204",
      "inDis" : "50",
      "routeId" : "168",
      "seqNo" : "79"
   },
   {
      "GoBack" : "1",
      "longitude" : "120.61743",
      "outDis" : "50",
      "Id" : "1859",
      "oid" : "10760",
      "districtId" : "1",
      "nameZh" : "外水尾",
      "pgp" : "0",
      "terminal" : "0",
      "latitude" : "24.3376",
      "inDis" : "50",
      "routeId" : "168",
      "seqNo" : "80"
   },
   {
      "GoBack" : "1",
      "longitude" : "120.61874",
      "outDis" : "50",
      "Id" : "5693",
      "oid" : "319916595",
      "districtId" : "1",
      "nameZh" : "水尾橋 ",
      "pgp" : "0",
      "terminal" : "0",
      "latitude" : "24.33972",
      "inDis" : "50",
      "routeId" : "168",
      "seqNo" : "81"
   },
   {
      "GoBack" : "1",
      "longitude" : "120.62143",
      "outDis" : "50",
      "Id" : "5048",
      "oid" : "309863798",
      "districtId" : "1",
      "nameZh" : "大甲高中(中山路)",
      "pgp" : "0",
      "terminal" : "0",
      "latitude" : "24.34212",
      "inDis" : "50",
      "routeId" : "168",
      "seqNo" : "82"
   },
   {
      "GoBack" : "1",
      "longitude" : "120.62445",
      "outDis" : "50",
      "Id" : "2609",
      "oid" : "14073",
      "districtId" : "1",
      "nameZh" : "南陽里",
      "pgp" : "0",
      "terminal" : "0",
      "latitude" : "24.34284",
      "inDis" : "50",
      "routeId" : "168",
      "seqNo" : "83"
   },
   {
      "GoBack" : "1",
      "longitude" : "120.62547",
      "outDis" : "150",
      "Id" : "4067",
      "oid" : "10703",
      "districtId" : "1",
      "nameZh" : "大甲站",
      "pgp" : "0",
      "terminal" : "0",
      "latitude" : "24.34377",
      "inDis" : "150",
      "routeId" : "168",
      "seqNo" : "84"
   },
   {
      "GoBack" : "2",
      "longitude" : "120.62547",
      "outDis" : "150",
      "Id" : "4067",
      "oid" : "10703",
      "districtId" : "1",
      "nameZh" : "大甲站",
      "pgp" : "0",
      "terminal" : "0",
      "latitude" : "24.34377",
      "inDis" : "150",
      "routeId" : "168",
      "seqNo" : "1"
   },
   {
      "GoBack" : "2",
      "longitude" : "120.6217",
      "outDis" : "50",
      "Id" : "2589",
      "oid" : "5995",
      "districtId" : "1",
      "nameZh" : "南門",
      "pgp" : "0",
      "terminal" : "0",
      "latitude" : "24.34371",
      "inDis" : "50",
      "routeId" : "168",
      "seqNo" : "2"
   },
   {
      "GoBack" : "2",
      "longitude" : "120.62034",
      "outDis" : "50",
      "Id" : "5361",
      "oid" : "311776166",
      "districtId" : "1",
      "nameZh" : "大甲高中(順天路)",
      "pgp" : "0",
      "terminal" : "0",
      "latitude" : "24.34218",
      "inDis" : "50",
      "routeId" : "168",
      "seqNo" : "3"
   },
   {
      "GoBack" : "2",
      "longitude" : "120.61874",
      "outDis" : "50",
      "Id" : "5693",
      "oid" : "319916595",
      "districtId" : "1",
      "nameZh" : "水尾橋 ",
      "pgp" : "0",
      "terminal" : "0",
      "latitude" : "24.33972",
      "inDis" : "50",
      "routeId" : "168",
      "seqNo" : "4"
   },
   {
      "GoBack" : "2",
      "longitude" : "120.61727",
      "outDis" : "50",
      "Id" : "1859",
      "oid" : "14071",
      "districtId" : "1",
      "nameZh" : "外水尾",
      "pgp" : "0",
      "terminal" : "0",
      "latitude" : "24.33744",
      "inDis" : "50",
      "routeId" : "168",
      "seqNo" : "5"
   },
   {
      "GoBack" : "2",
      "longitude" : "120.61307",
      "outDis" : "50",
      "Id" : "4133",
      "oid" : "312321236",
      "districtId" : "1",
      "nameZh" : "番子寮",
      "pgp" : "0",
      "terminal" : "0",
      "latitude" : "24.33204",
      "inDis" : "50",
      "routeId" : "168",
      "seqNo" : "6"
   },
   {
      "GoBack" : "2",
      "longitude" : "120.60862",
      "outDis" : "50",
      "Id" : "1705",
      "oid" : "14069",
      "districtId" : "1",
      "nameZh" : "水汴頭",
      "pgp" : "0",
      "terminal" : "0",
      "latitude" : "24.32719",
      "inDis" : "50",
      "routeId" : "168",
      "seqNo" : "7"
   },
   {
      "GoBack" : "2",
      "longitude" : "120.60333",
      "outDis" : "50",
      "Id" : "4071",
      "oid" : "10707",
      "districtId" : "1",
      "nameZh" : "大甲溪橋",
      "pgp" : "0",
      "terminal" : "0",
      "latitude" : "24.31046",
      "inDis" : "50",
      "routeId" : "168",
      "seqNo" : "8"
   },
   {
      "GoBack" : "2",
      "longitude" : "120.60111",
      "outDis" : "50",
      "Id" : "1993",
      "oid" : "14068",
      "districtId" : "1",
      "nameZh" : "甲南",
      "pgp" : "0",
      "terminal" : "0",
      "latitude" : "24.30457",
      "inDis" : "50",
      "routeId" : "168",
      "seqNo" : "9"
   },
   {
      "GoBack" : "2",
      "longitude" : "120.59516",
      "outDis" : "50",
      "Id" : "4134",
      "oid" : "14067",
      "districtId" : "1",
      "nameZh" : "菁埔里",
      "pgp" : "0",
      "terminal" : "0",
      "latitude" : "24.30035",
      "inDis" : "50",
      "routeId" : "168",
      "seqNo" : "10"
   },
   {
      "GoBack" : "2",
      "longitude" : "120.59332",
      "outDis" : "50",
      "Id" : "4144",
      "oid" : "14066",
      "districtId" : "1",
      "nameZh" : "震陽工廠",
      "pgp" : "0",
      "terminal" : "0",
      "latitude" : "24.29818",
      "inDis" : "50",
      "routeId" : "168",
      "seqNo" : "11"
   },
   {
      "GoBack" : "2",
      "longitude" : "120.59085",
      "outDis" : "50",
      "Id" : "4150",
      "oid" : "311533638",
      "districtId" : "1",
      "nameZh" : "轉播站",
      "pgp" : "0",
      "terminal" : "0",
      "latitude" : "24.29606",
      "inDis" : "50",
      "routeId" : "168",
      "seqNo" : "12"
   },
   {
      "GoBack" : "2",
      "longitude" : "120.58815",
      "outDis" : "50",
      "Id" : "4127",
      "oid" : "14064",
      "districtId" : "1",
      "nameZh" : "頂湳子",
      "pgp" : "0",
      "terminal" : "0",
      "latitude" : "24.29256",
      "inDis" : "50",
      "routeId" : "168",
      "seqNo" : "13"
   },
   {
      "GoBack" : "2",
      "longitude" : "120.58698",
      "outDis" : "50",
      "Id" : "4139",
      "oid" : "10893",
      "districtId" : "1",
      "nameZh" : "福元批發",
      "pgp" : "0",
      "terminal" : "0",
      "latitude" : "24.29013",
      "inDis" : "50",
      "routeId" : "168",
      "seqNo" : "14"
   },
   {
      "GoBack" : "2",
      "longitude" : "120.58574",
      "outDis" : "50",
      "Id" : "4058",
      "oid" : "14063",
      "districtId" : "1",
      "nameZh" : "三田國小",
      "pgp" : "0",
      "terminal" : "0",
      "latitude" : "24.2882",
      "inDis" : "50",
      "routeId" : "168",
      "seqNo" : "15"
   },
   {
      "GoBack" : "2",
      "longitude" : "120.58338",
      "outDis" : "50",
      "Id" : "4063",
      "oid" : "14062",
      "districtId" : "1",
      "nameZh" : "下湳子",
      "pgp" : "0",
      "terminal" : "0",
      "latitude" : "24.28403",
      "inDis" : "50",
      "routeId" : "168",
      "seqNo" : "16"
   },
   {
      "GoBack" : "2",
      "longitude" : "120.5806",
      "outDis" : "50",
      "Id" : "4130",
      "oid" : "14061",
      "districtId" : "1",
      "nameZh" : "朝興宮",
      "pgp" : "0",
      "terminal" : "0",
      "latitude" : "24.28013",
      "inDis" : "50",
      "routeId" : "168",
      "seqNo" : "17"
   },
   {
      "GoBack" : "2",
      "longitude" : "120.57858",
      "outDis" : "50",
      "Id" : "4065",
      "oid" : "14060",
      "districtId" : "1",
      "nameZh" : "下湳加油站",
      "pgp" : "0",
      "terminal" : "0",
      "latitude" : "24.2778",
      "inDis" : "50",
      "routeId" : "168",
      "seqNo" : "18"
   },
   {
      "GoBack" : "2",
      "longitude" : "120.57725",
      "outDis" : "50",
      "Id" : "4442",
      "oid" : "10830",
      "districtId" : "1",
      "nameZh" : "中山高美路口",
      "pgp" : "0",
      "terminal" : "0",
      "latitude" : "24.27461",
      "inDis" : "50",
      "routeId" : "168",
      "seqNo" : "19"
   },
   {
      "GoBack" : "2",
      "longitude" : "120.57712",
      "outDis" : "50",
      "Id" : "4521",
      "oid" : "305513527",
      "districtId" : "1",
      "nameZh" : "中山董公街口",
      "pgp" : "0",
      "terminal" : "0",
      "latitude" : "24.2732",
      "inDis" : "50",
      "routeId" : "168",
      "seqNo" : "20"
   },
   {
      "GoBack" : "2",
      "longitude" : "120.57594",
      "outDis" : "50",
      "Id" : "3013",
      "oid" : "10843",
      "districtId" : "1",
      "nameZh" : "清水",
      "pgp" : "0",
      "terminal" : "0",
      "latitude" : "24.2703",
      "inDis" : "50",
      "routeId" : "168",
      "seqNo" : "21"
   },
   {
      "GoBack" : "2",
      "longitude" : "120.57516",
      "outDis" : "50",
      "Id" : "5141",
      "oid" : "14057",
      "districtId" : "1",
      "nameZh" : "華南銀行(清水分行)",
      "pgp" : "0",
      "terminal" : "0",
      "latitude" : "24.2683",
      "inDis" : "50",
      "routeId" : "168",
      "seqNo" : "22"
   },
   {
      "GoBack" : "2",
      "longitude" : "120.57435",
      "outDis" : "50",
      "Id" : "4119",
      "oid" : "13526",
      "districtId" : "1",
      "nameZh" : "清水高中",
      "pgp" : "0",
      "terminal" : "0",
      "latitude" : "24.2661",
      "inDis" : "50",
      "routeId" : "168",
      "seqNo" : "23"
   },
   {
      "GoBack" : "2",
      "longitude" : "120.57262",
      "outDis" : "50",
      "Id" : "4121",
      "oid" : "2186",
      "districtId" : "1",
      "nameZh" : "清水電信局",
      "pgp" : "0",
      "terminal" : "0",
      "latitude" : "24.26214",
      "inDis" : "50",
      "routeId" : "168",
      "seqNo" : "24"
   },
   {
      "GoBack" : "2",
      "longitude" : "120.5714",
      "outDis" : "50",
      "Id" : "4441",
      "oid" : "307275658",
      "districtId" : "1",
      "nameZh" : "中山星河路口",
      "pgp" : "0",
      "terminal" : "0",
      "latitude" : "24.25997",
      "inDis" : "50",
      "routeId" : "168",
      "seqNo" : "25"
   },
   {
      "GoBack" : "2",
      "longitude" : "120.57075",
      "outDis" : "50",
      "Id" : "4129",
      "oid" : "2188",
      "districtId" : "1",
      "nameZh" : "鹿峰里",
      "pgp" : "0",
      "terminal" : "0",
      "latitude" : "24.25885",
      "inDis" : "50",
      "routeId" : "168",
      "seqNo" : "26"
   },
   {
      "GoBack" : "2",
      "longitude" : "120.57005",
      "outDis" : "50",
      "Id" : "4471",
      "oid" : "14052",
      "districtId" : "1",
      "nameZh" : "勞工育樂中心",
      "pgp" : "0",
      "terminal" : "0",
      "latitude" : "24.25766",
      "inDis" : "50",
      "routeId" : "168",
      "seqNo" : "27"
   },
   {
      "GoBack" : "2",
      "longitude" : "120.56873",
      "outDis" : "50",
      "Id" : "4045",
      "oid" : "10725",
      "districtId" : "1",
      "nameZh" : "中峰",
      "pgp" : "0",
      "terminal" : "0",
      "latitude" : "24.25538",
      "inDis" : "50",
      "routeId" : "168",
      "seqNo" : "28"
   },
   {
      "GoBack" : "2",
      "longitude" : "120.56786",
      "outDis" : "50",
      "Id" : "5392",
      "oid" : "312897794",
      "districtId" : "1",
      "nameZh" : "中山長春路口",
      "pgp" : "0",
      "terminal" : "0",
      "latitude" : "24.2537",
      "inDis" : "50",
      "routeId" : "168",
      "seqNo" : "29"
   },
   {
      "GoBack" : "2",
      "longitude" : "120.56624",
      "outDis" : "50",
      "Id" : "4044",
      "oid" : "10865",
      "districtId" : "1",
      "nameZh" : "鹿寮",
      "pgp" : "0",
      "terminal" : "0",
      "latitude" : "24.2507",
      "inDis" : "50",
      "routeId" : "168",
      "seqNo" : "30"
   },
   {
      "GoBack" : "2",
      "longitude" : "120.56484",
      "outDis" : "50",
      "Id" : "5138",
      "oid" : "14049",
      "districtId" : "1",
      "nameZh" : "鹿寮成衣商圈",
      "pgp" : "0",
      "terminal" : "0",
      "latitude" : "24.2489",
      "inDis" : "50",
      "routeId" : "168",
      "seqNo" : "31"
   },
   {
      "GoBack" : "2",
      "longitude" : "120.56269",
      "outDis" : "50",
      "Id" : "4110",
      "oid" : "10819",
      "districtId" : "1",
      "nameZh" : "家扶中心",
      "pgp" : "0",
      "terminal" : "0",
      "latitude" : "24.24674",
      "inDis" : "50",
      "routeId" : "168",
      "seqNo" : "32"
   },
   {
      "GoBack" : "2",
      "longitude" : "120.56221",
      "outDis" : "50",
      "Id" : "4042",
      "oid" : "14048",
      "districtId" : "1",
      "nameZh" : "文化莊",
      "pgp" : "0",
      "terminal" : "0",
      "latitude" : "24.24518",
      "inDis" : "50",
      "routeId" : "168",
      "seqNo" : "33"
   },
   {
      "GoBack" : "2",
      "longitude" : "120.56127",
      "outDis" : "50",
      "Id" : "5140",
      "oid" : "14047",
      "districtId" : "1",
      "nameZh" : "童綜合醫院(沙鹿院區)",
      "pgp" : "0",
      "terminal" : "0",
      "latitude" : "24.24245",
      "inDis" : "50",
      "routeId" : "168",
      "seqNo" : "34"
   },
   {
      "GoBack" : "2",
      "longitude" : "120.56",
      "outDis" : "50",
      "Id" : "5135",
      "oid" : "14046",
      "districtId" : "1",
      "nameZh" : "第一銀行(沙鹿分行)",
      "pgp" : "0",
      "terminal" : "0",
      "latitude" : "24.23932",
      "inDis" : "50",
      "routeId" : "168",
      "seqNo" : "35"
   },
   {
      "GoBack" : "2",
      "longitude" : "120.56103",
      "outDis" : "50",
      "Id" : "2248",
      "oid" : "7094",
      "districtId" : "1",
      "nameZh" : "沙鹿站",
      "pgp" : "0",
      "terminal" : "0",
      "latitude" : "24.23783",
      "inDis" : "50",
      "routeId" : "168",
      "seqNo" : "36"
   },
   {
      "GoBack" : "2",
      "longitude" : "120.56346",
      "outDis" : "50",
      "Id" : "2335",
      "oid" : "13498",
      "districtId" : "1",
      "nameZh" : "居仁里",
      "pgp" : "0",
      "terminal" : "0",
      "latitude" : "24.24007",
      "inDis" : "50",
      "routeId" : "168",
      "seqNo" : "37"
   },
   {
      "GoBack" : "2",
      "longitude" : "120.56531",
      "outDis" : "50",
      "Id" : "0005",
      "oid" : "307275656",
      "districtId" : "1",
      "nameZh" : "沙鹿高工(臺灣大道)",
      "pgp" : "0",
      "terminal" : "0",
      "latitude" : "24.23922",
      "inDis" : "50",
      "routeId" : "168",
      "seqNo" : "38"
   },
   {
      "GoBack" : "2",
      "longitude" : "120.56774",
      "outDis" : "50",
      "Id" : "2147",
      "oid" : "13487",
      "districtId" : "1",
      "nameZh" : "竹林國小",
      "pgp" : "0",
      "terminal" : "0",
      "latitude" : "24.23847",
      "inDis" : "50",
      "routeId" : "168",
      "seqNo" : "39"
   },
   {
      "GoBack" : "2",
      "longitude" : "120.57012",
      "outDis" : "100",
      "Id" : "4389",
      "oid" : "13484",
      "districtId" : "1",
      "nameZh" : "竹林里",
      "pgp" : "0",
      "terminal" : "0",
      "latitude" : "24.23617",
      "inDis" : "50",
      "routeId" : "168",
      "seqNo" : "40"
   },
   {
      "GoBack" : "2",
      "longitude" : "120.57197",
      "outDis" : "50",
      "Id" : "4392",
      "oid" : "13511",
      "districtId" : "1",
      "nameZh" : "紅竹巷",
      "pgp" : "0",
      "terminal" : "0",
      "latitude" : "24.23331",
      "inDis" : "50",
      "routeId" : "168",
      "seqNo" : "41"
   },
   {
      "GoBack" : "2",
      "longitude" : "120.57396",
      "outDis" : "50",
      "Id" : "4086",
      "oid" : "13455",
      "districtId" : "1",
      "nameZh" : "臺灣大道北勢路口",
      "pgp" : "0",
      "terminal" : "0",
      "latitude" : "24.23011",
      "inDis" : "50",
      "routeId" : "168",
      "seqNo" : "42"
   },
   {
      "GoBack" : "2",
      "longitude" : "120.5771",
      "outDis" : "50",
      "Id" : "4147",
      "oid" : "17531",
      "districtId" : "1",
      "nameZh" : "靜宜大學",
      "pgp" : "0",
      "terminal" : "0",
      "latitude" : "24.22495",
      "inDis" : "50",
      "routeId" : "168",
      "seqNo" : "43"
   },
   {
      "GoBack" : "2",
      "longitude" : "120.57834",
      "outDis" : "50",
      "Id" : "4062",
      "oid" : "13416",
      "districtId" : "1",
      "nameZh" : "下晉江",
      "pgp" : "0",
      "terminal" : "0",
      "latitude" : "24.22331",
      "inDis" : "50",
      "routeId" : "168",
      "seqNo" : "44"
   },
   {
      "GoBack" : "2",
      "longitude" : "120.57949",
      "outDis" : "50",
      "Id" : "4111",
      "oid" : "2271",
      "districtId" : "1",
      "nameZh" : "晉江里",
      "pgp" : "0",
      "terminal" : "0",
      "latitude" : "24.22098",
      "inDis" : "50",
      "routeId" : "168",
      "seqNo" : "45"
   },
   {
      "GoBack" : "2",
      "longitude" : "120.58052",
      "outDis" : "50",
      "Id" : "4386",
      "oid" : "303569506",
      "districtId" : "1",
      "nameZh" : "弘光科技大學",
      "pgp" : "0",
      "terminal" : "0",
      "latitude" : "24.21645",
      "inDis" : "50",
      "routeId" : "168",
      "seqNo" : "46"
   },
   {
      "GoBack" : "2",
      "longitude" : "120.58096",
      "outDis" : "50",
      "Id" : "4124",
      "oid" : "13535",
      "districtId" : "1",
      "nameZh" : "頂六路",
      "pgp" : "0",
      "terminal" : "0",
      "latitude" : "24.21314",
      "inDis" : "50",
      "routeId" : "168",
      "seqNo" : "47"
   },
   {
      "GoBack" : "2",
      "longitude" : "120.58123",
      "outDis" : "50",
      "Id" : "4136",
      "oid" : "17526",
      "districtId" : "1",
      "nameZh" : "祿清宮",
      "pgp" : "0",
      "terminal" : "0",
      "latitude" : "24.20914",
      "inDis" : "50",
      "routeId" : "168",
      "seqNo" : "48"
   },
   {
      "GoBack" : "2",
      "longitude" : "120.58065",
      "outDis" : "50",
      "Id" : "4388",
      "oid" : "13482",
      "districtId" : "1",
      "nameZh" : "后厝仔",
      "pgp" : "0",
      "terminal" : "0",
      "latitude" : "24.19911",
      "inDis" : "50",
      "routeId" : "168",
      "seqNo" : "49"
   },
   {
      "GoBack" : "2",
      "longitude" : "120.5829",
      "outDis" : "50",
      "Id" : "4061",
      "oid" : "13413",
      "districtId" : "1",
      "nameZh" : "下坪頂",
      "pgp" : "0",
      "terminal" : "0",
      "latitude" : "24.18729",
      "inDis" : "50",
      "routeId" : "168",
      "seqNo" : "50"
   },
   {
      "GoBack" : "2",
      "longitude" : "120.58613",
      "outDis" : "50",
      "Id" : "2325",
      "oid" : "17580",
      "districtId" : "1",
      "nameZh" : "坪頂",
      "pgp" : "0",
      "terminal" : "0",
      "latitude" : "24.1858",
      "inDis" : "50",
      "routeId" : "168",
      "seqNo" : "51"
   },
   {
      "GoBack" : "2",
      "longitude" : "120.58816",
      "outDis" : "50",
      "Id" : "5304",
      "oid" : "311454628",
      "districtId" : "1",
      "nameZh" : "東海街口",
      "pgp" : "0",
      "terminal" : "0",
      "latitude" : "24.18523",
      "inDis" : "50",
      "routeId" : "168",
      "seqNo" : "52"
   },
   {
      "GoBack" : "2",
      "longitude" : "120.59125",
      "outDis" : "50",
      "Id" : "4383",
      "oid" : "13471",
      "districtId" : "1",
      "nameZh" : "臺糖公營學苑",
      "pgp" : "0",
      "terminal" : "0",
      "latitude" : "24.18367",
      "inDis" : "50",
      "routeId" : "168",
      "seqNo" : "53"
   },
   {
      "GoBack" : "2",
      "longitude" : "120.5944",
      "outDis" : "50",
      "Id" : "0240",
      "oid" : "6FD5154F91294ADB99F4EB4273B3DE03",
      "districtId" : "1",
      "nameZh" : "東海別墅",
      "pgp" : "0",
      "terminal" : "0",
      "latitude" : "24.1823",
      "inDis" : "50",
      "routeId" : "168",
      "seqNo" : "54"
   },
   {
      "GoBack" : "2",
      "longitude" : "120.59727",
      "outDis" : "50",
      "Id" : "0526",
      "oid" : "196408D1781744E4BC5250C321950E9F",
      "districtId" : "1",
      "nameZh" : "台中精機",
      "pgp" : "0",
      "terminal" : "0",
      "latitude" : "24.18184",
      "inDis" : "50",
      "routeId" : "168",
      "seqNo" : "55"
   },
   {
      "GoBack" : "2",
      "longitude" : "120.60491",
      "outDis" : "50",
      "Id" : "5386",
      "oid" : "17368",
      "districtId" : "1",
      "nameZh" : "臺中榮總(臺灣大道)",
      "pgp" : "0",
      "terminal" : "0",
      "latitude" : "24.18349",
      "inDis" : "50",
      "routeId" : "168",
      "seqNo" : "56"
   },
   {
      "GoBack" : "2",
      "longitude" : "120.6066",
      "outDis" : "50",
      "Id" : "2378",
      "oid" : "11197",
      "districtId" : "1",
      "nameZh" : "東大附中",
      "pgp" : "0",
      "terminal" : "0",
      "latitude" : "24.18386",
      "inDis" : "50",
      "routeId" : "168",
      "seqNo" : "57"
   },
   {
      "GoBack" : "2",
      "longitude" : "120.60849",
      "outDis" : "50",
      "Id" : "0004",
      "oid" : "11207",
      "districtId" : "1",
      "nameZh" : "普濟寺",
      "pgp" : "0",
      "terminal" : "0",
      "latitude" : "24.18433",
      "inDis" : "50",
      "routeId" : "168",
      "seqNo" : "58"
   },
   {
      "GoBack" : "2",
      "longitude" : "120.6109",
      "outDis" : "50",
      "Id" : "4335",
      "oid" : "17365",
      "districtId" : "1",
      "nameZh" : "臺灣大道玉門路口",
      "pgp" : "0",
      "terminal" : "0",
      "latitude" : "24.1847",
      "inDis" : "50",
      "routeId" : "168",
      "seqNo" : "59"
   },
   {
      "GoBack" : "2",
      "longitude" : "120.61256",
      "outDis" : "50",
      "Id" : "0006",
      "oid" : "7F79195D36164415A5AFC2460CB6C55C",
      "districtId" : "1",
      "nameZh" : "臺中捐血中心",
      "pgp" : "0",
      "terminal" : "0",
      "latitude" : "24.18411",
      "inDis" : "50",
      "routeId" : "168",
      "seqNo" : "60"
   },
   {
      "GoBack" : "2",
      "longitude" : "120.61581",
      "outDis" : "50",
      "Id" : "0430",
      "oid" : "12824",
      "districtId" : "1",
      "nameZh" : "中港澄清醫院",
      "pgp" : "0",
      "terminal" : "0",
      "latitude" : "24.18277",
      "inDis" : "50",
      "routeId" : "168",
      "seqNo" : "61"
   },
   {
      "GoBack" : "2",
      "longitude" : "120.6183",
      "outDis" : "50",
      "Id" : "0008",
      "oid" : "320062561",
      "districtId" : "1",
      "nameZh" : "中港新城",
      "pgp" : "0",
      "terminal" : "0",
      "latitude" : "24.18145",
      "inDis" : "50",
      "routeId" : "168",
      "seqNo" : "62"
   },
   {
      "GoBack" : "2",
      "longitude" : "120.62067",
      "outDis" : "50",
      "Id" : "3060",
      "oid" : "0FAC9CB4208D4C3D832BB108B18EA4A1",
      "districtId" : "1",
      "nameZh" : "統聯轉運站",
      "pgp" : "0",
      "terminal" : "0",
      "latitude" : "24.18029",
      "inDis" : "50",
      "routeId" : "168",
      "seqNo" : "63"
   },
   {
      "GoBack" : "2",
      "longitude" : "120.62374",
      "outDis" : "50",
      "Id" : "5149",
      "oid" : "319908747",
      "districtId" : "1",
      "nameZh" : "福安里(臺灣大道)",
      "pgp" : "0",
      "terminal" : "0",
      "latitude" : "24.1787",
      "inDis" : "50",
      "routeId" : "168",
      "seqNo" : "64"
   },
   {
      "GoBack" : "2",
      "longitude" : "120.63717",
      "outDis" : "50",
      "Id" : "0054",
      "oid" : "313524993",
      "districtId" : "1",
      "nameZh" : "朝馬(臺灣大道)",
      "pgp" : "0",
      "terminal" : "0",
      "latitude" : "24.17059",
      "inDis" : "50",
      "routeId" : "168",
      "seqNo" : "65"
   },
   {
      "GoBack" : "2",
      "longitude" : "120.63965",
      "outDis" : "50",
      "Id" : "0826",
      "oid" : "13542",
      "districtId" : "1",
      "nameZh" : "秋紅谷(朝陽橋)",
      "pgp" : "0",
      "terminal" : "0",
      "latitude" : "24.16893",
      "inDis" : "50",
      "routeId" : "168",
      "seqNo" : "66"
   },
   {
      "GoBack" : "2",
      "longitude" : "120.64162",
      "outDis" : "50",
      "Id" : "0015",
      "oid" : "18E63C4373A546488BB3CAF71954432C",
      "districtId" : "1",
      "nameZh" : "教師新村",
      "pgp" : "0",
      "terminal" : "0",
      "latitude" : "24.16697",
      "inDis" : "50",
      "routeId" : "168",
      "seqNo" : "67"
   },
   {
      "GoBack" : "2",
      "longitude" : "120.64431",
      "outDis" : "50",
      "Id" : "0016",
      "oid" : "10346",
      "districtId" : "1",
      "nameZh" : "新光三越",
      "pgp" : "0",
      "terminal" : "0",
      "latitude" : "24.16548",
      "inDis" : "50",
      "routeId" : "168",
      "seqNo" : "68"
   },
   {
      "GoBack" : "2",
      "longitude" : "120.64815",
      "outDis" : "50",
      "Id" : "0017",
      "oid" : "0ECC7AB17243494A9560CEA934AA995E",
      "districtId" : "1",
      "nameZh" : "臺中市政府",
      "pgp" : "0",
      "terminal" : "0",
      "latitude" : "24.16344",
      "inDis" : "50",
      "routeId" : "168",
      "seqNo" : "69"
   },
   {
      "GoBack" : "2",
      "longitude" : "120.65027",
      "outDis" : "50",
      "Id" : "4564",
      "oid" : "107C08C491EB4043B4BDFC0F49EC622A",
      "districtId" : "1",
      "nameZh" : "臺灣大道文心路口",
      "pgp" : "0",
      "terminal" : "0",
      "latitude" : "24.16225",
      "inDis" : "50",
      "routeId" : "168",
      "seqNo" : "70"
   },
   {
      "GoBack" : "2",
      "longitude" : "120.65367",
      "outDis" : "50",
      "Id" : "4566",
      "oid" : "13491",
      "districtId" : "1",
      "nameZh" : "何厝(臺灣大道)",
      "pgp" : "0",
      "terminal" : "0",
      "latitude" : "24.16043",
      "inDis" : "50",
      "routeId" : "168",
      "seqNo" : "71"
   },
   {
      "GoBack" : "2",
      "longitude" : "120.6568",
      "outDis" : "50",
      "Id" : "4569",
      "oid" : "13539",
      "districtId" : "1",
      "nameZh" : "頂何厝(臺灣大道)",
      "pgp" : "0",
      "terminal" : "0",
      "latitude" : "24.15866",
      "inDis" : "50",
      "routeId" : "168",
      "seqNo" : "72"
   },
   {
      "GoBack" : "2",
      "longitude" : "120.65868",
      "outDis" : "50",
      "Id" : "0087",
      "oid" : "059B6F87232D4BF0A51716060B6B986C",
      "districtId" : "1",
      "nameZh" : "忠明國小",
      "pgp" : "0",
      "terminal" : "0",
      "latitude" : "24.15791",
      "inDis" : "50",
      "routeId" : "168",
      "seqNo" : "73"
   },
   {
      "GoBack" : "2",
      "longitude" : "120.66313",
      "outDis" : "50",
      "Id" : "0320",
      "oid" : "319472665",
      "districtId" : "1",
      "nameZh" : "科學博物館(臺灣大道)",
      "pgp" : "0",
      "terminal" : "0",
      "latitude" : "24.1552",
      "inDis" : "50",
      "routeId" : "168",
      "seqNo" : "74"
   },
   {
      "GoBack" : "2",
      "longitude" : "120.66537",
      "outDis" : "50",
      "Id" : "0419",
      "oid" : "315867757",
      "districtId" : "1",
      "nameZh" : "中正國小",
      "pgp" : "0",
      "terminal" : "0",
      "latitude" : "24.15399",
      "inDis" : "50",
      "routeId" : "168",
      "seqNo" : "75"
   },
   {
      "GoBack" : "2",
      "longitude" : "120.6692",
      "outDis" : "50",
      "Id" : "4619",
      "oid" : "13437",
      "districtId" : "1",
      "nameZh" : "臺灣大道民權路口",
      "pgp" : "0",
      "terminal" : "0",
      "latitude" : "24.15145",
      "inDis" : "50",
      "routeId" : "168",
      "seqNo" : "76"
   },
   {
      "GoBack" : "2",
      "longitude" : "120.67067",
      "outDis" : "50",
      "Id" : "0723",
      "oid" : "317149635",
      "districtId" : "1",
      "nameZh" : "茄苳腳",
      "pgp" : "0",
      "terminal" : "0",
      "latitude" : "24.1501",
      "inDis" : "50",
      "routeId" : "168",
      "seqNo" : "77"
   },
   {
      "GoBack" : "2",
      "longitude" : "120.67495",
      "outDis" : "50",
      "Id" : "4768",
      "oid" : "307275650",
      "districtId" : "1",
      "nameZh" : "成功原子街口",
      "pgp" : "0",
      "terminal" : "0",
      "latitude" : "24.14767",
      "inDis" : "50",
      "routeId" : "168",
      "seqNo" : "78"
   },
   {
      "GoBack" : "2",
      "longitude" : "120.67666",
      "outDis" : "50",
      "Id" : "5530",
      "oid" : "316214211",
      "districtId" : "1",
      "nameZh" : "成功中華西街口",
      "pgp" : "0",
      "terminal" : "0",
      "latitude" : "24.14627",
      "inDis" : "50",
      "routeId" : "168",
      "seqNo" : "79"
   },
   {
      "GoBack" : "2",
      "longitude" : "120.67949",
      "outDis" : "50",
      "Id" : "0424",
      "oid" : "7264",
      "districtId" : "1",
      "nameZh" : "中區公所(成功路)",
      "pgp" : "0",
      "terminal" : "0",
      "latitude" : "24.14382",
      "inDis" : "50",
      "routeId" : "168",
      "seqNo" : "80"
   },
   {
      "GoBack" : "2",
      "longitude" : "120.68076",
      "outDis" : "50",
      "Id" : "4766",
      "oid" : "307275646",
      "districtId" : "1",
      "nameZh" : "成功平等街口",
      "pgp" : "0",
      "terminal" : "0",
      "latitude" : "24.14271",
      "inDis" : "50",
      "routeId" : "168",
      "seqNo" : "81"
   },
   {
      "GoBack" : "2",
      "longitude" : "120.6826",
      "outDis" : "50",
      "Id" : "4767",
      "oid" : "307275648",
      "districtId" : "1",
      "nameZh" : "成功自由路口 ",
      "pgp" : "0",
      "terminal" : "0",
      "latitude" : "24.14111",
      "inDis" : "50",
      "routeId" : "168",
      "seqNo" : "82"
   },
   {
      "GoBack" : "2",
      "longitude" : "120.68524",
      "outDis" : "50",
      "Id" : "3923",
      "oid" : "7612",
      "districtId" : "1",
      "nameZh" : "豐中戲院",
      "pgp" : "0",
      "terminal" : "0",
      "latitude" : "24.13884",
      "inDis" : "50",
      "routeId" : "168",
      "seqNo" : "83"
   },
   {
      "GoBack" : "2",
      "longitude" : "120.68572",
      "outDis" : "50",
      "Id" : "1829",
      "oid" : "10758",
      "districtId" : "1",
      "nameZh" : "臺中站",
      "pgp" : "0",
      "terminal" : "0",
      "latitude" : "24.13861",
      "inDis" : "50",
      "routeId" : "168",
      "seqNo" : "84"
   }
]
