[
   {
      "GoBack" : "1",
      "longitude" : "120.72154",
      "outDis" : "70",
      "Id" : "0051",
      "oid" : "318039375",
      "districtId" : "1",
      "nameZh" : "豐原(北)",
      "pgp" : "0",
      "terminal" : "0",
      "latitude" : "24.2538",
      "inDis" : "70",
      "routeId" : "235",
      "seqNo" : "1"
   },
   {
      "GoBack" : "1",
      "longitude" : "120.7216",
      "outDis" : "50",
      "Id" : "5632",
      "oid" : "317638566",
      "districtId" : "1",
      "nameZh" : "豐中大順街口",
      "pgp" : "0",
      "terminal" : "0",
      "latitude" : "24.25757",
      "inDis" : "50",
      "routeId" : "235",
      "seqNo" : "2"
   },
   {
      "GoBack" : "1",
      "longitude" : "120.71947",
      "outDis" : "50",
      "Id" : "4493",
      "oid" : "13860",
      "districtId" : "1",
      "nameZh" : "新惠生醫院",
      "pgp" : "0",
      "terminal" : "0",
      "latitude" : "24.25808",
      "inDis" : "50",
      "routeId" : "235",
      "seqNo" : "3"
   },
   {
      "GoBack" : "1",
      "longitude" : "120.71692",
      "outDis" : "50",
      "Id" : "4439",
      "oid" : "13843",
      "districtId" : "1",
      "nameZh" : "大湳里活動中心",
      "pgp" : "0",
      "terminal" : "0",
      "latitude" : "24.25671",
      "inDis" : "50",
      "routeId" : "235",
      "seqNo" : "4"
   },
   {
      "GoBack" : "1",
      "longitude" : "120.71299",
      "outDis" : "50",
      "Id" : "4473",
      "oid" : "13846",
      "districtId" : "1",
      "nameZh" : "圓環北中山路口",
      "pgp" : "0",
      "terminal" : "0",
      "latitude" : "24.25583",
      "inDis" : "50",
      "routeId" : "235",
      "seqNo" : "5"
   },
   {
      "GoBack" : "1",
      "longitude" : "120.71098",
      "outDis" : "50",
      "Id" : "4475",
      "oid" : "13848",
      "districtId" : "1",
      "nameZh" : "圓環西成功路口",
      "pgp" : "0",
      "terminal" : "0",
      "latitude" : "24.25512",
      "inDis" : "50",
      "routeId" : "235",
      "seqNo" : "6"
   },
   {
      "GoBack" : "1",
      "longitude" : "120.70905",
      "outDis" : "50",
      "Id" : "5585",
      "oid" : "129901841",
      "districtId" : "1",
      "nameZh" : "成功圓環西路口",
      "pgp" : "0",
      "terminal" : "0",
      "latitude" : "24.25497",
      "inDis" : "50",
      "routeId" : "235",
      "seqNo" : "7"
   },
   {
      "GoBack" : "1",
      "longitude" : "120.70567",
      "outDis" : "50",
      "Id" : "5584",
      "oid" : "129901839",
      "districtId" : "1",
      "nameZh" : "豐原果菜市場",
      "pgp" : "0",
      "terminal" : "0",
      "latitude" : "24.25301",
      "inDis" : "50",
      "routeId" : "235",
      "seqNo" : "8"
   },
   {
      "GoBack" : "1",
      "longitude" : "120.70672",
      "outDis" : "50",
      "Id" : "1065",
      "oid" : "5072",
      "districtId" : "1",
      "nameZh" : "三光新村",
      "pgp" : "0",
      "terminal" : "0",
      "latitude" : "24.24999",
      "inDis" : "50",
      "routeId" : "235",
      "seqNo" : "9"
   },
   {
      "GoBack" : "1",
      "longitude" : "120.70919",
      "outDis" : "50",
      "Id" : "4486",
      "oid" : "13858",
      "districtId" : "1",
      "nameZh" : "圓環南中正路口",
      "pgp" : "0",
      "terminal" : "0",
      "latitude" : "24.24999",
      "inDis" : "50",
      "routeId" : "235",
      "seqNo" : "10"
   },
   {
      "GoBack" : "1",
      "longitude" : "120.71011",
      "outDis" : "50",
      "Id" : "4487",
      "oid" : "13859",
      "districtId" : "1",
      "nameZh" : "圓環南永安街口",
      "pgp" : "0",
      "terminal" : "0",
      "latitude" : "24.24765",
      "inDis" : "50",
      "routeId" : "235",
      "seqNo" : "11"
   },
   {
      "GoBack" : "1",
      "longitude" : "120.71168",
      "outDis" : "50",
      "Id" : "5602",
      "oid" : "13861",
      "districtId" : "1",
      "nameZh" : "圓環南中興路口",
      "pgp" : "0",
      "terminal" : "0",
      "latitude" : "24.24597",
      "inDis" : "50",
      "routeId" : "235",
      "seqNo" : "12"
   },
   {
      "GoBack" : "1",
      "longitude" : "120.71415",
      "outDis" : "50",
      "Id" : "4485",
      "oid" : "13857",
      "districtId" : "1",
      "nameZh" : "圓環南中山路口",
      "pgp" : "0",
      "terminal" : "0",
      "latitude" : "24.24498",
      "inDis" : "50",
      "routeId" : "235",
      "seqNo" : "13"
   },
   {
      "GoBack" : "1",
      "longitude" : "120.71716",
      "outDis" : "50",
      "Id" : "4483",
      "oid" : "13855",
      "districtId" : "1",
      "nameZh" : "圓環東自強南街口",
      "pgp" : "0",
      "terminal" : "0",
      "latitude" : "24.24392",
      "inDis" : "50",
      "routeId" : "235",
      "seqNo" : "14"
   },
   {
      "GoBack" : "1",
      "longitude" : "120.71926",
      "outDis" : "50",
      "Id" : "4479",
      "oid" : "13851",
      "districtId" : "1",
      "nameZh" : "圓環東田心路口",
      "pgp" : "0",
      "terminal" : "0",
      "latitude" : "24.24335",
      "inDis" : "50",
      "routeId" : "235",
      "seqNo" : "15"
   },
   {
      "GoBack" : "1",
      "longitude" : "120.72169",
      "outDis" : "50",
      "Id" : "5040",
      "oid" : "309850683",
      "districtId" : "1",
      "nameZh" : "圓環東保康路口",
      "pgp" : "0",
      "terminal" : "0",
      "latitude" : "24.24361",
      "inDis" : "50",
      "routeId" : "235",
      "seqNo" : "16"
   },
   {
      "GoBack" : "1",
      "longitude" : "120.7238",
      "outDis" : "50",
      "Id" : "4482",
      "oid" : "13854",
      "districtId" : "1",
      "nameZh" : "圓環東安康路口",
      "pgp" : "0",
      "terminal" : "0",
      "latitude" : "24.24482",
      "inDis" : "50",
      "routeId" : "235",
      "seqNo" : "17"
   },
   {
      "GoBack" : "1",
      "longitude" : "120.72562",
      "outDis" : "50",
      "Id" : "4484",
      "oid" : "13856",
      "districtId" : "1",
      "nameZh" : "圓環東南陽路口",
      "pgp" : "0",
      "terminal" : "0",
      "latitude" : "24.246",
      "inDis" : "50",
      "routeId" : "235",
      "seqNo" : "18"
   },
   {
      "GoBack" : "1",
      "longitude" : "120.72677",
      "outDis" : "50",
      "Id" : "4480",
      "oid" : "13852",
      "districtId" : "1",
      "nameZh" : "圓環東同安街口",
      "pgp" : "0",
      "terminal" : "0",
      "latitude" : "24.24764",
      "inDis" : "50",
      "routeId" : "235",
      "seqNo" : "19"
   },
   {
      "GoBack" : "1",
      "longitude" : "120.72855",
      "outDis" : "50",
      "Id" : "4481",
      "oid" : "13853",
      "districtId" : "1",
      "nameZh" : "圓環東向陽路口",
      "pgp" : "0",
      "terminal" : "0",
      "latitude" : "24.25077",
      "inDis" : "50",
      "routeId" : "235",
      "seqNo" : "20"
   },
   {
      "GoBack" : "1",
      "longitude" : "120.72991",
      "outDis" : "50",
      "Id" : "5544",
      "oid" : "316462695",
      "districtId" : "1",
      "nameZh" : "葫蘆墩文化中心",
      "pgp" : "0",
      "terminal" : "0",
      "latitude" : "24.25308",
      "inDis" : "50",
      "routeId" : "235",
      "seqNo" : "21"
   },
   {
      "GoBack" : "1",
      "longitude" : "120.72975",
      "outDis" : "50",
      "Id" : "4478",
      "oid" : "13802",
      "districtId" : "1",
      "nameZh" : "圓環東水源路口",
      "pgp" : "0",
      "terminal" : "0",
      "latitude" : "24.25577",
      "inDis" : "50",
      "routeId" : "235",
      "seqNo" : "22"
   },
   {
      "GoBack" : "1",
      "longitude" : "120.7262",
      "outDis" : "50",
      "Id" : "4474",
      "oid" : "13847",
      "districtId" : "1",
      "nameZh" : "圓環北角潭路口",
      "pgp" : "0",
      "terminal" : "0",
      "latitude" : "24.25995",
      "inDis" : "50",
      "routeId" : "235",
      "seqNo" : "23"
   },
   {
      "GoBack" : "1",
      "longitude" : "120.72385",
      "outDis" : "50",
      "Id" : "4472",
      "oid" : "13845",
      "districtId" : "1",
      "nameZh" : "圓環北大順街口",
      "pgp" : "0",
      "terminal" : "0",
      "latitude" : "24.2607",
      "inDis" : "50",
      "routeId" : "235",
      "seqNo" : "24"
   },
   {
      "GoBack" : "1",
      "longitude" : "120.72096",
      "outDis" : "50",
      "Id" : "4451",
      "oid" : "13844",
      "districtId" : "1",
      "nameZh" : "北環福德祠",
      "pgp" : "0",
      "terminal" : "0",
      "latitude" : "24.25953",
      "inDis" : "50",
      "routeId" : "235",
      "seqNo" : "25"
   },
   {
      "GoBack" : "1",
      "longitude" : "120.72155",
      "outDis" : "50",
      "Id" : "4912",
      "oid" : "307461463",
      "districtId" : "1",
      "nameZh" : "豐原(南)",
      "pgp" : "0",
      "terminal" : "0",
      "latitude" : "24.25381",
      "inDis" : "50",
      "routeId" : "235",
      "seqNo" : "26"
   },
   {
      "GoBack" : "2",
      "longitude" : "120.72154",
      "outDis" : "70",
      "Id" : "4912",
      "oid" : "307500848",
      "districtId" : "1",
      "nameZh" : "豐原(南)",
      "pgp" : "0",
      "terminal" : "0",
      "latitude" : "24.2538",
      "inDis" : "70",
      "routeId" : "235",
      "seqNo" : "1"
   },
   {
      "GoBack" : "2",
      "longitude" : "120.72158",
      "outDis" : "50",
      "Id" : "5632",
      "oid" : "D879241FDACA4623BB99AF053F6889DA",
      "districtId" : "1",
      "nameZh" : "豐中大順街口",
      "pgp" : "0",
      "terminal" : "0",
      "latitude" : "24.25766",
      "inDis" : "50",
      "routeId" : "235",
      "seqNo" : "2"
   },
   {
      "GoBack" : "2",
      "longitude" : "120.72096",
      "outDis" : "50",
      "Id" : "4451",
      "oid" : "13844",
      "districtId" : "1",
      "nameZh" : "北環福德祠",
      "pgp" : "0",
      "terminal" : "0",
      "latitude" : "24.25953",
      "inDis" : "50",
      "routeId" : "235",
      "seqNo" : "3"
   },
   {
      "GoBack" : "2",
      "longitude" : "120.72385",
      "outDis" : "50",
      "Id" : "4472",
      "oid" : "13845",
      "districtId" : "1",
      "nameZh" : "圓環北大順街口",
      "pgp" : "0",
      "terminal" : "0",
      "latitude" : "24.2607",
      "inDis" : "50",
      "routeId" : "235",
      "seqNo" : "4"
   },
   {
      "GoBack" : "2",
      "longitude" : "120.7262",
      "outDis" : "50",
      "Id" : "4474",
      "oid" : "13847",
      "districtId" : "1",
      "nameZh" : "圓環北角潭路口",
      "pgp" : "0",
      "terminal" : "0",
      "latitude" : "24.25995",
      "inDis" : "50",
      "routeId" : "235",
      "seqNo" : "5"
   },
   {
      "GoBack" : "2",
      "longitude" : "120.72975",
      "outDis" : "50",
      "Id" : "4478",
      "oid" : "13802",
      "districtId" : "1",
      "nameZh" : "圓環東水源路口",
      "pgp" : "0",
      "terminal" : "0",
      "latitude" : "24.25577",
      "inDis" : "50",
      "routeId" : "235",
      "seqNo" : "6"
   },
   {
      "GoBack" : "2",
      "longitude" : "120.72991",
      "outDis" : "50",
      "Id" : "5544",
      "oid" : "316462695",
      "districtId" : "1",
      "nameZh" : "葫蘆墩文化中心",
      "pgp" : "0",
      "terminal" : "0",
      "latitude" : "24.25308",
      "inDis" : "50",
      "routeId" : "235",
      "seqNo" : "7"
   },
   {
      "GoBack" : "2",
      "longitude" : "120.72855",
      "outDis" : "50",
      "Id" : "4481",
      "oid" : "13853",
      "districtId" : "1",
      "nameZh" : "圓環東向陽路口",
      "pgp" : "0",
      "terminal" : "0",
      "latitude" : "24.25077",
      "inDis" : "50",
      "routeId" : "235",
      "seqNo" : "8"
   },
   {
      "GoBack" : "2",
      "longitude" : "120.72677",
      "outDis" : "50",
      "Id" : "4480",
      "oid" : "13852",
      "districtId" : "1",
      "nameZh" : "圓環東同安街口",
      "pgp" : "0",
      "terminal" : "0",
      "latitude" : "24.24764",
      "inDis" : "50",
      "routeId" : "235",
      "seqNo" : "9"
   },
   {
      "GoBack" : "2",
      "longitude" : "120.72562",
      "outDis" : "50",
      "Id" : "4484",
      "oid" : "13856",
      "districtId" : "1",
      "nameZh" : "圓環東南陽路口",
      "pgp" : "0",
      "terminal" : "0",
      "latitude" : "24.246",
      "inDis" : "50",
      "routeId" : "235",
      "seqNo" : "10"
   },
   {
      "GoBack" : "2",
      "longitude" : "120.7238",
      "outDis" : "50",
      "Id" : "4482",
      "oid" : "13854",
      "districtId" : "1",
      "nameZh" : "圓環東安康路口",
      "pgp" : "0",
      "terminal" : "0",
      "latitude" : "24.24482",
      "inDis" : "50",
      "routeId" : "235",
      "seqNo" : "11"
   },
   {
      "GoBack" : "2",
      "longitude" : "120.72169",
      "outDis" : "50",
      "Id" : "5040",
      "oid" : "309850683",
      "districtId" : "1",
      "nameZh" : "圓環東保康路口",
      "pgp" : "0",
      "terminal" : "0",
      "latitude" : "24.24361",
      "inDis" : "50",
      "routeId" : "235",
      "seqNo" : "12"
   },
   {
      "GoBack" : "2",
      "longitude" : "120.71926",
      "outDis" : "50",
      "Id" : "4479",
      "oid" : "13851",
      "districtId" : "1",
      "nameZh" : "圓環東田心路口",
      "pgp" : "0",
      "terminal" : "0",
      "latitude" : "24.24335",
      "inDis" : "50",
      "routeId" : "235",
      "seqNo" : "13"
   },
   {
      "GoBack" : "2",
      "longitude" : "120.71716",
      "outDis" : "50",
      "Id" : "4483",
      "oid" : "13855",
      "districtId" : "1",
      "nameZh" : "圓環東自強南街口",
      "pgp" : "0",
      "terminal" : "0",
      "latitude" : "24.24392",
      "inDis" : "50",
      "routeId" : "235",
      "seqNo" : "14"
   },
   {
      "GoBack" : "2",
      "longitude" : "120.71415",
      "outDis" : "50",
      "Id" : "4485",
      "oid" : "13857",
      "districtId" : "1",
      "nameZh" : "圓環南中山路口",
      "pgp" : "0",
      "terminal" : "0",
      "latitude" : "24.24498",
      "inDis" : "50",
      "routeId" : "235",
      "seqNo" : "15"
   },
   {
      "GoBack" : "2",
      "longitude" : "120.71168",
      "outDis" : "50",
      "Id" : "5602",
      "oid" : "13861",
      "districtId" : "1",
      "nameZh" : "圓環南中興路口",
      "pgp" : "0",
      "terminal" : "0",
      "latitude" : "24.24597",
      "inDis" : "50",
      "routeId" : "235",
      "seqNo" : "16"
   },
   {
      "GoBack" : "2",
      "longitude" : "120.71011",
      "outDis" : "50",
      "Id" : "4487",
      "oid" : "13859",
      "districtId" : "1",
      "nameZh" : "圓環南永安街口",
      "pgp" : "0",
      "terminal" : "0",
      "latitude" : "24.24765",
      "inDis" : "50",
      "routeId" : "235",
      "seqNo" : "17"
   },
   {
      "GoBack" : "2",
      "longitude" : "120.70919",
      "outDis" : "50",
      "Id" : "4486",
      "oid" : "13858",
      "districtId" : "1",
      "nameZh" : "圓環南中正路口",
      "pgp" : "0",
      "terminal" : "0",
      "latitude" : "24.24999",
      "inDis" : "50",
      "routeId" : "235",
      "seqNo" : "18"
   },
   {
      "GoBack" : "2",
      "longitude" : "120.70672",
      "outDis" : "50",
      "Id" : "1065",
      "oid" : "5072",
      "districtId" : "1",
      "nameZh" : "三光新村",
      "pgp" : "0",
      "terminal" : "0",
      "latitude" : "24.24999",
      "inDis" : "50",
      "routeId" : "235",
      "seqNo" : "19"
   },
   {
      "GoBack" : "2",
      "longitude" : "120.70567",
      "outDis" : "50",
      "Id" : "5584",
      "oid" : "129901839",
      "districtId" : "1",
      "nameZh" : "豐原果菜市場",
      "pgp" : "0",
      "terminal" : "0",
      "latitude" : "24.25301",
      "inDis" : "50",
      "routeId" : "235",
      "seqNo" : "20"
   },
   {
      "GoBack" : "2",
      "longitude" : "120.70905",
      "outDis" : "50",
      "Id" : "5585",
      "oid" : "129901841",
      "districtId" : "1",
      "nameZh" : "成功圓環西路口",
      "pgp" : "0",
      "terminal" : "0",
      "latitude" : "24.25497",
      "inDis" : "50",
      "routeId" : "235",
      "seqNo" : "21"
   },
   {
      "GoBack" : "2",
      "longitude" : "120.71098",
      "outDis" : "50",
      "Id" : "4475",
      "oid" : "13848",
      "districtId" : "1",
      "nameZh" : "圓環西成功路口",
      "pgp" : "0",
      "terminal" : "0",
      "latitude" : "24.25512",
      "inDis" : "50",
      "routeId" : "235",
      "seqNo" : "22"
   },
   {
      "GoBack" : "2",
      "longitude" : "120.71299",
      "outDis" : "50",
      "Id" : "4473",
      "oid" : "13846",
      "districtId" : "1",
      "nameZh" : "圓環北中山路口",
      "pgp" : "0",
      "terminal" : "0",
      "latitude" : "24.25583",
      "inDis" : "50",
      "routeId" : "235",
      "seqNo" : "23"
   },
   {
      "GoBack" : "2",
      "longitude" : "120.71692",
      "outDis" : "50",
      "Id" : "4439",
      "oid" : "13843",
      "districtId" : "1",
      "nameZh" : "大湳里活動中心",
      "pgp" : "0",
      "terminal" : "0",
      "latitude" : "24.25671",
      "inDis" : "50",
      "routeId" : "235",
      "seqNo" : "24"
   },
   {
      "GoBack" : "2",
      "longitude" : "120.71947",
      "outDis" : "50",
      "Id" : "4493",
      "oid" : "13860",
      "districtId" : "1",
      "nameZh" : "新惠生醫院",
      "pgp" : "0",
      "terminal" : "0",
      "latitude" : "24.25808",
      "inDis" : "50",
      "routeId" : "235",
      "seqNo" : "25"
   },
   {
      "GoBack" : "2",
      "longitude" : "120.7216",
      "outDis" : "50",
      "Id" : "5632",
      "oid" : "317638566",
      "districtId" : "1",
      "nameZh" : "豐中大順街口",
      "pgp" : "0",
      "terminal" : "0",
      "latitude" : "24.25757",
      "inDis" : "50",
      "routeId" : "235",
      "seqNo" : "26"
   },
   {
      "GoBack" : "2",
      "longitude" : "120.72155",
      "outDis" : "50",
      "Id" : "3935",
      "oid" : "307500849",
      "districtId" : "1",
      "nameZh" : "豐原",
      "pgp" : "0",
      "terminal" : "0",
      "latitude" : "24.25379",
      "inDis" : "50",
      "routeId" : "235",
      "seqNo" : "27"
   }
]
