[
   {
      "GoBack" : "1",
      "longitude" : "120.72154",
      "outDis" : "70",
      "Id" : "3935",
      "oid" : "6693",
      "districtId" : "1",
      "nameZh" : "豐原",
      "pgp" : "0",
      "terminal" : "0",
      "latitude" : "24.2538",
      "inDis" : "70",
      "routeId" : "222",
      "seqNo" : "1"
   },
   {
      "GoBack" : "1",
      "longitude" : "120.71612",
      "outDis" : "50",
      "Id" : "2097",
      "oid" : "5712",
      "districtId" : "1",
      "nameZh" : "圳寮口",
      "pgp" : "0",
      "terminal" : "0",
      "latitude" : "24.25276",
      "inDis" : "50",
      "routeId" : "222",
      "seqNo" : "2"
   },
   {
      "GoBack" : "1",
      "longitude" : "120.71526",
      "outDis" : "50",
      "Id" : "3939",
      "oid" : "13243",
      "districtId" : "1",
      "nameZh" : "豐原郵局",
      "pgp" : "0",
      "terminal" : "0",
      "latitude" : "24.25136",
      "inDis" : "50",
      "routeId" : "222",
      "seqNo" : "3"
   },
   {
      "GoBack" : "1",
      "longitude" : "120.71851",
      "outDis" : "50",
      "Id" : "3343",
      "oid" : "6397",
      "districtId" : "1",
      "nameZh" : "媽祖廟",
      "pgp" : "0",
      "terminal" : "0",
      "latitude" : "24.25157",
      "inDis" : "50",
      "routeId" : "222",
      "seqNo" : "4"
   },
   {
      "GoBack" : "1",
      "longitude" : "120.72365",
      "outDis" : "50",
      "Id" : "4203",
      "oid" : "6448",
      "districtId" : "1",
      "nameZh" : "新都酒店",
      "pgp" : "0",
      "terminal" : "0",
      "latitude" : "24.25229",
      "inDis" : "50",
      "routeId" : "222",
      "seqNo" : "5"
   },
   {
      "GoBack" : "1",
      "longitude" : "120.72414",
      "outDis" : "50",
      "Id" : "3238",
      "oid" : "6341",
      "districtId" : "1",
      "nameZh" : "惠陽中陽路口",
      "pgp" : "0",
      "terminal" : "0",
      "latitude" : "24.25075",
      "inDis" : "50",
      "routeId" : "222",
      "seqNo" : "6"
   },
   {
      "GoBack" : "1",
      "longitude" : "120.7227",
      "outDis" : "50",
      "Id" : "2607",
      "oid" : "6007",
      "districtId" : "1",
      "nameZh" : "南陽國小",
      "pgp" : "0",
      "terminal" : "0",
      "latitude" : "24.24911",
      "inDis" : "50",
      "routeId" : "222",
      "seqNo" : "7"
   },
   {
      "GoBack" : "1",
      "longitude" : "120.72343",
      "outDis" : "50",
      "Id" : "2269",
      "oid" : "5804",
      "districtId" : "1",
      "nameZh" : "育樂新村",
      "pgp" : "0",
      "terminal" : "0",
      "latitude" : "24.24764",
      "inDis" : "50",
      "routeId" : "222",
      "seqNo" : "8"
   },
   {
      "GoBack" : "1",
      "longitude" : "120.72278",
      "outDis" : "50",
      "Id" : "5142",
      "oid" : "6629",
      "districtId" : "1",
      "nameZh" : "陽明自強南街口",
      "pgp" : "0",
      "terminal" : "0",
      "latitude" : "24.24603",
      "inDis" : "50",
      "routeId" : "222",
      "seqNo" : "9"
   },
   {
      "GoBack" : "1",
      "longitude" : "120.7254",
      "outDis" : "50",
      "Id" : "4966",
      "oid" : "308875007",
      "districtId" : "1",
      "nameZh" : "豐原醫院",
      "pgp" : "0",
      "terminal" : "0",
      "latitude" : "24.24326",
      "inDis" : "50",
      "routeId" : "222",
      "seqNo" : "10"
   },
   {
      "GoBack" : "1",
      "longitude" : "120.72749",
      "outDis" : "50",
      "Id" : "1946",
      "oid" : "5618",
      "districtId" : "1",
      "nameZh" : "永康南陽路口",
      "pgp" : "0",
      "terminal" : "0",
      "latitude" : "24.24384",
      "inDis" : "50",
      "routeId" : "222",
      "seqNo" : "11"
   },
   {
      "GoBack" : "1",
      "longitude" : "120.72859",
      "outDis" : "50",
      "Id" : "0020",
      "oid" : "310318832",
      "districtId" : "1",
      "nameZh" : "豐東南陽路口",
      "pgp" : "0",
      "terminal" : "0",
      "latitude" : "24.24545",
      "inDis" : "50",
      "routeId" : "222",
      "seqNo" : "12"
   },
   {
      "GoBack" : "1",
      "longitude" : "120.72982",
      "outDis" : "50",
      "Id" : "5163",
      "oid" : "6539",
      "districtId" : "1",
      "nameZh" : "豐原監理站",
      "pgp" : "0",
      "terminal" : "0",
      "latitude" : "24.24802",
      "inDis" : "50",
      "routeId" : "222",
      "seqNo" : "13"
   },
   {
      "GoBack" : "1",
      "longitude" : "120.73132",
      "outDis" : "50",
      "Id" : "3896",
      "oid" : "6679",
      "districtId" : "1",
      "nameZh" : "豐東向陽路口",
      "pgp" : "0",
      "terminal" : "0",
      "latitude" : "24.24987",
      "inDis" : "50",
      "routeId" : "222",
      "seqNo" : "14"
   },
   {
      "GoBack" : "1",
      "longitude" : "120.73375",
      "outDis" : "50",
      "Id" : "3439",
      "oid" : "6458",
      "districtId" : "1",
      "nameZh" : "豐東北陽二街口",
      "pgp" : "0",
      "terminal" : "0",
      "latitude" : "24.25266",
      "inDis" : "50",
      "routeId" : "222",
      "seqNo" : "15"
   },
   {
      "GoBack" : "1",
      "longitude" : "120.73419",
      "outDis" : "50",
      "Id" : "3441",
      "oid" : "6461",
      "districtId" : "1",
      "nameZh" : "水源豐東路口",
      "pgp" : "0",
      "terminal" : "0",
      "latitude" : "24.25557",
      "inDis" : "50",
      "routeId" : "222",
      "seqNo" : "16"
   },
   {
      "GoBack" : "1",
      "longitude" : "120.73574",
      "outDis" : "50",
      "Id" : "3931",
      "oid" : "6689",
      "districtId" : "1",
      "nameZh" : "豐村國小",
      "pgp" : "0",
      "terminal" : "0",
      "latitude" : "24.2557",
      "inDis" : "50",
      "routeId" : "222",
      "seqNo" : "17"
   },
   {
      "GoBack" : "1",
      "longitude" : "120.73793",
      "outDis" : "50",
      "Id" : "1746",
      "oid" : "5503",
      "districtId" : "1",
      "nameZh" : "王爺廟",
      "pgp" : "0",
      "terminal" : "0",
      "latitude" : "24.25591",
      "inDis" : "50",
      "routeId" : "222",
      "seqNo" : "18"
   },
   {
      "GoBack" : "1",
      "longitude" : "120.74185",
      "outDis" : "50",
      "Id" : "3937",
      "oid" : "6695",
      "districtId" : "1",
      "nameZh" : "豐原高中",
      "pgp" : "0",
      "terminal" : "0",
      "latitude" : "24.25572",
      "inDis" : "50",
      "routeId" : "222",
      "seqNo" : "19"
   },
   {
      "GoBack" : "1",
      "longitude" : "120.74367",
      "outDis" : "50",
      "Id" : "1716",
      "oid" : "5487",
      "districtId" : "1",
      "nameZh" : "水源地",
      "pgp" : "0",
      "terminal" : "0",
      "latitude" : "24.25562",
      "inDis" : "50",
      "routeId" : "222",
      "seqNo" : "20"
   },
   {
      "GoBack" : "1",
      "longitude" : "120.74806",
      "outDis" : "50",
      "Id" : "1437",
      "oid" : "5316",
      "districtId" : "1",
      "nameZh" : "中正公園",
      "pgp" : "0",
      "terminal" : "0",
      "latitude" : "24.25445",
      "inDis" : "50",
      "routeId" : "222",
      "seqNo" : "21"
   },
   {
      "GoBack" : "1",
      "longitude" : "120.75264",
      "outDis" : "50",
      "Id" : "1773",
      "oid" : "5517",
      "districtId" : "1",
      "nameZh" : "北坑口",
      "pgp" : "0",
      "terminal" : "0",
      "latitude" : "24.25743",
      "inDis" : "50",
      "routeId" : "222",
      "seqNo" : "22"
   },
   {
      "GoBack" : "1",
      "longitude" : "120.75497",
      "outDis" : "50",
      "Id" : "3815",
      "oid" : "6635",
      "districtId" : "1",
      "nameZh" : "蕭家花園",
      "pgp" : "0",
      "terminal" : "0",
      "latitude" : "24.25939",
      "inDis" : "50",
      "routeId" : "222",
      "seqNo" : "23"
   },
   {
      "GoBack" : "1",
      "longitude" : "120.75471",
      "outDis" : "50",
      "Id" : "1953",
      "oid" : "5622",
      "districtId" : "1",
      "nameZh" : "水遠橋",
      "pgp" : "0",
      "terminal" : "0",
      "latitude" : "24.25996",
      "inDis" : "50",
      "routeId" : "222",
      "seqNo" : "24"
   },
   {
      "GoBack" : "1",
      "longitude" : "120.75267",
      "outDis" : "50",
      "Id" : "3352",
      "oid" : "6404",
      "districtId" : "1",
      "nameZh" : "慈惠堂",
      "pgp" : "0",
      "terminal" : "0",
      "latitude" : "24.26048",
      "inDis" : "50",
      "routeId" : "222",
      "seqNo" : "25"
   },
   {
      "GoBack" : "1",
      "longitude" : "120.75307",
      "outDis" : "50",
      "Id" : "2546",
      "oid" : "5969",
      "districtId" : "1",
      "nameZh" : "丘逢甲紀念公園",
      "pgp" : "0",
      "terminal" : "0",
      "latitude" : "24.26087",
      "inDis" : "50",
      "routeId" : "222",
      "seqNo" : "26"
   },
   {
      "GoBack" : "1",
      "longitude" : "120.75143",
      "outDis" : "50",
      "Id" : "4965",
      "oid" : "308875006",
      "districtId" : "1",
      "nameZh" : "興農牛莊",
      "pgp" : "0",
      "terminal" : "0",
      "latitude" : "24.26099",
      "inDis" : "50",
      "routeId" : "222",
      "seqNo" : "27"
   },
   {
      "GoBack" : "1",
      "longitude" : "120.75444",
      "outDis" : "50",
      "Id" : "3038",
      "oid" : "6240",
      "districtId" : "1",
      "nameZh" : "豐原球場",
      "pgp" : "0",
      "terminal" : "0",
      "latitude" : "24.26416",
      "inDis" : "50",
      "routeId" : "222",
      "seqNo" : "28"
   },
   {
      "GoBack" : "2",
      "longitude" : "120.75444",
      "outDis" : "50",
      "Id" : "3038",
      "oid" : "6240",
      "districtId" : "1",
      "nameZh" : "豐原球場",
      "pgp" : "0",
      "terminal" : "0",
      "latitude" : "24.26416",
      "inDis" : "50",
      "routeId" : "222",
      "seqNo" : "1"
   },
   {
      "GoBack" : "2",
      "longitude" : "120.75143",
      "outDis" : "50",
      "Id" : "4965",
      "oid" : "308875006",
      "districtId" : "1",
      "nameZh" : "興農牛莊",
      "pgp" : "0",
      "terminal" : "0",
      "latitude" : "24.26099",
      "inDis" : "50",
      "routeId" : "222",
      "seqNo" : "2"
   },
   {
      "GoBack" : "2",
      "longitude" : "120.75307",
      "outDis" : "50",
      "Id" : "2546",
      "oid" : "5969",
      "districtId" : "1",
      "nameZh" : "丘逢甲紀念公園",
      "pgp" : "0",
      "terminal" : "0",
      "latitude" : "24.26087",
      "inDis" : "50",
      "routeId" : "222",
      "seqNo" : "3"
   },
   {
      "GoBack" : "2",
      "longitude" : "120.75267",
      "outDis" : "50",
      "Id" : "3352",
      "oid" : "6404",
      "districtId" : "1",
      "nameZh" : "慈惠堂",
      "pgp" : "0",
      "terminal" : "0",
      "latitude" : "24.26048",
      "inDis" : "50",
      "routeId" : "222",
      "seqNo" : "4"
   },
   {
      "GoBack" : "2",
      "longitude" : "120.75471",
      "outDis" : "50",
      "Id" : "1953",
      "oid" : "5622",
      "districtId" : "1",
      "nameZh" : "水遠橋",
      "pgp" : "0",
      "terminal" : "0",
      "latitude" : "24.25996",
      "inDis" : "50",
      "routeId" : "222",
      "seqNo" : "5"
   },
   {
      "GoBack" : "2",
      "longitude" : "120.75497",
      "outDis" : "50",
      "Id" : "3815",
      "oid" : "6635",
      "districtId" : "1",
      "nameZh" : "蕭家花園",
      "pgp" : "0",
      "terminal" : "0",
      "latitude" : "24.25939",
      "inDis" : "50",
      "routeId" : "222",
      "seqNo" : "6"
   },
   {
      "GoBack" : "2",
      "longitude" : "120.75264",
      "outDis" : "50",
      "Id" : "1773",
      "oid" : "5517",
      "districtId" : "1",
      "nameZh" : "北坑口",
      "pgp" : "0",
      "terminal" : "0",
      "latitude" : "24.25743",
      "inDis" : "50",
      "routeId" : "222",
      "seqNo" : "7"
   },
   {
      "GoBack" : "2",
      "longitude" : "120.74806",
      "outDis" : "50",
      "Id" : "1437",
      "oid" : "5316",
      "districtId" : "1",
      "nameZh" : "中正公園",
      "pgp" : "0",
      "terminal" : "0",
      "latitude" : "24.25445",
      "inDis" : "50",
      "routeId" : "222",
      "seqNo" : "8"
   },
   {
      "GoBack" : "2",
      "longitude" : "120.74367",
      "outDis" : "50",
      "Id" : "1716",
      "oid" : "5487",
      "districtId" : "1",
      "nameZh" : "水源地",
      "pgp" : "0",
      "terminal" : "0",
      "latitude" : "24.25562",
      "inDis" : "50",
      "routeId" : "222",
      "seqNo" : "9"
   },
   {
      "GoBack" : "2",
      "longitude" : "120.74185",
      "outDis" : "50",
      "Id" : "3937",
      "oid" : "6695",
      "districtId" : "1",
      "nameZh" : "豐原高中",
      "pgp" : "0",
      "terminal" : "0",
      "latitude" : "24.25572",
      "inDis" : "50",
      "routeId" : "222",
      "seqNo" : "10"
   },
   {
      "GoBack" : "2",
      "longitude" : "120.73793",
      "outDis" : "50",
      "Id" : "1746",
      "oid" : "5503",
      "districtId" : "1",
      "nameZh" : "王爺廟",
      "pgp" : "0",
      "terminal" : "0",
      "latitude" : "24.25591",
      "inDis" : "50",
      "routeId" : "222",
      "seqNo" : "11"
   },
   {
      "GoBack" : "2",
      "longitude" : "120.73574",
      "outDis" : "50",
      "Id" : "3931",
      "oid" : "6689",
      "districtId" : "1",
      "nameZh" : "豐村國小",
      "pgp" : "0",
      "terminal" : "0",
      "latitude" : "24.2557",
      "inDis" : "50",
      "routeId" : "222",
      "seqNo" : "12"
   },
   {
      "GoBack" : "2",
      "longitude" : "120.73419",
      "outDis" : "50",
      "Id" : "3441",
      "oid" : "6461",
      "districtId" : "1",
      "nameZh" : "水源豐東路口",
      "pgp" : "0",
      "terminal" : "0",
      "latitude" : "24.25557",
      "inDis" : "50",
      "routeId" : "222",
      "seqNo" : "13"
   },
   {
      "GoBack" : "2",
      "longitude" : "120.73375",
      "outDis" : "50",
      "Id" : "3439",
      "oid" : "6458",
      "districtId" : "1",
      "nameZh" : "豐東北陽二街口",
      "pgp" : "0",
      "terminal" : "0",
      "latitude" : "24.25266",
      "inDis" : "50",
      "routeId" : "222",
      "seqNo" : "14"
   },
   {
      "GoBack" : "2",
      "longitude" : "120.73132",
      "outDis" : "50",
      "Id" : "3896",
      "oid" : "6679",
      "districtId" : "1",
      "nameZh" : "豐東向陽路口",
      "pgp" : "0",
      "terminal" : "0",
      "latitude" : "24.24987",
      "inDis" : "50",
      "routeId" : "222",
      "seqNo" : "15"
   },
   {
      "GoBack" : "2",
      "longitude" : "120.72982",
      "outDis" : "50",
      "Id" : "5163",
      "oid" : "6539",
      "districtId" : "1",
      "nameZh" : "豐原監理站",
      "pgp" : "0",
      "terminal" : "0",
      "latitude" : "24.24802",
      "inDis" : "50",
      "routeId" : "222",
      "seqNo" : "16"
   },
   {
      "GoBack" : "2",
      "longitude" : "120.72859",
      "outDis" : "50",
      "Id" : "0020",
      "oid" : "310318832",
      "districtId" : "1",
      "nameZh" : "豐東南陽路口",
      "pgp" : "0",
      "terminal" : "0",
      "latitude" : "24.24545",
      "inDis" : "50",
      "routeId" : "222",
      "seqNo" : "17"
   },
   {
      "GoBack" : "2",
      "longitude" : "120.72749",
      "outDis" : "50",
      "Id" : "1946",
      "oid" : "5618",
      "districtId" : "1",
      "nameZh" : "永康南陽路口",
      "pgp" : "0",
      "terminal" : "0",
      "latitude" : "24.24384",
      "inDis" : "50",
      "routeId" : "222",
      "seqNo" : "18"
   },
   {
      "GoBack" : "2",
      "longitude" : "120.7254",
      "outDis" : "50",
      "Id" : "4966",
      "oid" : "308875007",
      "districtId" : "1",
      "nameZh" : "豐原醫院",
      "pgp" : "0",
      "terminal" : "0",
      "latitude" : "24.24326",
      "inDis" : "50",
      "routeId" : "222",
      "seqNo" : "19"
   },
   {
      "GoBack" : "2",
      "longitude" : "120.72278",
      "outDis" : "50",
      "Id" : "5142",
      "oid" : "6629",
      "districtId" : "1",
      "nameZh" : "陽明自強南街口",
      "pgp" : "0",
      "terminal" : "0",
      "latitude" : "24.24603",
      "inDis" : "50",
      "routeId" : "222",
      "seqNo" : "20"
   },
   {
      "GoBack" : "2",
      "longitude" : "120.72343",
      "outDis" : "50",
      "Id" : "2269",
      "oid" : "5804",
      "districtId" : "1",
      "nameZh" : "育樂新村",
      "pgp" : "0",
      "terminal" : "0",
      "latitude" : "24.24764",
      "inDis" : "50",
      "routeId" : "222",
      "seqNo" : "21"
   },
   {
      "GoBack" : "2",
      "longitude" : "120.7227",
      "outDis" : "50",
      "Id" : "2607",
      "oid" : "6007",
      "districtId" : "1",
      "nameZh" : "南陽國小",
      "pgp" : "0",
      "terminal" : "0",
      "latitude" : "24.24911",
      "inDis" : "50",
      "routeId" : "222",
      "seqNo" : "22"
   },
   {
      "GoBack" : "2",
      "longitude" : "120.72414",
      "outDis" : "50",
      "Id" : "3238",
      "oid" : "6341",
      "districtId" : "1",
      "nameZh" : "惠陽中陽路口",
      "pgp" : "0",
      "terminal" : "0",
      "latitude" : "24.25075",
      "inDis" : "50",
      "routeId" : "222",
      "seqNo" : "23"
   },
   {
      "GoBack" : "2",
      "longitude" : "120.72365",
      "outDis" : "50",
      "Id" : "4203",
      "oid" : "6448",
      "districtId" : "1",
      "nameZh" : "新都酒店",
      "pgp" : "0",
      "terminal" : "0",
      "latitude" : "24.25229",
      "inDis" : "50",
      "routeId" : "222",
      "seqNo" : "24"
   },
   {
      "GoBack" : "2",
      "longitude" : "120.71851",
      "outDis" : "50",
      "Id" : "3343",
      "oid" : "6397",
      "districtId" : "1",
      "nameZh" : "媽祖廟",
      "pgp" : "0",
      "terminal" : "0",
      "latitude" : "24.25157",
      "inDis" : "50",
      "routeId" : "222",
      "seqNo" : "25"
   },
   {
      "GoBack" : "2",
      "longitude" : "120.71612",
      "outDis" : "50",
      "Id" : "2097",
      "oid" : "5712",
      "districtId" : "1",
      "nameZh" : "圳寮口",
      "pgp" : "0",
      "terminal" : "0",
      "latitude" : "24.25276",
      "inDis" : "50",
      "routeId" : "222",
      "seqNo" : "26"
   },
   {
      "GoBack" : "2",
      "longitude" : "120.72154",
      "outDis" : "70",
      "Id" : "3935",
      "oid" : "6693",
      "districtId" : "1",
      "nameZh" : "豐原",
      "pgp" : "0",
      "terminal" : "0",
      "latitude" : "24.2538",
      "inDis" : "70",
      "routeId" : "222",
      "seqNo" : "27"
   }
]
