[
   {
      "GoBack" : "1",
      "longitude" : "120.5301",
      "outDis" : "50",
      "Id" : "5314",
      "oid" : "318978318",
      "districtId" : "1",
      "nameZh" : "自立一街口",
      "pgp" : "0",
      "terminal" : "0",
      "latitude" : "24.2396",
      "inDis" : "50",
      "routeId" : "藍13延",
      "seqNo" : "1"
   },
   {
      "GoBack" : "1",
      "longitude" : "120.5285",
      "outDis" : "50",
      "Id" : "5313",
      "oid" : "318978320",
      "districtId" : "1",
      "nameZh" : "自立二街口",
      "pgp" : "0",
      "terminal" : "0",
      "latitude" : "24.2401",
      "inDis" : "50",
      "routeId" : "藍13延",
      "seqNo" : "2"
   },
   {
      "GoBack" : "1",
      "longitude" : "120.5253",
      "outDis" : "50",
      "Id" : "5312",
      "oid" : "318978322",
      "districtId" : "1",
      "nameZh" : "自立自強路口",
      "pgp" : "0",
      "terminal" : "0",
      "latitude" : "24.238",
      "inDis" : "50",
      "routeId" : "藍13延",
      "seqNo" : "3"
   },
   {
      "GoBack" : "1",
      "longitude" : "120.5237",
      "outDis" : "50",
      "Id" : "5311",
      "oid" : "318978324",
      "districtId" : "1",
      "nameZh" : "關連服務中心",
      "pgp" : "0",
      "terminal" : "0",
      "latitude" : "24.2368",
      "inDis" : "50",
      "routeId" : "藍13延",
      "seqNo" : "4"
   },
   {
      "GoBack" : "1",
      "longitude" : "120.5208",
      "outDis" : "50",
      "Id" : "0031",
      "oid" : "318978326",
      "districtId" : "1",
      "nameZh" : "自強梧南路口",
      "pgp" : "0",
      "terminal" : "0",
      "latitude" : "24.2379",
      "inDis" : "50",
      "routeId" : "藍13延",
      "seqNo" : "5"
   },
   {
      "GoBack" : "1",
      "longitude" : "120.5131",
      "outDis" : "50",
      "Id" : "5309",
      "oid" : "318978328",
      "districtId" : "1",
      "nameZh" : "大通經一路口",
      "pgp" : "0",
      "terminal" : "0",
      "latitude" : "24.2409",
      "inDis" : "50",
      "routeId" : "藍13延",
      "seqNo" : "6"
   },
   {
      "GoBack" : "1",
      "longitude" : "120.5109",
      "outDis" : "50",
      "Id" : "5308",
      "oid" : "318978330",
      "districtId" : "1",
      "nameZh" : "大通經二路口",
      "pgp" : "0",
      "terminal" : "0",
      "latitude" : "24.2416",
      "inDis" : "50",
      "routeId" : "藍13延",
      "seqNo" : "7"
   },
   {
      "GoBack" : "1",
      "longitude" : "120.5091",
      "outDis" : "50",
      "Id" : "5508",
      "oid" : "318978332",
      "districtId" : "1",
      "nameZh" : "經三大通路口",
      "pgp" : "0",
      "terminal" : "0",
      "latitude" : "24.2405",
      "inDis" : "50",
      "routeId" : "藍13延",
      "seqNo" : "8"
   },
   {
      "GoBack" : "1",
      "longitude" : "120.5077",
      "outDis" : "50",
      "Id" : "5509",
      "oid" : "318978334",
      "districtId" : "1",
      "nameZh" : "經三大成路口",
      "pgp" : "0",
      "terminal" : "0",
      "latitude" : "24.2372",
      "inDis" : "50",
      "routeId" : "藍13延",
      "seqNo" : "9"
   },
   {
      "GoBack" : "1",
      "longitude" : "120.5092",
      "outDis" : "50",
      "Id" : "5307",
      "oid" : "318978336",
      "districtId" : "1",
      "nameZh" : "大成經二路口",
      "pgp" : "0",
      "terminal" : "0",
      "latitude" : "24.2346",
      "inDis" : "50",
      "routeId" : "藍13延",
      "seqNo" : "10"
   },
   {
      "GoBack" : "1",
      "longitude" : "120.5113",
      "outDis" : "50",
      "Id" : "5306",
      "oid" : "318978338",
      "districtId" : "1",
      "nameZh" : "大成南路口",
      "pgp" : "0",
      "terminal" : "0",
      "latitude" : "24.2346",
      "inDis" : "50",
      "routeId" : "藍13延",
      "seqNo" : "11"
   },
   {
      "GoBack" : "1",
      "longitude" : "120.5147",
      "outDis" : "50",
      "Id" : "5305",
      "oid" : "318978340",
      "districtId" : "1",
      "nameZh" : "中港分處",
      "pgp" : "0",
      "terminal" : "0",
      "latitude" : "24.2372",
      "inDis" : "50",
      "routeId" : "藍13延",
      "seqNo" : "12"
   },
   {
      "GoBack" : "1",
      "longitude" : "120.5219",
      "outDis" : "50",
      "Id" : "4519",
      "oid" : "318982049",
      "districtId" : "1",
      "nameZh" : "臺中港旅客服務中心",
      "pgp" : "0",
      "terminal" : "0",
      "latitude" : "24.2601",
      "inDis" : "50",
      "routeId" : "藍13延",
      "seqNo" : "13"
   },
   {
      "GoBack" : "1",
      "longitude" : "120.52401",
      "outDis" : "50",
      "Id" : "4382",
      "oid" : "318982051",
      "districtId" : "1",
      "nameZh" : "臺中港港務大樓",
      "pgp" : "0",
      "terminal" : "0",
      "latitude" : "24.25585",
      "inDis" : "50",
      "routeId" : "藍13延",
      "seqNo" : "14"
   },
   {
      "GoBack" : "1",
      "longitude" : "120.52986",
      "outDis" : "50",
      "Id" : "5057",
      "oid" : "318982053",
      "districtId" : "1",
      "nameZh" : "梧棲郵局",
      "pgp" : "0",
      "terminal" : "0",
      "latitude" : "24.25757",
      "inDis" : "50",
      "routeId" : "藍13延",
      "seqNo" : "15"
   },
   {
      "GoBack" : "1",
      "longitude" : "120.5291",
      "outDis" : "50",
      "Id" : "2997",
      "oid" : "318982055",
      "districtId" : "1",
      "nameZh" : "梧棲(梧棲路)",
      "pgp" : "0",
      "terminal" : "0",
      "latitude" : "24.25525",
      "inDis" : "50",
      "routeId" : "藍13延",
      "seqNo" : "16"
   },
   {
      "GoBack" : "1",
      "longitude" : "120.52869",
      "outDis" : "50",
      "Id" : "2107",
      "oid" : "318982057",
      "districtId" : "1",
      "nameZh" : "安仁里",
      "pgp" : "0",
      "terminal" : "0",
      "latitude" : "24.25412",
      "inDis" : "50",
      "routeId" : "藍13延",
      "seqNo" : "17"
   },
   {
      "GoBack" : "1",
      "longitude" : "120.53052",
      "outDis" : "50",
      "Id" : "2999",
      "oid" : "318982059",
      "districtId" : "1",
      "nameZh" : "梧棲國小",
      "pgp" : "0",
      "terminal" : "0",
      "latitude" : "24.25197",
      "inDis" : "50",
      "routeId" : "藍13延",
      "seqNo" : "18"
   },
   {
      "GoBack" : "1",
      "longitude" : "120.53423",
      "outDis" : "50",
      "Id" : "3250",
      "oid" : "318982061",
      "districtId" : "1",
      "nameZh" : "臺灣大道港埠路口",
      "pgp" : "0",
      "terminal" : "0",
      "latitude" : "24.25087",
      "inDis" : "50",
      "routeId" : "藍13延",
      "seqNo" : "19"
   },
   {
      "GoBack" : "1",
      "longitude" : "120.53915",
      "outDis" : "50",
      "Id" : "1334",
      "oid" : "318982063",
      "districtId" : "1",
      "nameZh" : "大莊",
      "pgp" : "0",
      "terminal" : "0",
      "latitude" : "24.24887",
      "inDis" : "50",
      "routeId" : "藍13延",
      "seqNo" : "20"
   },
   {
      "GoBack" : "1",
      "longitude" : "120.54319",
      "outDis" : "50",
      "Id" : "4041",
      "oid" : "318982065",
      "districtId" : "1",
      "nameZh" : "童綜合醫院(梧棲院區)",
      "pgp" : "0",
      "terminal" : "0",
      "latitude" : "24.24757",
      "inDis" : "50",
      "routeId" : "藍13延",
      "seqNo" : "21"
   },
   {
      "GoBack" : "1",
      "longitude" : "120.54653",
      "outDis" : "50",
      "Id" : "4822",
      "oid" : "318982067",
      "districtId" : "1",
      "nameZh" : "東大庄",
      "pgp" : "0",
      "terminal" : "0",
      "latitude" : "24.24643",
      "inDis" : "50",
      "routeId" : "藍13延",
      "seqNo" : "22"
   },
   {
      "GoBack" : "1",
      "longitude" : "120.54909",
      "outDis" : "50",
      "Id" : "1088",
      "oid" : "318982069",
      "districtId" : "1",
      "nameZh" : "三條圳",
      "pgp" : "0",
      "terminal" : "0",
      "latitude" : "24.24552",
      "inDis" : "50",
      "routeId" : "藍13延",
      "seqNo" : "23"
   },
   {
      "GoBack" : "1",
      "longitude" : "120.55633",
      "outDis" : "50",
      "Id" : "1482",
      "oid" : "318982071",
      "districtId" : "1",
      "nameZh" : "中港國小",
      "pgp" : "0",
      "terminal" : "0",
      "latitude" : "24.24274",
      "inDis" : "50",
      "routeId" : "藍13延",
      "seqNo" : "24"
   },
   {
      "GoBack" : "1",
      "longitude" : "120.5612",
      "outDis" : "50",
      "Id" : "5388",
      "oid" : "318982073",
      "districtId" : "1",
      "nameZh" : "臺灣大道中山路口",
      "pgp" : "0",
      "terminal" : "0",
      "latitude" : "24.24064",
      "inDis" : "50",
      "routeId" : "藍13延",
      "seqNo" : "25"
   },
   {
      "GoBack" : "1",
      "longitude" : "120.56297",
      "outDis" : "50",
      "Id" : "2335",
      "oid" : "318982075",
      "districtId" : "1",
      "nameZh" : "居仁里",
      "pgp" : "0",
      "terminal" : "0",
      "latitude" : "24.24034",
      "inDis" : "50",
      "routeId" : "藍13延",
      "seqNo" : "26"
   },
   {
      "GoBack" : "1",
      "longitude" : "120.56679",
      "outDis" : "50",
      "Id" : "0005",
      "oid" : "318982077",
      "districtId" : "1",
      "nameZh" : "沙鹿高工(臺灣大道)",
      "pgp" : "0",
      "terminal" : "0",
      "latitude" : "24.23893",
      "inDis" : "50",
      "routeId" : "藍13延",
      "seqNo" : "27"
   },
   {
      "GoBack" : "1",
      "longitude" : "120.56786",
      "outDis" : "50",
      "Id" : "2147",
      "oid" : "318982079",
      "districtId" : "1",
      "nameZh" : "竹林國小",
      "pgp" : "0",
      "terminal" : "0",
      "latitude" : "24.23839",
      "inDis" : "50",
      "routeId" : "藍13延",
      "seqNo" : "28"
   },
   {
      "GoBack" : "1",
      "longitude" : "120.56995",
      "outDis" : "50",
      "Id" : "4389",
      "oid" : "318982081",
      "districtId" : "1",
      "nameZh" : "竹林里",
      "pgp" : "0",
      "terminal" : "0",
      "latitude" : "24.23639",
      "inDis" : "50",
      "routeId" : "藍13延",
      "seqNo" : "29"
   },
   {
      "GoBack" : "1",
      "longitude" : "120.57193",
      "outDis" : "50",
      "Id" : "4392",
      "oid" : "318982083",
      "districtId" : "1",
      "nameZh" : "紅竹巷",
      "pgp" : "0",
      "terminal" : "0",
      "latitude" : "24.23331",
      "inDis" : "50",
      "routeId" : "藍13延",
      "seqNo" : "30"
   },
   {
      "GoBack" : "1",
      "longitude" : "120.57396",
      "outDis" : "50",
      "Id" : "4086",
      "oid" : "318982085",
      "districtId" : "1",
      "nameZh" : "臺灣大道北勢路口",
      "pgp" : "0",
      "terminal" : "0",
      "latitude" : "24.23011",
      "inDis" : "50",
      "routeId" : "藍13延",
      "seqNo" : "31"
   },
   {
      "GoBack" : "1",
      "longitude" : "120.5731",
      "outDis" : "50",
      "Id" : "5370",
      "oid" : "318982087",
      "districtId" : "1",
      "nameZh" : "英才東英路口",
      "pgp" : "0",
      "terminal" : "0",
      "latitude" : "24.2263",
      "inDis" : "50",
      "routeId" : "藍13延",
      "seqNo" : "32"
   },
   {
      "GoBack" : "1",
      "longitude" : "120.56875",
      "outDis" : "50",
      "Id" : "1796",
      "oid" : "318982089",
      "districtId" : "1",
      "nameZh" : "北勢頭",
      "pgp" : "0",
      "terminal" : "0",
      "latitude" : "24.22442",
      "inDis" : "50",
      "routeId" : "藍13延",
      "seqNo" : "33"
   },
   {
      "GoBack" : "1",
      "longitude" : "120.56915",
      "outDis" : "50",
      "Id" : "3664",
      "oid" : "318982091",
      "districtId" : "1",
      "nameZh" : "福興",
      "pgp" : "0",
      "terminal" : "0",
      "latitude" : "24.22193",
      "inDis" : "50",
      "routeId" : "藍13延",
      "seqNo" : "34"
   },
   {
      "GoBack" : "1",
      "longitude" : "120.56962",
      "outDis" : "50",
      "Id" : "3529",
      "oid" : "318982093",
      "districtId" : "1",
      "nameZh" : "鎮南平等路口",
      "pgp" : "0",
      "terminal" : "0",
      "latitude" : "24.2205",
      "inDis" : "50",
      "routeId" : "藍13延",
      "seqNo" : "35"
   },
   {
      "GoBack" : "1",
      "longitude" : "120.57057",
      "outDis" : "50",
      "Id" : "2361",
      "oid" : "318982095",
      "districtId" : "1",
      "nameZh" : "明秀",
      "pgp" : "0",
      "terminal" : "0",
      "latitude" : "24.21764",
      "inDis" : "50",
      "routeId" : "藍13延",
      "seqNo" : "36"
   },
   {
      "GoBack" : "1",
      "longitude" : "120.57032",
      "outDis" : "50",
      "Id" : "1782",
      "oid" : "318982097",
      "districtId" : "1",
      "nameZh" : "北埔仔",
      "pgp" : "0",
      "terminal" : "0",
      "latitude" : "24.21241",
      "inDis" : "50",
      "routeId" : "藍13延",
      "seqNo" : "37"
   },
   {
      "GoBack" : "1",
      "longitude" : "120.5696",
      "outDis" : "50",
      "Id" : "2756",
      "oid" : "318982099",
      "districtId" : "1",
      "nameZh" : "埔仔",
      "pgp" : "0",
      "terminal" : "0",
      "latitude" : "24.21047",
      "inDis" : "50",
      "routeId" : "藍13延",
      "seqNo" : "38"
   },
   {
      "GoBack" : "1",
      "longitude" : "120.56851",
      "outDis" : "50",
      "Id" : "5248",
      "oid" : "318982101",
      "districtId" : "1",
      "nameZh" : "屏西保順路口",
      "pgp" : "0",
      "terminal" : "0",
      "latitude" : "24.2085",
      "inDis" : "50",
      "routeId" : "藍13延",
      "seqNo" : "39"
   },
   {
      "GoBack" : "1",
      "longitude" : "120.56741",
      "outDis" : "50",
      "Id" : "1090",
      "oid" : "318982103",
      "districtId" : "1",
      "nameZh" : "三鹿里",
      "pgp" : "0",
      "terminal" : "0",
      "latitude" : "24.20448",
      "inDis" : "50",
      "routeId" : "藍13延",
      "seqNo" : "40"
   },
   {
      "GoBack" : "1",
      "longitude" : "120.56786",
      "outDis" : "50",
      "Id" : "5671",
      "oid" : "319048659",
      "districtId" : "1",
      "nameZh" : "向上自立路口",
      "pgp" : "0",
      "terminal" : "0",
      "latitude" : "24.20302",
      "inDis" : "50",
      "routeId" : "藍13延",
      "seqNo" : "41"
   },
   {
      "GoBack" : "1",
      "longitude" : "120.57401",
      "outDis" : "50",
      "Id" : "0530",
      "oid" : "319549149",
      "districtId" : "1",
      "nameZh" : "向上中興路口",
      "pgp" : "0",
      "terminal" : "0",
      "latitude" : "24.18334",
      "inDis" : "50",
      "routeId" : "藍13延",
      "seqNo" : "42"
   },
   {
      "GoBack" : "1",
      "longitude" : "120.57421",
      "outDis" : "50",
      "Id" : "0531",
      "oid" : "319549150",
      "districtId" : "1",
      "nameZh" : "向上南新路口",
      "pgp" : "0",
      "terminal" : "0",
      "latitude" : "24.1807",
      "inDis" : "50",
      "routeId" : "藍13延",
      "seqNo" : "43"
   },
   {
      "GoBack" : "1",
      "longitude" : "120.5761",
      "outDis" : "50",
      "Id" : "0399",
      "oid" : "318981926",
      "districtId" : "1",
      "nameZh" : "向上中沙路口",
      "pgp" : "0",
      "terminal" : "0",
      "latitude" : "24.1776",
      "inDis" : "50",
      "routeId" : "藍13延",
      "seqNo" : "44"
   },
   {
      "GoBack" : "1",
      "longitude" : "120.58207",
      "outDis" : "50",
      "Id" : "3747",
      "oid" : "318982107",
      "districtId" : "1",
      "nameZh" : "磐頂教會",
      "pgp" : "0",
      "terminal" : "0",
      "latitude" : "24.17694",
      "inDis" : "50",
      "routeId" : "藍13延",
      "seqNo" : "45"
   },
   {
      "GoBack" : "1",
      "longitude" : "120.58327",
      "outDis" : "50",
      "Id" : "5144",
      "oid" : "318982109",
      "districtId" : "1",
      "nameZh" : "新庄里",
      "pgp" : "0",
      "terminal" : "0",
      "latitude" : "24.18024",
      "inDis" : "50",
      "routeId" : "藍13延",
      "seqNo" : "46"
   },
   {
      "GoBack" : "1",
      "longitude" : "120.5847",
      "outDis" : "50",
      "Id" : "5389",
      "oid" : "318982111",
      "districtId" : "1",
      "nameZh" : "東海停車場",
      "pgp" : "0",
      "terminal" : "0",
      "latitude" : "24.18357",
      "inDis" : "50",
      "routeId" : "藍13延",
      "seqNo" : "47"
   },
   {
      "GoBack" : "1",
      "longitude" : "120.58603",
      "outDis" : "50",
      "Id" : "2325",
      "oid" : "318982113",
      "districtId" : "1",
      "nameZh" : "坪頂",
      "pgp" : "0",
      "terminal" : "0",
      "latitude" : "24.186",
      "inDis" : "50",
      "routeId" : "藍13延",
      "seqNo" : "48"
   },
   {
      "GoBack" : "1",
      "longitude" : "120.58788",
      "outDis" : "50",
      "Id" : "5304",
      "oid" : "318982115",
      "districtId" : "1",
      "nameZh" : "東海街口",
      "pgp" : "0",
      "terminal" : "0",
      "latitude" : "24.1853",
      "inDis" : "50",
      "routeId" : "藍13延",
      "seqNo" : "49"
   },
   {
      "GoBack" : "1",
      "longitude" : "120.59084",
      "outDis" : "50",
      "Id" : "4383",
      "oid" : "318982117",
      "districtId" : "1",
      "nameZh" : "臺糖公營學苑",
      "pgp" : "0",
      "terminal" : "0",
      "latitude" : "24.18385",
      "inDis" : "50",
      "routeId" : "藍13延",
      "seqNo" : "50"
   },
   {
      "GoBack" : "1",
      "longitude" : "120.59349",
      "outDis" : "50",
      "Id" : "0240",
      "oid" : "318982119",
      "districtId" : "1",
      "nameZh" : "東海別墅",
      "pgp" : "0",
      "terminal" : "0",
      "latitude" : "24.18299",
      "inDis" : "50",
      "routeId" : "藍13延",
      "seqNo" : "51"
   },
   {
      "GoBack" : "1",
      "longitude" : "120.59644",
      "outDis" : "50",
      "Id" : "0526",
      "oid" : "318982121",
      "districtId" : "1",
      "nameZh" : "台中精機",
      "pgp" : "0",
      "terminal" : "0",
      "latitude" : "24.18203",
      "inDis" : "50",
      "routeId" : "藍13延",
      "seqNo" : "52"
   },
   {
      "GoBack" : "1",
      "longitude" : "120.60491",
      "outDis" : "50",
      "Id" : "5386",
      "oid" : "318982123",
      "districtId" : "1",
      "nameZh" : "臺中榮總(臺灣大道)",
      "pgp" : "0",
      "terminal" : "0",
      "latitude" : "24.18349",
      "inDis" : "50",
      "routeId" : "藍13延",
      "seqNo" : "53"
   },
   {
      "GoBack" : "1",
      "longitude" : "120.60633",
      "outDis" : "50",
      "Id" : "2378",
      "oid" : "318982125",
      "districtId" : "1",
      "nameZh" : "東大附中",
      "pgp" : "0",
      "terminal" : "0",
      "latitude" : "24.18371",
      "inDis" : "50",
      "routeId" : "藍13延",
      "seqNo" : "54"
   },
   {
      "GoBack" : "1",
      "longitude" : "120.60821",
      "outDis" : "50",
      "Id" : "0004",
      "oid" : "318982127",
      "districtId" : "1",
      "nameZh" : "普濟寺",
      "pgp" : "0",
      "terminal" : "0",
      "latitude" : "24.18422",
      "inDis" : "50",
      "routeId" : "藍13延",
      "seqNo" : "55"
   },
   {
      "GoBack" : "1",
      "longitude" : "120.6098",
      "outDis" : "50",
      "Id" : "5287",
      "oid" : "318982129",
      "districtId" : "1",
      "nameZh" : "玉門臺灣大道口",
      "pgp" : "0",
      "terminal" : "0",
      "latitude" : "24.18507",
      "inDis" : "50",
      "routeId" : "藍13延",
      "seqNo" : "56"
   },
   {
      "GoBack" : "1",
      "longitude" : "120.60987",
      "outDis" : "50",
      "Id" : "5234",
      "oid" : "318982131",
      "districtId" : "1",
      "nameZh" : "玉門福科路口",
      "pgp" : "0",
      "terminal" : "0",
      "latitude" : "24.18714",
      "inDis" : "50",
      "routeId" : "藍13延",
      "seqNo" : "57"
   },
   {
      "GoBack" : "1",
      "longitude" : "120.6106",
      "outDis" : "50",
      "Id" : "0885",
      "oid" : "318982133",
      "districtId" : "1",
      "nameZh" : "榮總宿舍",
      "pgp" : "0",
      "terminal" : "0",
      "latitude" : "24.19023",
      "inDis" : "50",
      "routeId" : "藍13延",
      "seqNo" : "58"
   },
   {
      "GoBack" : "1",
      "longitude" : "120.61116",
      "outDis" : "50",
      "Id" : "4683",
      "oid" : "318982135",
      "districtId" : "1",
      "nameZh" : "西屯玉門路口",
      "pgp" : "0",
      "terminal" : "0",
      "latitude" : "24.19086",
      "inDis" : "50",
      "routeId" : "藍13延",
      "seqNo" : "59"
   },
   {
      "GoBack" : "1",
      "longitude" : "120.61425",
      "outDis" : "50",
      "Id" : "4682",
      "oid" : "318982137",
      "districtId" : "1",
      "nameZh" : "福科國中",
      "pgp" : "0",
      "terminal" : "0",
      "latitude" : "24.18993",
      "inDis" : "50",
      "routeId" : "藍13延",
      "seqNo" : "60"
   },
   {
      "GoBack" : "1",
      "longitude" : "120.61595",
      "outDis" : "50",
      "Id" : "0959",
      "oid" : "318989060",
      "districtId" : "1",
      "nameZh" : "麗景天地",
      "pgp" : "0",
      "terminal" : "0",
      "latitude" : "24.18904",
      "inDis" : "50",
      "routeId" : "藍13延",
      "seqNo" : "61"
   },
   {
      "GoBack" : "1",
      "longitude" : "120.61796",
      "outDis" : "50",
      "Id" : "0620",
      "oid" : "318989062",
      "districtId" : "1",
      "nameZh" : "宏台別墅",
      "pgp" : "0",
      "terminal" : "0",
      "latitude" : "24.18803",
      "inDis" : "50",
      "routeId" : "藍13延",
      "seqNo" : "62"
   },
   {
      "GoBack" : "1",
      "longitude" : "120.61792",
      "outDis" : "50",
      "Id" : "5263",
      "oid" : "318982141",
      "districtId" : "1",
      "nameZh" : "福科福雅路口",
      "pgp" : "0",
      "terminal" : "0",
      "latitude" : "24.18526",
      "inDis" : "50",
      "routeId" : "藍13延",
      "seqNo" : "63"
   },
   {
      "GoBack" : "1",
      "longitude" : "120.62096",
      "outDis" : "50",
      "Id" : "0053",
      "oid" : "318982143",
      "districtId" : "1",
      "nameZh" : "福科永福路口",
      "pgp" : "0",
      "terminal" : "0",
      "latitude" : "24.18382",
      "inDis" : "50",
      "routeId" : "藍13延",
      "seqNo" : "64"
   },
   {
      "GoBack" : "1",
      "longitude" : "120.62466",
      "outDis" : "50",
      "Id" : "0010",
      "oid" : "318982145",
      "districtId" : "1",
      "nameZh" : "福科安和路口",
      "pgp" : "0",
      "terminal" : "0",
      "latitude" : "24.18224",
      "inDis" : "50",
      "routeId" : "藍13延",
      "seqNo" : "65"
   },
   {
      "GoBack" : "1",
      "longitude" : "120.62665",
      "outDis" : "50",
      "Id" : "0286",
      "oid" : "318961604",
      "districtId" : "1",
      "nameZh" : "福科福裕路口",
      "pgp" : "0",
      "terminal" : "0",
      "latitude" : "24.18132",
      "inDis" : "50",
      "routeId" : "藍13延",
      "seqNo" : "66"
   },
   {
      "GoBack" : "1",
      "longitude" : "120.63655",
      "outDis" : "50",
      "Id" : "4649",
      "oid" : "318982147",
      "districtId" : "1",
      "nameZh" : "福科環中路口",
      "pgp" : "0",
      "terminal" : "0",
      "latitude" : "24.17924",
      "inDis" : "50",
      "routeId" : "藍13延",
      "seqNo" : "67"
   },
   {
      "GoBack" : "1",
      "longitude" : "120.63813",
      "outDis" : "50",
      "Id" : "2175",
      "oid" : "318982149",
      "districtId" : "1",
      "nameZh" : "西屯派出所",
      "pgp" : "0",
      "terminal" : "0",
      "latitude" : "24.18118",
      "inDis" : "50",
      "routeId" : "藍13延",
      "seqNo" : "68"
   },
   {
      "GoBack" : "1",
      "longitude" : "120.64035",
      "outDis" : "50",
      "Id" : "2192",
      "oid" : "318982151",
      "districtId" : "1",
      "nameZh" : "西苑高中",
      "pgp" : "0",
      "terminal" : "0",
      "latitude" : "24.18632",
      "inDis" : "50",
      "routeId" : "藍13延",
      "seqNo" : "69"
   },
   {
      "GoBack" : "1",
      "longitude" : "120.64451",
      "outDis" : "50",
      "Id" : "4327",
      "oid" : "318982153",
      "districtId" : "1",
      "nameZh" : "僑光科技大學",
      "pgp" : "0",
      "terminal" : "0",
      "latitude" : "24.18662",
      "inDis" : "50",
      "routeId" : "藍13延",
      "seqNo" : "70"
   },
   {
      "GoBack" : "1",
      "longitude" : "120.64456",
      "outDis" : "50",
      "Id" : "5658",
      "oid" : "318982155",
      "districtId" : "1",
      "nameZh" : "漢翔公司(星享道)",
      "pgp" : "0",
      "terminal" : "0",
      "latitude" : "24.18508",
      "inDis" : "50",
      "routeId" : "藍13延",
      "seqNo" : "71"
   },
   {
      "GoBack" : "1",
      "longitude" : "120.64503",
      "outDis" : "50",
      "Id" : "4334",
      "oid" : "318982157",
      "districtId" : "1",
      "nameZh" : "福星西安街口",
      "pgp" : "0",
      "terminal" : "0",
      "latitude" : "24.1815",
      "inDis" : "50",
      "routeId" : "藍13延",
      "seqNo" : "72"
   },
   {
      "GoBack" : "1",
      "longitude" : "120.64506",
      "outDis" : "50",
      "Id" : "4586",
      "oid" : "318982159",
      "districtId" : "1",
      "nameZh" : "逢甲大學(福星路)",
      "pgp" : "0",
      "terminal" : "0",
      "latitude" : "24.17904",
      "inDis" : "50",
      "routeId" : "藍13延",
      "seqNo" : "73"
   },
   {
      "GoBack" : "1",
      "longitude" : "120.64325",
      "outDis" : "50",
      "Id" : "4585",
      "oid" : "318989078",
      "districtId" : "1",
      "nameZh" : "逢甲大學(逢甲路)",
      "pgp" : "0",
      "terminal" : "0",
      "latitude" : "24.17822",
      "inDis" : "50",
      "routeId" : "藍13延",
      "seqNo" : "74"
   },
   {
      "GoBack" : "1",
      "longitude" : "120.64033",
      "outDis" : "50",
      "Id" : "5657",
      "oid" : "318989076",
      "districtId" : "1",
      "nameZh" : "至善國中(逢甲路)",
      "pgp" : "0",
      "terminal" : "0",
      "latitude" : "24.17563",
      "inDis" : "50",
      "routeId" : "藍13延",
      "seqNo" : "75"
   },
   {
      "GoBack" : "1",
      "longitude" : "120.64082",
      "outDis" : "50",
      "Id" : "4614",
      "oid" : "318982161",
      "districtId" : "1",
      "nameZh" : "至善國中(青海路)",
      "pgp" : "0",
      "terminal" : "0",
      "latitude" : "24.17385",
      "inDis" : "50",
      "routeId" : "藍13延",
      "seqNo" : "76"
   },
   {
      "GoBack" : "1",
      "longitude" : "120.64326",
      "outDis" : "50",
      "Id" : "4428",
      "oid" : "318982163",
      "districtId" : "1",
      "nameZh" : "青海上仁街口",
      "pgp" : "0",
      "terminal" : "0",
      "latitude" : "24.17206",
      "inDis" : "50",
      "routeId" : "藍13延",
      "seqNo" : "77"
   },
   {
      "GoBack" : "1",
      "longitude" : "120.64348",
      "outDis" : "50",
      "Id" : "4615",
      "oid" : "319144596",
      "districtId" : "1",
      "nameZh" : "河南青海路口",
      "pgp" : "0",
      "terminal" : "0",
      "latitude" : "24.17064",
      "inDis" : "50",
      "routeId" : "藍13延",
      "seqNo" : "78"
   },
   {
      "GoBack" : "1",
      "longitude" : "120.64149",
      "outDis" : "50",
      "Id" : "4530",
      "oid" : "319144597",
      "districtId" : "1",
      "nameZh" : "河南臺灣大道口",
      "pgp" : "0",
      "terminal" : "0",
      "latitude" : "24.16844",
      "inDis" : "50",
      "routeId" : "藍13延",
      "seqNo" : "79"
   },
   {
      "GoBack" : "1",
      "longitude" : "120.64159",
      "outDis" : "50",
      "Id" : "0015",
      "oid" : "318982169",
      "districtId" : "1",
      "nameZh" : "教師新村",
      "pgp" : "0",
      "terminal" : "0",
      "latitude" : "24.16701",
      "inDis" : "50",
      "routeId" : "藍13延",
      "seqNo" : "80"
   },
   {
      "GoBack" : "1",
      "longitude" : "120.64422",
      "outDis" : "50",
      "Id" : "0016",
      "oid" : "318982171",
      "districtId" : "1",
      "nameZh" : "新光三越",
      "pgp" : "0",
      "terminal" : "0",
      "latitude" : "24.16569",
      "inDis" : "50",
      "routeId" : "藍13延",
      "seqNo" : "81"
   },
   {
      "GoBack" : "1",
      "longitude" : "120.648",
      "outDis" : "50",
      "Id" : "0017",
      "oid" : "318982173",
      "districtId" : "1",
      "nameZh" : "臺中市政府",
      "pgp" : "0",
      "terminal" : "0",
      "latitude" : "24.16332",
      "inDis" : "50",
      "routeId" : "藍13延",
      "seqNo" : "82"
   },
   {
      "GoBack" : "1",
      "longitude" : "120.64862",
      "outDis" : "50",
      "Id" : "4266",
      "oid" : "318982175",
      "districtId" : "1",
      "nameZh" : "文心臺灣大道口",
      "pgp" : "0",
      "terminal" : "0",
      "latitude" : "24.16142",
      "inDis" : "50",
      "routeId" : "藍13延",
      "seqNo" : "83"
   },
   {
      "GoBack" : "1",
      "longitude" : "120.6475",
      "outDis" : "50",
      "Id" : "0019",
      "oid" : "318982177",
      "districtId" : "1",
      "nameZh" : "市警局",
      "pgp" : "0",
      "terminal" : "0",
      "latitude" : "24.15979",
      "inDis" : "50",
      "routeId" : "藍13延",
      "seqNo" : "84"
   },
   {
      "GoBack" : "1",
      "longitude" : "120.64668",
      "outDis" : "50",
      "Id" : "1433",
      "oid" : "318982179",
      "districtId" : "1",
      "nameZh" : "中央健保局(文心路)",
      "pgp" : "0",
      "terminal" : "0",
      "latitude" : "24.15746",
      "inDis" : "50",
      "routeId" : "藍13延",
      "seqNo" : "85"
   },
   {
      "GoBack" : "1",
      "longitude" : "120.64675",
      "outDis" : "50",
      "Id" : "4270",
      "oid" : "318982181",
      "districtId" : "1",
      "nameZh" : "文心市政路口",
      "pgp" : "0",
      "terminal" : "0",
      "latitude" : "24.15431",
      "inDis" : "50",
      "routeId" : "藍13延",
      "seqNo" : "86"
   },
   {
      "GoBack" : "1",
      "longitude" : "120.64664",
      "outDis" : "50",
      "Id" : "4268",
      "oid" : "318982183",
      "districtId" : "1",
      "nameZh" : "文心公益路口",
      "pgp" : "0",
      "terminal" : "0",
      "latitude" : "24.15032",
      "inDis" : "50",
      "routeId" : "藍13延",
      "seqNo" : "87"
   },
   {
      "GoBack" : "1",
      "longitude" : "120.6465",
      "outDis" : "50",
      "Id" : "4356",
      "oid" : "318982185",
      "districtId" : "1",
      "nameZh" : "文心森林公園",
      "pgp" : "0",
      "terminal" : "0",
      "latitude" : "24.14631",
      "inDis" : "50",
      "routeId" : "藍13延",
      "seqNo" : "88"
   },
   {
      "GoBack" : "2",
      "longitude" : "120.6465",
      "outDis" : "50",
      "Id" : "4356",
      "oid" : "318982187",
      "districtId" : "1",
      "nameZh" : "文心森林公園",
      "pgp" : "0",
      "terminal" : "0",
      "latitude" : "24.14631",
      "inDis" : "50",
      "routeId" : "藍13延",
      "seqNo" : "1"
   },
   {
      "GoBack" : "2",
      "longitude" : "120.64684",
      "outDis" : "50",
      "Id" : "4268",
      "oid" : "318982189",
      "districtId" : "1",
      "nameZh" : "文心公益路口",
      "pgp" : "0",
      "terminal" : "0",
      "latitude" : "24.15047",
      "inDis" : "50",
      "routeId" : "藍13延",
      "seqNo" : "2"
   },
   {
      "GoBack" : "2",
      "longitude" : "120.64694",
      "outDis" : "50",
      "Id" : "4270",
      "oid" : "318982191",
      "districtId" : "1",
      "nameZh" : "文心市政路口",
      "pgp" : "0",
      "terminal" : "0",
      "latitude" : "24.15468",
      "inDis" : "50",
      "routeId" : "藍13延",
      "seqNo" : "3"
   },
   {
      "GoBack" : "2",
      "longitude" : "120.64696",
      "outDis" : "50",
      "Id" : "1433",
      "oid" : "318982193",
      "districtId" : "1",
      "nameZh" : "中央健保局(文心路)",
      "pgp" : "0",
      "terminal" : "0",
      "latitude" : "24.15654",
      "inDis" : "50",
      "routeId" : "藍13延",
      "seqNo" : "4"
   },
   {
      "GoBack" : "2",
      "longitude" : "120.64759",
      "outDis" : "50",
      "Id" : "0019",
      "oid" : "318982195",
      "districtId" : "1",
      "nameZh" : "市警局",
      "pgp" : "0",
      "terminal" : "0",
      "latitude" : "24.15935",
      "inDis" : "50",
      "routeId" : "藍13延",
      "seqNo" : "5"
   },
   {
      "GoBack" : "2",
      "longitude" : "120.64839",
      "outDis" : "50",
      "Id" : "4266",
      "oid" : "318982197",
      "districtId" : "1",
      "nameZh" : "文心臺灣大道口",
      "pgp" : "0",
      "terminal" : "0",
      "latitude" : "24.16064",
      "inDis" : "50",
      "routeId" : "藍13延",
      "seqNo" : "6"
   },
   {
      "GoBack" : "2",
      "longitude" : "120.64705",
      "outDis" : "50",
      "Id" : "0017",
      "oid" : "318982199",
      "districtId" : "1",
      "nameZh" : "臺中市政府",
      "pgp" : "0",
      "terminal" : "0",
      "latitude" : "24.16438",
      "inDis" : "50",
      "routeId" : "藍13延",
      "seqNo" : "7"
   },
   {
      "GoBack" : "2",
      "longitude" : "120.64426",
      "outDis" : "50",
      "Id" : "0016",
      "oid" : "318982201",
      "districtId" : "1",
      "nameZh" : "新光三越",
      "pgp" : "0",
      "terminal" : "0",
      "latitude" : "24.16589",
      "inDis" : "50",
      "routeId" : "藍13延",
      "seqNo" : "8"
   },
   {
      "GoBack" : "2",
      "longitude" : "120.64202",
      "outDis" : "50",
      "Id" : "0015",
      "oid" : "318982203",
      "districtId" : "1",
      "nameZh" : "教師新村",
      "pgp" : "0",
      "terminal" : "0",
      "latitude" : "24.16727",
      "inDis" : "50",
      "routeId" : "藍13延",
      "seqNo" : "9"
   },
   {
      "GoBack" : "2",
      "longitude" : "120.64149",
      "outDis" : "50",
      "Id" : "4530",
      "oid" : "319144597",
      "districtId" : "1",
      "nameZh" : "河南臺灣大道口",
      "pgp" : "0",
      "terminal" : "0",
      "latitude" : "24.16844",
      "inDis" : "50",
      "routeId" : "藍13延",
      "seqNo" : "10"
   },
   {
      "GoBack" : "2",
      "longitude" : "120.64348",
      "outDis" : "50",
      "Id" : "4615",
      "oid" : "319144596",
      "districtId" : "1",
      "nameZh" : "河南青海路口",
      "pgp" : "0",
      "terminal" : "0",
      "latitude" : "24.17064",
      "inDis" : "50",
      "routeId" : "藍13延",
      "seqNo" : "11"
   },
   {
      "GoBack" : "2",
      "longitude" : "120.64326",
      "outDis" : "50",
      "Id" : "4428",
      "oid" : "318982209",
      "districtId" : "1",
      "nameZh" : "青海上仁街口",
      "pgp" : "0",
      "terminal" : "0",
      "latitude" : "24.17206",
      "inDis" : "50",
      "routeId" : "藍13延",
      "seqNo" : "12"
   },
   {
      "GoBack" : "2",
      "longitude" : "120.64082",
      "outDis" : "50",
      "Id" : "4614",
      "oid" : "318982211",
      "districtId" : "1",
      "nameZh" : "至善國中(青海路)",
      "pgp" : "0",
      "terminal" : "0",
      "latitude" : "24.17385",
      "inDis" : "50",
      "routeId" : "藍13延",
      "seqNo" : "13"
   },
   {
      "GoBack" : "2",
      "longitude" : "120.64011",
      "outDis" : "50",
      "Id" : "5657",
      "oid" : "318989106",
      "districtId" : "1",
      "nameZh" : "至善國中(逢甲路)",
      "pgp" : "0",
      "terminal" : "0",
      "latitude" : "24.17554",
      "inDis" : "50",
      "routeId" : "藍13延",
      "seqNo" : "14"
   },
   {
      "GoBack" : "2",
      "longitude" : "120.64506",
      "outDis" : "50",
      "Id" : "4586",
      "oid" : "318982213",
      "districtId" : "1",
      "nameZh" : "逢甲大學(福星路)",
      "pgp" : "0",
      "terminal" : "0",
      "latitude" : "24.17941",
      "inDis" : "50",
      "routeId" : "藍13延",
      "seqNo" : "15"
   },
   {
      "GoBack" : "2",
      "longitude" : "120.64505",
      "outDis" : "50",
      "Id" : "4334",
      "oid" : "318982215",
      "districtId" : "1",
      "nameZh" : "福星西安街口",
      "pgp" : "0",
      "terminal" : "0",
      "latitude" : "24.18155",
      "inDis" : "50",
      "routeId" : "藍13延",
      "seqNo" : "16"
   },
   {
      "GoBack" : "2",
      "longitude" : "120.64472",
      "outDis" : "50",
      "Id" : "5658",
      "oid" : "318982217",
      "districtId" : "1",
      "nameZh" : "漢翔公司(星享道)",
      "pgp" : "0",
      "terminal" : "0",
      "latitude" : "24.18421",
      "inDis" : "50",
      "routeId" : "藍13延",
      "seqNo" : "17"
   },
   {
      "GoBack" : "2",
      "longitude" : "120.64441",
      "outDis" : "50",
      "Id" : "4327",
      "oid" : "318982219",
      "districtId" : "1",
      "nameZh" : "僑光科技大學",
      "pgp" : "0",
      "terminal" : "0",
      "latitude" : "24.1865",
      "inDis" : "50",
      "routeId" : "藍13延",
      "seqNo" : "18"
   },
   {
      "GoBack" : "2",
      "longitude" : "120.64019",
      "outDis" : "50",
      "Id" : "2192",
      "oid" : "318982221",
      "districtId" : "1",
      "nameZh" : "西苑高中",
      "pgp" : "0",
      "terminal" : "0",
      "latitude" : "24.18633",
      "inDis" : "50",
      "routeId" : "藍13延",
      "seqNo" : "19"
   },
   {
      "GoBack" : "2",
      "longitude" : "120.63857",
      "outDis" : "50",
      "Id" : "2175",
      "oid" : "318982223",
      "districtId" : "1",
      "nameZh" : "西屯派出所",
      "pgp" : "0",
      "terminal" : "0",
      "latitude" : "24.18202",
      "inDis" : "50",
      "routeId" : "藍13延",
      "seqNo" : "20"
   },
   {
      "GoBack" : "2",
      "longitude" : "120.63655",
      "outDis" : "50",
      "Id" : "4649",
      "oid" : "318982225",
      "districtId" : "1",
      "nameZh" : "福科環中路口",
      "pgp" : "0",
      "terminal" : "0",
      "latitude" : "24.17924",
      "inDis" : "50",
      "routeId" : "藍13延",
      "seqNo" : "21"
   },
   {
      "GoBack" : "2",
      "longitude" : "120.62671",
      "outDis" : "50",
      "Id" : "0286",
      "oid" : "318961605",
      "districtId" : "1",
      "nameZh" : "福科福裕路口",
      "pgp" : "0",
      "terminal" : "0",
      "latitude" : "24.18144",
      "inDis" : "50",
      "routeId" : "藍13延",
      "seqNo" : "22"
   },
   {
      "GoBack" : "2",
      "longitude" : "120.62447",
      "outDis" : "50",
      "Id" : "0010",
      "oid" : "318982227",
      "districtId" : "1",
      "nameZh" : "福科安和路口",
      "pgp" : "0",
      "terminal" : "0",
      "latitude" : "24.18235",
      "inDis" : "50",
      "routeId" : "藍13延",
      "seqNo" : "23"
   },
   {
      "GoBack" : "2",
      "longitude" : "120.62129",
      "outDis" : "50",
      "Id" : "0053",
      "oid" : "318982229",
      "districtId" : "1",
      "nameZh" : "福科永福路口",
      "pgp" : "0",
      "terminal" : "0",
      "latitude" : "24.18368",
      "inDis" : "50",
      "routeId" : "藍13延",
      "seqNo" : "24"
   },
   {
      "GoBack" : "2",
      "longitude" : "120.61792",
      "outDis" : "50",
      "Id" : "5263",
      "oid" : "318982231",
      "districtId" : "1",
      "nameZh" : "福科福雅路口",
      "pgp" : "0",
      "terminal" : "0",
      "latitude" : "24.18526",
      "inDis" : "50",
      "routeId" : "藍13延",
      "seqNo" : "25"
   },
   {
      "GoBack" : "2",
      "longitude" : "120.61728",
      "outDis" : "50",
      "Id" : "0052",
      "oid" : "318982233",
      "districtId" : "1",
      "nameZh" : "福科福康路口",
      "pgp" : "0",
      "terminal" : "0",
      "latitude" : "24.18562",
      "inDis" : "50",
      "routeId" : "藍13延",
      "seqNo" : "26"
   },
   {
      "GoBack" : "2",
      "longitude" : "120.61425",
      "outDis" : "50",
      "Id" : "4682",
      "oid" : "318982235",
      "districtId" : "1",
      "nameZh" : "福科國中",
      "pgp" : "0",
      "terminal" : "0",
      "latitude" : "24.18993",
      "inDis" : "50",
      "routeId" : "藍13延",
      "seqNo" : "27"
   },
   {
      "GoBack" : "2",
      "longitude" : "120.61181",
      "outDis" : "50",
      "Id" : "4683",
      "oid" : "318982237",
      "districtId" : "1",
      "nameZh" : "西屯玉門路口",
      "pgp" : "0",
      "terminal" : "0",
      "latitude" : "24.19087",
      "inDis" : "50",
      "routeId" : "藍13延",
      "seqNo" : "28"
   },
   {
      "GoBack" : "2",
      "longitude" : "120.61072",
      "outDis" : "50",
      "Id" : "0885",
      "oid" : "318982239",
      "districtId" : "1",
      "nameZh" : "榮總宿舍",
      "pgp" : "0",
      "terminal" : "0",
      "latitude" : "24.1898",
      "inDis" : "50",
      "routeId" : "藍13延",
      "seqNo" : "29"
   },
   {
      "GoBack" : "2",
      "longitude" : "120.61016",
      "outDis" : "50",
      "Id" : "5234",
      "oid" : "318982241",
      "districtId" : "1",
      "nameZh" : "玉門福科路口",
      "pgp" : "0",
      "terminal" : "0",
      "latitude" : "24.18753",
      "inDis" : "50",
      "routeId" : "藍13延",
      "seqNo" : "30"
   },
   {
      "GoBack" : "2",
      "longitude" : "120.60964",
      "outDis" : "50",
      "Id" : "5287",
      "oid" : "318982243",
      "districtId" : "1",
      "nameZh" : "玉門臺灣大道口",
      "pgp" : "0",
      "terminal" : "0",
      "latitude" : "24.18516",
      "inDis" : "50",
      "routeId" : "藍13延",
      "seqNo" : "31"
   },
   {
      "GoBack" : "2",
      "longitude" : "120.60836",
      "outDis" : "50",
      "Id" : "0004",
      "oid" : "318982245",
      "districtId" : "1",
      "nameZh" : "普濟寺",
      "pgp" : "0",
      "terminal" : "0",
      "latitude" : "24.18436",
      "inDis" : "50",
      "routeId" : "藍13延",
      "seqNo" : "32"
   },
   {
      "GoBack" : "2",
      "longitude" : "120.60644",
      "outDis" : "50",
      "Id" : "2378",
      "oid" : "318982247",
      "districtId" : "1",
      "nameZh" : "東大附中",
      "pgp" : "0",
      "terminal" : "0",
      "latitude" : "24.18386",
      "inDis" : "50",
      "routeId" : "藍13延",
      "seqNo" : "33"
   },
   {
      "GoBack" : "2",
      "longitude" : "120.60491",
      "outDis" : "50",
      "Id" : "5386",
      "oid" : "318982249",
      "districtId" : "1",
      "nameZh" : "臺中榮總(臺灣大道)",
      "pgp" : "0",
      "terminal" : "0",
      "latitude" : "24.18349",
      "inDis" : "50",
      "routeId" : "藍13延",
      "seqNo" : "34"
   },
   {
      "GoBack" : "2",
      "longitude" : "120.59758",
      "outDis" : "50",
      "Id" : "0526",
      "oid" : "318982251",
      "districtId" : "1",
      "nameZh" : "台中精機",
      "pgp" : "0",
      "terminal" : "0",
      "latitude" : "24.18211",
      "inDis" : "50",
      "routeId" : "藍13延",
      "seqNo" : "35"
   },
   {
      "GoBack" : "2",
      "longitude" : "120.59358",
      "outDis" : "50",
      "Id" : "0240",
      "oid" : "318982253",
      "districtId" : "1",
      "nameZh" : "東海別墅",
      "pgp" : "0",
      "terminal" : "0",
      "latitude" : "24.18267",
      "inDis" : "50",
      "routeId" : "藍13延",
      "seqNo" : "36"
   },
   {
      "GoBack" : "2",
      "longitude" : "120.59128",
      "outDis" : "50",
      "Id" : "4383",
      "oid" : "318982255",
      "districtId" : "1",
      "nameZh" : "臺糖公營學苑",
      "pgp" : "0",
      "terminal" : "0",
      "latitude" : "24.1838",
      "inDis" : "50",
      "routeId" : "藍13延",
      "seqNo" : "37"
   },
   {
      "GoBack" : "2",
      "longitude" : "120.58798",
      "outDis" : "50",
      "Id" : "5304",
      "oid" : "318982257",
      "districtId" : "1",
      "nameZh" : "東海街口",
      "pgp" : "0",
      "terminal" : "0",
      "latitude" : "24.18533",
      "inDis" : "50",
      "routeId" : "藍13延",
      "seqNo" : "38"
   },
   {
      "GoBack" : "2",
      "longitude" : "120.5847",
      "outDis" : "50",
      "Id" : "5389",
      "oid" : "318982259",
      "districtId" : "1",
      "nameZh" : "東海停車場",
      "pgp" : "0",
      "terminal" : "0",
      "latitude" : "24.18357",
      "inDis" : "50",
      "routeId" : "藍13延",
      "seqNo" : "39"
   },
   {
      "GoBack" : "2",
      "longitude" : "120.58327",
      "outDis" : "50",
      "Id" : "5144",
      "oid" : "318982261",
      "districtId" : "1",
      "nameZh" : "新庄里",
      "pgp" : "0",
      "terminal" : "0",
      "latitude" : "24.18024",
      "inDis" : "50",
      "routeId" : "藍13延",
      "seqNo" : "40"
   },
   {
      "GoBack" : "2",
      "longitude" : "120.58207",
      "outDis" : "50",
      "Id" : "3747",
      "oid" : "318982263",
      "districtId" : "1",
      "nameZh" : "磐頂教會",
      "pgp" : "0",
      "terminal" : "0",
      "latitude" : "24.17694",
      "inDis" : "50",
      "routeId" : "藍13延",
      "seqNo" : "41"
   },
   {
      "GoBack" : "2",
      "longitude" : "120.5761",
      "outDis" : "50",
      "Id" : "0399",
      "oid" : "318981926",
      "districtId" : "1",
      "nameZh" : "向上中沙路口",
      "pgp" : "0",
      "terminal" : "0",
      "latitude" : "24.1776",
      "inDis" : "50",
      "routeId" : "藍13延",
      "seqNo" : "42"
   },
   {
      "GoBack" : "2",
      "longitude" : "120.57457",
      "outDis" : "50",
      "Id" : "0531",
      "oid" : "319549152",
      "districtId" : "1",
      "nameZh" : "向上南新路口",
      "pgp" : "0",
      "terminal" : "0",
      "latitude" : "24.18083",
      "inDis" : "50",
      "routeId" : "藍13延",
      "seqNo" : "43"
   },
   {
      "GoBack" : "2",
      "longitude" : "120.57438",
      "outDis" : "50",
      "Id" : "0530",
      "oid" : "319549151",
      "districtId" : "1",
      "nameZh" : "向上中興路口",
      "pgp" : "0",
      "terminal" : "0",
      "latitude" : "24.18373",
      "inDis" : "50",
      "routeId" : "藍13延",
      "seqNo" : "44"
   },
   {
      "GoBack" : "2",
      "longitude" : "120.5676",
      "outDis" : "50",
      "Id" : "5671",
      "oid" : "319048660",
      "districtId" : "1",
      "nameZh" : "向上自立路口",
      "pgp" : "0",
      "terminal" : "0",
      "latitude" : "24.20341",
      "inDis" : "50",
      "routeId" : "藍13延",
      "seqNo" : "45"
   },
   {
      "GoBack" : "2",
      "longitude" : "120.56741",
      "outDis" : "50",
      "Id" : "1090",
      "oid" : "318982267",
      "districtId" : "1",
      "nameZh" : "三鹿里",
      "pgp" : "0",
      "terminal" : "0",
      "latitude" : "24.20448",
      "inDis" : "50",
      "routeId" : "藍13延",
      "seqNo" : "46"
   },
   {
      "GoBack" : "2",
      "longitude" : "120.56851",
      "outDis" : "50",
      "Id" : "5248",
      "oid" : "318982269",
      "districtId" : "1",
      "nameZh" : "屏西保順路口",
      "pgp" : "0",
      "terminal" : "0",
      "latitude" : "24.2085",
      "inDis" : "50",
      "routeId" : "藍13延",
      "seqNo" : "47"
   },
   {
      "GoBack" : "2",
      "longitude" : "120.5696",
      "outDis" : "50",
      "Id" : "2756",
      "oid" : "318982271",
      "districtId" : "1",
      "nameZh" : "埔仔",
      "pgp" : "0",
      "terminal" : "0",
      "latitude" : "24.21047",
      "inDis" : "50",
      "routeId" : "藍13延",
      "seqNo" : "48"
   },
   {
      "GoBack" : "2",
      "longitude" : "120.57032",
      "outDis" : "50",
      "Id" : "1782",
      "oid" : "318982273",
      "districtId" : "1",
      "nameZh" : "北埔仔",
      "pgp" : "0",
      "terminal" : "0",
      "latitude" : "24.21241",
      "inDis" : "50",
      "routeId" : "藍13延",
      "seqNo" : "49"
   },
   {
      "GoBack" : "2",
      "longitude" : "120.57057",
      "outDis" : "50",
      "Id" : "2361",
      "oid" : "318982275",
      "districtId" : "1",
      "nameZh" : "明秀",
      "pgp" : "0",
      "terminal" : "0",
      "latitude" : "24.21764",
      "inDis" : "50",
      "routeId" : "藍13延",
      "seqNo" : "50"
   },
   {
      "GoBack" : "2",
      "longitude" : "120.56962",
      "outDis" : "50",
      "Id" : "3529",
      "oid" : "318982277",
      "districtId" : "1",
      "nameZh" : "鎮南平等路口",
      "pgp" : "0",
      "terminal" : "0",
      "latitude" : "24.2205",
      "inDis" : "50",
      "routeId" : "藍13延",
      "seqNo" : "51"
   },
   {
      "GoBack" : "2",
      "longitude" : "120.56915",
      "outDis" : "50",
      "Id" : "3664",
      "oid" : "318982279",
      "districtId" : "1",
      "nameZh" : "福興",
      "pgp" : "0",
      "terminal" : "0",
      "latitude" : "24.22193",
      "inDis" : "50",
      "routeId" : "藍13延",
      "seqNo" : "52"
   },
   {
      "GoBack" : "2",
      "longitude" : "120.56875",
      "outDis" : "50",
      "Id" : "1796",
      "oid" : "318982281",
      "districtId" : "1",
      "nameZh" : "北勢頭",
      "pgp" : "0",
      "terminal" : "0",
      "latitude" : "24.22442",
      "inDis" : "50",
      "routeId" : "藍13延",
      "seqNo" : "53"
   },
   {
      "GoBack" : "2",
      "longitude" : "120.5692",
      "outDis" : "50",
      "Id" : "4794",
      "oid" : "318982285",
      "districtId" : "1",
      "nameZh" : "北勢國中",
      "pgp" : "0",
      "terminal" : "0",
      "latitude" : "24.2251",
      "inDis" : "50",
      "routeId" : "藍13延",
      "seqNo" : "54"
   },
   {
      "GoBack" : "2",
      "longitude" : "120.5731",
      "outDis" : "50",
      "Id" : "5370",
      "oid" : "318982283",
      "districtId" : "1",
      "nameZh" : "英才東英路口",
      "pgp" : "0",
      "terminal" : "0",
      "latitude" : "24.2263",
      "inDis" : "50",
      "routeId" : "藍13延",
      "seqNo" : "55"
   },
   {
      "GoBack" : "2",
      "longitude" : "120.57408",
      "outDis" : "50",
      "Id" : "4086",
      "oid" : "318982287",
      "districtId" : "1",
      "nameZh" : "臺灣大道北勢路口",
      "pgp" : "0",
      "terminal" : "0",
      "latitude" : "24.2301",
      "inDis" : "50",
      "routeId" : "藍13延",
      "seqNo" : "56"
   },
   {
      "GoBack" : "2",
      "longitude" : "120.57197",
      "outDis" : "50",
      "Id" : "4392",
      "oid" : "318982289",
      "districtId" : "1",
      "nameZh" : "紅竹巷",
      "pgp" : "0",
      "terminal" : "0",
      "latitude" : "24.23331",
      "inDis" : "50",
      "routeId" : "藍13延",
      "seqNo" : "57"
   },
   {
      "GoBack" : "2",
      "longitude" : "120.57012",
      "outDis" : "50",
      "Id" : "4389",
      "oid" : "318982291",
      "districtId" : "1",
      "nameZh" : "竹林里",
      "pgp" : "0",
      "terminal" : "0",
      "latitude" : "24.23617",
      "inDis" : "50",
      "routeId" : "藍13延",
      "seqNo" : "58"
   },
   {
      "GoBack" : "2",
      "longitude" : "120.56769",
      "outDis" : "50",
      "Id" : "2147",
      "oid" : "318982293",
      "districtId" : "1",
      "nameZh" : "竹林國小",
      "pgp" : "0",
      "terminal" : "0",
      "latitude" : "24.23844",
      "inDis" : "50",
      "routeId" : "藍13延",
      "seqNo" : "59"
   },
   {
      "GoBack" : "2",
      "longitude" : "120.56679",
      "outDis" : "50",
      "Id" : "0005",
      "oid" : "318982295",
      "districtId" : "1",
      "nameZh" : "沙鹿高工(臺灣大道)",
      "pgp" : "0",
      "terminal" : "0",
      "latitude" : "24.23893",
      "inDis" : "50",
      "routeId" : "藍13延",
      "seqNo" : "60"
   },
   {
      "GoBack" : "2",
      "longitude" : "120.56348",
      "outDis" : "50",
      "Id" : "2335",
      "oid" : "318982297",
      "districtId" : "1",
      "nameZh" : "居仁里",
      "pgp" : "0",
      "terminal" : "0",
      "latitude" : "24.24",
      "inDis" : "50",
      "routeId" : "藍13延",
      "seqNo" : "61"
   },
   {
      "GoBack" : "2",
      "longitude" : "120.5612",
      "outDis" : "50",
      "Id" : "5388",
      "oid" : "318982299",
      "districtId" : "1",
      "nameZh" : "臺灣大道中山路口",
      "pgp" : "0",
      "terminal" : "0",
      "latitude" : "24.24064",
      "inDis" : "50",
      "routeId" : "藍13延",
      "seqNo" : "62"
   },
   {
      "GoBack" : "2",
      "longitude" : "120.55624",
      "outDis" : "50",
      "Id" : "1482",
      "oid" : "318982301",
      "districtId" : "1",
      "nameZh" : "中港國小",
      "pgp" : "0",
      "terminal" : "0",
      "latitude" : "24.24263",
      "inDis" : "50",
      "routeId" : "藍13延",
      "seqNo" : "63"
   },
   {
      "GoBack" : "2",
      "longitude" : "120.54935",
      "outDis" : "50",
      "Id" : "1088",
      "oid" : "318982303",
      "districtId" : "1",
      "nameZh" : "三條圳",
      "pgp" : "0",
      "terminal" : "0",
      "latitude" : "24.24521",
      "inDis" : "50",
      "routeId" : "藍13延",
      "seqNo" : "64"
   },
   {
      "GoBack" : "2",
      "longitude" : "120.54645",
      "outDis" : "50",
      "Id" : "2380",
      "oid" : "318982305",
      "districtId" : "1",
      "nameZh" : "東大莊",
      "pgp" : "0",
      "terminal" : "0",
      "latitude" : "24.24632",
      "inDis" : "50",
      "routeId" : "藍13延",
      "seqNo" : "65"
   },
   {
      "GoBack" : "2",
      "longitude" : "120.54253",
      "outDis" : "50",
      "Id" : "4041",
      "oid" : "318982307",
      "districtId" : "1",
      "nameZh" : "童綜合醫院(梧棲院區)",
      "pgp" : "0",
      "terminal" : "0",
      "latitude" : "24.24772",
      "inDis" : "50",
      "routeId" : "藍13延",
      "seqNo" : "66"
   },
   {
      "GoBack" : "2",
      "longitude" : "120.53906",
      "outDis" : "50",
      "Id" : "1334",
      "oid" : "318982309",
      "districtId" : "1",
      "nameZh" : "大庄",
      "pgp" : "0",
      "terminal" : "0",
      "latitude" : "24.24893",
      "inDis" : "50",
      "routeId" : "藍13延",
      "seqNo" : "67"
   },
   {
      "GoBack" : "2",
      "longitude" : "120.53444",
      "outDis" : "50",
      "Id" : "3250",
      "oid" : "318982311",
      "districtId" : "1",
      "nameZh" : "臺灣大道港埠路口",
      "pgp" : "0",
      "terminal" : "0",
      "latitude" : "24.25083",
      "inDis" : "50",
      "routeId" : "藍13延",
      "seqNo" : "68"
   },
   {
      "GoBack" : "2",
      "longitude" : "120.53032",
      "outDis" : "50",
      "Id" : "2999",
      "oid" : "318982313",
      "districtId" : "1",
      "nameZh" : "梧棲國小",
      "pgp" : "0",
      "terminal" : "0",
      "latitude" : "24.25212",
      "inDis" : "50",
      "routeId" : "藍13延",
      "seqNo" : "69"
   },
   {
      "GoBack" : "2",
      "longitude" : "120.52869",
      "outDis" : "50",
      "Id" : "2107",
      "oid" : "318982315",
      "districtId" : "1",
      "nameZh" : "安仁里",
      "pgp" : "0",
      "terminal" : "0",
      "latitude" : "24.25412",
      "inDis" : "50",
      "routeId" : "藍13延",
      "seqNo" : "70"
   },
   {
      "GoBack" : "2",
      "longitude" : "120.5291",
      "outDis" : "50",
      "Id" : "2997",
      "oid" : "318982317",
      "districtId" : "1",
      "nameZh" : "梧棲(梧棲路)",
      "pgp" : "0",
      "terminal" : "0",
      "latitude" : "24.25525",
      "inDis" : "50",
      "routeId" : "藍13延",
      "seqNo" : "71"
   },
   {
      "GoBack" : "2",
      "longitude" : "120.52986",
      "outDis" : "50",
      "Id" : "5057",
      "oid" : "318982319",
      "districtId" : "1",
      "nameZh" : "梧棲郵局",
      "pgp" : "0",
      "terminal" : "0",
      "latitude" : "24.25757",
      "inDis" : "50",
      "routeId" : "藍13延",
      "seqNo" : "72"
   },
   {
      "GoBack" : "2",
      "longitude" : "120.52401",
      "outDis" : "50",
      "Id" : "4382",
      "oid" : "318982321",
      "districtId" : "1",
      "nameZh" : "臺中港港務大樓",
      "pgp" : "0",
      "terminal" : "0",
      "latitude" : "24.25585",
      "inDis" : "50",
      "routeId" : "藍13延",
      "seqNo" : "73"
   },
   {
      "GoBack" : "2",
      "longitude" : "120.5219",
      "outDis" : "50",
      "Id" : "4519",
      "oid" : "318982323",
      "districtId" : "1",
      "nameZh" : "臺中港旅客服務中心",
      "pgp" : "0",
      "terminal" : "0",
      "latitude" : "24.2601",
      "inDis" : "50",
      "routeId" : "藍13延",
      "seqNo" : "74"
   },
   {
      "GoBack" : "2",
      "longitude" : "120.5131",
      "outDis" : "50",
      "Id" : "5309",
      "oid" : "318982325",
      "districtId" : "1",
      "nameZh" : "大通經一路口",
      "pgp" : "0",
      "terminal" : "0",
      "latitude" : "24.2409",
      "inDis" : "50",
      "routeId" : "藍13延",
      "seqNo" : "75"
   },
   {
      "GoBack" : "2",
      "longitude" : "120.5109",
      "outDis" : "50",
      "Id" : "5308",
      "oid" : "318982327",
      "districtId" : "1",
      "nameZh" : "大通經二路口",
      "pgp" : "0",
      "terminal" : "0",
      "latitude" : "24.2416",
      "inDis" : "50",
      "routeId" : "藍13延",
      "seqNo" : "76"
   },
   {
      "GoBack" : "2",
      "longitude" : "120.5091",
      "outDis" : "50",
      "Id" : "5508",
      "oid" : "318982329",
      "districtId" : "1",
      "nameZh" : "經三大通路口",
      "pgp" : "0",
      "terminal" : "0",
      "latitude" : "24.2405",
      "inDis" : "50",
      "routeId" : "藍13延",
      "seqNo" : "77"
   },
   {
      "GoBack" : "2",
      "longitude" : "120.5077",
      "outDis" : "50",
      "Id" : "5509",
      "oid" : "318982331",
      "districtId" : "1",
      "nameZh" : "經三大成路口",
      "pgp" : "0",
      "terminal" : "0",
      "latitude" : "24.2372",
      "inDis" : "50",
      "routeId" : "藍13延",
      "seqNo" : "78"
   },
   {
      "GoBack" : "2",
      "longitude" : "120.5092",
      "outDis" : "50",
      "Id" : "5307",
      "oid" : "318982333",
      "districtId" : "1",
      "nameZh" : "大成經二路口",
      "pgp" : "0",
      "terminal" : "0",
      "latitude" : "24.2346",
      "inDis" : "50",
      "routeId" : "藍13延",
      "seqNo" : "79"
   },
   {
      "GoBack" : "2",
      "longitude" : "120.5113",
      "outDis" : "50",
      "Id" : "5306",
      "oid" : "318982335",
      "districtId" : "1",
      "nameZh" : "大成南路口",
      "pgp" : "0",
      "terminal" : "0",
      "latitude" : "24.2346",
      "inDis" : "50",
      "routeId" : "藍13延",
      "seqNo" : "80"
   },
   {
      "GoBack" : "2",
      "longitude" : "120.5147",
      "outDis" : "50",
      "Id" : "5305",
      "oid" : "318982337",
      "districtId" : "1",
      "nameZh" : "中港分處",
      "pgp" : "0",
      "terminal" : "0",
      "latitude" : "24.2372",
      "inDis" : "50",
      "routeId" : "藍13延",
      "seqNo" : "81"
   },
   {
      "GoBack" : "2",
      "longitude" : "120.5208",
      "outDis" : "50",
      "Id" : "0031",
      "oid" : "318982339",
      "districtId" : "1",
      "nameZh" : "自強梧南路口",
      "pgp" : "0",
      "terminal" : "0",
      "latitude" : "24.2379",
      "inDis" : "50",
      "routeId" : "藍13延",
      "seqNo" : "82"
   },
   {
      "GoBack" : "2",
      "longitude" : "120.5237",
      "outDis" : "50",
      "Id" : "5311",
      "oid" : "318982341",
      "districtId" : "1",
      "nameZh" : "關連服務中心",
      "pgp" : "0",
      "terminal" : "0",
      "latitude" : "24.2368",
      "inDis" : "50",
      "routeId" : "藍13延",
      "seqNo" : "83"
   },
   {
      "GoBack" : "2",
      "longitude" : "120.5253",
      "outDis" : "50",
      "Id" : "5312",
      "oid" : "318982343",
      "districtId" : "1",
      "nameZh" : "自立自強路口",
      "pgp" : "0",
      "terminal" : "0",
      "latitude" : "24.238",
      "inDis" : "50",
      "routeId" : "藍13延",
      "seqNo" : "84"
   },
   {
      "GoBack" : "2",
      "longitude" : "120.5285",
      "outDis" : "50",
      "Id" : "5313",
      "oid" : "318982345",
      "districtId" : "1",
      "nameZh" : "自立二街口",
      "pgp" : "0",
      "terminal" : "0",
      "latitude" : "24.2401",
      "inDis" : "50",
      "routeId" : "藍13延",
      "seqNo" : "85"
   },
   {
      "GoBack" : "2",
      "longitude" : "120.5301",
      "outDis" : "50",
      "Id" : "5314",
      "oid" : "318982347",
      "districtId" : "1",
      "nameZh" : "自立一街口",
      "pgp" : "0",
      "terminal" : "0",
      "latitude" : "24.2396",
      "inDis" : "50",
      "routeId" : "藍13延",
      "seqNo" : "86"
   }
]
