[
   {
      "GoBack" : "1",
      "longitude" : "120.57673",
      "outDis" : "50",
      "Id" : "4147",
      "oid" : "17380",
      "districtId" : "1",
      "nameZh" : "靜宜大學",
      "pgp" : "0",
      "terminal" : "0",
      "latitude" : "24.22623",
      "inDis" : "50",
      "routeId" : "169區4",
      "seqNo" : "1"
   },
   {
      "GoBack" : "1",
      "longitude" : "120.57421",
      "outDis" : "50",
      "Id" : "4086",
      "oid" : "17381",
      "districtId" : "1",
      "nameZh" : "臺灣大道北勢路口",
      "pgp" : "0",
      "terminal" : "0",
      "latitude" : "24.23015",
      "inDis" : "50",
      "routeId" : "169區4",
      "seqNo" : "2"
   },
   {
      "GoBack" : "1",
      "longitude" : "120.57201",
      "outDis" : "50",
      "Id" : "4392",
      "oid" : "17382",
      "districtId" : "1",
      "nameZh" : "紅竹巷",
      "pgp" : "0",
      "terminal" : "0",
      "latitude" : "24.23365",
      "inDis" : "50",
      "routeId" : "169區4",
      "seqNo" : "3"
   },
   {
      "GoBack" : "1",
      "longitude" : "120.56918",
      "outDis" : "50",
      "Id" : "5221",
      "oid" : "310787748",
      "districtId" : "1",
      "nameZh" : "中山臺灣大道口",
      "pgp" : "0",
      "terminal" : "0",
      "latitude" : "24.2371",
      "inDis" : "50",
      "routeId" : "169區4",
      "seqNo" : "4"
   },
   {
      "GoBack" : "1",
      "longitude" : "120.56673",
      "outDis" : "50",
      "Id" : "5222",
      "oid" : "310787750",
      "districtId" : "1",
      "nameZh" : "中山鎮政路口",
      "pgp" : "0",
      "terminal" : "0",
      "latitude" : "24.23698",
      "inDis" : "50",
      "routeId" : "169區4",
      "seqNo" : "5"
   },
   {
      "GoBack" : "1",
      "longitude" : "120.56491",
      "outDis" : "50",
      "Id" : "4390",
      "oid" : "17385",
      "districtId" : "1",
      "nameZh" : "沙鹿高工(中山路)",
      "pgp" : "0",
      "terminal" : "0",
      "latitude" : "24.23726",
      "inDis" : "50",
      "routeId" : "169區4",
      "seqNo" : "6"
   },
   {
      "GoBack" : "1",
      "longitude" : "120.56236",
      "outDis" : "50",
      "Id" : "2682",
      "oid" : "312574878",
      "districtId" : "1",
      "nameZh" : "洛泉里",
      "pgp" : "0",
      "terminal" : "0",
      "latitude" : "24.23768",
      "inDis" : "50",
      "routeId" : "169區4",
      "seqNo" : "7"
   },
   {
      "GoBack" : "1",
      "longitude" : "120.56104",
      "outDis" : "50",
      "Id" : "2248",
      "oid" : "17387",
      "districtId" : "1",
      "nameZh" : "沙鹿站",
      "pgp" : "0",
      "terminal" : "0",
      "latitude" : "24.23792",
      "inDis" : "50",
      "routeId" : "169區4",
      "seqNo" : "8"
   },
   {
      "GoBack" : "1",
      "longitude" : "120.56",
      "outDis" : "50",
      "Id" : "5135",
      "oid" : "14046",
      "districtId" : "1",
      "nameZh" : "第一銀行(沙鹿分行)",
      "pgp" : "0",
      "terminal" : "0",
      "latitude" : "24.23932",
      "inDis" : "50",
      "routeId" : "169區4",
      "seqNo" : "9"
   },
   {
      "GoBack" : "1",
      "longitude" : "120.55659",
      "outDis" : "50",
      "Id" : "1482",
      "oid" : "17389",
      "districtId" : "1",
      "nameZh" : "中港國小",
      "pgp" : "0",
      "terminal" : "0",
      "latitude" : "24.24273",
      "inDis" : "50",
      "routeId" : "169區4",
      "seqNo" : "10"
   },
   {
      "GoBack" : "1",
      "longitude" : "120.54911",
      "outDis" : "50",
      "Id" : "1088",
      "oid" : "17390",
      "districtId" : "1",
      "nameZh" : "三條圳",
      "pgp" : "0",
      "terminal" : "0",
      "latitude" : "24.24548",
      "inDis" : "50",
      "routeId" : "169區4",
      "seqNo" : "11"
   },
   {
      "GoBack" : "1",
      "longitude" : "120.54653",
      "outDis" : "50",
      "Id" : "4822",
      "oid" : "17391",
      "districtId" : "1",
      "nameZh" : "東大庄",
      "pgp" : "0",
      "terminal" : "0",
      "latitude" : "24.24643",
      "inDis" : "50",
      "routeId" : "169區4",
      "seqNo" : "12"
   },
   {
      "GoBack" : "1",
      "longitude" : "120.54472",
      "outDis" : "50",
      "Id" : "4007",
      "oid" : "17392",
      "districtId" : "1",
      "nameZh" : "體育館前",
      "pgp" : "0",
      "terminal" : "0",
      "latitude" : "24.2471",
      "inDis" : "50",
      "routeId" : "169區4",
      "seqNo" : "13"
   },
   {
      "GoBack" : "1",
      "longitude" : "120.54319",
      "outDis" : "50",
      "Id" : "4041",
      "oid" : "17393",
      "districtId" : "1",
      "nameZh" : "童綜合醫院(梧棲院區)",
      "pgp" : "0",
      "terminal" : "0",
      "latitude" : "24.24757",
      "inDis" : "50",
      "routeId" : "169區4",
      "seqNo" : "14"
   },
   {
      "GoBack" : "1",
      "longitude" : "120.54117",
      "outDis" : "50",
      "Id" : "4824",
      "oid" : "17394",
      "districtId" : "1",
      "nameZh" : "邱厝庄",
      "pgp" : "0",
      "terminal" : "0",
      "latitude" : "24.24818",
      "inDis" : "50",
      "routeId" : "169區4",
      "seqNo" : "15"
   },
   {
      "GoBack" : "1",
      "longitude" : "120.53916",
      "outDis" : "50",
      "Id" : "1334",
      "oid" : "17395",
      "districtId" : "1",
      "nameZh" : "大庄",
      "pgp" : "0",
      "terminal" : "0",
      "latitude" : "24.24908",
      "inDis" : "50",
      "routeId" : "169區4",
      "seqNo" : "16"
   },
   {
      "GoBack" : "1",
      "longitude" : "120.53444",
      "outDis" : "50",
      "Id" : "3250",
      "oid" : "17396",
      "districtId" : "1",
      "nameZh" : "臺灣大道港埠路口",
      "pgp" : "0",
      "terminal" : "0",
      "latitude" : "24.25083",
      "inDis" : "50",
      "routeId" : "169區4",
      "seqNo" : "17"
   },
   {
      "GoBack" : "1",
      "longitude" : "120.53036",
      "outDis" : "50",
      "Id" : "2999",
      "oid" : "17397",
      "districtId" : "1",
      "nameZh" : "梧棲國小",
      "pgp" : "0",
      "terminal" : "0",
      "latitude" : "24.25232",
      "inDis" : "50",
      "routeId" : "169區4",
      "seqNo" : "18"
   },
   {
      "GoBack" : "1",
      "longitude" : "120.5286",
      "outDis" : "50",
      "Id" : "2107",
      "oid" : "17400",
      "districtId" : "1",
      "nameZh" : "安仁里",
      "pgp" : "0",
      "terminal" : "0",
      "latitude" : "24.25366",
      "inDis" : "50",
      "routeId" : "169區4",
      "seqNo" : "19"
   },
   {
      "GoBack" : "1",
      "longitude" : "120.52957",
      "outDis" : "50",
      "Id" : "2997",
      "oid" : "17401",
      "districtId" : "1",
      "nameZh" : "梧棲(梧棲路)",
      "pgp" : "0",
      "terminal" : "0",
      "latitude" : "24.25658",
      "inDis" : "50",
      "routeId" : "169區4",
      "seqNo" : "20"
   },
   {
      "GoBack" : "1",
      "longitude" : "120.53009",
      "outDis" : "50",
      "Id" : "1208",
      "oid" : "17402",
      "districtId" : "1",
      "nameZh" : "下寮社區",
      "pgp" : "0",
      "terminal" : "0",
      "latitude" : "24.25856",
      "inDis" : "50",
      "routeId" : "169區4",
      "seqNo" : "21"
   },
   {
      "GoBack" : "1",
      "longitude" : "120.53035",
      "outDis" : "50",
      "Id" : "4783",
      "oid" : "15224",
      "districtId" : "1",
      "nameZh" : "下寮里(富美宮)",
      "pgp" : "0",
      "terminal" : "0",
      "latitude" : "24.26079",
      "inDis" : "50",
      "routeId" : "169區4",
      "seqNo" : "22"
   },
   {
      "GoBack" : "1",
      "longitude" : "120.53229",
      "outDis" : "50",
      "Id" : "4668",
      "oid" : "17403",
      "districtId" : "1",
      "nameZh" : "頂寮里",
      "pgp" : "0",
      "terminal" : "0",
      "latitude" : "24.26037",
      "inDis" : "50",
      "routeId" : "169區4",
      "seqNo" : "23"
   },
   {
      "GoBack" : "1",
      "longitude" : "120.53495",
      "outDis" : "50",
      "Id" : "4840",
      "oid" : "17404",
      "districtId" : "1",
      "nameZh" : "國都飯店",
      "pgp" : "0",
      "terminal" : "0",
      "latitude" : "24.25932",
      "inDis" : "50",
      "routeId" : "169區4",
      "seqNo" : "24"
   },
   {
      "GoBack" : "1",
      "longitude" : "120.53662",
      "outDis" : "50",
      "Id" : "5065",
      "oid" : "17405",
      "districtId" : "1",
      "nameZh" : "臺銀中港分行",
      "pgp" : "0",
      "terminal" : "0",
      "latitude" : "24.25995",
      "inDis" : "50",
      "routeId" : "169區4",
      "seqNo" : "25"
   },
   {
      "GoBack" : "1",
      "longitude" : "120.53741",
      "outDis" : "50",
      "Id" : "5064",
      "oid" : "17406",
      "districtId" : "1",
      "nameZh" : "臺中港郵局",
      "pgp" : "0",
      "terminal" : "0",
      "latitude" : "24.26193",
      "inDis" : "50",
      "routeId" : "169區4",
      "seqNo" : "26"
   },
   {
      "GoBack" : "1",
      "longitude" : "120.54158",
      "outDis" : "50",
      "Id" : "4810",
      "oid" : "17407",
      "districtId" : "1",
      "nameZh" : "竹圍(港埠路)",
      "pgp" : "0",
      "terminal" : "0",
      "latitude" : "24.2618",
      "inDis" : "50",
      "routeId" : "169區4",
      "seqNo" : "27"
   },
   {
      "GoBack" : "1",
      "longitude" : "120.54513",
      "outDis" : "50",
      "Id" : "3895",
      "oid" : "17408",
      "districtId" : "1",
      "nameZh" : "糠榔",
      "pgp" : "0",
      "terminal" : "0",
      "latitude" : "24.26342",
      "inDis" : "50",
      "routeId" : "169區4",
      "seqNo" : "28"
   },
   {
      "GoBack" : "1",
      "longitude" : "120.54853",
      "outDis" : "50",
      "Id" : "2444",
      "oid" : "17409",
      "districtId" : "1",
      "nameZh" : "東糠榔",
      "pgp" : "0",
      "terminal" : "0",
      "latitude" : "24.26431",
      "inDis" : "50",
      "routeId" : "169區4",
      "seqNo" : "29"
   },
   {
      "GoBack" : "1",
      "longitude" : "120.55146",
      "outDis" : "50",
      "Id" : "2177",
      "oid" : "17410",
      "districtId" : "1",
      "nameZh" : "西牛埔",
      "pgp" : "0",
      "terminal" : "0",
      "latitude" : "24.26504",
      "inDis" : "50",
      "routeId" : "169區4",
      "seqNo" : "30"
   },
   {
      "GoBack" : "1",
      "longitude" : "120.55556",
      "outDis" : "50",
      "Id" : "1732",
      "oid" : "17411",
      "districtId" : "1",
      "nameZh" : "牛埔",
      "pgp" : "0",
      "terminal" : "0",
      "latitude" : "24.26601",
      "inDis" : "50",
      "routeId" : "169區4",
      "seqNo" : "31"
   },
   {
      "GoBack" : "1",
      "longitude" : "120.56046",
      "outDis" : "50",
      "Id" : "2588",
      "oid" : "17412",
      "districtId" : "1",
      "nameZh" : "南社里",
      "pgp" : "0",
      "terminal" : "0",
      "latitude" : "24.26715",
      "inDis" : "50",
      "routeId" : "169區4",
      "seqNo" : "32"
   },
   {
      "GoBack" : "1",
      "longitude" : "120.56271",
      "outDis" : "50",
      "Id" : "3017",
      "oid" : "17414",
      "districtId" : "1",
      "nameZh" : "清水國中",
      "pgp" : "0",
      "terminal" : "0",
      "latitude" : "24.26778",
      "inDis" : "50",
      "routeId" : "169區4",
      "seqNo" : "34"
   },
   {
      "GoBack" : "1",
      "longitude" : "120.5648",
      "outDis" : "50",
      "Id" : "3700",
      "oid" : "17415",
      "districtId" : "1",
      "nameZh" : "銀聯二村",
      "pgp" : "0",
      "terminal" : "0",
      "latitude" : "24.26832",
      "inDis" : "50",
      "routeId" : "169區4",
      "seqNo" : "35"
   },
   {
      "GoBack" : "1",
      "longitude" : "120.56825",
      "outDis" : "50",
      "Id" : "2486",
      "oid" : "17416",
      "districtId" : "1",
      "nameZh" : "社口",
      "pgp" : "0",
      "terminal" : "0",
      "latitude" : "24.26845",
      "inDis" : "50",
      "routeId" : "169區4",
      "seqNo" : "36"
   },
   {
      "GoBack" : "1",
      "longitude" : "120.57004",
      "outDis" : "50",
      "Id" : "5655",
      "oid" : "317714376",
      "districtId" : "1",
      "nameZh" : "鰲峰西社路口",
      "pgp" : "0",
      "terminal" : "0",
      "latitude" : "24.26923",
      "inDis" : "50",
      "routeId" : "169區4",
      "seqNo" : "37"
   },
   {
      "GoBack" : "1",
      "longitude" : "120.57531",
      "outDis" : "50",
      "Id" : "1615",
      "oid" : "17418",
      "districtId" : "1",
      "nameZh" : "分局前",
      "pgp" : "0",
      "terminal" : "0",
      "latitude" : "24.26919",
      "inDis" : "50",
      "routeId" : "169區4",
      "seqNo" : "38"
   },
   {
      "GoBack" : "1",
      "longitude" : "120.57594",
      "outDis" : "50",
      "Id" : "3013",
      "oid" : "10843",
      "districtId" : "1",
      "nameZh" : "清水",
      "pgp" : "0",
      "terminal" : "0",
      "latitude" : "24.2703",
      "inDis" : "50",
      "routeId" : "169區4",
      "seqNo" : "39"
   },
   {
      "GoBack" : "2",
      "longitude" : "120.57594",
      "outDis" : "50",
      "Id" : "3013",
      "oid" : "10843",
      "districtId" : "1",
      "nameZh" : "清水",
      "pgp" : "0",
      "terminal" : "0",
      "latitude" : "24.2703",
      "inDis" : "50",
      "routeId" : "169區4",
      "seqNo" : "1"
   },
   {
      "GoBack" : "2",
      "longitude" : "120.57531",
      "outDis" : "50",
      "Id" : "1615",
      "oid" : "17421",
      "districtId" : "1",
      "nameZh" : "分局前",
      "pgp" : "0",
      "terminal" : "0",
      "latitude" : "24.26919",
      "inDis" : "50",
      "routeId" : "169區4",
      "seqNo" : "2"
   },
   {
      "GoBack" : "2",
      "longitude" : "120.57004",
      "outDis" : "50",
      "Id" : "5655",
      "oid" : "317714376",
      "districtId" : "1",
      "nameZh" : "鰲峰西社路口",
      "pgp" : "0",
      "terminal" : "0",
      "latitude" : "24.26923",
      "inDis" : "50",
      "routeId" : "169區4",
      "seqNo" : "3"
   },
   {
      "GoBack" : "2",
      "longitude" : "120.56825",
      "outDis" : "50",
      "Id" : "2486",
      "oid" : "17423",
      "districtId" : "1",
      "nameZh" : "社口",
      "pgp" : "0",
      "terminal" : "0",
      "latitude" : "24.26845",
      "inDis" : "50",
      "routeId" : "169區4",
      "seqNo" : "4"
   },
   {
      "GoBack" : "2",
      "longitude" : "120.5648",
      "outDis" : "50",
      "Id" : "3700",
      "oid" : "17424",
      "districtId" : "1",
      "nameZh" : "銀聯二村",
      "pgp" : "0",
      "terminal" : "0",
      "latitude" : "24.26832",
      "inDis" : "50",
      "routeId" : "169區4",
      "seqNo" : "5"
   },
   {
      "GoBack" : "2",
      "longitude" : "120.56271",
      "outDis" : "50",
      "Id" : "3017",
      "oid" : "17425",
      "districtId" : "1",
      "nameZh" : "清水國中",
      "pgp" : "0",
      "terminal" : "0",
      "latitude" : "24.26778",
      "inDis" : "50",
      "routeId" : "169區4",
      "seqNo" : "6"
   },
   {
      "GoBack" : "2",
      "longitude" : "120.56046",
      "outDis" : "50",
      "Id" : "2588",
      "oid" : "17427",
      "districtId" : "1",
      "nameZh" : "南社里",
      "pgp" : "0",
      "terminal" : "0",
      "latitude" : "24.26715",
      "inDis" : "50",
      "routeId" : "169區4",
      "seqNo" : "8"
   },
   {
      "GoBack" : "2",
      "longitude" : "120.55556",
      "outDis" : "50",
      "Id" : "1732",
      "oid" : "17428",
      "districtId" : "1",
      "nameZh" : "牛埔",
      "pgp" : "0",
      "terminal" : "0",
      "latitude" : "24.26601",
      "inDis" : "50",
      "routeId" : "169區4",
      "seqNo" : "9"
   },
   {
      "GoBack" : "2",
      "longitude" : "120.55146",
      "outDis" : "50",
      "Id" : "2177",
      "oid" : "17429",
      "districtId" : "1",
      "nameZh" : "西牛埔",
      "pgp" : "0",
      "terminal" : "0",
      "latitude" : "24.26504",
      "inDis" : "50",
      "routeId" : "169區4",
      "seqNo" : "10"
   },
   {
      "GoBack" : "2",
      "longitude" : "120.54853",
      "outDis" : "50",
      "Id" : "2444",
      "oid" : "17430",
      "districtId" : "1",
      "nameZh" : "東糠榔",
      "pgp" : "0",
      "terminal" : "0",
      "latitude" : "24.26431",
      "inDis" : "50",
      "routeId" : "169區4",
      "seqNo" : "11"
   },
   {
      "GoBack" : "2",
      "longitude" : "120.54513",
      "outDis" : "50",
      "Id" : "3895",
      "oid" : "17431",
      "districtId" : "1",
      "nameZh" : "糠榔",
      "pgp" : "0",
      "terminal" : "0",
      "latitude" : "24.26342",
      "inDis" : "50",
      "routeId" : "169區4",
      "seqNo" : "12"
   },
   {
      "GoBack" : "2",
      "longitude" : "120.54158",
      "outDis" : "50",
      "Id" : "4810",
      "oid" : "17432",
      "districtId" : "1",
      "nameZh" : "竹圍(港埠路)",
      "pgp" : "0",
      "terminal" : "0",
      "latitude" : "24.2618",
      "inDis" : "50",
      "routeId" : "169區4",
      "seqNo" : "13"
   },
   {
      "GoBack" : "2",
      "longitude" : "120.53741",
      "outDis" : "50",
      "Id" : "5064",
      "oid" : "17433",
      "districtId" : "1",
      "nameZh" : "臺中港郵局",
      "pgp" : "0",
      "terminal" : "0",
      "latitude" : "24.26193",
      "inDis" : "50",
      "routeId" : "169區4",
      "seqNo" : "14"
   },
   {
      "GoBack" : "2",
      "longitude" : "120.53642",
      "outDis" : "50",
      "Id" : "5065",
      "oid" : "17434",
      "districtId" : "1",
      "nameZh" : "臺銀中港分行",
      "pgp" : "0",
      "terminal" : "0",
      "latitude" : "24.25989",
      "inDis" : "50",
      "routeId" : "169區4",
      "seqNo" : "15"
   },
   {
      "GoBack" : "2",
      "longitude" : "120.5349",
      "outDis" : "50",
      "Id" : "4840",
      "oid" : "17435",
      "districtId" : "1",
      "nameZh" : "國都飯店",
      "pgp" : "0",
      "terminal" : "0",
      "latitude" : "24.2594",
      "inDis" : "50",
      "routeId" : "169區4",
      "seqNo" : "16"
   },
   {
      "GoBack" : "2",
      "longitude" : "120.53231",
      "outDis" : "50",
      "Id" : "4668",
      "oid" : "17436",
      "districtId" : "1",
      "nameZh" : "頂寮里",
      "pgp" : "0",
      "terminal" : "0",
      "latitude" : "24.2604",
      "inDis" : "50",
      "routeId" : "169區4",
      "seqNo" : "17"
   },
   {
      "GoBack" : "2",
      "longitude" : "120.53035",
      "outDis" : "50",
      "Id" : "4783",
      "oid" : "15281",
      "districtId" : "1",
      "nameZh" : "下寮里(富美宮)",
      "pgp" : "0",
      "terminal" : "0",
      "latitude" : "24.26079",
      "inDis" : "50",
      "routeId" : "169區4",
      "seqNo" : "18"
   },
   {
      "GoBack" : "2",
      "longitude" : "120.53002",
      "outDis" : "50",
      "Id" : "1208",
      "oid" : "17437",
      "districtId" : "1",
      "nameZh" : "下寮社區",
      "pgp" : "0",
      "terminal" : "0",
      "latitude" : "24.25874",
      "inDis" : "50",
      "routeId" : "169區4",
      "seqNo" : "19"
   },
   {
      "GoBack" : "2",
      "longitude" : "120.52957",
      "outDis" : "50",
      "Id" : "2997",
      "oid" : "17438",
      "districtId" : "1",
      "nameZh" : "梧棲(梧棲路)",
      "pgp" : "0",
      "terminal" : "0",
      "latitude" : "24.25658",
      "inDis" : "50",
      "routeId" : "169區4",
      "seqNo" : "20"
   },
   {
      "GoBack" : "2",
      "longitude" : "120.52855",
      "outDis" : "50",
      "Id" : "2107",
      "oid" : "17439",
      "districtId" : "1",
      "nameZh" : "安仁里",
      "pgp" : "0",
      "terminal" : "0",
      "latitude" : "24.25361",
      "inDis" : "50",
      "routeId" : "169區4",
      "seqNo" : "21"
   },
   {
      "GoBack" : "2",
      "longitude" : "120.53032",
      "outDis" : "50",
      "Id" : "2999",
      "oid" : "17442",
      "districtId" : "1",
      "nameZh" : "梧棲國小",
      "pgp" : "0",
      "terminal" : "0",
      "latitude" : "24.25212",
      "inDis" : "50",
      "routeId" : "169區4",
      "seqNo" : "22"
   },
   {
      "GoBack" : "2",
      "longitude" : "120.53444",
      "outDis" : "50",
      "Id" : "3250",
      "oid" : "17443",
      "districtId" : "1",
      "nameZh" : "臺灣大道港埠路口",
      "pgp" : "0",
      "terminal" : "0",
      "latitude" : "24.25083",
      "inDis" : "50",
      "routeId" : "169區4",
      "seqNo" : "23"
   },
   {
      "GoBack" : "2",
      "longitude" : "120.53916",
      "outDis" : "50",
      "Id" : "1334",
      "oid" : "17444",
      "districtId" : "1",
      "nameZh" : "大庄",
      "pgp" : "0",
      "terminal" : "0",
      "latitude" : "24.24908",
      "inDis" : "50",
      "routeId" : "169區4",
      "seqNo" : "24"
   },
   {
      "GoBack" : "2",
      "longitude" : "120.54117",
      "outDis" : "50",
      "Id" : "4824",
      "oid" : "17445",
      "districtId" : "1",
      "nameZh" : "邱厝庄",
      "pgp" : "0",
      "terminal" : "0",
      "latitude" : "24.24818",
      "inDis" : "50",
      "routeId" : "169區4",
      "seqNo" : "25"
   },
   {
      "GoBack" : "2",
      "longitude" : "120.54319",
      "outDis" : "50",
      "Id" : "4041",
      "oid" : "17446",
      "districtId" : "1",
      "nameZh" : "童綜合醫院(梧棲院區)",
      "pgp" : "0",
      "terminal" : "0",
      "latitude" : "24.24757",
      "inDis" : "50",
      "routeId" : "169區4",
      "seqNo" : "26"
   },
   {
      "GoBack" : "2",
      "longitude" : "120.54472",
      "outDis" : "50",
      "Id" : "4007",
      "oid" : "17447",
      "districtId" : "1",
      "nameZh" : "體育館前",
      "pgp" : "0",
      "terminal" : "0",
      "latitude" : "24.2471",
      "inDis" : "50",
      "routeId" : "169區4",
      "seqNo" : "27"
   },
   {
      "GoBack" : "2",
      "longitude" : "120.54653",
      "outDis" : "50",
      "Id" : "4822",
      "oid" : "17448",
      "districtId" : "1",
      "nameZh" : "東大庄",
      "pgp" : "0",
      "terminal" : "0",
      "latitude" : "24.24643",
      "inDis" : "50",
      "routeId" : "169區4",
      "seqNo" : "28"
   },
   {
      "GoBack" : "2",
      "longitude" : "120.54911",
      "outDis" : "50",
      "Id" : "1088",
      "oid" : "17449",
      "districtId" : "1",
      "nameZh" : "三條圳",
      "pgp" : "0",
      "terminal" : "0",
      "latitude" : "24.24548",
      "inDis" : "50",
      "routeId" : "169區4",
      "seqNo" : "29"
   },
   {
      "GoBack" : "2",
      "longitude" : "120.55659",
      "outDis" : "50",
      "Id" : "1482",
      "oid" : "17450",
      "districtId" : "1",
      "nameZh" : "中港國小",
      "pgp" : "0",
      "terminal" : "0",
      "latitude" : "24.24273",
      "inDis" : "50",
      "routeId" : "169區4",
      "seqNo" : "30"
   },
   {
      "GoBack" : "2",
      "longitude" : "120.56",
      "outDis" : "50",
      "Id" : "5135",
      "oid" : "14046",
      "districtId" : "1",
      "nameZh" : "第一銀行(沙鹿分行)",
      "pgp" : "0",
      "terminal" : "0",
      "latitude" : "24.23932",
      "inDis" : "50",
      "routeId" : "169區4",
      "seqNo" : "31"
   },
   {
      "GoBack" : "2",
      "longitude" : "120.561",
      "outDis" : "50",
      "Id" : "2248",
      "oid" : "17452",
      "districtId" : "1",
      "nameZh" : "沙鹿站",
      "pgp" : "0",
      "terminal" : "0",
      "latitude" : "24.23782",
      "inDis" : "50",
      "routeId" : "169區4",
      "seqNo" : "32"
   },
   {
      "GoBack" : "2",
      "longitude" : "120.56236",
      "outDis" : "50",
      "Id" : "2682",
      "oid" : "312574878",
      "districtId" : "1",
      "nameZh" : "洛泉里",
      "pgp" : "0",
      "terminal" : "0",
      "latitude" : "24.23768",
      "inDis" : "50",
      "routeId" : "169區4",
      "seqNo" : "33"
   },
   {
      "GoBack" : "2",
      "longitude" : "120.56494",
      "outDis" : "50",
      "Id" : "4390",
      "oid" : "17454",
      "districtId" : "1",
      "nameZh" : "沙鹿高工(中山路)",
      "pgp" : "0",
      "terminal" : "0",
      "latitude" : "24.23722",
      "inDis" : "50",
      "routeId" : "169區4",
      "seqNo" : "34"
   },
   {
      "GoBack" : "2",
      "longitude" : "120.56673",
      "outDis" : "50",
      "Id" : "5222",
      "oid" : "310787750",
      "districtId" : "1",
      "nameZh" : "中山鎮政路口",
      "pgp" : "0",
      "terminal" : "0",
      "latitude" : "24.23698",
      "inDis" : "50",
      "routeId" : "169區4",
      "seqNo" : "35"
   },
   {
      "GoBack" : "2",
      "longitude" : "120.56918",
      "outDis" : "50",
      "Id" : "5221",
      "oid" : "310787748",
      "districtId" : "1",
      "nameZh" : "中山臺灣大道口",
      "pgp" : "0",
      "terminal" : "0",
      "latitude" : "24.2371",
      "inDis" : "50",
      "routeId" : "169區4",
      "seqNo" : "36"
   },
   {
      "GoBack" : "2",
      "longitude" : "120.56994",
      "outDis" : "50",
      "Id" : "4389",
      "oid" : "17457",
      "districtId" : "1",
      "nameZh" : "竹林里",
      "pgp" : "0",
      "terminal" : "0",
      "latitude" : "24.23632",
      "inDis" : "50",
      "routeId" : "169區4",
      "seqNo" : "37"
   },
   {
      "GoBack" : "2",
      "longitude" : "120.57129",
      "outDis" : "50",
      "Id" : "4392",
      "oid" : "17458",
      "districtId" : "1",
      "nameZh" : "紅竹巷",
      "pgp" : "0",
      "terminal" : "0",
      "latitude" : "24.2342",
      "inDis" : "50",
      "routeId" : "169區4",
      "seqNo" : "38"
   },
   {
      "GoBack" : "2",
      "longitude" : "120.57331",
      "outDis" : "50",
      "Id" : "4086",
      "oid" : "17459",
      "districtId" : "1",
      "nameZh" : "臺灣大道北勢路口",
      "pgp" : "0",
      "terminal" : "0",
      "latitude" : "24.23102",
      "inDis" : "50",
      "routeId" : "169區4",
      "seqNo" : "39"
   },
   {
      "GoBack" : "2",
      "longitude" : "120.5771",
      "outDis" : "50",
      "Id" : "4147",
      "oid" : "17531",
      "districtId" : "1",
      "nameZh" : "靜宜大學",
      "pgp" : "0",
      "terminal" : "0",
      "latitude" : "24.22495",
      "inDis" : "50",
      "routeId" : "169區4",
      "seqNo" : "40"
   }
]
