[
   {
      "GoBack" : "1",
      "longitude" : "120.68458",
      "outDis" : "50",
      "Id" : "0041",
      "oid" : "8162",
      "districtId" : "1",
      "nameZh" : "臺中火車站",
      "pgp" : "0",
      "terminal" : "0",
      "latitude" : "24.13792",
      "inDis" : "50",
      "routeId" : "67",
      "seqNo" : "1"
   },
   {
      "GoBack" : "1",
      "longitude" : "120.68606",
      "outDis" : "50",
      "Id" : "0402",
      "oid" : "11180",
      "districtId" : "1",
      "nameZh" : "干城站",
      "pgp" : "0",
      "terminal" : "0",
      "latitude" : "24.14088",
      "inDis" : "50",
      "routeId" : "67",
      "seqNo" : "2"
   },
   {
      "GoBack" : "1",
      "longitude" : "120.68617",
      "outDis" : "50",
      "Id" : "4544",
      "oid" : "11187",
      "districtId" : "1",
      "nameZh" : "臺中公園(雙十路)",
      "pgp" : "0",
      "terminal" : "0",
      "latitude" : "24.14406",
      "inDis" : "50",
      "routeId" : "67",
      "seqNo" : "3"
   },
   {
      "GoBack" : "1",
      "longitude" : "120.68646",
      "outDis" : "50",
      "Id" : "4695",
      "oid" : "11208",
      "districtId" : "1",
      "nameZh" : "臺灣體大游泳池",
      "pgp" : "0",
      "terminal" : "0",
      "latitude" : "24.14707",
      "inDis" : "50",
      "routeId" : "67",
      "seqNo" : "4"
   },
   {
      "GoBack" : "1",
      "longitude" : "120.68753",
      "outDis" : "50",
      "Id" : "0149",
      "oid" : "11186",
      "districtId" : "1",
      "nameZh" : "臺中一中",
      "pgp" : "0",
      "terminal" : "0",
      "latitude" : "24.1495",
      "inDis" : "50",
      "routeId" : "67",
      "seqNo" : "5"
   },
   {
      "GoBack" : "1",
      "longitude" : "120.68882",
      "outDis" : "50",
      "Id" : "4694",
      "oid" : "11222",
      "districtId" : "1",
      "nameZh" : "臺灣體大體育場",
      "pgp" : "0",
      "terminal" : "0",
      "latitude" : "24.15255",
      "inDis" : "50",
      "routeId" : "67",
      "seqNo" : "6"
   },
   {
      "GoBack" : "1",
      "longitude" : "120.68819",
      "outDis" : "50",
      "Id" : "0048",
      "oid" : "11206",
      "districtId" : "1",
      "nameZh" : "莒光新城",
      "pgp" : "0",
      "terminal" : "0",
      "latitude" : "24.15398",
      "inDis" : "50",
      "routeId" : "67",
      "seqNo" : "7"
   },
   {
      "GoBack" : "1",
      "longitude" : "120.68375",
      "outDis" : "50",
      "Id" : "3772",
      "oid" : "11182",
      "districtId" : "1",
      "nameZh" : "五權學士路口",
      "pgp" : "0",
      "terminal" : "0",
      "latitude" : "24.15386",
      "inDis" : "50",
      "routeId" : "67",
      "seqNo" : "8"
   },
   {
      "GoBack" : "1",
      "longitude" : "120.68182",
      "outDis" : "50",
      "Id" : "0406",
      "oid" : "11181",
      "districtId" : "1",
      "nameZh" : "中山堂",
      "pgp" : "0",
      "terminal" : "0",
      "latitude" : "24.15519",
      "inDis" : "50",
      "routeId" : "67",
      "seqNo" : "9"
   },
   {
      "GoBack" : "1",
      "longitude" : "120.6814",
      "outDis" : "50",
      "Id" : "0426",
      "oid" : "11183",
      "districtId" : "1",
      "nameZh" : "中國醫藥大學",
      "pgp" : "0",
      "terminal" : "0",
      "latitude" : "24.15649",
      "inDis" : "50",
      "routeId" : "67",
      "seqNo" : "10"
   },
   {
      "GoBack" : "1",
      "longitude" : "120.68085",
      "outDis" : "50",
      "Id" : "4575",
      "oid" : "11204",
      "districtId" : "1",
      "nameZh" : "學士健行路口",
      "pgp" : "0",
      "terminal" : "0",
      "latitude" : "24.15927",
      "inDis" : "50",
      "routeId" : "67",
      "seqNo" : "11"
   },
   {
      "GoBack" : "1",
      "longitude" : "120.68093",
      "outDis" : "50",
      "Id" : "4577",
      "oid" : "11216",
      "districtId" : "1",
      "nameZh" : "學士德化街口",
      "pgp" : "0",
      "terminal" : "0",
      "latitude" : "24.16133",
      "inDis" : "50",
      "routeId" : "67",
      "seqNo" : "12"
   },
   {
      "GoBack" : "1",
      "longitude" : "120.68285",
      "outDis" : "50",
      "Id" : "5603",
      "oid" : "11209",
      "districtId" : "1",
      "nameZh" : "進化永興街口",
      "pgp" : "0",
      "terminal" : "0",
      "latitude" : "24.16306",
      "inDis" : "50",
      "routeId" : "67",
      "seqNo" : "13"
   },
   {
      "GoBack" : "1",
      "longitude" : "120.68508",
      "outDis" : "50",
      "Id" : "0098",
      "oid" : "11205",
      "districtId" : "1",
      "nameZh" : "崇德橋",
      "pgp" : "0",
      "terminal" : "0",
      "latitude" : "24.16438",
      "inDis" : "50",
      "routeId" : "67",
      "seqNo" : "14"
   },
   {
      "GoBack" : "1",
      "longitude" : "120.68315",
      "outDis" : "50",
      "Id" : "4172",
      "oid" : "11213",
      "districtId" : "1",
      "nameZh" : "漢口永興街口",
      "pgp" : "0",
      "terminal" : "0",
      "latitude" : "24.16705",
      "inDis" : "50",
      "routeId" : "67",
      "seqNo" : "15"
   },
   {
      "GoBack" : "1",
      "longitude" : "120.67883",
      "outDis" : "50",
      "Id" : "4175",
      "oid" : "11218",
      "districtId" : "1",
      "nameZh" : "賴厝國小",
      "pgp" : "0",
      "terminal" : "0",
      "latitude" : "24.1671",
      "inDis" : "50",
      "routeId" : "67",
      "seqNo" : "16"
   },
   {
      "GoBack" : "1",
      "longitude" : "120.67582",
      "outDis" : "50",
      "Id" : "4984",
      "oid" : "11212",
      "districtId" : "1",
      "nameZh" : "漢口山西路口",
      "pgp" : "0",
      "terminal" : "0",
      "latitude" : "24.16704",
      "inDis" : "50",
      "routeId" : "67",
      "seqNo" : "17"
   },
   {
      "GoBack" : "1",
      "longitude" : "120.67414",
      "outDis" : "50",
      "Id" : "4644",
      "oid" : "11217",
      "districtId" : "1",
      "nameZh" : "曉明女中(漢口路)",
      "pgp" : "0",
      "terminal" : "0",
      "latitude" : "24.16699",
      "inDis" : "50",
      "routeId" : "67",
      "seqNo" : "18"
   },
   {
      "GoBack" : "1",
      "longitude" : "120.66863",
      "outDis" : "50",
      "Id" : "4170",
      "oid" : "11211",
      "districtId" : "1",
      "nameZh" : "漢口大飯店",
      "pgp" : "0",
      "terminal" : "0",
      "latitude" : "24.16689",
      "inDis" : "50",
      "routeId" : "67",
      "seqNo" : "19"
   },
   {
      "GoBack" : "1",
      "longitude" : "120.66621",
      "outDis" : "50",
      "Id" : "4164",
      "oid" : "11185",
      "districtId" : "1",
      "nameZh" : "中華國小",
      "pgp" : "0",
      "terminal" : "0",
      "latitude" : "24.16686",
      "inDis" : "50",
      "routeId" : "67",
      "seqNo" : "20"
   },
   {
      "GoBack" : "1",
      "longitude" : "120.66347",
      "outDis" : "50",
      "Id" : "4163",
      "oid" : "11179",
      "districtId" : "1",
      "nameZh" : "三信公園",
      "pgp" : "0",
      "terminal" : "0",
      "latitude" : "24.16609",
      "inDis" : "50",
      "routeId" : "67",
      "seqNo" : "21"
   },
   {
      "GoBack" : "1",
      "longitude" : "120.66111",
      "outDis" : "50",
      "Id" : "4169",
      "oid" : "11210",
      "districtId" : "1",
      "nameZh" : "漢口大信街",
      "pgp" : "0",
      "terminal" : "0",
      "latitude" : "24.16489",
      "inDis" : "50",
      "routeId" : "67",
      "seqNo" : "22"
   },
   {
      "GoBack" : "1",
      "longitude" : "120.65928",
      "outDis" : "50",
      "Id" : "4983",
      "oid" : "309269466",
      "districtId" : "1",
      "nameZh" : "漢口西屯路口",
      "pgp" : "0",
      "terminal" : "0",
      "latitude" : "24.16388",
      "inDis" : "50",
      "routeId" : "67",
      "seqNo" : "23"
   },
   {
      "GoBack" : "1",
      "longitude" : "120.65543",
      "outDis" : "50",
      "Id" : "0118",
      "oid" : "11196",
      "districtId" : "1",
      "nameZh" : "何厝國小",
      "pgp" : "0",
      "terminal" : "0",
      "latitude" : "24.16428",
      "inDis" : "50",
      "routeId" : "67",
      "seqNo" : "24"
   },
   {
      "GoBack" : "1",
      "longitude" : "120.65269",
      "outDis" : "50",
      "Id" : "0117",
      "oid" : "11200",
      "districtId" : "1",
      "nameZh" : "青海文心路口",
      "pgp" : "0",
      "terminal" : "0",
      "latitude" : "24.16563",
      "inDis" : "50",
      "routeId" : "67",
      "seqNo" : "25"
   },
   {
      "GoBack" : "1",
      "longitude" : "120.64896",
      "outDis" : "50",
      "Id" : "1470",
      "oid" : "11215",
      "districtId" : "1",
      "nameZh" : "臺中市後備指揮部",
      "pgp" : "0",
      "terminal" : "0",
      "latitude" : "24.16755",
      "inDis" : "50",
      "routeId" : "67",
      "seqNo" : "26"
   },
   {
      "GoBack" : "1",
      "longitude" : "120.64663",
      "outDis" : "50",
      "Id" : "0115",
      "oid" : "27C028DEF2524E17AAC2F6974D1E4565",
      "districtId" : "1",
      "nameZh" : "青海弘孝路口",
      "pgp" : "0",
      "terminal" : "0",
      "latitude" : "24.16922",
      "inDis" : "50",
      "routeId" : "67",
      "seqNo" : "27"
   },
   {
      "GoBack" : "1",
      "longitude" : "120.64482",
      "outDis" : "50",
      "Id" : "4167",
      "oid" : "10596",
      "districtId" : "1",
      "nameZh" : "青海河南路口",
      "pgp" : "0",
      "terminal" : "0",
      "latitude" : "24.17109",
      "inDis" : "50",
      "routeId" : "67",
      "seqNo" : "28"
   },
   {
      "GoBack" : "1",
      "longitude" : "120.64326",
      "outDis" : "50",
      "Id" : "4428",
      "oid" : "304988483",
      "districtId" : "1",
      "nameZh" : "青海上仁街口",
      "pgp" : "0",
      "terminal" : "0",
      "latitude" : "24.17206",
      "inDis" : "50",
      "routeId" : "67",
      "seqNo" : "29"
   },
   {
      "GoBack" : "1",
      "longitude" : "120.64082",
      "outDis" : "50",
      "Id" : "4614",
      "oid" : "11194",
      "districtId" : "1",
      "nameZh" : "至善國中(青海路)",
      "pgp" : "0",
      "terminal" : "0",
      "latitude" : "24.17385",
      "inDis" : "50",
      "routeId" : "67",
      "seqNo" : "30"
   },
   {
      "GoBack" : "1",
      "longitude" : "120.63853",
      "outDis" : "50",
      "Id" : "4616",
      "oid" : "11201",
      "districtId" : "1",
      "nameZh" : "青海光明路口",
      "pgp" : "0",
      "terminal" : "0",
      "latitude" : "24.17531",
      "inDis" : "50",
      "routeId" : "67",
      "seqNo" : "31"
   },
   {
      "GoBack" : "1",
      "longitude" : "120.63747",
      "outDis" : "50",
      "Id" : "0238",
      "oid" : "11195",
      "districtId" : "1",
      "nameZh" : "西屯郵局",
      "pgp" : "0",
      "terminal" : "0",
      "latitude" : "24.17636",
      "inDis" : "50",
      "routeId" : "67",
      "seqNo" : "32"
   },
   {
      "GoBack" : "1",
      "longitude" : "120.63655",
      "outDis" : "50",
      "Id" : "4649",
      "oid" : "11219",
      "districtId" : "1",
      "nameZh" : "福科環中路口",
      "pgp" : "0",
      "terminal" : "0",
      "latitude" : "24.17924",
      "inDis" : "50",
      "routeId" : "67",
      "seqNo" : "33"
   },
   {
      "GoBack" : "1",
      "longitude" : "120.62461",
      "outDis" : "50",
      "Id" : "0010",
      "oid" : "11193",
      "districtId" : "1",
      "nameZh" : "福科安和路口",
      "pgp" : "0",
      "terminal" : "0",
      "latitude" : "24.18227",
      "inDis" : "50",
      "routeId" : "67",
      "seqNo" : "34"
   },
   {
      "GoBack" : "1",
      "longitude" : "120.6212",
      "outDis" : "50",
      "Id" : "0053",
      "oid" : "11191",
      "districtId" : "1",
      "nameZh" : "福科永福路口",
      "pgp" : "0",
      "terminal" : "0",
      "latitude" : "24.18378",
      "inDis" : "50",
      "routeId" : "67",
      "seqNo" : "35"
   },
   {
      "GoBack" : "1",
      "longitude" : "120.61975",
      "outDis" : "50",
      "Id" : "5493",
      "oid" : "314655293",
      "districtId" : "1",
      "nameZh" : "世斌公園",
      "pgp" : "0",
      "terminal" : "0",
      "latitude" : "24.18251",
      "inDis" : "50",
      "routeId" : "67",
      "seqNo" : "36"
   },
   {
      "GoBack" : "1",
      "longitude" : "120.61606",
      "outDis" : "50",
      "Id" : "0430",
      "oid" : "11184",
      "districtId" : "1",
      "nameZh" : "中港澄清醫院",
      "pgp" : "0",
      "terminal" : "0",
      "latitude" : "24.18284",
      "inDis" : "50",
      "routeId" : "67",
      "seqNo" : "37"
   },
   {
      "GoBack" : "1",
      "longitude" : "120.61285",
      "outDis" : "50",
      "Id" : "0006",
      "oid" : "11203",
      "districtId" : "1",
      "nameZh" : "臺中捐血中心",
      "pgp" : "0",
      "terminal" : "0",
      "latitude" : "24.18441",
      "inDis" : "50",
      "routeId" : "67",
      "seqNo" : "38"
   },
   {
      "GoBack" : "1",
      "longitude" : "120.61062",
      "outDis" : "50",
      "Id" : "4335",
      "oid" : "11192",
      "districtId" : "1",
      "nameZh" : "臺灣大道玉門路口",
      "pgp" : "0",
      "terminal" : "0",
      "latitude" : "24.18472",
      "inDis" : "50",
      "routeId" : "67",
      "seqNo" : "39"
   },
   {
      "GoBack" : "1",
      "longitude" : "120.60849",
      "outDis" : "50",
      "Id" : "0004",
      "oid" : "11207",
      "districtId" : "1",
      "nameZh" : "普濟寺",
      "pgp" : "0",
      "terminal" : "0",
      "latitude" : "24.18433",
      "inDis" : "50",
      "routeId" : "67",
      "seqNo" : "40"
   },
   {
      "GoBack" : "1",
      "longitude" : "120.6066",
      "outDis" : "50",
      "Id" : "2378",
      "oid" : "11197",
      "districtId" : "1",
      "nameZh" : "東大附中",
      "pgp" : "0",
      "terminal" : "0",
      "latitude" : "24.18386",
      "inDis" : "50",
      "routeId" : "67",
      "seqNo" : "41"
   },
   {
      "GoBack" : "1",
      "longitude" : "120.60491",
      "outDis" : "50",
      "Id" : "5386",
      "oid" : "313588801",
      "districtId" : "1",
      "nameZh" : "臺中榮總(臺灣大道)",
      "pgp" : "0",
      "terminal" : "0",
      "latitude" : "24.18349",
      "inDis" : "50",
      "routeId" : "67",
      "seqNo" : "42"
   },
   {
      "GoBack" : "1",
      "longitude" : "120.59749",
      "outDis" : "50",
      "Id" : "0526",
      "oid" : "11189",
      "districtId" : "1",
      "nameZh" : "台中精機",
      "pgp" : "0",
      "terminal" : "0",
      "latitude" : "24.18212",
      "inDis" : "50",
      "routeId" : "67",
      "seqNo" : "43"
   },
   {
      "GoBack" : "1",
      "longitude" : "120.59368",
      "outDis" : "50",
      "Id" : "0240",
      "oid" : "11198",
      "districtId" : "1",
      "nameZh" : "東海別墅",
      "pgp" : "0",
      "terminal" : "0",
      "latitude" : "24.18296",
      "inDis" : "50",
      "routeId" : "67",
      "seqNo" : "44"
   },
   {
      "GoBack" : "2",
      "longitude" : "120.59368",
      "outDis" : "50",
      "Id" : "0240",
      "oid" : "11198",
      "districtId" : "1",
      "nameZh" : "東海別墅",
      "pgp" : "0",
      "terminal" : "0",
      "latitude" : "24.18296",
      "inDis" : "50",
      "routeId" : "67",
      "seqNo" : "1"
   },
   {
      "GoBack" : "2",
      "longitude" : "120.59749",
      "outDis" : "50",
      "Id" : "0526",
      "oid" : "11189",
      "districtId" : "1",
      "nameZh" : "台中精機",
      "pgp" : "0",
      "terminal" : "0",
      "latitude" : "24.18212",
      "inDis" : "50",
      "routeId" : "67",
      "seqNo" : "2"
   },
   {
      "GoBack" : "2",
      "longitude" : "120.60491",
      "outDis" : "50",
      "Id" : "5386",
      "oid" : "11188",
      "districtId" : "1",
      "nameZh" : "臺中榮總(臺灣大道)",
      "pgp" : "0",
      "terminal" : "0",
      "latitude" : "24.18349",
      "inDis" : "50",
      "routeId" : "67",
      "seqNo" : "3"
   },
   {
      "GoBack" : "2",
      "longitude" : "120.6066",
      "outDis" : "50",
      "Id" : "2378",
      "oid" : "11197",
      "districtId" : "1",
      "nameZh" : "東大附中",
      "pgp" : "0",
      "terminal" : "0",
      "latitude" : "24.18386",
      "inDis" : "50",
      "routeId" : "67",
      "seqNo" : "4"
   },
   {
      "GoBack" : "2",
      "longitude" : "120.60849",
      "outDis" : "50",
      "Id" : "0004",
      "oid" : "11207",
      "districtId" : "1",
      "nameZh" : "普濟寺",
      "pgp" : "0",
      "terminal" : "0",
      "latitude" : "24.18433",
      "inDis" : "50",
      "routeId" : "67",
      "seqNo" : "5"
   },
   {
      "GoBack" : "2",
      "longitude" : "120.61001",
      "outDis" : "50",
      "Id" : "4335",
      "oid" : "12826",
      "districtId" : "1",
      "nameZh" : "臺灣大道玉門路口",
      "pgp" : "0",
      "terminal" : "0",
      "latitude" : "24.18436",
      "inDis" : "50",
      "routeId" : "67",
      "seqNo" : "6"
   },
   {
      "GoBack" : "2",
      "longitude" : "120.61285",
      "outDis" : "50",
      "Id" : "0006",
      "oid" : "11203",
      "districtId" : "1",
      "nameZh" : "臺中捐血中心",
      "pgp" : "0",
      "terminal" : "0",
      "latitude" : "24.18441",
      "inDis" : "50",
      "routeId" : "67",
      "seqNo" : "7"
   },
   {
      "GoBack" : "2",
      "longitude" : "120.61606",
      "outDis" : "50",
      "Id" : "0430",
      "oid" : "11184",
      "districtId" : "1",
      "nameZh" : "中港澄清醫院",
      "pgp" : "0",
      "terminal" : "0",
      "latitude" : "24.18284",
      "inDis" : "50",
      "routeId" : "67",
      "seqNo" : "8"
   },
   {
      "GoBack" : "2",
      "longitude" : "120.61975",
      "outDis" : "50",
      "Id" : "5493",
      "oid" : "314655293",
      "districtId" : "1",
      "nameZh" : "世斌公園",
      "pgp" : "0",
      "terminal" : "0",
      "latitude" : "24.18251",
      "inDis" : "50",
      "routeId" : "67",
      "seqNo" : "9"
   },
   {
      "GoBack" : "2",
      "longitude" : "120.6212",
      "outDis" : "50",
      "Id" : "0053",
      "oid" : "11191",
      "districtId" : "1",
      "nameZh" : "福科永福路口",
      "pgp" : "0",
      "terminal" : "0",
      "latitude" : "24.18378",
      "inDis" : "50",
      "routeId" : "67",
      "seqNo" : "10"
   },
   {
      "GoBack" : "2",
      "longitude" : "120.62461",
      "outDis" : "50",
      "Id" : "0010",
      "oid" : "11193",
      "districtId" : "1",
      "nameZh" : "福科安和路口",
      "pgp" : "0",
      "terminal" : "0",
      "latitude" : "24.18227",
      "inDis" : "50",
      "routeId" : "67",
      "seqNo" : "11"
   },
   {
      "GoBack" : "2",
      "longitude" : "120.62665",
      "outDis" : "50",
      "Id" : "0286",
      "oid" : "318961604",
      "districtId" : "1",
      "nameZh" : "福科福裕路口",
      "pgp" : "0",
      "terminal" : "0",
      "latitude" : "24.18132",
      "inDis" : "50",
      "routeId" : "67",
      "seqNo" : "12"
   },
   {
      "GoBack" : "2",
      "longitude" : "120.63655",
      "outDis" : "50",
      "Id" : "4649",
      "oid" : "11219",
      "districtId" : "1",
      "nameZh" : "福科環中路口",
      "pgp" : "0",
      "terminal" : "0",
      "latitude" : "24.17924",
      "inDis" : "50",
      "routeId" : "67",
      "seqNo" : "13"
   },
   {
      "GoBack" : "2",
      "longitude" : "120.63747",
      "outDis" : "50",
      "Id" : "0238",
      "oid" : "11195",
      "districtId" : "1",
      "nameZh" : "西屯郵局",
      "pgp" : "0",
      "terminal" : "0",
      "latitude" : "24.17636",
      "inDis" : "50",
      "routeId" : "67",
      "seqNo" : "14"
   },
   {
      "GoBack" : "2",
      "longitude" : "120.63853",
      "outDis" : "50",
      "Id" : "4616",
      "oid" : "11201",
      "districtId" : "1",
      "nameZh" : "青海光明路口",
      "pgp" : "0",
      "terminal" : "0",
      "latitude" : "24.17531",
      "inDis" : "50",
      "routeId" : "67",
      "seqNo" : "15"
   },
   {
      "GoBack" : "2",
      "longitude" : "120.64082",
      "outDis" : "50",
      "Id" : "4614",
      "oid" : "11194",
      "districtId" : "1",
      "nameZh" : "至善國中(青海路)",
      "pgp" : "0",
      "terminal" : "0",
      "latitude" : "24.17385",
      "inDis" : "50",
      "routeId" : "67",
      "seqNo" : "16"
   },
   {
      "GoBack" : "2",
      "longitude" : "120.64326",
      "outDis" : "50",
      "Id" : "4428",
      "oid" : "304988484",
      "districtId" : "1",
      "nameZh" : "青海上仁街口",
      "pgp" : "0",
      "terminal" : "0",
      "latitude" : "24.17206",
      "inDis" : "50",
      "routeId" : "67",
      "seqNo" : "17"
   },
   {
      "GoBack" : "2",
      "longitude" : "120.64485",
      "outDis" : "50",
      "Id" : "4167",
      "oid" : "10613",
      "districtId" : "1",
      "nameZh" : "青海河南路口",
      "pgp" : "0",
      "terminal" : "0",
      "latitude" : "24.17087",
      "inDis" : "50",
      "routeId" : "67",
      "seqNo" : "18"
   },
   {
      "GoBack" : "2",
      "longitude" : "120.64663",
      "outDis" : "50",
      "Id" : "0115",
      "oid" : "27C028DEF2524E17AAC2F6974D1E4565",
      "districtId" : "1",
      "nameZh" : "青海弘孝路口",
      "pgp" : "0",
      "terminal" : "0",
      "latitude" : "24.16922",
      "inDis" : "50",
      "routeId" : "67",
      "seqNo" : "19"
   },
   {
      "GoBack" : "2",
      "longitude" : "120.64896",
      "outDis" : "50",
      "Id" : "1470",
      "oid" : "11215",
      "districtId" : "1",
      "nameZh" : "臺中市後備指揮部",
      "pgp" : "0",
      "terminal" : "0",
      "latitude" : "24.16755",
      "inDis" : "50",
      "routeId" : "67",
      "seqNo" : "20"
   },
   {
      "GoBack" : "2",
      "longitude" : "120.65269",
      "outDis" : "50",
      "Id" : "0117",
      "oid" : "11200",
      "districtId" : "1",
      "nameZh" : "青海文心路口",
      "pgp" : "0",
      "terminal" : "0",
      "latitude" : "24.16563",
      "inDis" : "50",
      "routeId" : "67",
      "seqNo" : "21"
   },
   {
      "GoBack" : "2",
      "longitude" : "120.65543",
      "outDis" : "50",
      "Id" : "0118",
      "oid" : "11196",
      "districtId" : "1",
      "nameZh" : "何厝國小",
      "pgp" : "0",
      "terminal" : "0",
      "latitude" : "24.16428",
      "inDis" : "50",
      "routeId" : "67",
      "seqNo" : "22"
   },
   {
      "GoBack" : "2",
      "longitude" : "120.65928",
      "outDis" : "50",
      "Id" : "4983",
      "oid" : "309269466",
      "districtId" : "1",
      "nameZh" : "漢口西屯路口",
      "pgp" : "0",
      "terminal" : "0",
      "latitude" : "24.16388",
      "inDis" : "50",
      "routeId" : "67",
      "seqNo" : "23"
   },
   {
      "GoBack" : "2",
      "longitude" : "120.66111",
      "outDis" : "50",
      "Id" : "4169",
      "oid" : "11210",
      "districtId" : "1",
      "nameZh" : "漢口大信街",
      "pgp" : "0",
      "terminal" : "0",
      "latitude" : "24.16489",
      "inDis" : "50",
      "routeId" : "67",
      "seqNo" : "24"
   },
   {
      "GoBack" : "2",
      "longitude" : "120.66347",
      "outDis" : "50",
      "Id" : "4163",
      "oid" : "11179",
      "districtId" : "1",
      "nameZh" : "三信公園",
      "pgp" : "0",
      "terminal" : "0",
      "latitude" : "24.16609",
      "inDis" : "50",
      "routeId" : "67",
      "seqNo" : "25"
   },
   {
      "GoBack" : "2",
      "longitude" : "120.66621",
      "outDis" : "50",
      "Id" : "4164",
      "oid" : "11185",
      "districtId" : "1",
      "nameZh" : "中華國小",
      "pgp" : "0",
      "terminal" : "0",
      "latitude" : "24.16686",
      "inDis" : "50",
      "routeId" : "67",
      "seqNo" : "26"
   },
   {
      "GoBack" : "2",
      "longitude" : "120.66863",
      "outDis" : "50",
      "Id" : "4170",
      "oid" : "11211",
      "districtId" : "1",
      "nameZh" : "漢口大飯店",
      "pgp" : "0",
      "terminal" : "0",
      "latitude" : "24.16689",
      "inDis" : "50",
      "routeId" : "67",
      "seqNo" : "27"
   },
   {
      "GoBack" : "2",
      "longitude" : "120.67414",
      "outDis" : "50",
      "Id" : "4644",
      "oid" : "11217",
      "districtId" : "1",
      "nameZh" : "曉明女中(漢口路)",
      "pgp" : "0",
      "terminal" : "0",
      "latitude" : "24.16699",
      "inDis" : "50",
      "routeId" : "67",
      "seqNo" : "28"
   },
   {
      "GoBack" : "2",
      "longitude" : "120.67582",
      "outDis" : "50",
      "Id" : "4984",
      "oid" : "11212",
      "districtId" : "1",
      "nameZh" : "漢口山西路口",
      "pgp" : "0",
      "terminal" : "0",
      "latitude" : "24.16704",
      "inDis" : "50",
      "routeId" : "67",
      "seqNo" : "29"
   },
   {
      "GoBack" : "2",
      "longitude" : "120.67883",
      "outDis" : "50",
      "Id" : "4175",
      "oid" : "11218",
      "districtId" : "1",
      "nameZh" : "賴厝國小",
      "pgp" : "0",
      "terminal" : "0",
      "latitude" : "24.1671",
      "inDis" : "50",
      "routeId" : "67",
      "seqNo" : "30"
   },
   {
      "GoBack" : "2",
      "longitude" : "120.68315",
      "outDis" : "50",
      "Id" : "4172",
      "oid" : "11213",
      "districtId" : "1",
      "nameZh" : "漢口永興街口",
      "pgp" : "0",
      "terminal" : "0",
      "latitude" : "24.16705",
      "inDis" : "50",
      "routeId" : "67",
      "seqNo" : "31"
   },
   {
      "GoBack" : "2",
      "longitude" : "120.68508",
      "outDis" : "50",
      "Id" : "0098",
      "oid" : "11205",
      "districtId" : "1",
      "nameZh" : "崇德橋",
      "pgp" : "0",
      "terminal" : "0",
      "latitude" : "24.16438",
      "inDis" : "50",
      "routeId" : "67",
      "seqNo" : "32"
   },
   {
      "GoBack" : "2",
      "longitude" : "120.68285",
      "outDis" : "50",
      "Id" : "5603",
      "oid" : "11209",
      "districtId" : "1",
      "nameZh" : "進化永興街口",
      "pgp" : "0",
      "terminal" : "0",
      "latitude" : "24.16306",
      "inDis" : "50",
      "routeId" : "67",
      "seqNo" : "33"
   },
   {
      "GoBack" : "2",
      "longitude" : "120.68093",
      "outDis" : "50",
      "Id" : "4577",
      "oid" : "11216",
      "districtId" : "1",
      "nameZh" : "學士德化街口",
      "pgp" : "0",
      "terminal" : "0",
      "latitude" : "24.16133",
      "inDis" : "50",
      "routeId" : "67",
      "seqNo" : "34"
   },
   {
      "GoBack" : "2",
      "longitude" : "120.68085",
      "outDis" : "50",
      "Id" : "4575",
      "oid" : "11204",
      "districtId" : "1",
      "nameZh" : "學士健行路口",
      "pgp" : "0",
      "terminal" : "0",
      "latitude" : "24.15927",
      "inDis" : "50",
      "routeId" : "67",
      "seqNo" : "35"
   },
   {
      "GoBack" : "2",
      "longitude" : "120.6814",
      "outDis" : "50",
      "Id" : "0426",
      "oid" : "11183",
      "districtId" : "1",
      "nameZh" : "中國醫藥大學",
      "pgp" : "0",
      "terminal" : "0",
      "latitude" : "24.15649",
      "inDis" : "50",
      "routeId" : "67",
      "seqNo" : "36"
   },
   {
      "GoBack" : "2",
      "longitude" : "120.68182",
      "outDis" : "50",
      "Id" : "0406",
      "oid" : "11181",
      "districtId" : "1",
      "nameZh" : "中山堂",
      "pgp" : "0",
      "terminal" : "0",
      "latitude" : "24.15519",
      "inDis" : "50",
      "routeId" : "67",
      "seqNo" : "37"
   },
   {
      "GoBack" : "2",
      "longitude" : "120.68375",
      "outDis" : "50",
      "Id" : "3772",
      "oid" : "11182",
      "districtId" : "1",
      "nameZh" : "五權學士路口",
      "pgp" : "0",
      "terminal" : "0",
      "latitude" : "24.15386",
      "inDis" : "50",
      "routeId" : "67",
      "seqNo" : "38"
   },
   {
      "GoBack" : "2",
      "longitude" : "120.68819",
      "outDis" : "50",
      "Id" : "0048",
      "oid" : "11206",
      "districtId" : "1",
      "nameZh" : "莒光新城",
      "pgp" : "0",
      "terminal" : "0",
      "latitude" : "24.15398",
      "inDis" : "50",
      "routeId" : "67",
      "seqNo" : "39"
   },
   {
      "GoBack" : "2",
      "longitude" : "120.68882",
      "outDis" : "50",
      "Id" : "4694",
      "oid" : "11222",
      "districtId" : "1",
      "nameZh" : "臺灣體大體育場",
      "pgp" : "0",
      "terminal" : "0",
      "latitude" : "24.15255",
      "inDis" : "50",
      "routeId" : "67",
      "seqNo" : "40"
   },
   {
      "GoBack" : "2",
      "longitude" : "120.68753",
      "outDis" : "50",
      "Id" : "0149",
      "oid" : "11186",
      "districtId" : "1",
      "nameZh" : "臺中一中",
      "pgp" : "0",
      "terminal" : "0",
      "latitude" : "24.1495",
      "inDis" : "50",
      "routeId" : "67",
      "seqNo" : "41"
   },
   {
      "GoBack" : "2",
      "longitude" : "120.68646",
      "outDis" : "50",
      "Id" : "4695",
      "oid" : "11208",
      "districtId" : "1",
      "nameZh" : "臺灣體大游泳池",
      "pgp" : "0",
      "terminal" : "0",
      "latitude" : "24.14707",
      "inDis" : "50",
      "routeId" : "67",
      "seqNo" : "42"
   },
   {
      "GoBack" : "2",
      "longitude" : "120.68617",
      "outDis" : "50",
      "Id" : "4544",
      "oid" : "11187",
      "districtId" : "1",
      "nameZh" : "臺中公園(雙十路)",
      "pgp" : "0",
      "terminal" : "0",
      "latitude" : "24.14406",
      "inDis" : "50",
      "routeId" : "67",
      "seqNo" : "43"
   },
   {
      "GoBack" : "2",
      "longitude" : "120.68606",
      "outDis" : "50",
      "Id" : "0402",
      "oid" : "11180",
      "districtId" : "1",
      "nameZh" : "干城站",
      "pgp" : "0",
      "terminal" : "0",
      "latitude" : "24.14088",
      "inDis" : "50",
      "routeId" : "67",
      "seqNo" : "44"
   },
   {
      "GoBack" : "2",
      "longitude" : "120.68363",
      "outDis" : "50",
      "Id" : "0905",
      "oid" : "7573",
      "districtId" : "1",
      "nameZh" : "綠川東站",
      "pgp" : "0",
      "terminal" : "0",
      "latitude" : "24.1383",
      "inDis" : "50",
      "routeId" : "67",
      "seqNo" : "45"
   }
]
