[
   {
      "GoBack" : "1",
      "longitude" : "120.68414",
      "outDis" : "50",
      "Id" : "4618",
      "oid" : "8941",
      "districtId" : "1",
      "nameZh" : "明德高中(明德街)",
      "pgp" : "0",
      "terminal" : "0",
      "latitude" : "24.1211",
      "inDis" : "50",
      "routeId" : "12",
      "seqNo" : "1"
   },
   {
      "GoBack" : "1",
      "longitude" : "120.68424",
      "outDis" : "50",
      "Id" : "0255",
      "oid" : "6619BD77BE964E6E951A771062BD126E",
      "districtId" : "1",
      "nameZh" : "南門仔",
      "pgp" : "0",
      "terminal" : "0",
      "latitude" : "24.12555",
      "inDis" : "50",
      "routeId" : "12",
      "seqNo" : "2"
   },
   {
      "GoBack" : "1",
      "longitude" : "120.68452",
      "outDis" : "50",
      "Id" : "5607",
      "oid" : "95879C963BCD4EAB8A376EF9655A419C",
      "districtId" : "1",
      "nameZh" : "興大附農(臺中路)",
      "pgp" : "0",
      "terminal" : "0",
      "latitude" : "24.12747",
      "inDis" : "50",
      "routeId" : "12",
      "seqNo" : "3"
   },
   {
      "GoBack" : "1",
      "longitude" : "120.68499",
      "outDis" : "50",
      "Id" : "0257",
      "oid" : "5561",
      "districtId" : "1",
      "nameZh" : "臺中國小",
      "pgp" : "0",
      "terminal" : "0",
      "latitude" : "24.13028",
      "inDis" : "50",
      "routeId" : "12",
      "seqNo" : "4"
   },
   {
      "GoBack" : "1",
      "longitude" : "120.68381",
      "outDis" : "50",
      "Id" : "0049",
      "oid" : "6258",
      "districtId" : "1",
      "nameZh" : "第三市場(臺中家商)",
      "pgp" : "0",
      "terminal" : "0",
      "latitude" : "24.13246",
      "inDis" : "50",
      "routeId" : "12",
      "seqNo" : "5"
   },
   {
      "GoBack" : "1",
      "longitude" : "120.68387",
      "outDis" : "170",
      "Id" : "1824",
      "oid" : "5545",
      "districtId" : "1",
      "nameZh" : "臺中火車站",
      "pgp" : "0",
      "terminal" : "0",
      "latitude" : "24.13663",
      "inDis" : "50",
      "routeId" : "12",
      "seqNo" : "6"
   },
   {
      "GoBack" : "1",
      "longitude" : "120.68597",
      "outDis" : "50",
      "Id" : "0402",
      "oid" : "315959597",
      "districtId" : "1",
      "nameZh" : "干城站",
      "pgp" : "0",
      "terminal" : "0",
      "latitude" : "24.14101",
      "inDis" : "50",
      "routeId" : "12",
      "seqNo" : "7"
   },
   {
      "GoBack" : "1",
      "longitude" : "120.68597",
      "outDis" : "50",
      "Id" : "4544",
      "oid" : "5554",
      "districtId" : "1",
      "nameZh" : "臺中公園(雙十路)",
      "pgp" : "0",
      "terminal" : "0",
      "latitude" : "24.14419",
      "inDis" : "50",
      "routeId" : "12",
      "seqNo" : "8"
   },
   {
      "GoBack" : "1",
      "longitude" : "120.68448",
      "outDis" : "50",
      "Id" : "1513",
      "oid" : "15989",
      "districtId" : "1",
      "nameZh" : "中興堂",
      "pgp" : "0",
      "terminal" : "0",
      "latitude" : "24.14626",
      "inDis" : "50",
      "routeId" : "12",
      "seqNo" : "9"
   },
   {
      "GoBack" : "1",
      "longitude" : "120.68413",
      "outDis" : "50",
      "Id" : "0045",
      "oid" : "5556",
      "districtId" : "1",
      "nameZh" : "國立臺中科技大學",
      "pgp" : "0",
      "terminal" : "0",
      "latitude" : "24.14987",
      "inDis" : "50",
      "routeId" : "12",
      "seqNo" : "10"
   },
   {
      "GoBack" : "1",
      "longitude" : "120.6852",
      "outDis" : "50",
      "Id" : "0046",
      "oid" : "5310",
      "districtId" : "1",
      "nameZh" : "中友百貨",
      "pgp" : "0",
      "terminal" : "0",
      "latitude" : "24.15251",
      "inDis" : "50",
      "routeId" : "12",
      "seqNo" : "11"
   },
   {
      "GoBack" : "1",
      "longitude" : "120.68566",
      "outDis" : "50",
      "Id" : "0203",
      "oid" : "8942",
      "districtId" : "1",
      "nameZh" : "市立殯儀館",
      "pgp" : "0",
      "terminal" : "0",
      "latitude" : "24.15626",
      "inDis" : "50",
      "routeId" : "12",
      "seqNo" : "12"
   },
   {
      "GoBack" : "1",
      "longitude" : "120.6851",
      "outDis" : "50",
      "Id" : "4607",
      "oid" : "026609FDC5D64BE88A71CB2F24E08470",
      "districtId" : "1",
      "nameZh" : "新民高中(崇德路)",
      "pgp" : "0",
      "terminal" : "0",
      "latitude" : "24.15959",
      "inDis" : "50",
      "routeId" : "12",
      "seqNo" : "13"
   },
   {
      "GoBack" : "1",
      "longitude" : "120.68514",
      "outDis" : "50",
      "Id" : "4576",
      "oid" : "8944",
      "districtId" : "1",
      "nameZh" : "崇德德化街口",
      "pgp" : "0",
      "terminal" : "0",
      "latitude" : "24.16146",
      "inDis" : "50",
      "routeId" : "12",
      "seqNo" : "14"
   },
   {
      "GoBack" : "1",
      "longitude" : "120.68514",
      "outDis" : "50",
      "Id" : "0098",
      "oid" : "8945",
      "districtId" : "1",
      "nameZh" : "崇德橋",
      "pgp" : "0",
      "terminal" : "0",
      "latitude" : "24.16438",
      "inDis" : "50",
      "routeId" : "12",
      "seqNo" : "15"
   },
   {
      "GoBack" : "1",
      "longitude" : "120.68525",
      "outDis" : "50",
      "Id" : "3511",
      "oid" : "8946",
      "districtId" : "1",
      "nameZh" : "聖德禪寺",
      "pgp" : "0",
      "terminal" : "0",
      "latitude" : "24.16801",
      "inDis" : "50",
      "routeId" : "12",
      "seqNo" : "16"
   },
   {
      "GoBack" : "1",
      "longitude" : "120.68537",
      "outDis" : "50",
      "Id" : "1768",
      "oid" : "8947",
      "districtId" : "1",
      "nameZh" : "崇德北平路口",
      "pgp" : "0",
      "terminal" : "0",
      "latitude" : "24.17021",
      "inDis" : "50",
      "routeId" : "12",
      "seqNo" : "17"
   },
   {
      "GoBack" : "1",
      "longitude" : "120.68539",
      "outDis" : "50",
      "Id" : "4339",
      "oid" : "8948",
      "districtId" : "1",
      "nameZh" : "崇德文心路口",
      "pgp" : "0",
      "terminal" : "0",
      "latitude" : "24.17147",
      "inDis" : "50",
      "routeId" : "12",
      "seqNo" : "18"
   },
   {
      "GoBack" : "1",
      "longitude" : "120.68552",
      "outDis" : "50",
      "Id" : "0199",
      "oid" : "8949",
      "districtId" : "1",
      "nameZh" : "崇德瀋陽路口",
      "pgp" : "0",
      "terminal" : "0",
      "latitude" : "24.17302",
      "inDis" : "50",
      "routeId" : "12",
      "seqNo" : "19"
   },
   {
      "GoBack" : "1",
      "longitude" : "120.68569",
      "outDis" : "50",
      "Id" : "5131",
      "oid" : "8950",
      "districtId" : "1",
      "nameZh" : "崇德國中(民俗公園)",
      "pgp" : "0",
      "terminal" : "0",
      "latitude" : "24.17455",
      "inDis" : "50",
      "routeId" : "12",
      "seqNo" : "20"
   },
   {
      "GoBack" : "1",
      "longitude" : "120.68579",
      "outDis" : "50",
      "Id" : "0196",
      "oid" : "8951",
      "districtId" : "1",
      "nameZh" : "崇德一路口",
      "pgp" : "0",
      "terminal" : "0",
      "latitude" : "24.17675",
      "inDis" : "50",
      "routeId" : "12",
      "seqNo" : "21"
   },
   {
      "GoBack" : "1",
      "longitude" : "120.68605",
      "outDis" : "50",
      "Id" : "0195",
      "oid" : "8963",
      "districtId" : "1",
      "nameZh" : "崇德五路口",
      "pgp" : "0",
      "terminal" : "0",
      "latitude" : "24.17894",
      "inDis" : "50",
      "routeId" : "12",
      "seqNo" : "22"
   },
   {
      "GoBack" : "1",
      "longitude" : "120.68608",
      "outDis" : "50",
      "Id" : "5387",
      "oid" : "8964",
      "districtId" : "1",
      "nameZh" : "崇德六路口",
      "pgp" : "0",
      "terminal" : "0",
      "latitude" : "24.18086",
      "inDis" : "50",
      "routeId" : "12",
      "seqNo" : "23"
   },
   {
      "GoBack" : "1",
      "longitude" : "120.68619",
      "outDis" : "50",
      "Id" : "0194",
      "oid" : "8965",
      "districtId" : "1",
      "nameZh" : "北屯區行政大樓",
      "pgp" : "0",
      "terminal" : "0",
      "latitude" : "24.18203",
      "inDis" : "50",
      "routeId" : "12",
      "seqNo" : "24"
   },
   {
      "GoBack" : "1",
      "longitude" : "120.68627",
      "outDis" : "50",
      "Id" : "1393",
      "oid" : "8966",
      "districtId" : "1",
      "nameZh" : "崇德山西路口",
      "pgp" : "0",
      "terminal" : "0",
      "latitude" : "24.18493",
      "inDis" : "50",
      "routeId" : "12",
      "seqNo" : "25"
   },
   {
      "GoBack" : "1",
      "longitude" : "120.68622",
      "outDis" : "50",
      "Id" : "2958",
      "oid" : "9114",
      "districtId" : "1",
      "nameZh" : "崇德九路口",
      "pgp" : "0",
      "terminal" : "0",
      "latitude" : "24.18768",
      "inDis" : "50",
      "routeId" : "12",
      "seqNo" : "26"
   },
   {
      "GoBack" : "1",
      "longitude" : "120.68636",
      "outDis" : "50",
      "Id" : "2959",
      "oid" : "9115",
      "districtId" : "1",
      "nameZh" : "崇德十路口",
      "pgp" : "0",
      "terminal" : "0",
      "latitude" : "24.18806",
      "inDis" : "50",
      "routeId" : "12",
      "seqNo" : "27"
   },
   {
      "GoBack" : "1",
      "longitude" : "120.68646",
      "outDis" : "50",
      "Id" : "4252",
      "oid" : "9116",
      "districtId" : "1",
      "nameZh" : "崇德豐樂路口",
      "pgp" : "0",
      "terminal" : "0",
      "latitude" : "24.19258",
      "inDis" : "50",
      "routeId" : "12",
      "seqNo" : "28"
   },
   {
      "GoBack" : "1",
      "longitude" : "120.68639",
      "outDis" : "50",
      "Id" : "3818",
      "oid" : "320761402",
      "districtId" : "1",
      "nameZh" : "錦村市場",
      "pgp" : "0",
      "terminal" : "0",
      "latitude" : "24.19588",
      "inDis" : "50",
      "routeId" : "12",
      "seqNo" : "29"
   },
   {
      "GoBack" : "1",
      "longitude" : "120.68656",
      "outDis" : "50",
      "Id" : "4359",
      "oid" : "9118",
      "districtId" : "1",
      "nameZh" : "臺中洲際棒球場",
      "pgp" : "0",
      "terminal" : "0",
      "latitude" : "24.19889",
      "inDis" : "50",
      "routeId" : "12",
      "seqNo" : "30"
   },
   {
      "GoBack" : "1",
      "longitude" : "120.68662",
      "outDis" : "50",
      "Id" : "4647",
      "oid" : "9119",
      "districtId" : "1",
      "nameZh" : "崇德環中路口",
      "pgp" : "0",
      "terminal" : "0",
      "latitude" : "24.20195",
      "inDis" : "50",
      "routeId" : "12",
      "seqNo" : "31"
   },
   {
      "GoBack" : "1",
      "longitude" : "120.68662",
      "outDis" : "50",
      "Id" : "4406",
      "oid" : "9205",
      "districtId" : "1",
      "nameZh" : "中油鴻陞加油站",
      "pgp" : "0",
      "terminal" : "0",
      "latitude" : "24.20622",
      "inDis" : "50",
      "routeId" : "12",
      "seqNo" : "32"
   },
   {
      "GoBack" : "1",
      "longitude" : "120.68673",
      "outDis" : "50",
      "Id" : "4301",
      "oid" : "9206",
      "districtId" : "1",
      "nameZh" : "崇德大豐一路口",
      "pgp" : "0",
      "terminal" : "0",
      "latitude" : "24.21021",
      "inDis" : "50",
      "routeId" : "12",
      "seqNo" : "33"
   },
   {
      "GoBack" : "1",
      "longitude" : "120.68792",
      "outDis" : "50",
      "Id" : "4300",
      "oid" : "9207",
      "districtId" : "1",
      "nameZh" : "崇德雅潭路口",
      "pgp" : "0",
      "terminal" : "0",
      "latitude" : "24.21496",
      "inDis" : "50",
      "routeId" : "12",
      "seqNo" : "34"
   },
   {
      "GoBack" : "1",
      "longitude" : "120.68884",
      "outDis" : "50",
      "Id" : "5496",
      "oid" : "9208",
      "districtId" : "1",
      "nameZh" : "天畝社區",
      "pgp" : "0",
      "terminal" : "0",
      "latitude" : "24.21868",
      "inDis" : "50",
      "routeId" : "12",
      "seqNo" : "35"
   },
   {
      "GoBack" : "1",
      "longitude" : "120.68962",
      "outDis" : "50",
      "Id" : "5497",
      "oid" : "9209",
      "districtId" : "1",
      "nameZh" : "歐洲村社區",
      "pgp" : "0",
      "terminal" : "0",
      "latitude" : "24.22238",
      "inDis" : "50",
      "routeId" : "12",
      "seqNo" : "36"
   },
   {
      "GoBack" : "1",
      "longitude" : "120.69029",
      "outDis" : "50",
      "Id" : "4743",
      "oid" : "9212",
      "districtId" : "1",
      "nameZh" : "崇德潭富路口",
      "pgp" : "0",
      "terminal" : "0",
      "latitude" : "24.22542",
      "inDis" : "50",
      "routeId" : "12",
      "seqNo" : "37"
   },
   {
      "GoBack" : "1",
      "longitude" : "120.69065",
      "outDis" : "50",
      "Id" : "5498",
      "oid" : "9213",
      "districtId" : "1",
      "nameZh" : "崇德祿社區",
      "pgp" : "0",
      "terminal" : "0",
      "latitude" : "24.22772",
      "inDis" : "50",
      "routeId" : "12",
      "seqNo" : "38"
   },
   {
      "GoBack" : "1",
      "longitude" : "120.69513",
      "outDis" : "50",
      "Id" : "5499",
      "oid" : "9214",
      "districtId" : "1",
      "nameZh" : "潭雅神綠園道(承德路)",
      "pgp" : "0",
      "terminal" : "0",
      "latitude" : "24.2328",
      "inDis" : "50",
      "routeId" : "12",
      "seqNo" : "39"
   },
   {
      "GoBack" : "1",
      "longitude" : "120.69874",
      "outDis" : "50",
      "Id" : "4937",
      "oid" : "308835200",
      "districtId" : "1",
      "nameZh" : "承德三社東路口",
      "pgp" : "0",
      "terminal" : "0",
      "latitude" : "24.23509",
      "inDis" : "50",
      "routeId" : "12",
      "seqNo" : "40"
   },
   {
      "GoBack" : "1",
      "longitude" : "120.70108",
      "outDis" : "50",
      "Id" : "4936",
      "oid" : "308835198",
      "districtId" : "1",
      "nameZh" : "東龍家電",
      "pgp" : "0",
      "terminal" : "0",
      "latitude" : "24.23716",
      "inDis" : "50",
      "routeId" : "12",
      "seqNo" : "41"
   },
   {
      "GoBack" : "1",
      "longitude" : "120.70327",
      "outDis" : "50",
      "Id" : "5500",
      "oid" : "9218",
      "districtId" : "1",
      "nameZh" : "合作國小(豐原大道)",
      "pgp" : "0",
      "terminal" : "0",
      "latitude" : "24.23939",
      "inDis" : "50",
      "routeId" : "12",
      "seqNo" : "42"
   },
   {
      "GoBack" : "1",
      "longitude" : "120.70326",
      "outDis" : "50",
      "Id" : "5501",
      "oid" : "9219",
      "districtId" : "1",
      "nameZh" : "豐原大道社皮路口",
      "pgp" : "0",
      "terminal" : "0",
      "latitude" : "24.24232",
      "inDis" : "50",
      "routeId" : "12",
      "seqNo" : "43"
   },
   {
      "GoBack" : "1",
      "longitude" : "120.70329",
      "outDis" : "50",
      "Id" : "5502",
      "oid" : "9220",
      "districtId" : "1",
      "nameZh" : "豐原大道一心路口",
      "pgp" : "0",
      "terminal" : "0",
      "latitude" : "24.24572",
      "inDis" : "50",
      "routeId" : "12",
      "seqNo" : "44"
   },
   {
      "GoBack" : "1",
      "longitude" : "120.70434",
      "outDis" : "50",
      "Id" : "2349",
      "oid" : "5856",
      "districtId" : "1",
      "nameZh" : "忠勤新村",
      "pgp" : "0",
      "terminal" : "0",
      "latitude" : "24.24962",
      "inDis" : "50",
      "routeId" : "12",
      "seqNo" : "45"
   },
   {
      "GoBack" : "1",
      "longitude" : "120.70672",
      "outDis" : "50",
      "Id" : "1065",
      "oid" : "5072",
      "districtId" : "1",
      "nameZh" : "三光新村",
      "pgp" : "0",
      "terminal" : "0",
      "latitude" : "24.24999",
      "inDis" : "50",
      "routeId" : "12",
      "seqNo" : "46"
   },
   {
      "GoBack" : "1",
      "longitude" : "120.70963",
      "outDis" : "50",
      "Id" : "4448",
      "oid" : "6688",
      "districtId" : "1",
      "nameZh" : "中正圓環西路口",
      "pgp" : "0",
      "terminal" : "0",
      "latitude" : "24.25039",
      "inDis" : "50",
      "routeId" : "12",
      "seqNo" : "47"
   },
   {
      "GoBack" : "1",
      "longitude" : "120.712",
      "outDis" : "50",
      "Id" : "3357",
      "oid" : "8065",
      "districtId" : "1",
      "nameZh" : "慈龍寺",
      "pgp" : "0",
      "terminal" : "0",
      "latitude" : "24.25079",
      "inDis" : "50",
      "routeId" : "12",
      "seqNo" : "48"
   },
   {
      "GoBack" : "1",
      "longitude" : "120.71526",
      "outDis" : "50",
      "Id" : "3939",
      "oid" : "6698",
      "districtId" : "1",
      "nameZh" : "豐原郵局",
      "pgp" : "0",
      "terminal" : "0",
      "latitude" : "24.25136",
      "inDis" : "50",
      "routeId" : "12",
      "seqNo" : "49"
   },
   {
      "GoBack" : "1",
      "longitude" : "120.71851",
      "outDis" : "50",
      "Id" : "3343",
      "oid" : "6397",
      "districtId" : "1",
      "nameZh" : "媽祖廟",
      "pgp" : "0",
      "terminal" : "0",
      "latitude" : "24.25157",
      "inDis" : "50",
      "routeId" : "12",
      "seqNo" : "50"
   },
   {
      "GoBack" : "1",
      "longitude" : "120.72123",
      "outDis" : "50",
      "Id" : "3157",
      "oid" : "8053",
      "districtId" : "1",
      "nameZh" : "頂街",
      "pgp" : "0",
      "terminal" : "0",
      "latitude" : "24.25234",
      "inDis" : "50",
      "routeId" : "12",
      "seqNo" : "51"
   },
   {
      "GoBack" : "1",
      "longitude" : "120.72247",
      "outDis" : "50",
      "Id" : "4931",
      "oid" : "308835188",
      "districtId" : "1",
      "nameZh" : "豐原火車站",
      "pgp" : "0",
      "terminal" : "0",
      "latitude" : "24.25504",
      "inDis" : "50",
      "routeId" : "12",
      "seqNo" : "52"
   },
   {
      "GoBack" : "1",
      "longitude" : "120.72158",
      "outDis" : "50",
      "Id" : "5632",
      "oid" : "D879241FDACA4623BB99AF053F6889DA",
      "districtId" : "1",
      "nameZh" : "豐中大順街口",
      "pgp" : "0",
      "terminal" : "0",
      "latitude" : "24.25766",
      "inDis" : "50",
      "routeId" : "12",
      "seqNo" : "53"
   },
   {
      "GoBack" : "1",
      "longitude" : "120.72096",
      "outDis" : "50",
      "Id" : "4451",
      "oid" : "13844",
      "districtId" : "1",
      "nameZh" : "北環福德祠",
      "pgp" : "0",
      "terminal" : "0",
      "latitude" : "24.25953",
      "inDis" : "50",
      "routeId" : "12",
      "seqNo" : "54"
   },
   {
      "GoBack" : "1",
      "longitude" : "120.72385",
      "outDis" : "50",
      "Id" : "4472",
      "oid" : "13845",
      "districtId" : "1",
      "nameZh" : "圓環北大順街口",
      "pgp" : "0",
      "terminal" : "0",
      "latitude" : "24.2607",
      "inDis" : "50",
      "routeId" : "12",
      "seqNo" : "55"
   },
   {
      "GoBack" : "1",
      "longitude" : "120.7262",
      "outDis" : "50",
      "Id" : "4474",
      "oid" : "13847",
      "districtId" : "1",
      "nameZh" : "圓環北角潭路口",
      "pgp" : "0",
      "terminal" : "0",
      "latitude" : "24.25995",
      "inDis" : "50",
      "routeId" : "12",
      "seqNo" : "56"
   },
   {
      "GoBack" : "1",
      "longitude" : "120.72975",
      "outDis" : "50",
      "Id" : "4478",
      "oid" : "13802",
      "districtId" : "1",
      "nameZh" : "圓環東水源路口",
      "pgp" : "0",
      "terminal" : "0",
      "latitude" : "24.25577",
      "inDis" : "50",
      "routeId" : "12",
      "seqNo" : "57"
   },
   {
      "GoBack" : "1",
      "longitude" : "120.73214",
      "outDis" : "50",
      "Id" : "5503",
      "oid" : "9221",
      "districtId" : "1",
      "nameZh" : "水源圓環東路口",
      "pgp" : "0",
      "terminal" : "0",
      "latitude" : "24.25527",
      "inDis" : "50",
      "routeId" : "12",
      "seqNo" : "58"
   },
   {
      "GoBack" : "1",
      "longitude" : "120.73419",
      "outDis" : "50",
      "Id" : "3441",
      "oid" : "6461",
      "districtId" : "1",
      "nameZh" : "水源豐東路口",
      "pgp" : "0",
      "terminal" : "0",
      "latitude" : "24.25557",
      "inDis" : "50",
      "routeId" : "12",
      "seqNo" : "59"
   },
   {
      "GoBack" : "1",
      "longitude" : "120.73574",
      "outDis" : "50",
      "Id" : "3931",
      "oid" : "6689",
      "districtId" : "1",
      "nameZh" : "豐村國小",
      "pgp" : "0",
      "terminal" : "0",
      "latitude" : "24.2557",
      "inDis" : "50",
      "routeId" : "12",
      "seqNo" : "60"
   },
   {
      "GoBack" : "1",
      "longitude" : "120.73793",
      "outDis" : "50",
      "Id" : "1746",
      "oid" : "5503",
      "districtId" : "1",
      "nameZh" : "王爺廟",
      "pgp" : "0",
      "terminal" : "0",
      "latitude" : "24.25591",
      "inDis" : "50",
      "routeId" : "12",
      "seqNo" : "61"
   },
   {
      "GoBack" : "1",
      "longitude" : "120.74185",
      "outDis" : "50",
      "Id" : "3937",
      "oid" : "6695",
      "districtId" : "1",
      "nameZh" : "豐原高中",
      "pgp" : "0",
      "terminal" : "0",
      "latitude" : "24.25572",
      "inDis" : "50",
      "routeId" : "12",
      "seqNo" : "62"
   },
   {
      "GoBack" : "1",
      "longitude" : "120.74367",
      "outDis" : "50",
      "Id" : "1716",
      "oid" : "5487",
      "districtId" : "1",
      "nameZh" : "水源地",
      "pgp" : "0",
      "terminal" : "0",
      "latitude" : "24.25562",
      "inDis" : "50",
      "routeId" : "12",
      "seqNo" : "63"
   },
   {
      "GoBack" : "1",
      "longitude" : "120.74437",
      "outDis" : "50",
      "Id" : "5677",
      "oid" : "319604747",
      "districtId" : "1",
      "nameZh" : "豐原鎮清宮",
      "pgp" : "0",
      "terminal" : "0",
      "latitude" : "24.25396",
      "inDis" : "50",
      "routeId" : "12",
      "seqNo" : "64"
   },
   {
      "GoBack" : "2",
      "longitude" : "120.74437",
      "outDis" : "50",
      "Id" : "5677",
      "oid" : "319604747",
      "districtId" : "1",
      "nameZh" : "豐原鎮清宮",
      "pgp" : "0",
      "terminal" : "0",
      "latitude" : "24.25396",
      "inDis" : "50",
      "routeId" : "12",
      "seqNo" : "1"
   },
   {
      "GoBack" : "2",
      "longitude" : "120.74367",
      "outDis" : "50",
      "Id" : "1716",
      "oid" : "5487",
      "districtId" : "1",
      "nameZh" : "水源地",
      "pgp" : "0",
      "terminal" : "0",
      "latitude" : "24.25562",
      "inDis" : "50",
      "routeId" : "12",
      "seqNo" : "2"
   },
   {
      "GoBack" : "2",
      "longitude" : "120.74185",
      "outDis" : "50",
      "Id" : "3937",
      "oid" : "6695",
      "districtId" : "1",
      "nameZh" : "豐原高中",
      "pgp" : "0",
      "terminal" : "0",
      "latitude" : "24.25572",
      "inDis" : "50",
      "routeId" : "12",
      "seqNo" : "3"
   },
   {
      "GoBack" : "2",
      "longitude" : "120.73793",
      "outDis" : "50",
      "Id" : "1746",
      "oid" : "5503",
      "districtId" : "1",
      "nameZh" : "王爺廟",
      "pgp" : "0",
      "terminal" : "0",
      "latitude" : "24.25591",
      "inDis" : "50",
      "routeId" : "12",
      "seqNo" : "4"
   },
   {
      "GoBack" : "2",
      "longitude" : "120.73574",
      "outDis" : "50",
      "Id" : "3931",
      "oid" : "6689",
      "districtId" : "1",
      "nameZh" : "豐村國小",
      "pgp" : "0",
      "terminal" : "0",
      "latitude" : "24.2557",
      "inDis" : "50",
      "routeId" : "12",
      "seqNo" : "5"
   },
   {
      "GoBack" : "2",
      "longitude" : "120.73419",
      "outDis" : "50",
      "Id" : "3441",
      "oid" : "6461",
      "districtId" : "1",
      "nameZh" : "水源豐東路口",
      "pgp" : "0",
      "terminal" : "0",
      "latitude" : "24.25557",
      "inDis" : "50",
      "routeId" : "12",
      "seqNo" : "6"
   },
   {
      "GoBack" : "2",
      "longitude" : "120.73214",
      "outDis" : "50",
      "Id" : "5503",
      "oid" : "9221",
      "districtId" : "1",
      "nameZh" : "水源圓環東路口",
      "pgp" : "0",
      "terminal" : "0",
      "latitude" : "24.25527",
      "inDis" : "50",
      "routeId" : "12",
      "seqNo" : "7"
   },
   {
      "GoBack" : "2",
      "longitude" : "120.72975",
      "outDis" : "50",
      "Id" : "4478",
      "oid" : "13802",
      "districtId" : "1",
      "nameZh" : "圓環東水源路口",
      "pgp" : "0",
      "terminal" : "0",
      "latitude" : "24.25577",
      "inDis" : "50",
      "routeId" : "12",
      "seqNo" : "8"
   },
   {
      "GoBack" : "2",
      "longitude" : "120.7262",
      "outDis" : "50",
      "Id" : "4474",
      "oid" : "13847",
      "districtId" : "1",
      "nameZh" : "圓環北角潭路口",
      "pgp" : "0",
      "terminal" : "0",
      "latitude" : "24.25995",
      "inDis" : "50",
      "routeId" : "12",
      "seqNo" : "9"
   },
   {
      "GoBack" : "2",
      "longitude" : "120.72385",
      "outDis" : "50",
      "Id" : "4472",
      "oid" : "13845",
      "districtId" : "1",
      "nameZh" : "圓環北大順街口",
      "pgp" : "0",
      "terminal" : "0",
      "latitude" : "24.2607",
      "inDis" : "50",
      "routeId" : "12",
      "seqNo" : "10"
   },
   {
      "GoBack" : "2",
      "longitude" : "120.72096",
      "outDis" : "50",
      "Id" : "4451",
      "oid" : "13844",
      "districtId" : "1",
      "nameZh" : "北環福德祠",
      "pgp" : "0",
      "terminal" : "0",
      "latitude" : "24.25953",
      "inDis" : "50",
      "routeId" : "12",
      "seqNo" : "11"
   },
   {
      "GoBack" : "2",
      "longitude" : "120.7216",
      "outDis" : "50",
      "Id" : "5632",
      "oid" : "317638566",
      "districtId" : "1",
      "nameZh" : "豐中大順街口",
      "pgp" : "0",
      "terminal" : "0",
      "latitude" : "24.25757",
      "inDis" : "50",
      "routeId" : "12",
      "seqNo" : "12"
   },
   {
      "GoBack" : "2",
      "longitude" : "120.72247",
      "outDis" : "50",
      "Id" : "4931",
      "oid" : "308835188",
      "districtId" : "1",
      "nameZh" : "豐原火車站",
      "pgp" : "0",
      "terminal" : "0",
      "latitude" : "24.25504",
      "inDis" : "50",
      "routeId" : "12",
      "seqNo" : "13"
   },
   {
      "GoBack" : "2",
      "longitude" : "120.72123",
      "outDis" : "50",
      "Id" : "3157",
      "oid" : "8053",
      "districtId" : "1",
      "nameZh" : "頂街",
      "pgp" : "0",
      "terminal" : "0",
      "latitude" : "24.25234",
      "inDis" : "50",
      "routeId" : "12",
      "seqNo" : "14"
   },
   {
      "GoBack" : "2",
      "longitude" : "120.71851",
      "outDis" : "50",
      "Id" : "3343",
      "oid" : "6397",
      "districtId" : "1",
      "nameZh" : "媽祖廟",
      "pgp" : "0",
      "terminal" : "0",
      "latitude" : "24.25157",
      "inDis" : "50",
      "routeId" : "12",
      "seqNo" : "15"
   },
   {
      "GoBack" : "2",
      "longitude" : "120.71526",
      "outDis" : "50",
      "Id" : "3939",
      "oid" : "6698",
      "districtId" : "1",
      "nameZh" : "豐原郵局",
      "pgp" : "0",
      "terminal" : "0",
      "latitude" : "24.25136",
      "inDis" : "50",
      "routeId" : "12",
      "seqNo" : "16"
   },
   {
      "GoBack" : "2",
      "longitude" : "120.712",
      "outDis" : "50",
      "Id" : "3357",
      "oid" : "8065",
      "districtId" : "1",
      "nameZh" : "慈龍寺",
      "pgp" : "0",
      "terminal" : "0",
      "latitude" : "24.25079",
      "inDis" : "50",
      "routeId" : "12",
      "seqNo" : "17"
   },
   {
      "GoBack" : "2",
      "longitude" : "120.70963",
      "outDis" : "50",
      "Id" : "4448",
      "oid" : "6688",
      "districtId" : "1",
      "nameZh" : "中正圓環西路口",
      "pgp" : "0",
      "terminal" : "0",
      "latitude" : "24.25039",
      "inDis" : "50",
      "routeId" : "12",
      "seqNo" : "18"
   },
   {
      "GoBack" : "2",
      "longitude" : "120.70672",
      "outDis" : "50",
      "Id" : "1065",
      "oid" : "5072",
      "districtId" : "1",
      "nameZh" : "三光新村",
      "pgp" : "0",
      "terminal" : "0",
      "latitude" : "24.24999",
      "inDis" : "50",
      "routeId" : "12",
      "seqNo" : "19"
   },
   {
      "GoBack" : "2",
      "longitude" : "120.70434",
      "outDis" : "50",
      "Id" : "2349",
      "oid" : "5856",
      "districtId" : "1",
      "nameZh" : "忠勤新村",
      "pgp" : "0",
      "terminal" : "0",
      "latitude" : "24.24962",
      "inDis" : "50",
      "routeId" : "12",
      "seqNo" : "20"
   },
   {
      "GoBack" : "2",
      "longitude" : "120.70329",
      "outDis" : "50",
      "Id" : "5502",
      "oid" : "9220",
      "districtId" : "1",
      "nameZh" : "豐原大道一心路口",
      "pgp" : "0",
      "terminal" : "0",
      "latitude" : "24.24572",
      "inDis" : "50",
      "routeId" : "12",
      "seqNo" : "21"
   },
   {
      "GoBack" : "2",
      "longitude" : "120.70326",
      "outDis" : "50",
      "Id" : "5501",
      "oid" : "9219",
      "districtId" : "1",
      "nameZh" : "豐原大道社皮路口",
      "pgp" : "0",
      "terminal" : "0",
      "latitude" : "24.24232",
      "inDis" : "50",
      "routeId" : "12",
      "seqNo" : "22"
   },
   {
      "GoBack" : "2",
      "longitude" : "120.70327",
      "outDis" : "50",
      "Id" : "5500",
      "oid" : "9218",
      "districtId" : "1",
      "nameZh" : "合作國小(豐原大道)",
      "pgp" : "0",
      "terminal" : "0",
      "latitude" : "24.23939",
      "inDis" : "50",
      "routeId" : "12",
      "seqNo" : "23"
   },
   {
      "GoBack" : "2",
      "longitude" : "120.70108",
      "outDis" : "50",
      "Id" : "4936",
      "oid" : "308835198",
      "districtId" : "1",
      "nameZh" : "東龍家電",
      "pgp" : "0",
      "terminal" : "0",
      "latitude" : "24.23716",
      "inDis" : "50",
      "routeId" : "12",
      "seqNo" : "24"
   },
   {
      "GoBack" : "2",
      "longitude" : "120.69874",
      "outDis" : "50",
      "Id" : "4937",
      "oid" : "308835200",
      "districtId" : "1",
      "nameZh" : "承德三社東路口",
      "pgp" : "0",
      "terminal" : "0",
      "latitude" : "24.23509",
      "inDis" : "50",
      "routeId" : "12",
      "seqNo" : "25"
   },
   {
      "GoBack" : "2",
      "longitude" : "120.69513",
      "outDis" : "50",
      "Id" : "5499",
      "oid" : "9214",
      "districtId" : "1",
      "nameZh" : "潭雅神綠園道(承德路)",
      "pgp" : "0",
      "terminal" : "0",
      "latitude" : "24.2328",
      "inDis" : "50",
      "routeId" : "12",
      "seqNo" : "26"
   },
   {
      "GoBack" : "2",
      "longitude" : "120.69065",
      "outDis" : "50",
      "Id" : "5498",
      "oid" : "9213",
      "districtId" : "1",
      "nameZh" : "崇德祿社區",
      "pgp" : "0",
      "terminal" : "0",
      "latitude" : "24.22772",
      "inDis" : "50",
      "routeId" : "12",
      "seqNo" : "27"
   },
   {
      "GoBack" : "2",
      "longitude" : "120.69029",
      "outDis" : "50",
      "Id" : "4743",
      "oid" : "9212",
      "districtId" : "1",
      "nameZh" : "崇德潭富路口",
      "pgp" : "0",
      "terminal" : "0",
      "latitude" : "24.22542",
      "inDis" : "50",
      "routeId" : "12",
      "seqNo" : "28"
   },
   {
      "GoBack" : "2",
      "longitude" : "120.68962",
      "outDis" : "50",
      "Id" : "5497",
      "oid" : "9209",
      "districtId" : "1",
      "nameZh" : "歐洲村社區",
      "pgp" : "0",
      "terminal" : "0",
      "latitude" : "24.22238",
      "inDis" : "50",
      "routeId" : "12",
      "seqNo" : "29"
   },
   {
      "GoBack" : "2",
      "longitude" : "120.68884",
      "outDis" : "50",
      "Id" : "5496",
      "oid" : "9208",
      "districtId" : "1",
      "nameZh" : "天畝社區",
      "pgp" : "0",
      "terminal" : "0",
      "latitude" : "24.21868",
      "inDis" : "50",
      "routeId" : "12",
      "seqNo" : "30"
   },
   {
      "GoBack" : "2",
      "longitude" : "120.68792",
      "outDis" : "50",
      "Id" : "4300",
      "oid" : "9207",
      "districtId" : "1",
      "nameZh" : "崇德雅潭路口",
      "pgp" : "0",
      "terminal" : "0",
      "latitude" : "24.21496",
      "inDis" : "50",
      "routeId" : "12",
      "seqNo" : "31"
   },
   {
      "GoBack" : "2",
      "longitude" : "120.68673",
      "outDis" : "50",
      "Id" : "4301",
      "oid" : "9206",
      "districtId" : "1",
      "nameZh" : "崇德大豐一路口",
      "pgp" : "0",
      "terminal" : "0",
      "latitude" : "24.21021",
      "inDis" : "50",
      "routeId" : "12",
      "seqNo" : "32"
   },
   {
      "GoBack" : "2",
      "longitude" : "120.68662",
      "outDis" : "50",
      "Id" : "4406",
      "oid" : "9205",
      "districtId" : "1",
      "nameZh" : "中油鴻陞加油站",
      "pgp" : "0",
      "terminal" : "0",
      "latitude" : "24.20622",
      "inDis" : "50",
      "routeId" : "12",
      "seqNo" : "33"
   },
   {
      "GoBack" : "2",
      "longitude" : "120.68662",
      "outDis" : "50",
      "Id" : "4647",
      "oid" : "9119",
      "districtId" : "1",
      "nameZh" : "崇德環中路口",
      "pgp" : "0",
      "terminal" : "0",
      "latitude" : "24.20195",
      "inDis" : "50",
      "routeId" : "12",
      "seqNo" : "34"
   },
   {
      "GoBack" : "2",
      "longitude" : "120.68656",
      "outDis" : "50",
      "Id" : "4359",
      "oid" : "9118",
      "districtId" : "1",
      "nameZh" : "臺中洲際棒球場",
      "pgp" : "0",
      "terminal" : "0",
      "latitude" : "24.19889",
      "inDis" : "50",
      "routeId" : "12",
      "seqNo" : "35"
   },
   {
      "GoBack" : "2",
      "longitude" : "120.68639",
      "outDis" : "50",
      "Id" : "3818",
      "oid" : "320761402",
      "districtId" : "1",
      "nameZh" : "錦村市場",
      "pgp" : "0",
      "terminal" : "0",
      "latitude" : "24.19588",
      "inDis" : "50",
      "routeId" : "12",
      "seqNo" : "36"
   },
   {
      "GoBack" : "2",
      "longitude" : "120.68646",
      "outDis" : "50",
      "Id" : "4252",
      "oid" : "9116",
      "districtId" : "1",
      "nameZh" : "崇德豐樂路口",
      "pgp" : "0",
      "terminal" : "0",
      "latitude" : "24.19258",
      "inDis" : "50",
      "routeId" : "12",
      "seqNo" : "37"
   },
   {
      "GoBack" : "2",
      "longitude" : "120.68636",
      "outDis" : "50",
      "Id" : "2959",
      "oid" : "9115",
      "districtId" : "1",
      "nameZh" : "崇德十路口",
      "pgp" : "0",
      "terminal" : "0",
      "latitude" : "24.18806",
      "inDis" : "50",
      "routeId" : "12",
      "seqNo" : "38"
   },
   {
      "GoBack" : "2",
      "longitude" : "120.68622",
      "outDis" : "50",
      "Id" : "2958",
      "oid" : "9114",
      "districtId" : "1",
      "nameZh" : "崇德九路口",
      "pgp" : "0",
      "terminal" : "0",
      "latitude" : "24.18768",
      "inDis" : "50",
      "routeId" : "12",
      "seqNo" : "39"
   },
   {
      "GoBack" : "2",
      "longitude" : "120.68627",
      "outDis" : "50",
      "Id" : "1393",
      "oid" : "8966",
      "districtId" : "1",
      "nameZh" : "崇德山西路口",
      "pgp" : "0",
      "terminal" : "0",
      "latitude" : "24.18493",
      "inDis" : "50",
      "routeId" : "12",
      "seqNo" : "40"
   },
   {
      "GoBack" : "2",
      "longitude" : "120.68619",
      "outDis" : "50",
      "Id" : "0194",
      "oid" : "8965",
      "districtId" : "1",
      "nameZh" : "北屯區行政大樓",
      "pgp" : "0",
      "terminal" : "0",
      "latitude" : "24.18203",
      "inDis" : "50",
      "routeId" : "12",
      "seqNo" : "41"
   },
   {
      "GoBack" : "2",
      "longitude" : "120.68608",
      "outDis" : "50",
      "Id" : "5387",
      "oid" : "8964",
      "districtId" : "1",
      "nameZh" : "崇德六路口",
      "pgp" : "0",
      "terminal" : "0",
      "latitude" : "24.18086",
      "inDis" : "50",
      "routeId" : "12",
      "seqNo" : "42"
   },
   {
      "GoBack" : "2",
      "longitude" : "120.68605",
      "outDis" : "50",
      "Id" : "0195",
      "oid" : "8963",
      "districtId" : "1",
      "nameZh" : "崇德五路口",
      "pgp" : "0",
      "terminal" : "0",
      "latitude" : "24.17894",
      "inDis" : "50",
      "routeId" : "12",
      "seqNo" : "43"
   },
   {
      "GoBack" : "2",
      "longitude" : "120.68579",
      "outDis" : "50",
      "Id" : "0196",
      "oid" : "8951",
      "districtId" : "1",
      "nameZh" : "崇德一路口",
      "pgp" : "0",
      "terminal" : "0",
      "latitude" : "24.17675",
      "inDis" : "50",
      "routeId" : "12",
      "seqNo" : "44"
   },
   {
      "GoBack" : "2",
      "longitude" : "120.68569",
      "outDis" : "50",
      "Id" : "5131",
      "oid" : "8950",
      "districtId" : "1",
      "nameZh" : "崇德國中(民俗公園)",
      "pgp" : "0",
      "terminal" : "0",
      "latitude" : "24.17455",
      "inDis" : "50",
      "routeId" : "12",
      "seqNo" : "45"
   },
   {
      "GoBack" : "2",
      "longitude" : "120.68552",
      "outDis" : "50",
      "Id" : "0199",
      "oid" : "8949",
      "districtId" : "1",
      "nameZh" : "崇德瀋陽路口",
      "pgp" : "0",
      "terminal" : "0",
      "latitude" : "24.17302",
      "inDis" : "50",
      "routeId" : "12",
      "seqNo" : "46"
   },
   {
      "GoBack" : "2",
      "longitude" : "120.68539",
      "outDis" : "50",
      "Id" : "4339",
      "oid" : "8948",
      "districtId" : "1",
      "nameZh" : "崇德文心路口",
      "pgp" : "0",
      "terminal" : "0",
      "latitude" : "24.17147",
      "inDis" : "50",
      "routeId" : "12",
      "seqNo" : "47"
   },
   {
      "GoBack" : "2",
      "longitude" : "120.68537",
      "outDis" : "50",
      "Id" : "1768",
      "oid" : "8947",
      "districtId" : "1",
      "nameZh" : "崇德北平路口",
      "pgp" : "0",
      "terminal" : "0",
      "latitude" : "24.17021",
      "inDis" : "50",
      "routeId" : "12",
      "seqNo" : "48"
   },
   {
      "GoBack" : "2",
      "longitude" : "120.68525",
      "outDis" : "50",
      "Id" : "3511",
      "oid" : "8946",
      "districtId" : "1",
      "nameZh" : "聖德禪寺",
      "pgp" : "0",
      "terminal" : "0",
      "latitude" : "24.16801",
      "inDis" : "50",
      "routeId" : "12",
      "seqNo" : "49"
   },
   {
      "GoBack" : "2",
      "longitude" : "120.68514",
      "outDis" : "50",
      "Id" : "0098",
      "oid" : "8945",
      "districtId" : "1",
      "nameZh" : "崇德橋",
      "pgp" : "0",
      "terminal" : "0",
      "latitude" : "24.16438",
      "inDis" : "50",
      "routeId" : "12",
      "seqNo" : "50"
   },
   {
      "GoBack" : "2",
      "longitude" : "120.68514",
      "outDis" : "50",
      "Id" : "4576",
      "oid" : "8944",
      "districtId" : "1",
      "nameZh" : "崇德德化街口",
      "pgp" : "0",
      "terminal" : "0",
      "latitude" : "24.16146",
      "inDis" : "50",
      "routeId" : "12",
      "seqNo" : "51"
   },
   {
      "GoBack" : "2",
      "longitude" : "120.68483",
      "outDis" : "50",
      "Id" : "4607",
      "oid" : "1D3F4D0CD3CF4AFB84A736E9D2E65456",
      "districtId" : "1",
      "nameZh" : "新民高中(崇德路)",
      "pgp" : "0",
      "terminal" : "0",
      "latitude" : "24.15976",
      "inDis" : "50",
      "routeId" : "12",
      "seqNo" : "52"
   },
   {
      "GoBack" : "2",
      "longitude" : "120.68566",
      "outDis" : "50",
      "Id" : "0203",
      "oid" : "8942",
      "districtId" : "1",
      "nameZh" : "市立殯儀館",
      "pgp" : "0",
      "terminal" : "0",
      "latitude" : "24.15626",
      "inDis" : "50",
      "routeId" : "12",
      "seqNo" : "53"
   },
   {
      "GoBack" : "2",
      "longitude" : "120.68563",
      "outDis" : "50",
      "Id" : "0047",
      "oid" : "156231535",
      "districtId" : "1",
      "nameZh" : "一心市場",
      "pgp" : "0",
      "terminal" : "0",
      "latitude" : "24.15369",
      "inDis" : "50",
      "routeId" : "12",
      "seqNo" : "54"
   },
   {
      "GoBack" : "2",
      "longitude" : "120.6852",
      "outDis" : "50",
      "Id" : "0046",
      "oid" : "5310",
      "districtId" : "1",
      "nameZh" : "中友百貨",
      "pgp" : "0",
      "terminal" : "0",
      "latitude" : "24.15251",
      "inDis" : "50",
      "routeId" : "12",
      "seqNo" : "55"
   },
   {
      "GoBack" : "2",
      "longitude" : "120.68413",
      "outDis" : "50",
      "Id" : "0045",
      "oid" : "5556",
      "districtId" : "1",
      "nameZh" : "國立臺中科技大學",
      "pgp" : "0",
      "terminal" : "0",
      "latitude" : "24.14987",
      "inDis" : "50",
      "routeId" : "12",
      "seqNo" : "56"
   },
   {
      "GoBack" : "2",
      "longitude" : "120.68448",
      "outDis" : "50",
      "Id" : "1513",
      "oid" : "15989",
      "districtId" : "1",
      "nameZh" : "中興堂",
      "pgp" : "0",
      "terminal" : "0",
      "latitude" : "24.14626",
      "inDis" : "50",
      "routeId" : "12",
      "seqNo" : "57"
   },
   {
      "GoBack" : "2",
      "longitude" : "120.68597",
      "outDis" : "50",
      "Id" : "4544",
      "oid" : "5554",
      "districtId" : "1",
      "nameZh" : "臺中公園(雙十路)",
      "pgp" : "0",
      "terminal" : "0",
      "latitude" : "24.14419",
      "inDis" : "50",
      "routeId" : "12",
      "seqNo" : "58"
   },
   {
      "GoBack" : "2",
      "longitude" : "120.68597",
      "outDis" : "50",
      "Id" : "0402",
      "oid" : "315959597",
      "districtId" : "1",
      "nameZh" : "干城站",
      "pgp" : "0",
      "terminal" : "0",
      "latitude" : "24.14101",
      "inDis" : "50",
      "routeId" : "12",
      "seqNo" : "59"
   },
   {
      "GoBack" : "2",
      "longitude" : "120.6844",
      "outDis" : "170",
      "Id" : "1824",
      "oid" : "7351",
      "districtId" : "1",
      "nameZh" : "臺中火車站",
      "pgp" : "0",
      "terminal" : "0",
      "latitude" : "24.13743",
      "inDis" : "50",
      "routeId" : "12",
      "seqNo" : "60"
   },
   {
      "GoBack" : "2",
      "longitude" : "120.68381",
      "outDis" : "50",
      "Id" : "0049",
      "oid" : "6258",
      "districtId" : "1",
      "nameZh" : "第三市場(臺中家商)",
      "pgp" : "0",
      "terminal" : "0",
      "latitude" : "24.13246",
      "inDis" : "50",
      "routeId" : "12",
      "seqNo" : "61"
   },
   {
      "GoBack" : "2",
      "longitude" : "120.68499",
      "outDis" : "50",
      "Id" : "0257",
      "oid" : "5561",
      "districtId" : "1",
      "nameZh" : "臺中國小",
      "pgp" : "0",
      "terminal" : "0",
      "latitude" : "24.13028",
      "inDis" : "50",
      "routeId" : "12",
      "seqNo" : "62"
   },
   {
      "GoBack" : "2",
      "longitude" : "120.68452",
      "outDis" : "50",
      "Id" : "5607",
      "oid" : "95879C963BCD4EAB8A376EF9655A419C",
      "districtId" : "1",
      "nameZh" : "興大附農(臺中路)",
      "pgp" : "0",
      "terminal" : "0",
      "latitude" : "24.12747",
      "inDis" : "50",
      "routeId" : "12",
      "seqNo" : "63"
   },
   {
      "GoBack" : "2",
      "longitude" : "120.68424",
      "outDis" : "50",
      "Id" : "0255",
      "oid" : "6619BD77BE964E6E951A771062BD126E",
      "districtId" : "1",
      "nameZh" : "南門仔",
      "pgp" : "0",
      "terminal" : "0",
      "latitude" : "24.12555",
      "inDis" : "50",
      "routeId" : "12",
      "seqNo" : "64"
   },
   {
      "GoBack" : "2",
      "longitude" : "120.68416",
      "outDis" : "50",
      "Id" : "0254",
      "oid" : "5873",
      "districtId" : "1",
      "nameZh" : "明德高中",
      "pgp" : "0",
      "terminal" : "0",
      "latitude" : "24.12272",
      "inDis" : "50",
      "routeId" : "12",
      "seqNo" : "65"
   },
   {
      "GoBack" : "2",
      "longitude" : "120.68414",
      "outDis" : "50",
      "Id" : "4618",
      "oid" : "8941",
      "districtId" : "1",
      "nameZh" : "明德高中(明德街)",
      "pgp" : "0",
      "terminal" : "0",
      "latitude" : "24.1211",
      "inDis" : "50",
      "routeId" : "12",
      "seqNo" : "66"
   }
]
