[
   {
      "GoBack" : "1",
      "longitude" : "120.71184",
      "outDis" : "50",
      "Id" : "4320",
      "oid" : "301532257",
      "districtId" : "1",
      "nameZh" : "東山高中",
      "pgp" : "0",
      "terminal" : "0",
      "latitude" : "24.16588",
      "inDis" : "50",
      "routeId" : "3",
      "seqNo" : "1"
   },
   {
      "GoBack" : "1",
      "longitude" : "120.71434",
      "outDis" : "50",
      "Id" : "5175",
      "oid" : "8E1E39FEE65645F2BE38C8017CE33990",
      "districtId" : "1",
      "nameZh" : "太原軍功路口",
      "pgp" : "0",
      "terminal" : "0",
      "latitude" : "24.1642",
      "inDis" : "50",
      "routeId" : "3",
      "seqNo" : "2"
   },
   {
      "GoBack" : "1",
      "longitude" : "120.71414",
      "outDis" : "50",
      "Id" : "1850",
      "oid" : "5574",
      "districtId" : "1",
      "nameZh" : "四角竹圍",
      "pgp" : "0",
      "terminal" : "0",
      "latitude" : "24.16264",
      "inDis" : "50",
      "routeId" : "3",
      "seqNo" : "3"
   },
   {
      "GoBack" : "1",
      "longitude" : "120.71256",
      "outDis" : "50",
      "Id" : "5007",
      "oid" : "309414078",
      "districtId" : "1",
      "nameZh" : "樹德育賢路口",
      "pgp" : "0",
      "terminal" : "0",
      "latitude" : "24.15747",
      "inDis" : "50",
      "routeId" : "3",
      "seqNo" : "4"
   },
   {
      "GoBack" : "1",
      "longitude" : "120.71221",
      "outDis" : "50",
      "Id" : "5008",
      "oid" : "309414081",
      "districtId" : "1",
      "nameZh" : "樹德育才路口",
      "pgp" : "0",
      "terminal" : "0",
      "latitude" : "24.15619",
      "inDis" : "50",
      "routeId" : "3",
      "seqNo" : "5"
   },
   {
      "GoBack" : "1",
      "longitude" : "120.71159",
      "outDis" : "50",
      "Id" : "5271",
      "oid" : "305945919",
      "districtId" : "1",
      "nameZh" : "樹德廣三街口",
      "pgp" : "0",
      "terminal" : "0",
      "latitude" : "24.15377",
      "inDis" : "50",
      "routeId" : "3",
      "seqNo" : "6"
   },
   {
      "GoBack" : "1",
      "longitude" : "120.71087",
      "outDis" : "50",
      "Id" : "5005",
      "oid" : "305945921",
      "districtId" : "1",
      "nameZh" : "新高兒童公園",
      "pgp" : "0",
      "terminal" : "0",
      "latitude" : "24.15097",
      "inDis" : "50",
      "routeId" : "3",
      "seqNo" : "7"
   },
   {
      "GoBack" : "1",
      "longitude" : "120.7129",
      "outDis" : "50",
      "Id" : "4321",
      "oid" : "310383706",
      "districtId" : "1",
      "nameZh" : "宜欣郵局",
      "pgp" : "0",
      "terminal" : "0",
      "latitude" : "24.1498",
      "inDis" : "50",
      "routeId" : "3",
      "seqNo" : "8"
   },
   {
      "GoBack" : "1",
      "longitude" : "120.71595",
      "outDis" : "50",
      "Id" : "1422",
      "oid" : "3843",
      "districtId" : "1",
      "nameZh" : "宜昌中山路口",
      "pgp" : "0",
      "terminal" : "0",
      "latitude" : "24.14842",
      "inDis" : "50",
      "routeId" : "3",
      "seqNo" : "9"
   },
   {
      "GoBack" : "1",
      "longitude" : "120.71413",
      "outDis" : "50",
      "Id" : "3764",
      "oid" : "3842",
      "districtId" : "1",
      "nameZh" : "賢德醫院",
      "pgp" : "0",
      "terminal" : "0",
      "latitude" : "24.14546",
      "inDis" : "50",
      "routeId" : "3",
      "seqNo" : "10"
   },
   {
      "GoBack" : "1",
      "longitude" : "120.71468",
      "outDis" : "50",
      "Id" : "4747",
      "oid" : "306695535",
      "districtId" : "1",
      "nameZh" : "新平溪洲路口",
      "pgp" : "0",
      "terminal" : "0",
      "latitude" : "24.14165",
      "inDis" : "50",
      "routeId" : "3",
      "seqNo" : "11"
   },
   {
      "GoBack" : "1",
      "longitude" : "120.71495",
      "outDis" : "50",
      "Id" : "2330",
      "oid" : "7107",
      "districtId" : "1",
      "nameZh" : "宜欣國小",
      "pgp" : "0",
      "terminal" : "0",
      "latitude" : "24.13889",
      "inDis" : "50",
      "routeId" : "3",
      "seqNo" : "12"
   },
   {
      "GoBack" : "1",
      "longitude" : "120.7154",
      "outDis" : "50",
      "Id" : "5147",
      "oid" : "310383707",
      "districtId" : "1",
      "nameZh" : "新平仁和街口",
      "pgp" : "0",
      "terminal" : "0",
      "latitude" : "24.1373",
      "inDis" : "50",
      "routeId" : "3",
      "seqNo" : "13"
   },
   {
      "GoBack" : "1",
      "longitude" : "120.7168",
      "outDis" : "50",
      "Id" : "4716",
      "oid" : "306250856",
      "districtId" : "1",
      "nameZh" : "新平永平路口",
      "pgp" : "0",
      "terminal" : "0",
      "latitude" : "24.13163",
      "inDis" : "50",
      "routeId" : "3",
      "seqNo" : "14"
   },
   {
      "GoBack" : "1",
      "longitude" : "120.71726",
      "outDis" : "50",
      "Id" : "4220",
      "oid" : "12327",
      "districtId" : "1",
      "nameZh" : "太平國小",
      "pgp" : "0",
      "terminal" : "0",
      "latitude" : "24.12826",
      "inDis" : "50",
      "routeId" : "3",
      "seqNo" : "15"
   },
   {
      "GoBack" : "1",
      "longitude" : "120.71507",
      "outDis" : "50",
      "Id" : "1427",
      "oid" : "13090",
      "districtId" : "1",
      "nameZh" : "中太平",
      "pgp" : "0",
      "terminal" : "0",
      "latitude" : "24.12683",
      "inDis" : "50",
      "routeId" : "3",
      "seqNo" : "16"
   },
   {
      "GoBack" : "1",
      "longitude" : "120.71481",
      "outDis" : "50",
      "Id" : "4664",
      "oid" : "5438",
      "districtId" : "1",
      "nameZh" : "太平農會",
      "pgp" : "0",
      "terminal" : "0",
      "latitude" : "24.12482",
      "inDis" : "50",
      "routeId" : "3",
      "seqNo" : "17"
   },
   {
      "GoBack" : "1",
      "longitude" : "120.71645",
      "outDis" : "50",
      "Id" : "5009",
      "oid" : "309414083",
      "districtId" : "1",
      "nameZh" : "太平中平路口",
      "pgp" : "0",
      "terminal" : "0",
      "latitude" : "24.12442",
      "inDis" : "50",
      "routeId" : "3",
      "seqNo" : "18"
   },
   {
      "GoBack" : "1",
      "longitude" : "120.7182",
      "outDis" : "50",
      "Id" : "1436",
      "oid" : "5315",
      "districtId" : "1",
      "nameZh" : "中平國中",
      "pgp" : "0",
      "terminal" : "0",
      "latitude" : "24.12268",
      "inDis" : "50",
      "routeId" : "3",
      "seqNo" : "19"
   },
   {
      "GoBack" : "1",
      "longitude" : "120.7199",
      "outDis" : "50",
      "Id" : "3685",
      "oid" : "6575",
      "districtId" : "1",
      "nameZh" : "精美社區",
      "pgp" : "0",
      "terminal" : "0",
      "latitude" : "24.12118",
      "inDis" : "50",
      "routeId" : "3",
      "seqNo" : "20"
   },
   {
      "GoBack" : "1",
      "longitude" : "120.72031",
      "outDis" : "50",
      "Id" : "5010",
      "oid" : "309414085",
      "districtId" : "1",
      "nameZh" : "長億二街口",
      "pgp" : "0",
      "terminal" : "0",
      "latitude" : "24.11877",
      "inDis" : "50",
      "routeId" : "3",
      "seqNo" : "21"
   },
   {
      "GoBack" : "1",
      "longitude" : "120.71947",
      "outDis" : "50",
      "Id" : "4949",
      "oid" : "309054917",
      "districtId" : "1",
      "nameZh" : "長億六太平一街口",
      "pgp" : "0",
      "terminal" : "0",
      "latitude" : "24.11543",
      "inDis" : "50",
      "routeId" : "3",
      "seqNo" : "22"
   },
   {
      "GoBack" : "1",
      "longitude" : "120.72109",
      "outDis" : "50",
      "Id" : "4518",
      "oid" : "305398431",
      "districtId" : "1",
      "nameZh" : "長億高中",
      "pgp" : "0",
      "terminal" : "0",
      "latitude" : "24.11396",
      "inDis" : "50",
      "routeId" : "3",
      "seqNo" : "23"
   },
   {
      "GoBack" : "1",
      "longitude" : "120.72439",
      "outDis" : "60",
      "Id" : "4706",
      "oid" : "309414087",
      "districtId" : "1",
      "nameZh" : "慈明高中(光德路)",
      "pgp" : "0",
      "terminal" : "0",
      "latitude" : "24.1067",
      "inDis" : "50",
      "routeId" : "3",
      "seqNo" : "24"
   },
   {
      "GoBack" : "1",
      "longitude" : "120.72273",
      "outDis" : "50",
      "Id" : "5012",
      "oid" : "309414089",
      "districtId" : "1",
      "nameZh" : "光德中南巷",
      "pgp" : "0",
      "terminal" : "0",
      "latitude" : "24.10385",
      "inDis" : "50",
      "routeId" : "3",
      "seqNo" : "25"
   },
   {
      "GoBack" : "1",
      "longitude" : "120.7211",
      "outDis" : "50",
      "Id" : "1457",
      "oid" : "310383708",
      "districtId" : "1",
      "nameZh" : "中南巷",
      "pgp" : "0",
      "terminal" : "0",
      "latitude" : "24.101",
      "inDis" : "50",
      "routeId" : "3",
      "seqNo" : "26"
   },
   {
      "GoBack" : "1",
      "longitude" : "120.71967",
      "outDis" : "50",
      "Id" : "4712",
      "oid" : "13897",
      "districtId" : "1",
      "nameZh" : "鳳凰路182巷口",
      "pgp" : "0",
      "terminal" : "0",
      "latitude" : "24.09847",
      "inDis" : "50",
      "routeId" : "3",
      "seqNo" : "27"
   },
   {
      "GoBack" : "1",
      "longitude" : "120.71786",
      "outDis" : "50",
      "Id" : "4702",
      "oid" : "13896",
      "districtId" : "1",
      "nameZh" : "光正國中",
      "pgp" : "0",
      "terminal" : "0",
      "latitude" : "24.0963",
      "inDis" : "50",
      "routeId" : "3",
      "seqNo" : "28"
   },
   {
      "GoBack" : "1",
      "longitude" : "120.7138",
      "outDis" : "50",
      "Id" : "2733",
      "oid" : "310383709",
      "districtId" : "1",
      "nameZh" : "修平科技大學",
      "pgp" : "0",
      "terminal" : "0",
      "latitude" : "24.09524",
      "inDis" : "50",
      "routeId" : "3",
      "seqNo" : "29"
   },
   {
      "GoBack" : "1",
      "longitude" : "120.70962",
      "outDis" : "50",
      "Id" : "5346",
      "oid" : "314009843",
      "districtId" : "1",
      "nameZh" : "百姓公廟",
      "pgp" : "0",
      "terminal" : "0",
      "latitude" : "24.09441",
      "inDis" : "50",
      "routeId" : "3",
      "seqNo" : "30"
   },
   {
      "GoBack" : "1",
      "longitude" : "120.707",
      "outDis" : "50",
      "Id" : "5014",
      "oid" : "309414094",
      "districtId" : "1",
      "nameZh" : "仁化仁城路口",
      "pgp" : "0",
      "terminal" : "0",
      "latitude" : "24.09522",
      "inDis" : "50",
      "routeId" : "3",
      "seqNo" : "31"
   },
   {
      "GoBack" : "1",
      "longitude" : "120.70327",
      "outDis" : "50",
      "Id" : "5015",
      "oid" : "309414096",
      "districtId" : "1",
      "nameZh" : "仁化仁愛路口",
      "pgp" : "0",
      "terminal" : "0",
      "latitude" : "24.09598",
      "inDis" : "50",
      "routeId" : "3",
      "seqNo" : "32"
   },
   {
      "GoBack" : "1",
      "longitude" : "120.70088",
      "outDis" : "50",
      "Id" : "4420",
      "oid" : "304725411",
      "districtId" : "1",
      "nameZh" : "仁化里",
      "pgp" : "0",
      "terminal" : "0",
      "latitude" : "24.09626",
      "inDis" : "50",
      "routeId" : "3",
      "seqNo" : "33"
   },
   {
      "GoBack" : "1",
      "longitude" : "120.69828",
      "outDis" : "50",
      "Id" : "5016",
      "oid" : "309414098",
      "districtId" : "1",
      "nameZh" : "仁化慈德路口",
      "pgp" : "0",
      "terminal" : "0",
      "latitude" : "24.09666",
      "inDis" : "50",
      "routeId" : "3",
      "seqNo" : "34"
   },
   {
      "GoBack" : "1",
      "longitude" : "120.69558",
      "outDis" : "50",
      "Id" : "5017",
      "oid" : "309414100",
      "districtId" : "1",
      "nameZh" : "仁化至善路口",
      "pgp" : "0",
      "terminal" : "0",
      "latitude" : "24.09634",
      "inDis" : "50",
      "routeId" : "3",
      "seqNo" : "35"
   },
   {
      "GoBack" : "1",
      "longitude" : "120.69139",
      "outDis" : "50",
      "Id" : "4950",
      "oid" : "304725405",
      "districtId" : "1",
      "nameZh" : "仁化中興路口",
      "pgp" : "0",
      "terminal" : "0",
      "latitude" : "24.09196",
      "inDis" : "50",
      "routeId" : "3",
      "seqNo" : "36"
   },
   {
      "GoBack" : "1",
      "longitude" : "120.68529",
      "outDis" : "50",
      "Id" : "5087",
      "oid" : "7225",
      "districtId" : "1",
      "nameZh" : "大突寮(國中路)",
      "pgp" : "0",
      "terminal" : "0",
      "latitude" : "24.09539",
      "inDis" : "50",
      "routeId" : "3",
      "seqNo" : "37"
   },
   {
      "GoBack" : "1",
      "longitude" : "120.6819",
      "outDis" : "50",
      "Id" : "4923",
      "oid" : "09AE02C285DF458DBCD6EDFB646D8ED8",
      "districtId" : "1",
      "nameZh" : "臺電大里服務所",
      "pgp" : "0",
      "terminal" : "0",
      "latitude" : "24.0962",
      "inDis" : "50",
      "routeId" : "3",
      "seqNo" : "38"
   },
   {
      "GoBack" : "1",
      "longitude" : "120.6789",
      "outDis" : "50",
      "Id" : "4922",
      "oid" : "313041679",
      "districtId" : "1",
      "nameZh" : "市立大里高中",
      "pgp" : "0",
      "terminal" : "0",
      "latitude" : "24.0952",
      "inDis" : "50",
      "routeId" : "3",
      "seqNo" : "39"
   },
   {
      "GoBack" : "1",
      "longitude" : "120.67455",
      "outDis" : "50",
      "Id" : "5018",
      "oid" : "309414102",
      "districtId" : "1",
      "nameZh" : "爽文大里路口",
      "pgp" : "0",
      "terminal" : "0",
      "latitude" : "24.09794",
      "inDis" : "50",
      "routeId" : "3",
      "seqNo" : "40"
   },
   {
      "GoBack" : "1",
      "longitude" : "120.67456",
      "outDis" : "50",
      "Id" : "5019",
      "oid" : "309414104",
      "districtId" : "1",
      "nameZh" : "爽文德芳路口",
      "pgp" : "0",
      "terminal" : "0",
      "latitude" : "24.10167",
      "inDis" : "50",
      "routeId" : "3",
      "seqNo" : "41"
   },
   {
      "GoBack" : "1",
      "longitude" : "120.6749",
      "outDis" : "50",
      "Id" : "5436",
      "oid" : "313524994",
      "districtId" : "1",
      "nameZh" : "爽文公園",
      "pgp" : "0",
      "terminal" : "0",
      "latitude" : "24.1054",
      "inDis" : "50",
      "routeId" : "3",
      "seqNo" : "42"
   },
   {
      "GoBack" : "1",
      "longitude" : "120.67479",
      "outDis" : "50",
      "Id" : "5020",
      "oid" : "309414106",
      "districtId" : "1",
      "nameZh" : "爽文東榮路口",
      "pgp" : "0",
      "terminal" : "0",
      "latitude" : "24.10906",
      "inDis" : "50",
      "routeId" : "3",
      "seqNo" : "43"
   },
   {
      "GoBack" : "1",
      "longitude" : "120.67472",
      "outDis" : "50",
      "Id" : "5021",
      "oid" : "309414108",
      "districtId" : "1",
      "nameZh" : "爽文東明路口",
      "pgp" : "0",
      "terminal" : "0",
      "latitude" : "24.11176",
      "inDis" : "50",
      "routeId" : "3",
      "seqNo" : "44"
   },
   {
      "GoBack" : "1",
      "longitude" : "120.67201",
      "outDis" : "50",
      "Id" : "4305",
      "oid" : "300705096",
      "districtId" : "1",
      "nameZh" : "積善公園",
      "pgp" : "0",
      "terminal" : "0",
      "latitude" : "24.1149",
      "inDis" : "50",
      "routeId" : "3",
      "seqNo" : "45"
   },
   {
      "GoBack" : "1",
      "longitude" : "120.66796",
      "outDis" : "50",
      "Id" : "4367",
      "oid" : "F31176F499D2426C84080D3B88E9B284",
      "districtId" : "1",
      "nameZh" : "僑泰中學(高工路)",
      "pgp" : "0",
      "terminal" : "0",
      "latitude" : "24.11442",
      "inDis" : "50",
      "routeId" : "3",
      "seqNo" : "46"
   },
   {
      "GoBack" : "1",
      "longitude" : "120.66499",
      "outDis" : "50",
      "Id" : "4258",
      "oid" : "12490",
      "districtId" : "1",
      "nameZh" : "工學一街口",
      "pgp" : "0",
      "terminal" : "0",
      "latitude" : "24.11385",
      "inDis" : "50",
      "routeId" : "3",
      "seqNo" : "47"
   },
   {
      "GoBack" : "1",
      "longitude" : "120.66213",
      "outDis" : "50",
      "Id" : "4537",
      "oid" : "54285B539A3240379BB547ECBF84520B",
      "districtId" : "1",
      "nameZh" : "臺中高工(高工路)",
      "pgp" : "0",
      "terminal" : "0",
      "latitude" : "24.11318",
      "inDis" : "50",
      "routeId" : "3",
      "seqNo" : "48"
   },
   {
      "GoBack" : "1",
      "longitude" : "120.65879",
      "outDis" : "50",
      "Id" : "4289",
      "oid" : "12606",
      "districtId" : "1",
      "nameZh" : "高工文心南路口",
      "pgp" : "0",
      "terminal" : "0",
      "latitude" : "24.11333",
      "inDis" : "50",
      "routeId" : "3",
      "seqNo" : "49"
   },
   {
      "GoBack" : "1",
      "longitude" : "120.65422",
      "outDis" : "50",
      "Id" : "4536",
      "oid" : "7670",
      "districtId" : "1",
      "nameZh" : "復興大慶街口",
      "pgp" : "0",
      "terminal" : "0",
      "latitude" : "24.11444",
      "inDis" : "50",
      "routeId" : "3",
      "seqNo" : "50"
   },
   {
      "GoBack" : "1",
      "longitude" : "120.65076",
      "outDis" : "50",
      "Id" : "3330",
      "oid" : "33E51C31CDAF4F988F38F610E423009A",
      "districtId" : "1",
      "nameZh" : "勤工派出所",
      "pgp" : "0",
      "terminal" : "0",
      "latitude" : "24.11193",
      "inDis" : "50",
      "routeId" : "3",
      "seqNo" : "51"
   },
   {
      "GoBack" : "1",
      "longitude" : "120.64799",
      "outDis" : "50",
      "Id" : "5195",
      "oid" : "311272150",
      "districtId" : "1",
      "nameZh" : "復興環中路口",
      "pgp" : "0",
      "terminal" : "0",
      "latitude" : "24.11096",
      "inDis" : "50",
      "routeId" : "3",
      "seqNo" : "52"
   },
   {
      "GoBack" : "1",
      "longitude" : "120.645",
      "outDis" : "50",
      "Id" : "3790",
      "oid" : "48E7A99515244AF48EB3E238DC9CE30E",
      "districtId" : "1",
      "nameZh" : "樹仔腳",
      "pgp" : "0",
      "terminal" : "0",
      "latitude" : "24.11004",
      "inDis" : "50",
      "routeId" : "3",
      "seqNo" : "53"
   },
   {
      "GoBack" : "1",
      "longitude" : "120.64138",
      "outDis" : "50",
      "Id" : "0994",
      "oid" : "6F8F8A7DF94A4D2E94A4C2662D22B76F",
      "districtId" : "1",
      "nameZh" : "九張犁",
      "pgp" : "0",
      "terminal" : "0",
      "latitude" : "24.10887",
      "inDis" : "50",
      "routeId" : "3",
      "seqNo" : "54"
   },
   {
      "GoBack" : "1",
      "longitude" : "120.6384",
      "outDis" : "50",
      "Id" : "2366",
      "oid" : "CAB262DF731B446CAFBF21C0AC89C11F",
      "districtId" : "1",
      "nameZh" : "明道花園城",
      "pgp" : "0",
      "terminal" : "0",
      "latitude" : "24.10795",
      "inDis" : "50",
      "routeId" : "3",
      "seqNo" : "55"
   },
   {
      "GoBack" : "1",
      "longitude" : "120.63665",
      "outDis" : "50",
      "Id" : "2365",
      "oid" : "342B228353A0458CB9C2D6C4AD2CE094",
      "districtId" : "1",
      "nameZh" : "明道中學",
      "pgp" : "0",
      "terminal" : "0",
      "latitude" : "24.10731",
      "inDis" : "50",
      "routeId" : "3",
      "seqNo" : "56"
   },
   {
      "GoBack" : "1",
      "longitude" : "120.63294",
      "outDis" : "50",
      "Id" : "2821",
      "oid" : "7794",
      "districtId" : "1",
      "nameZh" : "烏日橋",
      "pgp" : "0",
      "terminal" : "0",
      "latitude" : "24.10581",
      "inDis" : "50",
      "routeId" : "3",
      "seqNo" : "57"
   },
   {
      "GoBack" : "1",
      "longitude" : "120.62864",
      "outDis" : "50",
      "Id" : "1454",
      "oid" : "7681",
      "districtId" : "1",
      "nameZh" : "中和紡織",
      "pgp" : "0",
      "terminal" : "0",
      "latitude" : "24.10564",
      "inDis" : "50",
      "routeId" : "3",
      "seqNo" : "58"
   },
   {
      "GoBack" : "1",
      "longitude" : "120.62631",
      "outDis" : "50",
      "Id" : "4660",
      "oid" : "AAF6EB0AFD4046C9A2273E4A0C6F2E4B",
      "districtId" : "1",
      "nameZh" : "中山五光路口",
      "pgp" : "0",
      "terminal" : "0",
      "latitude" : "24.10608",
      "inDis" : "50",
      "routeId" : "3",
      "seqNo" : "59"
   },
   {
      "GoBack" : "1",
      "longitude" : "120.62193",
      "outDis" : "50",
      "Id" : "2816",
      "oid" : "7792",
      "districtId" : "1",
      "nameZh" : "烏日",
      "pgp" : "0",
      "terminal" : "0",
      "latitude" : "24.1065",
      "inDis" : "50",
      "routeId" : "3",
      "seqNo" : "60"
   },
   {
      "GoBack" : "1",
      "longitude" : "120.61759",
      "outDis" : "50",
      "Id" : "2820",
      "oid" : "7793",
      "districtId" : "1",
      "nameZh" : "烏日國中",
      "pgp" : "0",
      "terminal" : "0",
      "latitude" : "24.1064",
      "inDis" : "50",
      "routeId" : "3",
      "seqNo" : "61"
   },
   {
      "GoBack" : "1",
      "longitude" : "120.62008",
      "outDis" : "150",
      "Id" : "5486",
      "oid" : "314581888",
      "districtId" : "1",
      "nameZh" : "高鐵臺中站(14月台)",
      "pgp" : "0",
      "terminal" : "0",
      "latitude" : "24.10974",
      "inDis" : "150",
      "routeId" : "3",
      "seqNo" : "62"
   },
   {
      "GoBack" : "2",
      "longitude" : "120.62008",
      "outDis" : "150",
      "Id" : "5486",
      "oid" : "314581888",
      "districtId" : "1",
      "nameZh" : "高鐵臺中站(14月台)",
      "pgp" : "0",
      "terminal" : "0",
      "latitude" : "24.10974",
      "inDis" : "150",
      "routeId" : "3",
      "seqNo" : "1"
   },
   {
      "GoBack" : "2",
      "longitude" : "120.61759",
      "outDis" : "50",
      "Id" : "2820",
      "oid" : "7793",
      "districtId" : "1",
      "nameZh" : "烏日國中",
      "pgp" : "0",
      "terminal" : "0",
      "latitude" : "24.1064",
      "inDis" : "50",
      "routeId" : "3",
      "seqNo" : "2"
   },
   {
      "GoBack" : "2",
      "longitude" : "120.62193",
      "outDis" : "50",
      "Id" : "2816",
      "oid" : "7792",
      "districtId" : "1",
      "nameZh" : "烏日",
      "pgp" : "0",
      "terminal" : "0",
      "latitude" : "24.1065",
      "inDis" : "50",
      "routeId" : "3",
      "seqNo" : "3"
   },
   {
      "GoBack" : "2",
      "longitude" : "120.62631",
      "outDis" : "50",
      "Id" : "4660",
      "oid" : "AAF6EB0AFD4046C9A2273E4A0C6F2E4B",
      "districtId" : "1",
      "nameZh" : "中山五光路口",
      "pgp" : "0",
      "terminal" : "0",
      "latitude" : "24.10608",
      "inDis" : "50",
      "routeId" : "3",
      "seqNo" : "4"
   },
   {
      "GoBack" : "2",
      "longitude" : "120.62864",
      "outDis" : "50",
      "Id" : "1454",
      "oid" : "7681",
      "districtId" : "1",
      "nameZh" : "中和紡織",
      "pgp" : "0",
      "terminal" : "0",
      "latitude" : "24.10564",
      "inDis" : "50",
      "routeId" : "3",
      "seqNo" : "5"
   },
   {
      "GoBack" : "2",
      "longitude" : "120.63294",
      "outDis" : "50",
      "Id" : "2821",
      "oid" : "7794",
      "districtId" : "1",
      "nameZh" : "烏日橋",
      "pgp" : "0",
      "terminal" : "0",
      "latitude" : "24.10581",
      "inDis" : "50",
      "routeId" : "3",
      "seqNo" : "6"
   },
   {
      "GoBack" : "2",
      "longitude" : "120.63665",
      "outDis" : "50",
      "Id" : "2365",
      "oid" : "342B228353A0458CB9C2D6C4AD2CE094",
      "districtId" : "1",
      "nameZh" : "明道中學",
      "pgp" : "0",
      "terminal" : "0",
      "latitude" : "24.10731",
      "inDis" : "50",
      "routeId" : "3",
      "seqNo" : "7"
   },
   {
      "GoBack" : "2",
      "longitude" : "120.6384",
      "outDis" : "50",
      "Id" : "2366",
      "oid" : "CAB262DF731B446CAFBF21C0AC89C11F",
      "districtId" : "1",
      "nameZh" : "明道花園城",
      "pgp" : "0",
      "terminal" : "0",
      "latitude" : "24.10795",
      "inDis" : "50",
      "routeId" : "3",
      "seqNo" : "8"
   },
   {
      "GoBack" : "2",
      "longitude" : "120.64138",
      "outDis" : "50",
      "Id" : "0994",
      "oid" : "6F8F8A7DF94A4D2E94A4C2662D22B76F",
      "districtId" : "1",
      "nameZh" : "九張犁",
      "pgp" : "0",
      "terminal" : "0",
      "latitude" : "24.10887",
      "inDis" : "50",
      "routeId" : "3",
      "seqNo" : "9"
   },
   {
      "GoBack" : "2",
      "longitude" : "120.645",
      "outDis" : "50",
      "Id" : "3790",
      "oid" : "48E7A99515244AF48EB3E238DC9CE30E",
      "districtId" : "1",
      "nameZh" : "樹仔腳",
      "pgp" : "0",
      "terminal" : "0",
      "latitude" : "24.11004",
      "inDis" : "50",
      "routeId" : "3",
      "seqNo" : "10"
   },
   {
      "GoBack" : "2",
      "longitude" : "120.64799",
      "outDis" : "50",
      "Id" : "5195",
      "oid" : "311272150",
      "districtId" : "1",
      "nameZh" : "復興環中路口",
      "pgp" : "0",
      "terminal" : "0",
      "latitude" : "24.11096",
      "inDis" : "50",
      "routeId" : "3",
      "seqNo" : "11"
   },
   {
      "GoBack" : "2",
      "longitude" : "120.65076",
      "outDis" : "50",
      "Id" : "3330",
      "oid" : "33E51C31CDAF4F988F38F610E423009A",
      "districtId" : "1",
      "nameZh" : "勤工派出所",
      "pgp" : "0",
      "terminal" : "0",
      "latitude" : "24.11193",
      "inDis" : "50",
      "routeId" : "3",
      "seqNo" : "12"
   },
   {
      "GoBack" : "2",
      "longitude" : "120.65422",
      "outDis" : "50",
      "Id" : "4536",
      "oid" : "7670",
      "districtId" : "1",
      "nameZh" : "復興大慶街口",
      "pgp" : "0",
      "terminal" : "0",
      "latitude" : "24.11444",
      "inDis" : "50",
      "routeId" : "3",
      "seqNo" : "13"
   },
   {
      "GoBack" : "2",
      "longitude" : "120.65879",
      "outDis" : "50",
      "Id" : "4289",
      "oid" : "12606",
      "districtId" : "1",
      "nameZh" : "高工文心南路口",
      "pgp" : "0",
      "terminal" : "0",
      "latitude" : "24.11333",
      "inDis" : "50",
      "routeId" : "3",
      "seqNo" : "14"
   },
   {
      "GoBack" : "2",
      "longitude" : "120.66242",
      "outDis" : "50",
      "Id" : "4537",
      "oid" : "13C06345D3CC4B7480E50302FF7AAAB4",
      "districtId" : "1",
      "nameZh" : "臺中高工(高工路)",
      "pgp" : "0",
      "terminal" : "0",
      "latitude" : "24.11324",
      "inDis" : "50",
      "routeId" : "3",
      "seqNo" : "15"
   },
   {
      "GoBack" : "2",
      "longitude" : "120.6652",
      "outDis" : "50",
      "Id" : "4258",
      "oid" : "12491",
      "districtId" : "1",
      "nameZh" : "工學一街口",
      "pgp" : "0",
      "terminal" : "0",
      "latitude" : "24.11391",
      "inDis" : "50",
      "routeId" : "3",
      "seqNo" : "16"
   },
   {
      "GoBack" : "2",
      "longitude" : "120.66796",
      "outDis" : "50",
      "Id" : "4367",
      "oid" : "84C89EA44AC44AB38ED55A1C63DF4201",
      "districtId" : "1",
      "nameZh" : "僑泰中學(高工路)",
      "pgp" : "0",
      "terminal" : "0",
      "latitude" : "24.11442",
      "inDis" : "50",
      "routeId" : "3",
      "seqNo" : "17"
   },
   {
      "GoBack" : "2",
      "longitude" : "120.67142",
      "outDis" : "50",
      "Id" : "4305",
      "oid" : "13235",
      "districtId" : "1",
      "nameZh" : "積善公園",
      "pgp" : "0",
      "terminal" : "0",
      "latitude" : "24.11474",
      "inDis" : "50",
      "routeId" : "3",
      "seqNo" : "18"
   },
   {
      "GoBack" : "2",
      "longitude" : "120.67472",
      "outDis" : "50",
      "Id" : "5021",
      "oid" : "309414109",
      "districtId" : "1",
      "nameZh" : "爽文東明路口",
      "pgp" : "0",
      "terminal" : "0",
      "latitude" : "24.11176",
      "inDis" : "50",
      "routeId" : "3",
      "seqNo" : "19"
   },
   {
      "GoBack" : "2",
      "longitude" : "120.67464",
      "outDis" : "50",
      "Id" : "5020",
      "oid" : "309414107",
      "districtId" : "1",
      "nameZh" : "爽文東榮路口",
      "pgp" : "0",
      "terminal" : "0",
      "latitude" : "24.10962",
      "inDis" : "50",
      "routeId" : "3",
      "seqNo" : "20"
   },
   {
      "GoBack" : "2",
      "longitude" : "120.6749",
      "outDis" : "50",
      "Id" : "5436",
      "oid" : "313524994",
      "districtId" : "1",
      "nameZh" : "爽文公園",
      "pgp" : "0",
      "terminal" : "0",
      "latitude" : "24.1054",
      "inDis" : "50",
      "routeId" : "3",
      "seqNo" : "21"
   },
   {
      "GoBack" : "2",
      "longitude" : "120.67456",
      "outDis" : "50",
      "Id" : "5019",
      "oid" : "309414105",
      "districtId" : "1",
      "nameZh" : "爽文德芳路口",
      "pgp" : "0",
      "terminal" : "0",
      "latitude" : "24.10167",
      "inDis" : "50",
      "routeId" : "3",
      "seqNo" : "22"
   },
   {
      "GoBack" : "2",
      "longitude" : "120.67449",
      "outDis" : "50",
      "Id" : "5018",
      "oid" : "309414103",
      "districtId" : "1",
      "nameZh" : "爽文大里路口",
      "pgp" : "0",
      "terminal" : "0",
      "latitude" : "24.09828",
      "inDis" : "50",
      "routeId" : "3",
      "seqNo" : "23"
   },
   {
      "GoBack" : "2",
      "longitude" : "120.6789",
      "outDis" : "50",
      "Id" : "4922",
      "oid" : "313041679",
      "districtId" : "1",
      "nameZh" : "市立大里高中",
      "pgp" : "0",
      "terminal" : "0",
      "latitude" : "24.0952",
      "inDis" : "50",
      "routeId" : "3",
      "seqNo" : "24"
   },
   {
      "GoBack" : "2",
      "longitude" : "120.68183",
      "outDis" : "50",
      "Id" : "4923",
      "oid" : "308835172",
      "districtId" : "1",
      "nameZh" : "臺電大里服務所",
      "pgp" : "0",
      "terminal" : "0",
      "latitude" : "24.09608",
      "inDis" : "50",
      "routeId" : "3",
      "seqNo" : "25"
   },
   {
      "GoBack" : "2",
      "longitude" : "120.68529",
      "outDis" : "50",
      "Id" : "5087",
      "oid" : "7225",
      "districtId" : "1",
      "nameZh" : "大突寮(國中路)",
      "pgp" : "0",
      "terminal" : "0",
      "latitude" : "24.09539",
      "inDis" : "50",
      "routeId" : "3",
      "seqNo" : "26"
   },
   {
      "GoBack" : "2",
      "longitude" : "120.69182",
      "outDis" : "50",
      "Id" : "4950",
      "oid" : "318895488",
      "districtId" : "1",
      "nameZh" : "仁化中興路口",
      "pgp" : "0",
      "terminal" : "0",
      "latitude" : "24.09247",
      "inDis" : "50",
      "routeId" : "3",
      "seqNo" : "27"
   },
   {
      "GoBack" : "2",
      "longitude" : "120.69546",
      "outDis" : "50",
      "Id" : "5017",
      "oid" : "309414101",
      "districtId" : "1",
      "nameZh" : "仁化至善路口",
      "pgp" : "0",
      "terminal" : "0",
      "latitude" : "24.09601",
      "inDis" : "50",
      "routeId" : "3",
      "seqNo" : "28"
   },
   {
      "GoBack" : "2",
      "longitude" : "120.69871",
      "outDis" : "50",
      "Id" : "5016",
      "oid" : "309414099",
      "districtId" : "1",
      "nameZh" : "仁化慈德路口",
      "pgp" : "0",
      "terminal" : "0",
      "latitude" : "24.0965",
      "inDis" : "50",
      "routeId" : "3",
      "seqNo" : "29"
   },
   {
      "GoBack" : "2",
      "longitude" : "120.70088",
      "outDis" : "50",
      "Id" : "4420",
      "oid" : "304725412",
      "districtId" : "1",
      "nameZh" : "仁化里",
      "pgp" : "0",
      "terminal" : "0",
      "latitude" : "24.09626",
      "inDis" : "50",
      "routeId" : "3",
      "seqNo" : "30"
   },
   {
      "GoBack" : "2",
      "longitude" : "120.70344",
      "outDis" : "50",
      "Id" : "5015",
      "oid" : "309414097",
      "districtId" : "1",
      "nameZh" : "仁化仁愛路口",
      "pgp" : "0",
      "terminal" : "0",
      "latitude" : "24.09592",
      "inDis" : "50",
      "routeId" : "3",
      "seqNo" : "31"
   },
   {
      "GoBack" : "2",
      "longitude" : "120.70684",
      "outDis" : "50",
      "Id" : "5014",
      "oid" : "309414095",
      "districtId" : "1",
      "nameZh" : "仁化仁城路口",
      "pgp" : "0",
      "terminal" : "0",
      "latitude" : "24.09526",
      "inDis" : "50",
      "routeId" : "3",
      "seqNo" : "32"
   },
   {
      "GoBack" : "2",
      "longitude" : "120.70962",
      "outDis" : "50",
      "Id" : "5346",
      "oid" : "314009843",
      "districtId" : "1",
      "nameZh" : "百姓公廟",
      "pgp" : "0",
      "terminal" : "0",
      "latitude" : "24.09441",
      "inDis" : "50",
      "routeId" : "3",
      "seqNo" : "33"
   },
   {
      "GoBack" : "2",
      "longitude" : "120.7138",
      "outDis" : "50",
      "Id" : "2733",
      "oid" : "310383709",
      "districtId" : "1",
      "nameZh" : "修平科技大學",
      "pgp" : "0",
      "terminal" : "0",
      "latitude" : "24.09524",
      "inDis" : "50",
      "routeId" : "3",
      "seqNo" : "34"
   },
   {
      "GoBack" : "2",
      "longitude" : "120.71784",
      "outDis" : "50",
      "Id" : "4702",
      "oid" : "13927",
      "districtId" : "1",
      "nameZh" : "光正國中",
      "pgp" : "0",
      "terminal" : "0",
      "latitude" : "24.09633",
      "inDis" : "50",
      "routeId" : "3",
      "seqNo" : "35"
   },
   {
      "GoBack" : "2",
      "longitude" : "120.71961",
      "outDis" : "50",
      "Id" : "4712",
      "oid" : "13928",
      "districtId" : "1",
      "nameZh" : "鳳凰路182巷口",
      "pgp" : "0",
      "terminal" : "0",
      "latitude" : "24.09837",
      "inDis" : "50",
      "routeId" : "3",
      "seqNo" : "36"
   },
   {
      "GoBack" : "2",
      "longitude" : "120.7211",
      "outDis" : "50",
      "Id" : "1457",
      "oid" : "310383708",
      "districtId" : "1",
      "nameZh" : "中南巷",
      "pgp" : "0",
      "terminal" : "0",
      "latitude" : "24.101",
      "inDis" : "50",
      "routeId" : "3",
      "seqNo" : "37"
   },
   {
      "GoBack" : "2",
      "longitude" : "120.72272",
      "outDis" : "50",
      "Id" : "5012",
      "oid" : "309414090",
      "districtId" : "1",
      "nameZh" : "光德中南巷",
      "pgp" : "0",
      "terminal" : "0",
      "latitude" : "24.10375",
      "inDis" : "50",
      "routeId" : "3",
      "seqNo" : "38"
   },
   {
      "GoBack" : "2",
      "longitude" : "120.72499",
      "outDis" : "50",
      "Id" : "4706",
      "oid" : "309414088",
      "districtId" : "1",
      "nameZh" : "慈明高中(光德路)",
      "pgp" : "0",
      "terminal" : "0",
      "latitude" : "24.10768",
      "inDis" : "50",
      "routeId" : "3",
      "seqNo" : "39"
   },
   {
      "GoBack" : "2",
      "longitude" : "120.7211",
      "outDis" : "50",
      "Id" : "4518",
      "oid" : "313657046",
      "districtId" : "1",
      "nameZh" : "長億高中",
      "pgp" : "0",
      "terminal" : "0",
      "latitude" : "24.1141",
      "inDis" : "50",
      "routeId" : "3",
      "seqNo" : "40"
   },
   {
      "GoBack" : "2",
      "longitude" : "120.71947",
      "outDis" : "50",
      "Id" : "4949",
      "oid" : "309054917",
      "districtId" : "1",
      "nameZh" : "長億六太平一街口",
      "pgp" : "0",
      "terminal" : "0",
      "latitude" : "24.11543",
      "inDis" : "50",
      "routeId" : "3",
      "seqNo" : "41"
   },
   {
      "GoBack" : "2",
      "longitude" : "120.71999",
      "outDis" : "50",
      "Id" : "5010",
      "oid" : "309414086",
      "districtId" : "1",
      "nameZh" : "長億二街口",
      "pgp" : "0",
      "terminal" : "0",
      "latitude" : "24.11846",
      "inDis" : "50",
      "routeId" : "3",
      "seqNo" : "42"
   },
   {
      "GoBack" : "2",
      "longitude" : "120.7199",
      "outDis" : "50",
      "Id" : "3685",
      "oid" : "6575",
      "districtId" : "1",
      "nameZh" : "精美社區",
      "pgp" : "0",
      "terminal" : "0",
      "latitude" : "24.12118",
      "inDis" : "50",
      "routeId" : "3",
      "seqNo" : "43"
   },
   {
      "GoBack" : "2",
      "longitude" : "120.7182",
      "outDis" : "50",
      "Id" : "1436",
      "oid" : "5315",
      "districtId" : "1",
      "nameZh" : "中平國中",
      "pgp" : "0",
      "terminal" : "0",
      "latitude" : "24.12268",
      "inDis" : "50",
      "routeId" : "3",
      "seqNo" : "44"
   },
   {
      "GoBack" : "2",
      "longitude" : "120.71656",
      "outDis" : "50",
      "Id" : "5009",
      "oid" : "309414084",
      "districtId" : "1",
      "nameZh" : "太平中平路口",
      "pgp" : "0",
      "terminal" : "0",
      "latitude" : "24.12437",
      "inDis" : "50",
      "routeId" : "3",
      "seqNo" : "45"
   },
   {
      "GoBack" : "2",
      "longitude" : "120.71481",
      "outDis" : "50",
      "Id" : "4664",
      "oid" : "5438",
      "districtId" : "1",
      "nameZh" : "太平農會",
      "pgp" : "0",
      "terminal" : "0",
      "latitude" : "24.12482",
      "inDis" : "50",
      "routeId" : "3",
      "seqNo" : "46"
   },
   {
      "GoBack" : "2",
      "longitude" : "120.71499",
      "outDis" : "50",
      "Id" : "1427",
      "oid" : "13089",
      "districtId" : "1",
      "nameZh" : "中太平",
      "pgp" : "0",
      "terminal" : "0",
      "latitude" : "24.12687",
      "inDis" : "50",
      "routeId" : "3",
      "seqNo" : "47"
   },
   {
      "GoBack" : "2",
      "longitude" : "120.71733",
      "outDis" : "50",
      "Id" : "4220",
      "oid" : "12328",
      "districtId" : "1",
      "nameZh" : "太平國小",
      "pgp" : "0",
      "terminal" : "0",
      "latitude" : "24.12826",
      "inDis" : "50",
      "routeId" : "3",
      "seqNo" : "48"
   },
   {
      "GoBack" : "2",
      "longitude" : "120.7169",
      "outDis" : "50",
      "Id" : "4716",
      "oid" : "306250857",
      "districtId" : "1",
      "nameZh" : "新平永平路口",
      "pgp" : "0",
      "terminal" : "0",
      "latitude" : "24.13143",
      "inDis" : "50",
      "routeId" : "3",
      "seqNo" : "49"
   },
   {
      "GoBack" : "2",
      "longitude" : "120.7154",
      "outDis" : "50",
      "Id" : "5147",
      "oid" : "310383707",
      "districtId" : "1",
      "nameZh" : "新平仁和街口",
      "pgp" : "0",
      "terminal" : "0",
      "latitude" : "24.1373",
      "inDis" : "50",
      "routeId" : "3",
      "seqNo" : "50"
   },
   {
      "GoBack" : "2",
      "longitude" : "120.71495",
      "outDis" : "50",
      "Id" : "2330",
      "oid" : "7107",
      "districtId" : "1",
      "nameZh" : "宜欣國小",
      "pgp" : "0",
      "terminal" : "0",
      "latitude" : "24.13889",
      "inDis" : "50",
      "routeId" : "3",
      "seqNo" : "51"
   },
   {
      "GoBack" : "2",
      "longitude" : "120.71464",
      "outDis" : "50",
      "Id" : "4747",
      "oid" : "306695536",
      "districtId" : "1",
      "nameZh" : "新平溪洲路口",
      "pgp" : "0",
      "terminal" : "0",
      "latitude" : "24.14194",
      "inDis" : "50",
      "routeId" : "3",
      "seqNo" : "52"
   },
   {
      "GoBack" : "2",
      "longitude" : "120.71439",
      "outDis" : "50",
      "Id" : "3764",
      "oid" : "3877",
      "districtId" : "1",
      "nameZh" : "賢德醫院",
      "pgp" : "0",
      "terminal" : "0",
      "latitude" : "24.14605",
      "inDis" : "50",
      "routeId" : "3",
      "seqNo" : "53"
   },
   {
      "GoBack" : "2",
      "longitude" : "120.71558",
      "outDis" : "50",
      "Id" : "1422",
      "oid" : "3876",
      "districtId" : "1",
      "nameZh" : "宜昌中山路口",
      "pgp" : "0",
      "terminal" : "0",
      "latitude" : "24.14822",
      "inDis" : "50",
      "routeId" : "3",
      "seqNo" : "54"
   },
   {
      "GoBack" : "2",
      "longitude" : "120.7129",
      "outDis" : "50",
      "Id" : "4321",
      "oid" : "310383706",
      "districtId" : "1",
      "nameZh" : "宜欣郵局",
      "pgp" : "0",
      "terminal" : "0",
      "latitude" : "24.1498",
      "inDis" : "50",
      "routeId" : "3",
      "seqNo" : "55"
   },
   {
      "GoBack" : "2",
      "longitude" : "120.71093",
      "outDis" : "50",
      "Id" : "5005",
      "oid" : "305945922",
      "districtId" : "1",
      "nameZh" : "新高兒童公園",
      "pgp" : "0",
      "terminal" : "0",
      "latitude" : "24.15136",
      "inDis" : "50",
      "routeId" : "3",
      "seqNo" : "56"
   },
   {
      "GoBack" : "2",
      "longitude" : "120.71159",
      "outDis" : "50",
      "Id" : "5271",
      "oid" : "305945919",
      "districtId" : "1",
      "nameZh" : "樹德廣三街口",
      "pgp" : "0",
      "terminal" : "0",
      "latitude" : "24.15377",
      "inDis" : "50",
      "routeId" : "3",
      "seqNo" : "57"
   },
   {
      "GoBack" : "2",
      "longitude" : "120.71224",
      "outDis" : "50",
      "Id" : "5008",
      "oid" : "309414082",
      "districtId" : "1",
      "nameZh" : "樹德育才路口",
      "pgp" : "0",
      "terminal" : "0",
      "latitude" : "24.15624",
      "inDis" : "50",
      "routeId" : "3",
      "seqNo" : "58"
   },
   {
      "GoBack" : "2",
      "longitude" : "120.71256",
      "outDis" : "50",
      "Id" : "5007",
      "oid" : "309414079",
      "districtId" : "1",
      "nameZh" : "樹德育賢路口",
      "pgp" : "0",
      "terminal" : "0",
      "latitude" : "24.15747",
      "inDis" : "50",
      "routeId" : "3",
      "seqNo" : "59"
   },
   {
      "GoBack" : "2",
      "longitude" : "120.71414",
      "outDis" : "50",
      "Id" : "1850",
      "oid" : "5574",
      "districtId" : "1",
      "nameZh" : "四角竹圍",
      "pgp" : "0",
      "terminal" : "0",
      "latitude" : "24.16264",
      "inDis" : "50",
      "routeId" : "3",
      "seqNo" : "60"
   },
   {
      "GoBack" : "2",
      "longitude" : "120.71438",
      "outDis" : "50",
      "Id" : "5175",
      "oid" : "FF542005475A4E7795528754CD248CBD",
      "districtId" : "1",
      "nameZh" : "太原軍功路口",
      "pgp" : "0",
      "terminal" : "0",
      "latitude" : "24.16443",
      "inDis" : "50",
      "routeId" : "3",
      "seqNo" : "61"
   },
   {
      "GoBack" : "2",
      "longitude" : "120.71168",
      "outDis" : "50",
      "Id" : "4320",
      "oid" : "301532258",
      "districtId" : "1",
      "nameZh" : "東山高中",
      "pgp" : "0",
      "terminal" : "0",
      "latitude" : "24.16596",
      "inDis" : "50",
      "routeId" : "3",
      "seqNo" : "62"
   }
]
