[
   {
      "GoBack" : "1",
      "longitude" : "120.65939",
      "outDis" : "110",
      "Id" : "2069",
      "oid" : "3641",
      "districtId" : "1",
      "nameZh" : "中清同榮路口",
      "pgp" : "0",
      "terminal" : "0",
      "latitude" : "24.19388",
      "inDis" : "110",
      "routeId" : "23",
      "seqNo" : "1"
   },
   {
      "GoBack" : "1",
      "longitude" : "120.66053",
      "outDis" : "50",
      "Id" : "3293",
      "oid" : "3640",
      "districtId" : "1",
      "nameZh" : "貿易三村",
      "pgp" : "0",
      "terminal" : "0",
      "latitude" : "24.1922",
      "inDis" : "50",
      "routeId" : "23",
      "seqNo" : "2"
   },
   {
      "GoBack" : "1",
      "longitude" : "120.66207",
      "outDis" : "50",
      "Id" : "0708",
      "oid" : "3639",
      "districtId" : "1",
      "nameZh" : "后庄國宅",
      "pgp" : "0",
      "terminal" : "0",
      "latitude" : "24.18942",
      "inDis" : "50",
      "routeId" : "23",
      "seqNo" : "3"
   },
   {
      "GoBack" : "1",
      "longitude" : "120.66271",
      "outDis" : "50",
      "Id" : "0989",
      "oid" : "3638",
      "districtId" : "1",
      "nameZh" : "中清后庄路口",
      "pgp" : "0",
      "terminal" : "0",
      "latitude" : "24.18833",
      "inDis" : "50",
      "routeId" : "23",
      "seqNo" : "4"
   },
   {
      "GoBack" : "1",
      "longitude" : "120.66344",
      "outDis" : "50",
      "Id" : "2639",
      "oid" : "3637",
      "districtId" : "1",
      "nameZh" : "后庄仔",
      "pgp" : "0",
      "terminal" : "0",
      "latitude" : "24.18664",
      "inDis" : "50",
      "routeId" : "23",
      "seqNo" : "5"
   },
   {
      "GoBack" : "1",
      "longitude" : "120.66476",
      "outDis" : "50",
      "Id" : "0801",
      "oid" : "3636",
      "districtId" : "1",
      "nameZh" : "頂陳平",
      "pgp" : "0",
      "terminal" : "0",
      "latitude" : "24.18478",
      "inDis" : "50",
      "routeId" : "23",
      "seqNo" : "6"
   },
   {
      "GoBack" : "1",
      "longitude" : "120.6657",
      "outDis" : "50",
      "Id" : "0789",
      "oid" : "3635",
      "districtId" : "1",
      "nameZh" : "陳平",
      "pgp" : "0",
      "terminal" : "0",
      "latitude" : "24.18297",
      "inDis" : "50",
      "routeId" : "23",
      "seqNo" : "7"
   },
   {
      "GoBack" : "1",
      "longitude" : "120.66678",
      "outDis" : "50",
      "Id" : "0593",
      "oid" : "3634",
      "districtId" : "1",
      "nameZh" : "全民醫院",
      "pgp" : "0",
      "terminal" : "0",
      "latitude" : "24.18094",
      "inDis" : "50",
      "routeId" : "23",
      "seqNo" : "8"
   },
   {
      "GoBack" : "1",
      "longitude" : "120.66845",
      "outDis" : "50",
      "Id" : "0385",
      "oid" : "3633",
      "districtId" : "1",
      "nameZh" : "大德國中",
      "pgp" : "0",
      "terminal" : "0",
      "latitude" : "24.17865",
      "inDis" : "50",
      "routeId" : "23",
      "seqNo" : "9"
   },
   {
      "GoBack" : "1",
      "longitude" : "120.66937",
      "outDis" : "50",
      "Id" : "5100",
      "oid" : "3632",
      "districtId" : "1",
      "nameZh" : "水湳市場(中清路)",
      "pgp" : "0",
      "terminal" : "0",
      "latitude" : "24.17747",
      "inDis" : "50",
      "routeId" : "23",
      "seqNo" : "10"
   },
   {
      "GoBack" : "1",
      "longitude" : "120.66998",
      "outDis" : "50",
      "Id" : "0486",
      "oid" : "3631",
      "districtId" : "1",
      "nameZh" : "水湳",
      "pgp" : "0",
      "terminal" : "0",
      "latitude" : "24.17686",
      "inDis" : "50",
      "routeId" : "23",
      "seqNo" : "11"
   },
   {
      "GoBack" : "1",
      "longitude" : "120.67094",
      "outDis" : "50",
      "Id" : "0334",
      "oid" : "3630",
      "districtId" : "1",
      "nameZh" : "下水湳",
      "pgp" : "0",
      "terminal" : "0",
      "latitude" : "24.1754",
      "inDis" : "50",
      "routeId" : "23",
      "seqNo" : "12"
   },
   {
      "GoBack" : "1",
      "longitude" : "120.67057",
      "outDis" : "50",
      "Id" : "5201",
      "oid" : "312331410",
      "districtId" : "1",
      "nameZh" : "文心中清西一街口",
      "pgp" : "0",
      "terminal" : "0",
      "latitude" : "24.17376",
      "inDis" : "50",
      "routeId" : "23",
      "seqNo" : "13"
   },
   {
      "GoBack" : "1",
      "longitude" : "120.66853",
      "outDis" : "50",
      "Id" : "0228",
      "oid" : "132F460AA9F648CB8FE997E923C18144",
      "districtId" : "1",
      "nameZh" : "文心陜西路口",
      "pgp" : "0",
      "terminal" : "0",
      "latitude" : "24.17328",
      "inDis" : "50",
      "routeId" : "23",
      "seqNo" : "14"
   },
   {
      "GoBack" : "1",
      "longitude" : "120.66594",
      "outDis" : "50",
      "Id" : "0229",
      "oid" : "7249727376BB4346B7E1265F460F72A7",
      "districtId" : "1",
      "nameZh" : "臺灣日報",
      "pgp" : "0",
      "terminal" : "0",
      "latitude" : "24.17283",
      "inDis" : "50",
      "routeId" : "23",
      "seqNo" : "15"
   },
   {
      "GoBack" : "1",
      "longitude" : "120.66365",
      "outDis" : "50",
      "Id" : "0230",
      "oid" : "79F1BC481AA8463C99B82F83FC08BAC7",
      "districtId" : "1",
      "nameZh" : "重慶國小",
      "pgp" : "0",
      "terminal" : "0",
      "latitude" : "24.17232",
      "inDis" : "50",
      "routeId" : "23",
      "seqNo" : "16"
   },
   {
      "GoBack" : "1",
      "longitude" : "120.66078",
      "outDis" : "50",
      "Id" : "4275",
      "oid" : "4BEDCF1F935245F68A5CA1992193DD96",
      "districtId" : "1",
      "nameZh" : "文心河南路口",
      "pgp" : "0",
      "terminal" : "0",
      "latitude" : "24.17142",
      "inDis" : "50",
      "routeId" : "23",
      "seqNo" : "17"
   },
   {
      "GoBack" : "1",
      "longitude" : "120.65932",
      "outDis" : "50",
      "Id" : "4612",
      "oid" : "855B50CA9C494212B59F8FA4D81CD6F6",
      "districtId" : "1",
      "nameZh" : "文華高中(文心路)",
      "pgp" : "0",
      "terminal" : "0",
      "latitude" : "24.17105",
      "inDis" : "50",
      "routeId" : "23",
      "seqNo" : "18"
   },
   {
      "GoBack" : "1",
      "longitude" : "120.6558",
      "outDis" : "50",
      "Id" : "4271",
      "oid" : "CAB219797E8941308DBBC1AC6B640A15",
      "districtId" : "1",
      "nameZh" : "文心甘肅路口",
      "pgp" : "0",
      "terminal" : "0",
      "latitude" : "24.16913",
      "inDis" : "50",
      "routeId" : "23",
      "seqNo" : "19"
   },
   {
      "GoBack" : "1",
      "longitude" : "120.65239",
      "outDis" : "50",
      "Id" : "4273",
      "oid" : "3441C2EE6BF149F497309CAB7A00958A",
      "districtId" : "1",
      "nameZh" : "文心西屯路口",
      "pgp" : "0",
      "terminal" : "0",
      "latitude" : "24.16628",
      "inDis" : "50",
      "routeId" : "23",
      "seqNo" : "20"
   },
   {
      "GoBack" : "1",
      "longitude" : "120.65027",
      "outDis" : "50",
      "Id" : "4564",
      "oid" : "311308674",
      "districtId" : "1",
      "nameZh" : "臺灣大道文心路口",
      "pgp" : "0",
      "terminal" : "0",
      "latitude" : "24.16225",
      "inDis" : "50",
      "routeId" : "23",
      "seqNo" : "21"
   },
   {
      "GoBack" : "1",
      "longitude" : "120.6519",
      "outDis" : "50",
      "Id" : "5317",
      "oid" : "311264559",
      "districtId" : "1",
      "nameZh" : "大墩十九街口",
      "pgp" : "0",
      "terminal" : "0",
      "latitude" : "24.15885",
      "inDis" : "50",
      "routeId" : "23",
      "seqNo" : "22"
   },
   {
      "GoBack" : "1",
      "longitude" : "120.65062",
      "outDis" : "50",
      "Id" : "5403",
      "oid" : "313023976",
      "districtId" : "1",
      "nameZh" : "大墩十八街口",
      "pgp" : "0",
      "terminal" : "0",
      "latitude" : "24.15677",
      "inDis" : "50",
      "routeId" : "23",
      "seqNo" : "23"
   },
   {
      "GoBack" : "1",
      "longitude" : "120.64996",
      "outDis" : "50",
      "Id" : "5322",
      "oid" : "311272142",
      "districtId" : "1",
      "nameZh" : "大墩大業路口",
      "pgp" : "0",
      "terminal" : "0",
      "latitude" : "24.15439",
      "inDis" : "50",
      "routeId" : "23",
      "seqNo" : "24"
   },
   {
      "GoBack" : "1",
      "longitude" : "120.65258",
      "outDis" : "50",
      "Id" : "4553",
      "oid" : "9C5D815FE1614D7DA9604E39A277E9F5",
      "districtId" : "1",
      "nameZh" : "公益東興路口",
      "pgp" : "0",
      "terminal" : "0",
      "latitude" : "24.1508",
      "inDis" : "50",
      "routeId" : "23",
      "seqNo" : "25"
   },
   {
      "GoBack" : "1",
      "longitude" : "120.65567",
      "outDis" : "50",
      "Id" : "0140",
      "oid" : "0A6CF796734644AE9A1D0C2C52CB4B5C",
      "districtId" : "1",
      "nameZh" : "公益精誠路口",
      "pgp" : "0",
      "terminal" : "0",
      "latitude" : "24.15088",
      "inDis" : "50",
      "routeId" : "23",
      "seqNo" : "26"
   },
   {
      "GoBack" : "1",
      "longitude" : "120.65776",
      "outDis" : "50",
      "Id" : "4587",
      "oid" : "DD3CA534E68448249DD069827C9A4A0B",
      "districtId" : "1",
      "nameZh" : "公益公園(公益路)",
      "pgp" : "0",
      "terminal" : "0",
      "latitude" : "24.15092",
      "inDis" : "50",
      "routeId" : "23",
      "seqNo" : "27"
   },
   {
      "GoBack" : "1",
      "longitude" : "120.65993",
      "outDis" : "50",
      "Id" : "0141",
      "oid" : "586062BC78894720990BDADA0814D486",
      "districtId" : "1",
      "nameZh" : "公益中美街口",
      "pgp" : "0",
      "terminal" : "0",
      "latitude" : "24.1509",
      "inDis" : "50",
      "routeId" : "23",
      "seqNo" : "28"
   },
   {
      "GoBack" : "1",
      "longitude" : "120.66167",
      "outDis" : "50",
      "Id" : "0459",
      "oid" : "5F190B9B61284691887E3D17168AC390",
      "districtId" : "1",
      "nameZh" : "美村公益路口",
      "pgp" : "0",
      "terminal" : "0",
      "latitude" : "24.15044",
      "inDis" : "50",
      "routeId" : "23",
      "seqNo" : "29"
   },
   {
      "GoBack" : "1",
      "longitude" : "120.66167",
      "outDis" : "50",
      "Id" : "0212",
      "oid" : "CCD5BD6C0BCF437BB8396B9C9FA1AC7E",
      "districtId" : "1",
      "nameZh" : "美村向上北路口",
      "pgp" : "0",
      "terminal" : "0",
      "latitude" : "24.14805",
      "inDis" : "50",
      "routeId" : "23",
      "seqNo" : "30"
   },
   {
      "GoBack" : "1",
      "longitude" : "120.66167",
      "outDis" : "50",
      "Id" : "5396",
      "oid" : "312960894",
      "districtId" : "1",
      "nameZh" : "美村向上路口",
      "pgp" : "0",
      "terminal" : "0",
      "latitude" : "24.14645",
      "inDis" : "50",
      "routeId" : "23",
      "seqNo" : "31"
   },
   {
      "GoBack" : "1",
      "longitude" : "120.66174",
      "outDis" : "50",
      "Id" : "0172",
      "oid" : "3B8EFAA4544948A0BD1CB29B646BA2FF",
      "districtId" : "1",
      "nameZh" : "向上國中",
      "pgp" : "0",
      "terminal" : "0",
      "latitude" : "24.14303",
      "inDis" : "50",
      "routeId" : "23",
      "seqNo" : "32"
   },
   {
      "GoBack" : "1",
      "longitude" : "120.6616",
      "outDis" : "50",
      "Id" : "5324",
      "oid" : "311272143",
      "districtId" : "1",
      "nameZh" : "美術館(美村路)",
      "pgp" : "0",
      "terminal" : "0",
      "latitude" : "24.13961",
      "inDis" : "50",
      "routeId" : "23",
      "seqNo" : "33"
   },
   {
      "GoBack" : "1",
      "longitude" : "120.66173",
      "outDis" : "50",
      "Id" : "5320",
      "oid" : "311272144",
      "districtId" : "1",
      "nameZh" : "美村五權五街口",
      "pgp" : "0",
      "terminal" : "0",
      "latitude" : "24.13708",
      "inDis" : "50",
      "routeId" : "23",
      "seqNo" : "34"
   },
   {
      "GoBack" : "1",
      "longitude" : "120.6617",
      "outDis" : "50",
      "Id" : "5321",
      "oid" : "311272145",
      "districtId" : "1",
      "nameZh" : "美村五權八街口",
      "pgp" : "0",
      "terminal" : "0",
      "latitude" : "24.13388",
      "inDis" : "50",
      "routeId" : "23",
      "seqNo" : "35"
   },
   {
      "GoBack" : "1",
      "longitude" : "120.66205",
      "outDis" : "50",
      "Id" : "4637",
      "oid" : "311272147",
      "districtId" : "1",
      "nameZh" : "南屯美村路口",
      "pgp" : "0",
      "terminal" : "0",
      "latitude" : "24.13212",
      "inDis" : "50",
      "routeId" : "23",
      "seqNo" : "36"
   },
   {
      "GoBack" : "1",
      "longitude" : "120.6648",
      "outDis" : "50",
      "Id" : "0562",
      "oid" : "10384",
      "districtId" : "1",
      "nameZh" : "永安市場",
      "pgp" : "0",
      "terminal" : "0",
      "latitude" : "24.13215",
      "inDis" : "50",
      "routeId" : "23",
      "seqNo" : "37"
   },
   {
      "GoBack" : "1",
      "longitude" : "120.66931",
      "outDis" : "50",
      "Id" : "5404",
      "oid" : "313106523",
      "districtId" : "1",
      "nameZh" : "公共資訊圖書館(五權南路)",
      "pgp" : "0",
      "terminal" : "0",
      "latitude" : "24.12787",
      "inDis" : "50",
      "routeId" : "23",
      "seqNo" : "38"
   },
   {
      "GoBack" : "1",
      "longitude" : "120.67003",
      "outDis" : "50",
      "Id" : "0247",
      "oid" : "498E291934954D2FAFE1BE9EF1819DF6",
      "districtId" : "1",
      "nameZh" : "五權南永和街口",
      "pgp" : "0",
      "terminal" : "0",
      "latitude" : "24.1244",
      "inDis" : "50",
      "routeId" : "23",
      "seqNo" : "39"
   },
   {
      "GoBack" : "1",
      "longitude" : "120.6708",
      "outDis" : "50",
      "Id" : "5119",
      "oid" : "97EF85607928447292F182D3737E6E50",
      "districtId" : "1",
      "nameZh" : "美村五權南路口",
      "pgp" : "0",
      "terminal" : "0",
      "latitude" : "24.12231",
      "inDis" : "50",
      "routeId" : "23",
      "seqNo" : "40"
   },
   {
      "GoBack" : "1",
      "longitude" : "120.67578",
      "outDis" : "50",
      "Id" : "0037",
      "oid" : "ACC4069F44D3400792CA7549FE9D4C5B",
      "districtId" : "1",
      "nameZh" : "中興大學(興大路)",
      "pgp" : "0",
      "terminal" : "0",
      "latitude" : "24.12411",
      "inDis" : "50",
      "routeId" : "23",
      "seqNo" : "41"
   },
   {
      "GoBack" : "1",
      "longitude" : "120.67925",
      "outDis" : "50",
      "Id" : "4347",
      "oid" : "FFADDB58C7DD4E5C9DF0726DEE651794",
      "districtId" : "1",
      "nameZh" : "中興大學(國光路)",
      "pgp" : "0",
      "terminal" : "0",
      "latitude" : "24.12135",
      "inDis" : "50",
      "routeId" : "23",
      "seqNo" : "42"
   },
   {
      "GoBack" : "1",
      "longitude" : "120.67915",
      "outDis" : "50",
      "Id" : "4292",
      "oid" : "13206",
      "districtId" : "1",
      "nameZh" : "國光忠明南路口",
      "pgp" : "0",
      "terminal" : "0",
      "latitude" : "24.1183",
      "inDis" : "50",
      "routeId" : "23",
      "seqNo" : "43"
   },
   {
      "GoBack" : "1",
      "longitude" : "120.67918",
      "outDis" : "50",
      "Id" : "2930",
      "oid" : "13216",
      "districtId" : "1",
      "nameZh" : "國光橋",
      "pgp" : "0",
      "terminal" : "0",
      "latitude" : "24.11585",
      "inDis" : "50",
      "routeId" : "23",
      "seqNo" : "44"
   },
   {
      "GoBack" : "1",
      "longitude" : "120.67894",
      "outDis" : "50",
      "Id" : "4293",
      "oid" : "13208",
      "districtId" : "1",
      "nameZh" : "國光東興路口",
      "pgp" : "0",
      "terminal" : "0",
      "latitude" : "24.11363",
      "inDis" : "50",
      "routeId" : "23",
      "seqNo" : "45"
   },
   {
      "GoBack" : "1",
      "longitude" : "120.67987",
      "outDis" : "50",
      "Id" : "1558",
      "oid" : "13104",
      "districtId" : "1",
      "nameZh" : "大里仁愛醫院",
      "pgp" : "0",
      "terminal" : "0",
      "latitude" : "24.10855",
      "inDis" : "50",
      "routeId" : "23",
      "seqNo" : "46"
   },
   {
      "GoBack" : "1",
      "longitude" : "120.68087",
      "outDis" : "50",
      "Id" : "4294",
      "oid" : "13214",
      "districtId" : "1",
      "nameZh" : "國光德芳路口",
      "pgp" : "0",
      "terminal" : "0",
      "latitude" : "24.10532",
      "inDis" : "50",
      "routeId" : "23",
      "seqNo" : "47"
   },
   {
      "GoBack" : "1",
      "longitude" : "120.68128",
      "outDis" : "50",
      "Id" : "2928",
      "oid" : "13210",
      "districtId" : "1",
      "nameZh" : "國光花市",
      "pgp" : "0",
      "terminal" : "0",
      "latitude" : "24.10348",
      "inDis" : "50",
      "routeId" : "23",
      "seqNo" : "48"
   },
   {
      "GoBack" : "1",
      "longitude" : "120.68268",
      "outDis" : "80",
      "Id" : "5128",
      "oid" : "13074",
      "districtId" : "1",
      "nameZh" : "國光大里路口",
      "pgp" : "0",
      "terminal" : "0",
      "latitude" : "24.10003",
      "inDis" : "80",
      "routeId" : "23",
      "seqNo" : "49"
   },
   {
      "GoBack" : "1",
      "longitude" : "120.67953",
      "outDis" : "50",
      "Id" : "4920",
      "oid" : "308835165",
      "districtId" : "1",
      "nameZh" : "大里區公所",
      "pgp" : "0",
      "terminal" : "0",
      "latitude" : "24.09933",
      "inDis" : "50",
      "routeId" : "23",
      "seqNo" : "50"
   },
   {
      "GoBack" : "1",
      "longitude" : "120.6792",
      "outDis" : "50",
      "Id" : "4921",
      "oid" : "308835167",
      "districtId" : "1",
      "nameZh" : "東里國中路口",
      "pgp" : "0",
      "terminal" : "0",
      "latitude" : "24.09567",
      "inDis" : "50",
      "routeId" : "23",
      "seqNo" : "51"
   },
   {
      "GoBack" : "1",
      "longitude" : "120.6789",
      "outDis" : "50",
      "Id" : "4922",
      "oid" : "313041679",
      "districtId" : "1",
      "nameZh" : "市立大里高中",
      "pgp" : "0",
      "terminal" : "0",
      "latitude" : "24.0952",
      "inDis" : "50",
      "routeId" : "23",
      "seqNo" : "52"
   },
   {
      "GoBack" : "2",
      "longitude" : "120.6789",
      "outDis" : "50",
      "Id" : "4922",
      "oid" : "313041679",
      "districtId" : "1",
      "nameZh" : "市立大里高中",
      "pgp" : "0",
      "terminal" : "0",
      "latitude" : "24.0952",
      "inDis" : "50",
      "routeId" : "23",
      "seqNo" : "1"
   },
   {
      "GoBack" : "2",
      "longitude" : "120.6792",
      "outDis" : "50",
      "Id" : "4921",
      "oid" : "308835167",
      "districtId" : "1",
      "nameZh" : "東里國中路口",
      "pgp" : "0",
      "terminal" : "0",
      "latitude" : "24.09567",
      "inDis" : "50",
      "routeId" : "23",
      "seqNo" : "2"
   },
   {
      "GoBack" : "2",
      "longitude" : "120.67953",
      "outDis" : "50",
      "Id" : "4920",
      "oid" : "308835165",
      "districtId" : "1",
      "nameZh" : "大里區公所",
      "pgp" : "0",
      "terminal" : "0",
      "latitude" : "24.09933",
      "inDis" : "50",
      "routeId" : "23",
      "seqNo" : "3"
   },
   {
      "GoBack" : "2",
      "longitude" : "120.68268",
      "outDis" : "80",
      "Id" : "5128",
      "oid" : "13074",
      "districtId" : "1",
      "nameZh" : "國光大里路口",
      "pgp" : "0",
      "terminal" : "0",
      "latitude" : "24.10003",
      "inDis" : "80",
      "routeId" : "23",
      "seqNo" : "4"
   },
   {
      "GoBack" : "2",
      "longitude" : "120.68128",
      "outDis" : "50",
      "Id" : "2928",
      "oid" : "13210",
      "districtId" : "1",
      "nameZh" : "國光花市",
      "pgp" : "0",
      "terminal" : "0",
      "latitude" : "24.10348",
      "inDis" : "50",
      "routeId" : "23",
      "seqNo" : "5"
   },
   {
      "GoBack" : "2",
      "longitude" : "120.68087",
      "outDis" : "50",
      "Id" : "4294",
      "oid" : "13214",
      "districtId" : "1",
      "nameZh" : "國光德芳路口",
      "pgp" : "0",
      "terminal" : "0",
      "latitude" : "24.10532",
      "inDis" : "50",
      "routeId" : "23",
      "seqNo" : "6"
   },
   {
      "GoBack" : "2",
      "longitude" : "120.67987",
      "outDis" : "50",
      "Id" : "1558",
      "oid" : "13104",
      "districtId" : "1",
      "nameZh" : "大里仁愛醫院",
      "pgp" : "0",
      "terminal" : "0",
      "latitude" : "24.10855",
      "inDis" : "50",
      "routeId" : "23",
      "seqNo" : "7"
   },
   {
      "GoBack" : "2",
      "longitude" : "120.67894",
      "outDis" : "50",
      "Id" : "4293",
      "oid" : "13208",
      "districtId" : "1",
      "nameZh" : "國光東興路口",
      "pgp" : "0",
      "terminal" : "0",
      "latitude" : "24.11363",
      "inDis" : "50",
      "routeId" : "23",
      "seqNo" : "8"
   },
   {
      "GoBack" : "2",
      "longitude" : "120.67918",
      "outDis" : "50",
      "Id" : "2930",
      "oid" : "13216",
      "districtId" : "1",
      "nameZh" : "國光橋",
      "pgp" : "0",
      "terminal" : "0",
      "latitude" : "24.11585",
      "inDis" : "50",
      "routeId" : "23",
      "seqNo" : "9"
   },
   {
      "GoBack" : "2",
      "longitude" : "120.67915",
      "outDis" : "50",
      "Id" : "4292",
      "oid" : "13206",
      "districtId" : "1",
      "nameZh" : "國光忠明南路口",
      "pgp" : "0",
      "terminal" : "0",
      "latitude" : "24.1183",
      "inDis" : "50",
      "routeId" : "23",
      "seqNo" : "10"
   },
   {
      "GoBack" : "2",
      "longitude" : "120.67925",
      "outDis" : "50",
      "Id" : "4347",
      "oid" : "FFADDB58C7DD4E5C9DF0726DEE651794",
      "districtId" : "1",
      "nameZh" : "中興大學(國光路)",
      "pgp" : "0",
      "terminal" : "0",
      "latitude" : "24.12135",
      "inDis" : "50",
      "routeId" : "23",
      "seqNo" : "11"
   },
   {
      "GoBack" : "2",
      "longitude" : "120.67578",
      "outDis" : "50",
      "Id" : "0037",
      "oid" : "ACC4069F44D3400792CA7549FE9D4C5B",
      "districtId" : "1",
      "nameZh" : "中興大學(興大路)",
      "pgp" : "0",
      "terminal" : "0",
      "latitude" : "24.12411",
      "inDis" : "50",
      "routeId" : "23",
      "seqNo" : "12"
   },
   {
      "GoBack" : "2",
      "longitude" : "120.6708",
      "outDis" : "50",
      "Id" : "5119",
      "oid" : "97EF85607928447292F182D3737E6E50",
      "districtId" : "1",
      "nameZh" : "美村五權南路口",
      "pgp" : "0",
      "terminal" : "0",
      "latitude" : "24.12231",
      "inDis" : "50",
      "routeId" : "23",
      "seqNo" : "13"
   },
   {
      "GoBack" : "2",
      "longitude" : "120.67006",
      "outDis" : "50",
      "Id" : "0246",
      "oid" : "1B7D87EB73F24790871C0030D127A2EC",
      "districtId" : "1",
      "nameZh" : "永和社區",
      "pgp" : "0",
      "terminal" : "0",
      "latitude" : "24.12261",
      "inDis" : "50",
      "routeId" : "23",
      "seqNo" : "14"
   },
   {
      "GoBack" : "2",
      "longitude" : "120.67003",
      "outDis" : "50",
      "Id" : "0247",
      "oid" : "498E291934954D2FAFE1BE9EF1819DF6",
      "districtId" : "1",
      "nameZh" : "五權南永和街口",
      "pgp" : "0",
      "terminal" : "0",
      "latitude" : "24.1244",
      "inDis" : "50",
      "routeId" : "23",
      "seqNo" : "15"
   },
   {
      "GoBack" : "2",
      "longitude" : "120.66971",
      "outDis" : "50",
      "Id" : "5404",
      "oid" : "319989588",
      "districtId" : "1",
      "nameZh" : "公共資訊圖書館(五權南路)",
      "pgp" : "0",
      "terminal" : "0",
      "latitude" : "24.12716",
      "inDis" : "50",
      "routeId" : "23",
      "seqNo" : "16"
   },
   {
      "GoBack" : "2",
      "longitude" : "120.6648",
      "outDis" : "50",
      "Id" : "0562",
      "oid" : "10384",
      "districtId" : "1",
      "nameZh" : "永安市場",
      "pgp" : "0",
      "terminal" : "0",
      "latitude" : "24.13215",
      "inDis" : "50",
      "routeId" : "23",
      "seqNo" : "17"
   },
   {
      "GoBack" : "2",
      "longitude" : "120.66205",
      "outDis" : "50",
      "Id" : "4637",
      "oid" : "311272147",
      "districtId" : "1",
      "nameZh" : "南屯美村路口",
      "pgp" : "0",
      "terminal" : "0",
      "latitude" : "24.13212",
      "inDis" : "50",
      "routeId" : "23",
      "seqNo" : "18"
   },
   {
      "GoBack" : "2",
      "longitude" : "120.6617",
      "outDis" : "50",
      "Id" : "5321",
      "oid" : "311272145",
      "districtId" : "1",
      "nameZh" : "美村五權八街口",
      "pgp" : "0",
      "terminal" : "0",
      "latitude" : "24.13388",
      "inDis" : "50",
      "routeId" : "23",
      "seqNo" : "19"
   },
   {
      "GoBack" : "2",
      "longitude" : "120.66173",
      "outDis" : "50",
      "Id" : "5320",
      "oid" : "311272144",
      "districtId" : "1",
      "nameZh" : "美村五權五街口",
      "pgp" : "0",
      "terminal" : "0",
      "latitude" : "24.13708",
      "inDis" : "50",
      "routeId" : "23",
      "seqNo" : "20"
   },
   {
      "GoBack" : "2",
      "longitude" : "120.6616",
      "outDis" : "50",
      "Id" : "5324",
      "oid" : "311272143",
      "districtId" : "1",
      "nameZh" : "美術館(美村路)",
      "pgp" : "0",
      "terminal" : "0",
      "latitude" : "24.13961",
      "inDis" : "50",
      "routeId" : "23",
      "seqNo" : "21"
   },
   {
      "GoBack" : "2",
      "longitude" : "120.66174",
      "outDis" : "50",
      "Id" : "0172",
      "oid" : "3B8EFAA4544948A0BD1CB29B646BA2FF",
      "districtId" : "1",
      "nameZh" : "向上國中",
      "pgp" : "0",
      "terminal" : "0",
      "latitude" : "24.14303",
      "inDis" : "50",
      "routeId" : "23",
      "seqNo" : "22"
   },
   {
      "GoBack" : "2",
      "longitude" : "120.66167",
      "outDis" : "50",
      "Id" : "5396",
      "oid" : "312960894",
      "districtId" : "1",
      "nameZh" : "美村向上路口",
      "pgp" : "0",
      "terminal" : "0",
      "latitude" : "24.14645",
      "inDis" : "50",
      "routeId" : "23",
      "seqNo" : "23"
   },
   {
      "GoBack" : "2",
      "longitude" : "120.66167",
      "outDis" : "50",
      "Id" : "0212",
      "oid" : "CCD5BD6C0BCF437BB8396B9C9FA1AC7E",
      "districtId" : "1",
      "nameZh" : "美村向上北路口",
      "pgp" : "0",
      "terminal" : "0",
      "latitude" : "24.14805",
      "inDis" : "50",
      "routeId" : "23",
      "seqNo" : "24"
   },
   {
      "GoBack" : "2",
      "longitude" : "120.65993",
      "outDis" : "50",
      "Id" : "0141",
      "oid" : "586062BC78894720990BDADA0814D486",
      "districtId" : "1",
      "nameZh" : "公益中美街口",
      "pgp" : "0",
      "terminal" : "0",
      "latitude" : "24.1509",
      "inDis" : "50",
      "routeId" : "23",
      "seqNo" : "25"
   },
   {
      "GoBack" : "2",
      "longitude" : "120.65776",
      "outDis" : "50",
      "Id" : "4587",
      "oid" : "DD3CA534E68448249DD069827C9A4A0B",
      "districtId" : "1",
      "nameZh" : "公益公園(公益路)",
      "pgp" : "0",
      "terminal" : "0",
      "latitude" : "24.15092",
      "inDis" : "50",
      "routeId" : "23",
      "seqNo" : "26"
   },
   {
      "GoBack" : "2",
      "longitude" : "120.65567",
      "outDis" : "50",
      "Id" : "0140",
      "oid" : "0A6CF796734644AE9A1D0C2C52CB4B5C",
      "districtId" : "1",
      "nameZh" : "公益精誠路口",
      "pgp" : "0",
      "terminal" : "0",
      "latitude" : "24.15088",
      "inDis" : "50",
      "routeId" : "23",
      "seqNo" : "27"
   },
   {
      "GoBack" : "2",
      "longitude" : "120.65258",
      "outDis" : "50",
      "Id" : "4553",
      "oid" : "9C5D815FE1614D7DA9604E39A277E9F5",
      "districtId" : "1",
      "nameZh" : "公益東興路口",
      "pgp" : "0",
      "terminal" : "0",
      "latitude" : "24.1508",
      "inDis" : "50",
      "routeId" : "23",
      "seqNo" : "28"
   },
   {
      "GoBack" : "2",
      "longitude" : "120.6498",
      "outDis" : "50",
      "Id" : "5383",
      "oid" : "312196976",
      "districtId" : "1",
      "nameZh" : "大墩公益路口",
      "pgp" : "0",
      "terminal" : "0",
      "latitude" : "24.15168",
      "inDis" : "50",
      "routeId" : "23",
      "seqNo" : "29"
   },
   {
      "GoBack" : "2",
      "longitude" : "120.64996",
      "outDis" : "50",
      "Id" : "5322",
      "oid" : "311272142",
      "districtId" : "1",
      "nameZh" : "大墩大業路口",
      "pgp" : "0",
      "terminal" : "0",
      "latitude" : "24.15439",
      "inDis" : "50",
      "routeId" : "23",
      "seqNo" : "30"
   },
   {
      "GoBack" : "2",
      "longitude" : "120.65024",
      "outDis" : "50",
      "Id" : "5403",
      "oid" : "313023977",
      "districtId" : "1",
      "nameZh" : "大墩十八街口",
      "pgp" : "0",
      "terminal" : "0",
      "latitude" : "24.15646",
      "inDis" : "50",
      "routeId" : "23",
      "seqNo" : "31"
   },
   {
      "GoBack" : "2",
      "longitude" : "120.6519",
      "outDis" : "50",
      "Id" : "5317",
      "oid" : "311264559",
      "districtId" : "1",
      "nameZh" : "大墩十九街口",
      "pgp" : "0",
      "terminal" : "0",
      "latitude" : "24.15885",
      "inDis" : "50",
      "routeId" : "23",
      "seqNo" : "32"
   },
   {
      "GoBack" : "2",
      "longitude" : "120.65027",
      "outDis" : "50",
      "Id" : "4564",
      "oid" : "311308674",
      "districtId" : "1",
      "nameZh" : "臺灣大道文心路口",
      "pgp" : "0",
      "terminal" : "0",
      "latitude" : "24.16225",
      "inDis" : "50",
      "routeId" : "23",
      "seqNo" : "33"
   },
   {
      "GoBack" : "2",
      "longitude" : "120.65065",
      "outDis" : "50",
      "Id" : "4269",
      "oid" : "7C620B70271D4EACA561C1050DEE3AE2",
      "districtId" : "1",
      "nameZh" : "文心四川路口",
      "pgp" : "0",
      "terminal" : "0",
      "latitude" : "24.164",
      "inDis" : "50",
      "routeId" : "23",
      "seqNo" : "34"
   },
   {
      "GoBack" : "2",
      "longitude" : "120.65239",
      "outDis" : "50",
      "Id" : "4273",
      "oid" : "3441C2EE6BF149F497309CAB7A00958A",
      "districtId" : "1",
      "nameZh" : "文心西屯路口",
      "pgp" : "0",
      "terminal" : "0",
      "latitude" : "24.16628",
      "inDis" : "50",
      "routeId" : "23",
      "seqNo" : "35"
   },
   {
      "GoBack" : "2",
      "longitude" : "120.6558",
      "outDis" : "50",
      "Id" : "4271",
      "oid" : "CAB219797E8941308DBBC1AC6B640A15",
      "districtId" : "1",
      "nameZh" : "文心甘肅路口",
      "pgp" : "0",
      "terminal" : "0",
      "latitude" : "24.16913",
      "inDis" : "50",
      "routeId" : "23",
      "seqNo" : "36"
   },
   {
      "GoBack" : "2",
      "longitude" : "120.65932",
      "outDis" : "50",
      "Id" : "4612",
      "oid" : "855B50CA9C494212B59F8FA4D81CD6F6",
      "districtId" : "1",
      "nameZh" : "文華高中(文心路)",
      "pgp" : "0",
      "terminal" : "0",
      "latitude" : "24.17105",
      "inDis" : "50",
      "routeId" : "23",
      "seqNo" : "37"
   },
   {
      "GoBack" : "2",
      "longitude" : "120.66078",
      "outDis" : "50",
      "Id" : "4275",
      "oid" : "4BEDCF1F935245F68A5CA1992193DD96",
      "districtId" : "1",
      "nameZh" : "文心河南路口",
      "pgp" : "0",
      "terminal" : "0",
      "latitude" : "24.17142",
      "inDis" : "50",
      "routeId" : "23",
      "seqNo" : "38"
   },
   {
      "GoBack" : "2",
      "longitude" : "120.66365",
      "outDis" : "50",
      "Id" : "0230",
      "oid" : "79F1BC481AA8463C99B82F83FC08BAC7",
      "districtId" : "1",
      "nameZh" : "重慶國小",
      "pgp" : "0",
      "terminal" : "0",
      "latitude" : "24.17232",
      "inDis" : "50",
      "routeId" : "23",
      "seqNo" : "39"
   },
   {
      "GoBack" : "2",
      "longitude" : "120.66594",
      "outDis" : "50",
      "Id" : "0229",
      "oid" : "7249727376BB4346B7E1265F460F72A7",
      "districtId" : "1",
      "nameZh" : "臺灣日報",
      "pgp" : "0",
      "terminal" : "0",
      "latitude" : "24.17283",
      "inDis" : "50",
      "routeId" : "23",
      "seqNo" : "40"
   },
   {
      "GoBack" : "2",
      "longitude" : "120.66853",
      "outDis" : "50",
      "Id" : "0228",
      "oid" : "132F460AA9F648CB8FE997E923C18144",
      "districtId" : "1",
      "nameZh" : "文心陜西路口",
      "pgp" : "0",
      "terminal" : "0",
      "latitude" : "24.17328",
      "inDis" : "50",
      "routeId" : "23",
      "seqNo" : "41"
   },
   {
      "GoBack" : "2",
      "longitude" : "120.67094",
      "outDis" : "50",
      "Id" : "0334",
      "oid" : "3630",
      "districtId" : "1",
      "nameZh" : "下水湳",
      "pgp" : "0",
      "terminal" : "0",
      "latitude" : "24.1754",
      "inDis" : "50",
      "routeId" : "23",
      "seqNo" : "42"
   },
   {
      "GoBack" : "2",
      "longitude" : "120.66998",
      "outDis" : "50",
      "Id" : "0486",
      "oid" : "3631",
      "districtId" : "1",
      "nameZh" : "水湳",
      "pgp" : "0",
      "terminal" : "0",
      "latitude" : "24.17686",
      "inDis" : "50",
      "routeId" : "23",
      "seqNo" : "43"
   },
   {
      "GoBack" : "2",
      "longitude" : "120.66937",
      "outDis" : "50",
      "Id" : "5100",
      "oid" : "3632",
      "districtId" : "1",
      "nameZh" : "水湳市場(中清路)",
      "pgp" : "0",
      "terminal" : "0",
      "latitude" : "24.17747",
      "inDis" : "50",
      "routeId" : "23",
      "seqNo" : "44"
   },
   {
      "GoBack" : "2",
      "longitude" : "120.66845",
      "outDis" : "50",
      "Id" : "0385",
      "oid" : "3633",
      "districtId" : "1",
      "nameZh" : "大德國中",
      "pgp" : "0",
      "terminal" : "0",
      "latitude" : "24.17865",
      "inDis" : "50",
      "routeId" : "23",
      "seqNo" : "45"
   },
   {
      "GoBack" : "2",
      "longitude" : "120.66678",
      "outDis" : "50",
      "Id" : "0593",
      "oid" : "3634",
      "districtId" : "1",
      "nameZh" : "全民醫院",
      "pgp" : "0",
      "terminal" : "0",
      "latitude" : "24.18094",
      "inDis" : "50",
      "routeId" : "23",
      "seqNo" : "46"
   },
   {
      "GoBack" : "2",
      "longitude" : "120.6657",
      "outDis" : "50",
      "Id" : "0789",
      "oid" : "3635",
      "districtId" : "1",
      "nameZh" : "陳平",
      "pgp" : "0",
      "terminal" : "0",
      "latitude" : "24.18297",
      "inDis" : "50",
      "routeId" : "23",
      "seqNo" : "47"
   },
   {
      "GoBack" : "2",
      "longitude" : "120.66476",
      "outDis" : "50",
      "Id" : "0801",
      "oid" : "3636",
      "districtId" : "1",
      "nameZh" : "頂陳平",
      "pgp" : "0",
      "terminal" : "0",
      "latitude" : "24.18478",
      "inDis" : "50",
      "routeId" : "23",
      "seqNo" : "48"
   },
   {
      "GoBack" : "2",
      "longitude" : "120.66344",
      "outDis" : "50",
      "Id" : "2639",
      "oid" : "3637",
      "districtId" : "1",
      "nameZh" : "后庄仔",
      "pgp" : "0",
      "terminal" : "0",
      "latitude" : "24.18664",
      "inDis" : "50",
      "routeId" : "23",
      "seqNo" : "49"
   },
   {
      "GoBack" : "2",
      "longitude" : "120.66271",
      "outDis" : "50",
      "Id" : "0989",
      "oid" : "3638",
      "districtId" : "1",
      "nameZh" : "中清后庄路口",
      "pgp" : "0",
      "terminal" : "0",
      "latitude" : "24.18833",
      "inDis" : "50",
      "routeId" : "23",
      "seqNo" : "50"
   },
   {
      "GoBack" : "2",
      "longitude" : "120.66207",
      "outDis" : "50",
      "Id" : "0708",
      "oid" : "3639",
      "districtId" : "1",
      "nameZh" : "后庄國宅",
      "pgp" : "0",
      "terminal" : "0",
      "latitude" : "24.18942",
      "inDis" : "50",
      "routeId" : "23",
      "seqNo" : "51"
   },
   {
      "GoBack" : "2",
      "longitude" : "120.66053",
      "outDis" : "50",
      "Id" : "3293",
      "oid" : "3640",
      "districtId" : "1",
      "nameZh" : "貿易三村",
      "pgp" : "0",
      "terminal" : "0",
      "latitude" : "24.1922",
      "inDis" : "50",
      "routeId" : "23",
      "seqNo" : "52"
   },
   {
      "GoBack" : "2",
      "longitude" : "120.65939",
      "outDis" : "110",
      "Id" : "2069",
      "oid" : "3641",
      "districtId" : "1",
      "nameZh" : "中清同榮路口",
      "pgp" : "0",
      "terminal" : "0",
      "latitude" : "24.19388",
      "inDis" : "110",
      "routeId" : "23",
      "seqNo" : "53"
   }
]
