[
   {
      "GoBack" : "1",
      "longitude" : "120.56679",
      "outDis" : "50",
      "Id" : "4516",
      "oid" : "305379424",
      "districtId" : "1",
      "nameZh" : "鹿寮國中(光華路)",
      "pgp" : "0",
      "terminal" : "0",
      "latitude" : "24.24373",
      "inDis" : "50",
      "routeId" : "83",
      "seqNo" : "1"
   },
   {
      "GoBack" : "1",
      "longitude" : "120.56517",
      "outDis" : "50",
      "Id" : "5730",
      "oid" : "317426655",
      "districtId" : "1",
      "nameZh" : "鹿寮國中(光大路)",
      "pgp" : "0",
      "terminal" : "0",
      "latitude" : "24.24395",
      "inDis" : "50",
      "routeId" : "83",
      "seqNo" : "2"
   },
   {
      "GoBack" : "1",
      "longitude" : "120.56127",
      "outDis" : "50",
      "Id" : "5140",
      "oid" : "14047",
      "districtId" : "1",
      "nameZh" : "童綜合醫院(沙鹿院區)",
      "pgp" : "0",
      "terminal" : "0",
      "latitude" : "24.24245",
      "inDis" : "50",
      "routeId" : "83",
      "seqNo" : "3"
   },
   {
      "GoBack" : "1",
      "longitude" : "120.56309",
      "outDis" : "50",
      "Id" : "2335",
      "oid" : "13497",
      "districtId" : "1",
      "nameZh" : "居仁里",
      "pgp" : "0",
      "terminal" : "0",
      "latitude" : "24.24015",
      "inDis" : "50",
      "routeId" : "83",
      "seqNo" : "4"
   },
   {
      "GoBack" : "1",
      "longitude" : "120.56535",
      "outDis" : "50",
      "Id" : "0005",
      "oid" : "317813141",
      "districtId" : "1",
      "nameZh" : "沙鹿高工(臺灣大道)",
      "pgp" : "0",
      "terminal" : "0",
      "latitude" : "24.23926",
      "inDis" : "50",
      "routeId" : "83",
      "seqNo" : "5"
   },
   {
      "GoBack" : "1",
      "longitude" : "120.56786",
      "outDis" : "50",
      "Id" : "2147",
      "oid" : "13486",
      "districtId" : "1",
      "nameZh" : "竹林國小",
      "pgp" : "0",
      "terminal" : "0",
      "latitude" : "24.23839",
      "inDis" : "50",
      "routeId" : "83",
      "seqNo" : "6"
   },
   {
      "GoBack" : "1",
      "longitude" : "120.56995",
      "outDis" : "50",
      "Id" : "4389",
      "oid" : "13485",
      "districtId" : "1",
      "nameZh" : "竹林里",
      "pgp" : "0",
      "terminal" : "0",
      "latitude" : "24.23639",
      "inDis" : "50",
      "routeId" : "83",
      "seqNo" : "7"
   },
   {
      "GoBack" : "1",
      "longitude" : "120.57193",
      "outDis" : "50",
      "Id" : "4392",
      "oid" : "13512",
      "districtId" : "1",
      "nameZh" : "紅竹巷",
      "pgp" : "0",
      "terminal" : "0",
      "latitude" : "24.23331",
      "inDis" : "50",
      "routeId" : "83",
      "seqNo" : "8"
   },
   {
      "GoBack" : "1",
      "longitude" : "120.57396",
      "outDis" : "50",
      "Id" : "4086",
      "oid" : "13455",
      "districtId" : "1",
      "nameZh" : "臺灣大道北勢路口",
      "pgp" : "0",
      "terminal" : "0",
      "latitude" : "24.23011",
      "inDis" : "50",
      "routeId" : "83",
      "seqNo" : "9"
   },
   {
      "GoBack" : "1",
      "longitude" : "120.57674",
      "outDis" : "50",
      "Id" : "4147",
      "oid" : "13567",
      "districtId" : "1",
      "nameZh" : "靜宜大學",
      "pgp" : "0",
      "terminal" : "0",
      "latitude" : "24.22576",
      "inDis" : "50",
      "routeId" : "83",
      "seqNo" : "10"
   },
   {
      "GoBack" : "1",
      "longitude" : "120.57823",
      "outDis" : "50",
      "Id" : "4062",
      "oid" : "13418",
      "districtId" : "1",
      "nameZh" : "下晉江",
      "pgp" : "0",
      "terminal" : "0",
      "latitude" : "24.22346",
      "inDis" : "50",
      "routeId" : "83",
      "seqNo" : "11"
   },
   {
      "GoBack" : "1",
      "longitude" : "120.57965",
      "outDis" : "50",
      "Id" : "4111",
      "oid" : "13514",
      "districtId" : "1",
      "nameZh" : "晉江里",
      "pgp" : "0",
      "terminal" : "0",
      "latitude" : "24.22111",
      "inDis" : "50",
      "routeId" : "83",
      "seqNo" : "12"
   },
   {
      "GoBack" : "1",
      "longitude" : "120.58041",
      "outDis" : "50",
      "Id" : "4386",
      "oid" : "13475",
      "districtId" : "1",
      "nameZh" : "弘光科技大學",
      "pgp" : "0",
      "terminal" : "0",
      "latitude" : "24.21735",
      "inDis" : "50",
      "routeId" : "83",
      "seqNo" : "13"
   },
   {
      "GoBack" : "1",
      "longitude" : "120.58078",
      "outDis" : "50",
      "Id" : "4124",
      "oid" : "13537",
      "districtId" : "1",
      "nameZh" : "頂六路",
      "pgp" : "0",
      "terminal" : "0",
      "latitude" : "24.21434",
      "inDis" : "50",
      "routeId" : "83",
      "seqNo" : "14"
   },
   {
      "GoBack" : "1",
      "longitude" : "120.58142",
      "outDis" : "50",
      "Id" : "4136",
      "oid" : "13559",
      "districtId" : "1",
      "nameZh" : "祿清宮",
      "pgp" : "0",
      "terminal" : "0",
      "latitude" : "24.20915",
      "inDis" : "50",
      "routeId" : "83",
      "seqNo" : "15"
   },
   {
      "GoBack" : "1",
      "longitude" : "120.58064",
      "outDis" : "50",
      "Id" : "4388",
      "oid" : "13481",
      "districtId" : "1",
      "nameZh" : "后厝仔",
      "pgp" : "0",
      "terminal" : "0",
      "latitude" : "24.19927",
      "inDis" : "50",
      "routeId" : "83",
      "seqNo" : "16"
   },
   {
      "GoBack" : "1",
      "longitude" : "120.5829",
      "outDis" : "50",
      "Id" : "4061",
      "oid" : "13413",
      "districtId" : "1",
      "nameZh" : "下坪頂",
      "pgp" : "0",
      "terminal" : "0",
      "latitude" : "24.18729",
      "inDis" : "50",
      "routeId" : "83",
      "seqNo" : "17"
   },
   {
      "GoBack" : "1",
      "longitude" : "120.5861",
      "outDis" : "50",
      "Id" : "2325",
      "oid" : "13495",
      "districtId" : "1",
      "nameZh" : "坪頂",
      "pgp" : "0",
      "terminal" : "0",
      "latitude" : "24.18577",
      "inDis" : "50",
      "routeId" : "83",
      "seqNo" : "18"
   },
   {
      "GoBack" : "1",
      "longitude" : "120.58844",
      "outDis" : "50",
      "Id" : "5304",
      "oid" : "2213",
      "districtId" : "1",
      "nameZh" : "東海街口",
      "pgp" : "0",
      "terminal" : "0",
      "latitude" : "24.1848",
      "inDis" : "50",
      "routeId" : "83",
      "seqNo" : "19"
   },
   {
      "GoBack" : "1",
      "longitude" : "120.59128",
      "outDis" : "50",
      "Id" : "4383",
      "oid" : "13470",
      "districtId" : "1",
      "nameZh" : "臺糖公營學苑",
      "pgp" : "0",
      "terminal" : "0",
      "latitude" : "24.1838",
      "inDis" : "50",
      "routeId" : "83",
      "seqNo" : "20"
   },
   {
      "GoBack" : "1",
      "longitude" : "120.59354",
      "outDis" : "50",
      "Id" : "0240",
      "oid" : "13505",
      "districtId" : "1",
      "nameZh" : "東海別墅",
      "pgp" : "0",
      "terminal" : "0",
      "latitude" : "24.18278",
      "inDis" : "50",
      "routeId" : "83",
      "seqNo" : "21"
   },
   {
      "GoBack" : "1",
      "longitude" : "120.5973",
      "outDis" : "50",
      "Id" : "0526",
      "oid" : "13469",
      "districtId" : "1",
      "nameZh" : "台中精機",
      "pgp" : "0",
      "terminal" : "0",
      "latitude" : "24.18208",
      "inDis" : "50",
      "routeId" : "83",
      "seqNo" : "22"
   },
   {
      "GoBack" : "1",
      "longitude" : "120.60491",
      "outDis" : "50",
      "Id" : "5386",
      "oid" : "13468",
      "districtId" : "1",
      "nameZh" : "臺中榮總(臺灣大道)",
      "pgp" : "0",
      "terminal" : "0",
      "latitude" : "24.18349",
      "inDis" : "50",
      "routeId" : "83",
      "seqNo" : "23"
   },
   {
      "GoBack" : "1",
      "longitude" : "120.60643",
      "outDis" : "50",
      "Id" : "2378",
      "oid" : "12828",
      "districtId" : "1",
      "nameZh" : "東大附中",
      "pgp" : "0",
      "terminal" : "0",
      "latitude" : "24.18351",
      "inDis" : "50",
      "routeId" : "83",
      "seqNo" : "24"
   },
   {
      "GoBack" : "1",
      "longitude" : "120.60821",
      "outDis" : "50",
      "Id" : "0004",
      "oid" : "7474",
      "districtId" : "1",
      "nameZh" : "普濟寺",
      "pgp" : "0",
      "terminal" : "0",
      "latitude" : "24.18422",
      "inDis" : "50",
      "routeId" : "83",
      "seqNo" : "25"
   },
   {
      "GoBack" : "1",
      "longitude" : "120.61003",
      "outDis" : "50",
      "Id" : "4335",
      "oid" : "13439",
      "districtId" : "1",
      "nameZh" : "臺灣大道玉門路口",
      "pgp" : "0",
      "terminal" : "0",
      "latitude" : "24.18449",
      "inDis" : "50",
      "routeId" : "83",
      "seqNo" : "26"
   },
   {
      "GoBack" : "1",
      "longitude" : "120.61262",
      "outDis" : "50",
      "Id" : "0006",
      "oid" : "13464",
      "districtId" : "1",
      "nameZh" : "臺中捐血中心",
      "pgp" : "0",
      "terminal" : "0",
      "latitude" : "24.18415",
      "inDis" : "50",
      "routeId" : "83",
      "seqNo" : "27"
   },
   {
      "GoBack" : "1",
      "longitude" : "120.61584",
      "outDis" : "50",
      "Id" : "0430",
      "oid" : "13446",
      "districtId" : "1",
      "nameZh" : "中港澄清醫院",
      "pgp" : "0",
      "terminal" : "0",
      "latitude" : "24.18298",
      "inDis" : "50",
      "routeId" : "83",
      "seqNo" : "28"
   },
   {
      "GoBack" : "1",
      "longitude" : "120.6183",
      "outDis" : "50",
      "Id" : "0008",
      "oid" : "320062561",
      "districtId" : "1",
      "nameZh" : "中港新城",
      "pgp" : "0",
      "terminal" : "0",
      "latitude" : "24.18145",
      "inDis" : "50",
      "routeId" : "83",
      "seqNo" : "29"
   },
   {
      "GoBack" : "1",
      "longitude" : "120.62203",
      "outDis" : "50",
      "Id" : "3060",
      "oid" : "13533",
      "districtId" : "1",
      "nameZh" : "統聯轉運站",
      "pgp" : "0",
      "terminal" : "0",
      "latitude" : "24.17956",
      "inDis" : "50",
      "routeId" : "83",
      "seqNo" : "30"
   },
   {
      "GoBack" : "1",
      "longitude" : "120.62374",
      "outDis" : "50",
      "Id" : "5149",
      "oid" : "319908747",
      "districtId" : "1",
      "nameZh" : "福安里(臺灣大道)",
      "pgp" : "0",
      "terminal" : "0",
      "latitude" : "24.1787",
      "inDis" : "50",
      "routeId" : "83",
      "seqNo" : "31"
   },
   {
      "GoBack" : "1",
      "longitude" : "120.63717",
      "outDis" : "50",
      "Id" : "0054",
      "oid" : "313524993",
      "districtId" : "1",
      "nameZh" : "朝馬(臺灣大道)",
      "pgp" : "0",
      "terminal" : "0",
      "latitude" : "24.17059",
      "inDis" : "50",
      "routeId" : "83",
      "seqNo" : "32"
   },
   {
      "GoBack" : "1",
      "longitude" : "120.63957",
      "outDis" : "50",
      "Id" : "0826",
      "oid" : "13543",
      "districtId" : "1",
      "nameZh" : "秋紅谷(朝陽橋)",
      "pgp" : "0",
      "terminal" : "0",
      "latitude" : "24.16865",
      "inDis" : "50",
      "routeId" : "83",
      "seqNo" : "33"
   },
   {
      "GoBack" : "1",
      "longitude" : "120.64166",
      "outDis" : "50",
      "Id" : "0015",
      "oid" : "7410",
      "districtId" : "1",
      "nameZh" : "教師新村",
      "pgp" : "0",
      "terminal" : "0",
      "latitude" : "24.16722",
      "inDis" : "50",
      "routeId" : "83",
      "seqNo" : "34"
   },
   {
      "GoBack" : "1",
      "longitude" : "120.64428",
      "outDis" : "50",
      "Id" : "0016",
      "oid" : "13555",
      "districtId" : "1",
      "nameZh" : "新光三越",
      "pgp" : "0",
      "terminal" : "0",
      "latitude" : "24.16578",
      "inDis" : "50",
      "routeId" : "83",
      "seqNo" : "35"
   },
   {
      "GoBack" : "1",
      "longitude" : "120.64806",
      "outDis" : "50",
      "Id" : "0017",
      "oid" : "7473",
      "districtId" : "1",
      "nameZh" : "臺中市政府",
      "pgp" : "0",
      "terminal" : "0",
      "latitude" : "24.16349",
      "inDis" : "50",
      "routeId" : "83",
      "seqNo" : "36"
   },
   {
      "GoBack" : "1",
      "longitude" : "120.65046",
      "outDis" : "50",
      "Id" : "4564",
      "oid" : "13435",
      "districtId" : "1",
      "nameZh" : "臺灣大道文心路口",
      "pgp" : "0",
      "terminal" : "0",
      "latitude" : "24.16214",
      "inDis" : "50",
      "routeId" : "83",
      "seqNo" : "37"
   },
   {
      "GoBack" : "1",
      "longitude" : "120.65367",
      "outDis" : "50",
      "Id" : "4566",
      "oid" : "13491",
      "districtId" : "1",
      "nameZh" : "何厝(臺灣大道)",
      "pgp" : "0",
      "terminal" : "0",
      "latitude" : "24.16043",
      "inDis" : "50",
      "routeId" : "83",
      "seqNo" : "38"
   },
   {
      "GoBack" : "1",
      "longitude" : "120.6568",
      "outDis" : "50",
      "Id" : "4569",
      "oid" : "13539",
      "districtId" : "1",
      "nameZh" : "頂何厝(臺灣大道)",
      "pgp" : "0",
      "terminal" : "0",
      "latitude" : "24.15866",
      "inDis" : "50",
      "routeId" : "83",
      "seqNo" : "39"
   },
   {
      "GoBack" : "1",
      "longitude" : "120.65875",
      "outDis" : "50",
      "Id" : "0087",
      "oid" : "13500",
      "districtId" : "1",
      "nameZh" : "忠明國小",
      "pgp" : "0",
      "terminal" : "0",
      "latitude" : "24.15787",
      "inDis" : "50",
      "routeId" : "83",
      "seqNo" : "40"
   },
   {
      "GoBack" : "1",
      "longitude" : "120.66313",
      "outDis" : "50",
      "Id" : "0320",
      "oid" : "319472665",
      "districtId" : "1",
      "nameZh" : "科學博物館(臺灣大道)",
      "pgp" : "0",
      "terminal" : "0",
      "latitude" : "24.1552",
      "inDis" : "50",
      "routeId" : "83",
      "seqNo" : "41"
   },
   {
      "GoBack" : "1",
      "longitude" : "120.66729",
      "outDis" : "50",
      "Id" : "0419",
      "oid" : "7256",
      "districtId" : "1",
      "nameZh" : "中正國小",
      "pgp" : "0",
      "terminal" : "0",
      "latitude" : "24.1531",
      "inDis" : "50",
      "routeId" : "83",
      "seqNo" : "42"
   },
   {
      "GoBack" : "1",
      "longitude" : "120.6692",
      "outDis" : "50",
      "Id" : "4619",
      "oid" : "13437",
      "districtId" : "1",
      "nameZh" : "臺灣大道民權路口",
      "pgp" : "0",
      "terminal" : "0",
      "latitude" : "24.15145",
      "inDis" : "50",
      "routeId" : "83",
      "seqNo" : "43"
   },
   {
      "GoBack" : "1",
      "longitude" : "120.67155",
      "outDis" : "50",
      "Id" : "0723",
      "oid" : "7182",
      "districtId" : "1",
      "nameZh" : "茄苳腳",
      "pgp" : "0",
      "terminal" : "0",
      "latitude" : "24.14955",
      "inDis" : "50",
      "routeId" : "83",
      "seqNo" : "44"
   },
   {
      "GoBack" : "1",
      "longitude" : "120.67483",
      "outDis" : "50",
      "Id" : "5092",
      "oid" : "13433",
      "districtId" : "1",
      "nameZh" : "臺灣大道原子街口",
      "pgp" : "0",
      "terminal" : "0",
      "latitude" : "24.14663",
      "inDis" : "50",
      "routeId" : "83",
      "seqNo" : "45"
   },
   {
      "GoBack" : "1",
      "longitude" : "120.67695",
      "outDis" : "50",
      "Id" : "4375",
      "oid" : "13431",
      "districtId" : "1",
      "nameZh" : "臺灣大道中華路口",
      "pgp" : "0",
      "terminal" : "0",
      "latitude" : "24.14474",
      "inDis" : "50",
      "routeId" : "83",
      "seqNo" : "46"
   },
   {
      "GoBack" : "1",
      "longitude" : "120.67823",
      "outDis" : "50",
      "Id" : "4662",
      "oid" : "24DEA478B1C34307AD5865881E001C24",
      "districtId" : "1",
      "nameZh" : "仁愛醫院",
      "pgp" : "0",
      "terminal" : "0",
      "latitude" : "24.1435",
      "inDis" : "50",
      "routeId" : "83",
      "seqNo" : "47"
   },
   {
      "GoBack" : "1",
      "longitude" : "120.67931",
      "outDis" : "50",
      "Id" : "4395",
      "oid" : "13531",
      "districtId" : "1",
      "nameZh" : "第二市場(臺灣大道)",
      "pgp" : "0",
      "terminal" : "0",
      "latitude" : "24.14275",
      "inDis" : "50",
      "routeId" : "83",
      "seqNo" : "48"
   },
   {
      "GoBack" : "1",
      "longitude" : "120.68245",
      "outDis" : "50",
      "Id" : "4401",
      "oid" : "13561",
      "districtId" : "1",
      "nameZh" : "彰化銀行(臺灣大道)",
      "pgp" : "0",
      "terminal" : "0",
      "latitude" : "24.14001",
      "inDis" : "50",
      "routeId" : "83",
      "seqNo" : "49"
   },
   {
      "GoBack" : "1",
      "longitude" : "120.68368",
      "outDis" : "50",
      "Id" : "0151",
      "oid" : "8161",
      "districtId" : "1",
      "nameZh" : "第一廣場",
      "pgp" : "0",
      "terminal" : "0",
      "latitude" : "24.13878",
      "inDis" : "50",
      "routeId" : "83",
      "seqNo" : "50"
   },
   {
      "GoBack" : "1",
      "longitude" : "120.68487",
      "outDis" : "50",
      "Id" : "1824",
      "oid" : "13458",
      "districtId" : "1",
      "nameZh" : "臺中火車站",
      "pgp" : "0",
      "terminal" : "0",
      "latitude" : "24.13766",
      "inDis" : "50",
      "routeId" : "83",
      "seqNo" : "51"
   },
   {
      "GoBack" : "1",
      "longitude" : "120.68592",
      "outDis" : "50",
      "Id" : "0402",
      "oid" : "13426",
      "districtId" : "1",
      "nameZh" : "干城站",
      "pgp" : "0",
      "terminal" : "0",
      "latitude" : "24.14076",
      "inDis" : "50",
      "routeId" : "83",
      "seqNo" : "52"
   },
   {
      "GoBack" : "1",
      "longitude" : "120.68616",
      "outDis" : "50",
      "Id" : "4544",
      "oid" : "13457",
      "districtId" : "1",
      "nameZh" : "臺中公園(雙十路)",
      "pgp" : "0",
      "terminal" : "0",
      "latitude" : "24.14418",
      "inDis" : "50",
      "routeId" : "83",
      "seqNo" : "53"
   },
   {
      "GoBack" : "1",
      "longitude" : "120.68448",
      "outDis" : "50",
      "Id" : "1513",
      "oid" : "15989",
      "districtId" : "1",
      "nameZh" : "中興堂",
      "pgp" : "0",
      "terminal" : "0",
      "latitude" : "24.14626",
      "inDis" : "50",
      "routeId" : "83",
      "seqNo" : "54"
   },
   {
      "GoBack" : "1",
      "longitude" : "120.68391",
      "outDis" : "50",
      "Id" : "0045",
      "oid" : "13459",
      "districtId" : "1",
      "nameZh" : "國立臺中科技大學",
      "pgp" : "0",
      "terminal" : "0",
      "latitude" : "24.1494",
      "inDis" : "50",
      "routeId" : "83",
      "seqNo" : "55"
   },
   {
      "GoBack" : "1",
      "longitude" : "120.68521",
      "outDis" : "50",
      "Id" : "0046",
      "oid" : "13429",
      "districtId" : "1",
      "nameZh" : "中友百貨",
      "pgp" : "0",
      "terminal" : "0",
      "latitude" : "24.15237",
      "inDis" : "50",
      "routeId" : "83",
      "seqNo" : "56"
   },
   {
      "GoBack" : "1",
      "longitude" : "120.6855",
      "outDis" : "50",
      "Id" : "0203",
      "oid" : "13473",
      "districtId" : "1",
      "nameZh" : "市立殯儀館",
      "pgp" : "0",
      "terminal" : "0",
      "latitude" : "24.15656",
      "inDis" : "50",
      "routeId" : "83",
      "seqNo" : "57"
   },
   {
      "GoBack" : "1",
      "longitude" : "120.68736",
      "outDis" : "50",
      "Id" : "4400",
      "oid" : "13552",
      "districtId" : "1",
      "nameZh" : "新民高中(健行路)",
      "pgp" : "0",
      "terminal" : "0",
      "latitude" : "24.15897",
      "inDis" : "50",
      "routeId" : "83",
      "seqNo" : "58"
   },
   {
      "GoBack" : "2",
      "longitude" : "120.68736",
      "outDis" : "50",
      "Id" : "4400",
      "oid" : "13552",
      "districtId" : "1",
      "nameZh" : "新民高中(健行路)",
      "pgp" : "0",
      "terminal" : "0",
      "latitude" : "24.15897",
      "inDis" : "50",
      "routeId" : "83",
      "seqNo" : "1"
   },
   {
      "GoBack" : "2",
      "longitude" : "120.68982",
      "outDis" : "50",
      "Id" : "0960",
      "oid" : "13571",
      "districtId" : "1",
      "nameZh" : "寶覺寺",
      "pgp" : "0",
      "terminal" : "0",
      "latitude" : "24.15795",
      "inDis" : "50",
      "routeId" : "83",
      "seqNo" : "2"
   },
   {
      "GoBack" : "2",
      "longitude" : "120.68841",
      "outDis" : "50",
      "Id" : "4399",
      "oid" : "13551",
      "districtId" : "1",
      "nameZh" : "新民高中(三民路)",
      "pgp" : "0",
      "terminal" : "0",
      "latitude" : "24.15683",
      "inDis" : "50",
      "routeId" : "83",
      "seqNo" : "3"
   },
   {
      "GoBack" : "2",
      "longitude" : "120.68573",
      "outDis" : "50",
      "Id" : "0047",
      "oid" : "CBAF2B468DEA4E27BB43E95AAD77DC73",
      "districtId" : "1",
      "nameZh" : "一心市場",
      "pgp" : "0",
      "terminal" : "0",
      "latitude" : "24.15389",
      "inDis" : "50",
      "routeId" : "83",
      "seqNo" : "4"
   },
   {
      "GoBack" : "2",
      "longitude" : "120.68521",
      "outDis" : "50",
      "Id" : "0046",
      "oid" : "13429",
      "districtId" : "1",
      "nameZh" : "中友百貨",
      "pgp" : "0",
      "terminal" : "0",
      "latitude" : "24.15237",
      "inDis" : "50",
      "routeId" : "83",
      "seqNo" : "5"
   },
   {
      "GoBack" : "2",
      "longitude" : "120.68391",
      "outDis" : "50",
      "Id" : "0045",
      "oid" : "13459",
      "districtId" : "1",
      "nameZh" : "國立臺中科技大學",
      "pgp" : "0",
      "terminal" : "0",
      "latitude" : "24.1494",
      "inDis" : "50",
      "routeId" : "83",
      "seqNo" : "6"
   },
   {
      "GoBack" : "2",
      "longitude" : "120.68463",
      "outDis" : "50",
      "Id" : "1513",
      "oid" : "16096",
      "districtId" : "1",
      "nameZh" : "中興堂",
      "pgp" : "0",
      "terminal" : "0",
      "latitude" : "24.14621",
      "inDis" : "50",
      "routeId" : "83",
      "seqNo" : "7"
   },
   {
      "GoBack" : "2",
      "longitude" : "120.68616",
      "outDis" : "50",
      "Id" : "4544",
      "oid" : "13457",
      "districtId" : "1",
      "nameZh" : "臺中公園(雙十路)",
      "pgp" : "0",
      "terminal" : "0",
      "latitude" : "24.14418",
      "inDis" : "50",
      "routeId" : "83",
      "seqNo" : "8"
   },
   {
      "GoBack" : "2",
      "longitude" : "120.68572",
      "outDis" : "50",
      "Id" : "0402",
      "oid" : "13427",
      "districtId" : "1",
      "nameZh" : "干城站",
      "pgp" : "0",
      "terminal" : "0",
      "latitude" : "24.1409",
      "inDis" : "50",
      "routeId" : "83",
      "seqNo" : "9"
   },
   {
      "GoBack" : "2",
      "longitude" : "120.68487",
      "outDis" : "50",
      "Id" : "1824",
      "oid" : "13458",
      "districtId" : "1",
      "nameZh" : "臺中火車站",
      "pgp" : "0",
      "terminal" : "0",
      "latitude" : "24.13766",
      "inDis" : "50",
      "routeId" : "83",
      "seqNo" : "10"
   },
   {
      "GoBack" : "2",
      "longitude" : "120.68368",
      "outDis" : "50",
      "Id" : "0151",
      "oid" : "8161",
      "districtId" : "1",
      "nameZh" : "第一廣場",
      "pgp" : "0",
      "terminal" : "0",
      "latitude" : "24.13878",
      "inDis" : "50",
      "routeId" : "83",
      "seqNo" : "11"
   },
   {
      "GoBack" : "2",
      "longitude" : "120.68245",
      "outDis" : "50",
      "Id" : "4401",
      "oid" : "13561",
      "districtId" : "1",
      "nameZh" : "彰化銀行(臺灣大道)",
      "pgp" : "0",
      "terminal" : "0",
      "latitude" : "24.14001",
      "inDis" : "50",
      "routeId" : "83",
      "seqNo" : "12"
   },
   {
      "GoBack" : "2",
      "longitude" : "120.67931",
      "outDis" : "50",
      "Id" : "4395",
      "oid" : "13531",
      "districtId" : "1",
      "nameZh" : "第二市場(臺灣大道)",
      "pgp" : "0",
      "terminal" : "0",
      "latitude" : "24.14275",
      "inDis" : "50",
      "routeId" : "83",
      "seqNo" : "13"
   },
   {
      "GoBack" : "2",
      "longitude" : "120.6769",
      "outDis" : "50",
      "Id" : "4375",
      "oid" : "13432",
      "districtId" : "1",
      "nameZh" : "臺灣大道中華路口",
      "pgp" : "0",
      "terminal" : "0",
      "latitude" : "24.14482",
      "inDis" : "50",
      "routeId" : "83",
      "seqNo" : "15"
   },
   {
      "GoBack" : "2",
      "longitude" : "120.67483",
      "outDis" : "50",
      "Id" : "5092",
      "oid" : "13433",
      "districtId" : "1",
      "nameZh" : "臺灣大道原子街口",
      "pgp" : "0",
      "terminal" : "0",
      "latitude" : "24.14663",
      "inDis" : "50",
      "routeId" : "83",
      "seqNo" : "16"
   },
   {
      "GoBack" : "2",
      "longitude" : "120.67155",
      "outDis" : "50",
      "Id" : "0723",
      "oid" : "7182",
      "districtId" : "1",
      "nameZh" : "茄苳腳",
      "pgp" : "0",
      "terminal" : "0",
      "latitude" : "24.14955",
      "inDis" : "50",
      "routeId" : "83",
      "seqNo" : "17"
   },
   {
      "GoBack" : "2",
      "longitude" : "120.66942",
      "outDis" : "50",
      "Id" : "4619",
      "oid" : "13436",
      "districtId" : "1",
      "nameZh" : "臺灣大道民權路口",
      "pgp" : "0",
      "terminal" : "0",
      "latitude" : "24.15159",
      "inDis" : "50",
      "routeId" : "83",
      "seqNo" : "18"
   },
   {
      "GoBack" : "2",
      "longitude" : "120.66725",
      "outDis" : "50",
      "Id" : "0419",
      "oid" : "7258",
      "districtId" : "1",
      "nameZh" : "中正國小",
      "pgp" : "0",
      "terminal" : "0",
      "latitude" : "24.15291",
      "inDis" : "50",
      "routeId" : "83",
      "seqNo" : "19"
   },
   {
      "GoBack" : "2",
      "longitude" : "120.66313",
      "outDis" : "50",
      "Id" : "0320",
      "oid" : "319472665",
      "districtId" : "1",
      "nameZh" : "科學博物館(臺灣大道)",
      "pgp" : "0",
      "terminal" : "0",
      "latitude" : "24.1552",
      "inDis" : "50",
      "routeId" : "83",
      "seqNo" : "20"
   },
   {
      "GoBack" : "2",
      "longitude" : "120.65849",
      "outDis" : "50",
      "Id" : "0087",
      "oid" : "7112",
      "districtId" : "1",
      "nameZh" : "忠明國小",
      "pgp" : "0",
      "terminal" : "0",
      "latitude" : "24.15776",
      "inDis" : "50",
      "routeId" : "83",
      "seqNo" : "21"
   },
   {
      "GoBack" : "2",
      "longitude" : "120.65645",
      "outDis" : "50",
      "Id" : "4569",
      "oid" : "13538",
      "districtId" : "1",
      "nameZh" : "頂何厝(臺灣大道)",
      "pgp" : "0",
      "terminal" : "0",
      "latitude" : "24.15903",
      "inDis" : "50",
      "routeId" : "83",
      "seqNo" : "22"
   },
   {
      "GoBack" : "2",
      "longitude" : "120.65367",
      "outDis" : "50",
      "Id" : "4566",
      "oid" : "13491",
      "districtId" : "1",
      "nameZh" : "何厝(臺灣大道)",
      "pgp" : "0",
      "terminal" : "0",
      "latitude" : "24.16043",
      "inDis" : "50",
      "routeId" : "83",
      "seqNo" : "23"
   },
   {
      "GoBack" : "2",
      "longitude" : "120.65116",
      "outDis" : "50",
      "Id" : "4564",
      "oid" : "13434",
      "districtId" : "1",
      "nameZh" : "臺灣大道文心路口",
      "pgp" : "0",
      "terminal" : "0",
      "latitude" : "24.16203",
      "inDis" : "50",
      "routeId" : "83",
      "seqNo" : "24"
   },
   {
      "GoBack" : "2",
      "longitude" : "120.64686",
      "outDis" : "50",
      "Id" : "0017",
      "oid" : "7472",
      "districtId" : "1",
      "nameZh" : "臺中市政府",
      "pgp" : "0",
      "terminal" : "0",
      "latitude" : "24.16416",
      "inDis" : "50",
      "routeId" : "83",
      "seqNo" : "25"
   },
   {
      "GoBack" : "2",
      "longitude" : "120.64421",
      "outDis" : "50",
      "Id" : "0016",
      "oid" : "7513",
      "districtId" : "1",
      "nameZh" : "新光三越",
      "pgp" : "0",
      "terminal" : "0",
      "latitude" : "24.16582",
      "inDis" : "50",
      "routeId" : "83",
      "seqNo" : "26"
   },
   {
      "GoBack" : "2",
      "longitude" : "120.6421",
      "outDis" : "50",
      "Id" : "0015",
      "oid" : "7413",
      "districtId" : "1",
      "nameZh" : "教師新村",
      "pgp" : "0",
      "terminal" : "0",
      "latitude" : "24.16721",
      "inDis" : "50",
      "routeId" : "83",
      "seqNo" : "27"
   },
   {
      "GoBack" : "2",
      "longitude" : "120.63965",
      "outDis" : "50",
      "Id" : "0826",
      "oid" : "13542",
      "districtId" : "1",
      "nameZh" : "秋紅谷(朝陽橋)",
      "pgp" : "0",
      "terminal" : "0",
      "latitude" : "24.16893",
      "inDis" : "50",
      "routeId" : "83",
      "seqNo" : "28"
   },
   {
      "GoBack" : "2",
      "longitude" : "120.63717",
      "outDis" : "50",
      "Id" : "0054",
      "oid" : "313524993",
      "districtId" : "1",
      "nameZh" : "朝馬(臺灣大道)",
      "pgp" : "0",
      "terminal" : "0",
      "latitude" : "24.17059",
      "inDis" : "50",
      "routeId" : "83",
      "seqNo" : "29"
   },
   {
      "GoBack" : "2",
      "longitude" : "120.62389",
      "outDis" : "50",
      "Id" : "5149",
      "oid" : "13564",
      "districtId" : "1",
      "nameZh" : "福安里(臺灣大道)",
      "pgp" : "0",
      "terminal" : "0",
      "latitude" : "24.17863",
      "inDis" : "50",
      "routeId" : "83",
      "seqNo" : "30"
   },
   {
      "GoBack" : "2",
      "longitude" : "120.62207",
      "outDis" : "50",
      "Id" : "3060",
      "oid" : "13532",
      "districtId" : "1",
      "nameZh" : "統聯轉運站",
      "pgp" : "0",
      "terminal" : "0",
      "latitude" : "24.17999",
      "inDis" : "50",
      "routeId" : "83",
      "seqNo" : "31"
   },
   {
      "GoBack" : "2",
      "longitude" : "120.62004",
      "outDis" : "50",
      "Id" : "0008",
      "oid" : "13443",
      "districtId" : "1",
      "nameZh" : "中港新城",
      "pgp" : "0",
      "terminal" : "0",
      "latitude" : "24.18098",
      "inDis" : "50",
      "routeId" : "83",
      "seqNo" : "32"
   },
   {
      "GoBack" : "2",
      "longitude" : "120.61589",
      "outDis" : "50",
      "Id" : "0430",
      "oid" : "13444",
      "districtId" : "1",
      "nameZh" : "中港澄清醫院",
      "pgp" : "0",
      "terminal" : "0",
      "latitude" : "24.18297",
      "inDis" : "50",
      "routeId" : "83",
      "seqNo" : "33"
   },
   {
      "GoBack" : "2",
      "longitude" : "120.61262",
      "outDis" : "50",
      "Id" : "0006",
      "oid" : "13464",
      "districtId" : "1",
      "nameZh" : "臺中捐血中心",
      "pgp" : "0",
      "terminal" : "0",
      "latitude" : "24.18415",
      "inDis" : "50",
      "routeId" : "83",
      "seqNo" : "34"
   },
   {
      "GoBack" : "2",
      "longitude" : "120.61003",
      "outDis" : "50",
      "Id" : "4335",
      "oid" : "13439",
      "districtId" : "1",
      "nameZh" : "臺灣大道玉門路口",
      "pgp" : "0",
      "terminal" : "0",
      "latitude" : "24.18449",
      "inDis" : "50",
      "routeId" : "83",
      "seqNo" : "35"
   },
   {
      "GoBack" : "2",
      "longitude" : "120.60827",
      "outDis" : "50",
      "Id" : "0004",
      "oid" : "13540",
      "districtId" : "1",
      "nameZh" : "普濟寺",
      "pgp" : "0",
      "terminal" : "0",
      "latitude" : "24.18417",
      "inDis" : "50",
      "routeId" : "83",
      "seqNo" : "36"
   },
   {
      "GoBack" : "2",
      "longitude" : "120.60643",
      "outDis" : "50",
      "Id" : "2378",
      "oid" : "13501",
      "districtId" : "1",
      "nameZh" : "東大附中",
      "pgp" : "0",
      "terminal" : "0",
      "latitude" : "24.18379",
      "inDis" : "50",
      "routeId" : "83",
      "seqNo" : "37"
   },
   {
      "GoBack" : "2",
      "longitude" : "120.60491",
      "outDis" : "50",
      "Id" : "5386",
      "oid" : "313588801",
      "districtId" : "1",
      "nameZh" : "臺中榮總(臺灣大道)",
      "pgp" : "0",
      "terminal" : "0",
      "latitude" : "24.18349",
      "inDis" : "50",
      "routeId" : "83",
      "seqNo" : "38"
   },
   {
      "GoBack" : "2",
      "longitude" : "120.5973",
      "outDis" : "50",
      "Id" : "0526",
      "oid" : "13469",
      "districtId" : "1",
      "nameZh" : "台中精機",
      "pgp" : "0",
      "terminal" : "0",
      "latitude" : "24.18208",
      "inDis" : "50",
      "routeId" : "83",
      "seqNo" : "39"
   },
   {
      "GoBack" : "2",
      "longitude" : "120.59354",
      "outDis" : "50",
      "Id" : "0240",
      "oid" : "13505",
      "districtId" : "1",
      "nameZh" : "東海別墅",
      "pgp" : "0",
      "terminal" : "0",
      "latitude" : "24.18278",
      "inDis" : "50",
      "routeId" : "83",
      "seqNo" : "40"
   },
   {
      "GoBack" : "2",
      "longitude" : "120.59104",
      "outDis" : "50",
      "Id" : "4383",
      "oid" : "13472",
      "districtId" : "1",
      "nameZh" : "臺糖公營學苑",
      "pgp" : "0",
      "terminal" : "0",
      "latitude" : "24.18404",
      "inDis" : "50",
      "routeId" : "83",
      "seqNo" : "41"
   },
   {
      "GoBack" : "2",
      "longitude" : "120.58788",
      "outDis" : "50",
      "Id" : "5304",
      "oid" : "311234408",
      "districtId" : "1",
      "nameZh" : "東海街口",
      "pgp" : "0",
      "terminal" : "0",
      "latitude" : "24.1853",
      "inDis" : "50",
      "routeId" : "83",
      "seqNo" : "42"
   },
   {
      "GoBack" : "2",
      "longitude" : "120.58604",
      "outDis" : "50",
      "Id" : "2325",
      "oid" : "13496",
      "districtId" : "1",
      "nameZh" : "坪頂",
      "pgp" : "0",
      "terminal" : "0",
      "latitude" : "24.18602",
      "inDis" : "50",
      "routeId" : "83",
      "seqNo" : "43"
   },
   {
      "GoBack" : "2",
      "longitude" : "120.58248",
      "outDis" : "50",
      "Id" : "4061",
      "oid" : "13414",
      "districtId" : "1",
      "nameZh" : "下坪頂",
      "pgp" : "0",
      "terminal" : "0",
      "latitude" : "24.18753",
      "inDis" : "50",
      "routeId" : "83",
      "seqNo" : "44"
   },
   {
      "GoBack" : "2",
      "longitude" : "120.58064",
      "outDis" : "50",
      "Id" : "4388",
      "oid" : "13481",
      "districtId" : "1",
      "nameZh" : "后厝仔",
      "pgp" : "0",
      "terminal" : "0",
      "latitude" : "24.19927",
      "inDis" : "50",
      "routeId" : "83",
      "seqNo" : "45"
   },
   {
      "GoBack" : "2",
      "longitude" : "120.58145",
      "outDis" : "50",
      "Id" : "4136",
      "oid" : "13557",
      "districtId" : "1",
      "nameZh" : "祿清宮",
      "pgp" : "0",
      "terminal" : "0",
      "latitude" : "24.20915",
      "inDis" : "50",
      "routeId" : "83",
      "seqNo" : "46"
   },
   {
      "GoBack" : "2",
      "longitude" : "120.58103",
      "outDis" : "50",
      "Id" : "4124",
      "oid" : "13536",
      "districtId" : "1",
      "nameZh" : "頂六路",
      "pgp" : "0",
      "terminal" : "0",
      "latitude" : "24.21321",
      "inDis" : "50",
      "routeId" : "83",
      "seqNo" : "47"
   },
   {
      "GoBack" : "2",
      "longitude" : "120.58048",
      "outDis" : "50",
      "Id" : "4386",
      "oid" : "13476",
      "districtId" : "1",
      "nameZh" : "弘光科技大學",
      "pgp" : "0",
      "terminal" : "0",
      "latitude" : "24.21757",
      "inDis" : "50",
      "routeId" : "83",
      "seqNo" : "48"
   },
   {
      "GoBack" : "2",
      "longitude" : "120.5796",
      "outDis" : "50",
      "Id" : "4111",
      "oid" : "13516",
      "districtId" : "1",
      "nameZh" : "晉江里",
      "pgp" : "0",
      "terminal" : "0",
      "latitude" : "24.22133",
      "inDis" : "50",
      "routeId" : "83",
      "seqNo" : "49"
   },
   {
      "GoBack" : "2",
      "longitude" : "120.57834",
      "outDis" : "50",
      "Id" : "4062",
      "oid" : "13416",
      "districtId" : "1",
      "nameZh" : "下晉江",
      "pgp" : "0",
      "terminal" : "0",
      "latitude" : "24.22331",
      "inDis" : "50",
      "routeId" : "83",
      "seqNo" : "50"
   },
   {
      "GoBack" : "2",
      "longitude" : "120.57667",
      "outDis" : "50",
      "Id" : "4147",
      "oid" : "13569",
      "districtId" : "1",
      "nameZh" : "靜宜大學",
      "pgp" : "0",
      "terminal" : "0",
      "latitude" : "24.22602",
      "inDis" : "50",
      "routeId" : "83",
      "seqNo" : "51"
   },
   {
      "GoBack" : "2",
      "longitude" : "120.57408",
      "outDis" : "100",
      "Id" : "4086",
      "oid" : "13454",
      "districtId" : "1",
      "nameZh" : "臺灣大道北勢路口",
      "pgp" : "0",
      "terminal" : "0",
      "latitude" : "24.2301",
      "inDis" : "50",
      "routeId" : "83",
      "seqNo" : "52"
   },
   {
      "GoBack" : "2",
      "longitude" : "120.57197",
      "outDis" : "50",
      "Id" : "4392",
      "oid" : "13511",
      "districtId" : "1",
      "nameZh" : "紅竹巷",
      "pgp" : "0",
      "terminal" : "0",
      "latitude" : "24.23331",
      "inDis" : "50",
      "routeId" : "83",
      "seqNo" : "53"
   },
   {
      "GoBack" : "2",
      "longitude" : "120.57012",
      "outDis" : "100",
      "Id" : "4389",
      "oid" : "13484",
      "districtId" : "1",
      "nameZh" : "竹林里",
      "pgp" : "0",
      "terminal" : "0",
      "latitude" : "24.23617",
      "inDis" : "50",
      "routeId" : "83",
      "seqNo" : "54"
   },
   {
      "GoBack" : "2",
      "longitude" : "120.56769",
      "outDis" : "50",
      "Id" : "2147",
      "oid" : "13488",
      "districtId" : "1",
      "nameZh" : "竹林國小",
      "pgp" : "0",
      "terminal" : "0",
      "latitude" : "24.23844",
      "inDis" : "50",
      "routeId" : "83",
      "seqNo" : "55"
   },
   {
      "GoBack" : "2",
      "longitude" : "120.56535",
      "outDis" : "50",
      "Id" : "0005",
      "oid" : "317813141",
      "districtId" : "1",
      "nameZh" : "沙鹿高工(臺灣大道)",
      "pgp" : "0",
      "terminal" : "0",
      "latitude" : "24.23926",
      "inDis" : "50",
      "routeId" : "83",
      "seqNo" : "56"
   },
   {
      "GoBack" : "2",
      "longitude" : "120.56346",
      "outDis" : "50",
      "Id" : "2335",
      "oid" : "13498",
      "districtId" : "1",
      "nameZh" : "居仁里",
      "pgp" : "0",
      "terminal" : "0",
      "latitude" : "24.24007",
      "inDis" : "50",
      "routeId" : "83",
      "seqNo" : "57"
   },
   {
      "GoBack" : "2",
      "longitude" : "120.56127",
      "outDis" : "50",
      "Id" : "5140",
      "oid" : "14047",
      "districtId" : "1",
      "nameZh" : "童綜合醫院(沙鹿院區)",
      "pgp" : "0",
      "terminal" : "0",
      "latitude" : "24.24245",
      "inDis" : "50",
      "routeId" : "83",
      "seqNo" : "58"
   },
   {
      "GoBack" : "2",
      "longitude" : "120.56517",
      "outDis" : "50",
      "Id" : "5730",
      "oid" : "317426655",
      "districtId" : "1",
      "nameZh" : "鹿寮國中(光大路)",
      "pgp" : "0",
      "terminal" : "0",
      "latitude" : "24.24395",
      "inDis" : "50",
      "routeId" : "83",
      "seqNo" : "59"
   },
   {
      "GoBack" : "2",
      "longitude" : "120.56679",
      "outDis" : "50",
      "Id" : "4516",
      "oid" : "305379424",
      "districtId" : "1",
      "nameZh" : "鹿寮國中(光華路)",
      "pgp" : "0",
      "terminal" : "0",
      "latitude" : "24.24373",
      "inDis" : "50",
      "routeId" : "83",
      "seqNo" : "60"
   }
]
