[
   {
      "GoBack" : "1",
      "longitude" : "120.59899",
      "outDis" : "50",
      "Id" : "0135",
      "oid" : "319048679",
      "districtId" : "1",
      "nameZh" : "臺中航空站",
      "pgp" : "0",
      "terminal" : "0",
      "latitude" : "24.25348",
      "inDis" : "50",
      "routeId" : "150",
      "seqNo" : "1"
   },
   {
      "GoBack" : "1",
      "longitude" : "120.57578",
      "outDis" : "50",
      "Id" : "0393",
      "oid" : "319045317",
      "districtId" : "1",
      "nameZh" : "中興向上路口",
      "pgp" : "0",
      "terminal" : "0",
      "latitude" : "24.18488",
      "inDis" : "50",
      "routeId" : "150",
      "seqNo" : "11"
   },
   {
      "GoBack" : "1",
      "longitude" : "120.5786",
      "outDis" : "50",
      "Id" : "0395",
      "oid" : "319060123",
      "districtId" : "1",
      "nameZh" : "中興臺灣大道口",
      "pgp" : "0",
      "terminal" : "0",
      "latitude" : "24.1873",
      "inDis" : "50",
      "routeId" : "150",
      "seqNo" : "12"
   },
   {
      "GoBack" : "1",
      "longitude" : "120.5829",
      "outDis" : "50",
      "Id" : "4061",
      "oid" : "319048681",
      "districtId" : "1",
      "nameZh" : "下坪頂",
      "pgp" : "0",
      "terminal" : "0",
      "latitude" : "24.18717",
      "inDis" : "50",
      "routeId" : "150",
      "seqNo" : "13"
   },
   {
      "GoBack" : "1",
      "longitude" : "120.58613",
      "outDis" : "50",
      "Id" : "2325",
      "oid" : "319048683",
      "districtId" : "1",
      "nameZh" : "坪頂",
      "pgp" : "0",
      "terminal" : "0",
      "latitude" : "24.1858",
      "inDis" : "50",
      "routeId" : "150",
      "seqNo" : "14"
   },
   {
      "GoBack" : "1",
      "longitude" : "120.58844",
      "outDis" : "50",
      "Id" : "5304",
      "oid" : "319048685",
      "districtId" : "1",
      "nameZh" : "東海街口",
      "pgp" : "0",
      "terminal" : "0",
      "latitude" : "24.1848",
      "inDis" : "50",
      "routeId" : "150",
      "seqNo" : "15"
   },
   {
      "GoBack" : "1",
      "longitude" : "120.59128",
      "outDis" : "50",
      "Id" : "4383",
      "oid" : "319048687",
      "districtId" : "1",
      "nameZh" : "臺糖公營學苑",
      "pgp" : "0",
      "terminal" : "0",
      "latitude" : "24.1838",
      "inDis" : "50",
      "routeId" : "150",
      "seqNo" : "16"
   },
   {
      "GoBack" : "1",
      "longitude" : "120.5944",
      "outDis" : "50",
      "Id" : "0240",
      "oid" : "319048689",
      "districtId" : "1",
      "nameZh" : "東海別墅",
      "pgp" : "0",
      "terminal" : "0",
      "latitude" : "24.1823",
      "inDis" : "50",
      "routeId" : "150",
      "seqNo" : "17"
   },
   {
      "GoBack" : "1",
      "longitude" : "120.59741",
      "outDis" : "50",
      "Id" : "0475",
      "oid" : "319048691",
      "districtId" : "1",
      "nameZh" : "臺中精機",
      "pgp" : "0",
      "terminal" : "0",
      "latitude" : "24.18183",
      "inDis" : "50",
      "routeId" : "150",
      "seqNo" : "18"
   },
   {
      "GoBack" : "1",
      "longitude" : "120.60491",
      "outDis" : "50",
      "Id" : "5386",
      "oid" : "319048693",
      "districtId" : "1",
      "nameZh" : "臺中榮總(臺灣大道)",
      "pgp" : "0",
      "terminal" : "0",
      "latitude" : "24.18349",
      "inDis" : "50",
      "routeId" : "150",
      "seqNo" : "19"
   },
   {
      "GoBack" : "1",
      "longitude" : "120.60648",
      "outDis" : "50",
      "Id" : "2378",
      "oid" : "319048695",
      "districtId" : "1",
      "nameZh" : "東大附中",
      "pgp" : "0",
      "terminal" : "0",
      "latitude" : "24.18347",
      "inDis" : "50",
      "routeId" : "150",
      "seqNo" : "20"
   },
   {
      "GoBack" : "1",
      "longitude" : "120.60865",
      "outDis" : "50",
      "Id" : "0004",
      "oid" : "319048697",
      "districtId" : "1",
      "nameZh" : "普濟寺",
      "pgp" : "0",
      "terminal" : "0",
      "latitude" : "24.18406",
      "inDis" : "50",
      "routeId" : "150",
      "seqNo" : "21"
   },
   {
      "GoBack" : "1",
      "longitude" : "120.6106",
      "outDis" : "50",
      "Id" : "4335",
      "oid" : "319048699",
      "districtId" : "1",
      "nameZh" : "臺灣大道玉門路口",
      "pgp" : "0",
      "terminal" : "0",
      "latitude" : "24.18471",
      "inDis" : "50",
      "routeId" : "150",
      "seqNo" : "22"
   },
   {
      "GoBack" : "1",
      "longitude" : "120.61257",
      "outDis" : "50",
      "Id" : "0006",
      "oid" : "319048701",
      "districtId" : "1",
      "nameZh" : "臺中捐血中心",
      "pgp" : "0",
      "terminal" : "0",
      "latitude" : "24.18426",
      "inDis" : "50",
      "routeId" : "150",
      "seqNo" : "23"
   },
   {
      "GoBack" : "1",
      "longitude" : "120.61577",
      "outDis" : "50",
      "Id" : "0430",
      "oid" : "319048703",
      "districtId" : "1",
      "nameZh" : "中港澄清醫院",
      "pgp" : "0",
      "terminal" : "0",
      "latitude" : "24.18271",
      "inDis" : "50",
      "routeId" : "150",
      "seqNo" : "24"
   },
   {
      "GoBack" : "1",
      "longitude" : "120.6183",
      "outDis" : "50",
      "Id" : "0008",
      "oid" : "320062561",
      "districtId" : "1",
      "nameZh" : "中港新城",
      "pgp" : "0",
      "terminal" : "0",
      "latitude" : "24.18145",
      "inDis" : "50",
      "routeId" : "150",
      "seqNo" : "25"
   },
   {
      "GoBack" : "1",
      "longitude" : "120.62211",
      "outDis" : "50",
      "Id" : "3060",
      "oid" : "319048707",
      "districtId" : "1",
      "nameZh" : "統聯轉運站",
      "pgp" : "0",
      "terminal" : "0",
      "latitude" : "24.17938",
      "inDis" : "50",
      "routeId" : "150",
      "seqNo" : "26"
   },
   {
      "GoBack" : "1",
      "longitude" : "120.62372",
      "outDis" : "50",
      "Id" : "5149",
      "oid" : "319048709",
      "districtId" : "1",
      "nameZh" : "福安里(臺灣大道)",
      "pgp" : "0",
      "terminal" : "0",
      "latitude" : "24.17879",
      "inDis" : "50",
      "routeId" : "150",
      "seqNo" : "27"
   },
   {
      "GoBack" : "1",
      "longitude" : "120.63712",
      "outDis" : "50",
      "Id" : "0054",
      "oid" : "319048711",
      "districtId" : "1",
      "nameZh" : "朝馬(臺灣大道)",
      "pgp" : "0",
      "terminal" : "0",
      "latitude" : "24.17027",
      "inDis" : "50",
      "routeId" : "150",
      "seqNo" : "29"
   },
   {
      "GoBack" : "1",
      "longitude" : "120.63806",
      "outDis" : "50",
      "Id" : "3059",
      "oid" : "319048713",
      "districtId" : "1",
      "nameZh" : "朝馬轉運站(朝富路)",
      "pgp" : "0",
      "terminal" : "0",
      "latitude" : "24.16743",
      "inDis" : "50",
      "routeId" : "150",
      "seqNo" : "30"
   },
   {
      "GoBack" : "1",
      "longitude" : "120.63962",
      "outDis" : "50",
      "Id" : "0608",
      "oid" : "319048715",
      "districtId" : "1",
      "nameZh" : "老虎城(市政北六路)",
      "pgp" : "0",
      "terminal" : "0",
      "latitude" : "24.16483",
      "inDis" : "50",
      "routeId" : "150",
      "seqNo" : "31"
   },
   {
      "GoBack" : "1",
      "longitude" : "120.64138",
      "outDis" : "50",
      "Id" : "5726",
      "oid" : "319048717",
      "districtId" : "1",
      "nameZh" : "臺中國家歌劇院",
      "pgp" : "0",
      "terminal" : "0",
      "latitude" : "24.16253",
      "inDis" : "50",
      "routeId" : "150",
      "seqNo" : "32"
   },
   {
      "GoBack" : "1",
      "longitude" : "120.63934",
      "outDis" : "50",
      "Id" : "0055",
      "oid" : "319048719",
      "districtId" : "1",
      "nameZh" : "第六分局",
      "pgp" : "0",
      "terminal" : "0",
      "latitude" : "24.15953",
      "inDis" : "50",
      "routeId" : "150",
      "seqNo" : "33"
   },
   {
      "GoBack" : "1",
      "longitude" : "120.63371",
      "outDis" : "50",
      "Id" : "5155",
      "oid" : "319048721",
      "districtId" : "1",
      "nameZh" : "黎明市政路口",
      "pgp" : "0",
      "terminal" : "0",
      "latitude" : "24.16108",
      "inDis" : "50",
      "routeId" : "150",
      "seqNo" : "34"
   },
   {
      "GoBack" : "1",
      "longitude" : "120.63418",
      "outDis" : "50",
      "Id" : "0056",
      "oid" : "319048723",
      "districtId" : "1",
      "nameZh" : "黎明國小",
      "pgp" : "0",
      "terminal" : "0",
      "latitude" : "24.15731",
      "inDis" : "50",
      "routeId" : "150",
      "seqNo" : "35"
   },
   {
      "GoBack" : "1",
      "longitude" : "120.63461",
      "outDis" : "50",
      "Id" : "3892",
      "oid" : "319048725",
      "districtId" : "1",
      "nameZh" : "黎明新村(黎明路)",
      "pgp" : "0",
      "terminal" : "0",
      "latitude" : "24.15472",
      "inDis" : "50",
      "routeId" : "150",
      "seqNo" : "36"
   },
   {
      "GoBack" : "1",
      "longitude" : "120.6349",
      "outDis" : "50",
      "Id" : "4160",
      "oid" : "319048727",
      "districtId" : "1",
      "nameZh" : "黎明大業路口",
      "pgp" : "0",
      "terminal" : "0",
      "latitude" : "24.15289",
      "inDis" : "50",
      "routeId" : "150",
      "seqNo" : "37"
   },
   {
      "GoBack" : "1",
      "longitude" : "120.63463",
      "outDis" : "50",
      "Id" : "0059",
      "oid" : "319048729",
      "districtId" : "1",
      "nameZh" : "公益黎明路口",
      "pgp" : "0",
      "terminal" : "0",
      "latitude" : "24.15118",
      "inDis" : "50",
      "routeId" : "150",
      "seqNo" : "38"
   },
   {
      "GoBack" : "1",
      "longitude" : "120.63305",
      "outDis" : "50",
      "Id" : "0545",
      "oid" : "319729704",
      "districtId" : "1",
      "nameZh" : "公益永春東七路口",
      "pgp" : "0",
      "terminal" : "0",
      "latitude" : "24.15101",
      "inDis" : "50",
      "routeId" : "150",
      "seqNo" : "39"
   },
   {
      "GoBack" : "1",
      "longitude" : "120.61641",
      "outDis" : "50",
      "Id" : "5488",
      "oid" : "319048731",
      "districtId" : "1",
      "nameZh" : "忠勇寶山東二街口",
      "pgp" : "0",
      "terminal" : "0",
      "latitude" : "24.15269",
      "inDis" : "50",
      "routeId" : "150",
      "seqNo" : "43"
   },
   {
      "GoBack" : "1",
      "longitude" : "120.6157",
      "outDis" : "50",
      "Id" : "5489",
      "oid" : "319048733",
      "districtId" : "1",
      "nameZh" : "寶山里土地公",
      "pgp" : "0",
      "terminal" : "0",
      "latitude" : "24.15073",
      "inDis" : "50",
      "routeId" : "150",
      "seqNo" : "44"
   },
   {
      "GoBack" : "1",
      "longitude" : "120.61561",
      "outDis" : "50",
      "Id" : "0165",
      "oid" : "319048735",
      "districtId" : "1",
      "nameZh" : "文山國小(忠勇路)",
      "pgp" : "0",
      "terminal" : "0",
      "latitude" : "24.14961",
      "inDis" : "50",
      "routeId" : "150",
      "seqNo" : "45"
   },
   {
      "GoBack" : "1",
      "longitude" : "120.61502",
      "outDis" : "50",
      "Id" : "0160",
      "oid" : "319048737",
      "districtId" : "1",
      "nameZh" : "文山里",
      "pgp" : "0",
      "terminal" : "0",
      "latitude" : "24.14655",
      "inDis" : "50",
      "routeId" : "150",
      "seqNo" : "46"
   },
   {
      "GoBack" : "1",
      "longitude" : "120.61473",
      "outDis" : "50",
      "Id" : "0159",
      "oid" : "319048739",
      "districtId" : "1",
      "nameZh" : "一善堂",
      "pgp" : "0",
      "terminal" : "0",
      "latitude" : "24.14489",
      "inDis" : "50",
      "routeId" : "150",
      "seqNo" : "47"
   },
   {
      "GoBack" : "1",
      "longitude" : "120.61372",
      "outDis" : "50",
      "Id" : "0158",
      "oid" : "319048741",
      "districtId" : "1",
      "nameZh" : "下文山",
      "pgp" : "0",
      "terminal" : "0",
      "latitude" : "24.14275",
      "inDis" : "50",
      "routeId" : "150",
      "seqNo" : "48"
   },
   {
      "GoBack" : "1",
      "longitude" : "120.61318",
      "outDis" : "50",
      "Id" : "0157",
      "oid" : "319048743",
      "districtId" : "1",
      "nameZh" : "七星橋",
      "pgp" : "0",
      "terminal" : "0",
      "latitude" : "24.14074",
      "inDis" : "50",
      "routeId" : "150",
      "seqNo" : "49"
   },
   {
      "GoBack" : "1",
      "longitude" : "120.61287",
      "outDis" : "50",
      "Id" : "4599",
      "oid" : "319048745",
      "districtId" : "1",
      "nameZh" : "春社里(忠勇路)",
      "pgp" : "0",
      "terminal" : "0",
      "latitude" : "24.13912",
      "inDis" : "50",
      "routeId" : "150",
      "seqNo" : "50"
   },
   {
      "GoBack" : "1",
      "longitude" : "120.61119",
      "outDis" : "50",
      "Id" : "3874",
      "oid" : "319048747",
      "districtId" : "1",
      "nameZh" : "嶺東高中",
      "pgp" : "0",
      "terminal" : "0",
      "latitude" : "24.1385",
      "inDis" : "50",
      "routeId" : "150",
      "seqNo" : "51"
   },
   {
      "GoBack" : "1",
      "longitude" : "120.60996",
      "outDis" : "50",
      "Id" : "2660",
      "oid" : "319048749",
      "districtId" : "1",
      "nameZh" : "春社公園",
      "pgp" : "0",
      "terminal" : "0",
      "latitude" : "24.14074",
      "inDis" : "50",
      "routeId" : "150",
      "seqNo" : "52"
   },
   {
      "GoBack" : "1",
      "longitude" : "120.61137",
      "outDis" : "50",
      "Id" : "2552",
      "oid" : "319048751",
      "districtId" : "1",
      "nameZh" : "保安公園",
      "pgp" : "0",
      "terminal" : "0",
      "latitude" : "24.14705",
      "inDis" : "50",
      "routeId" : "150",
      "seqNo" : "53"
   },
   {
      "GoBack" : "1",
      "longitude" : "120.6116",
      "outDis" : "50",
      "Id" : "0155",
      "oid" : "319060122",
      "districtId" : "1",
      "nameZh" : "嶺東文山六街口",
      "pgp" : "0",
      "terminal" : "0",
      "latitude" : "24.1483",
      "inDis" : "50",
      "routeId" : "150",
      "seqNo" : "54"
   },
   {
      "GoBack" : "2",
      "longitude" : "120.6116",
      "outDis" : "50",
      "Id" : "0155",
      "oid" : "319060122",
      "districtId" : "1",
      "nameZh" : "嶺東文山六街口",
      "pgp" : "0",
      "terminal" : "0",
      "latitude" : "24.1483",
      "inDis" : "50",
      "routeId" : "150",
      "seqNo" : "1"
   },
   {
      "GoBack" : "2",
      "longitude" : "120.61124",
      "outDis" : "50",
      "Id" : "2552",
      "oid" : "319048753",
      "districtId" : "1",
      "nameZh" : "保安公園",
      "pgp" : "0",
      "terminal" : "0",
      "latitude" : "24.14692",
      "inDis" : "50",
      "routeId" : "150",
      "seqNo" : "2"
   },
   {
      "GoBack" : "2",
      "longitude" : "120.60996",
      "outDis" : "50",
      "Id" : "2660",
      "oid" : "319048755",
      "districtId" : "1",
      "nameZh" : "春社公園",
      "pgp" : "0",
      "terminal" : "0",
      "latitude" : "24.14109",
      "inDis" : "50",
      "routeId" : "150",
      "seqNo" : "3"
   },
   {
      "GoBack" : "2",
      "longitude" : "120.61119",
      "outDis" : "50",
      "Id" : "3874",
      "oid" : "319048757",
      "districtId" : "1",
      "nameZh" : "嶺東高中",
      "pgp" : "0",
      "terminal" : "0",
      "latitude" : "24.1385",
      "inDis" : "50",
      "routeId" : "150",
      "seqNo" : "4"
   },
   {
      "GoBack" : "2",
      "longitude" : "120.61287",
      "outDis" : "50",
      "Id" : "4599",
      "oid" : "319048759",
      "districtId" : "1",
      "nameZh" : "春社里(忠勇路)",
      "pgp" : "0",
      "terminal" : "0",
      "latitude" : "24.13912",
      "inDis" : "50",
      "routeId" : "150",
      "seqNo" : "5"
   },
   {
      "GoBack" : "2",
      "longitude" : "120.61318",
      "outDis" : "50",
      "Id" : "0157",
      "oid" : "319048761",
      "districtId" : "1",
      "nameZh" : "七星橋",
      "pgp" : "0",
      "terminal" : "0",
      "latitude" : "24.14074",
      "inDis" : "50",
      "routeId" : "150",
      "seqNo" : "6"
   },
   {
      "GoBack" : "2",
      "longitude" : "120.61372",
      "outDis" : "50",
      "Id" : "0158",
      "oid" : "319048763",
      "districtId" : "1",
      "nameZh" : "下文山",
      "pgp" : "0",
      "terminal" : "0",
      "latitude" : "24.14275",
      "inDis" : "50",
      "routeId" : "150",
      "seqNo" : "7"
   },
   {
      "GoBack" : "2",
      "longitude" : "120.61474",
      "outDis" : "50",
      "Id" : "0159",
      "oid" : "319048765",
      "districtId" : "1",
      "nameZh" : "一善堂",
      "pgp" : "0",
      "terminal" : "0",
      "latitude" : "24.14496",
      "inDis" : "50",
      "routeId" : "150",
      "seqNo" : "8"
   },
   {
      "GoBack" : "2",
      "longitude" : "120.61497",
      "outDis" : "50",
      "Id" : "0160",
      "oid" : "319048767",
      "districtId" : "1",
      "nameZh" : "文山里",
      "pgp" : "0",
      "terminal" : "0",
      "latitude" : "24.14588",
      "inDis" : "50",
      "routeId" : "150",
      "seqNo" : "9"
   },
   {
      "GoBack" : "2",
      "longitude" : "120.6156",
      "outDis" : "50",
      "Id" : "0165",
      "oid" : "319048769",
      "districtId" : "1",
      "nameZh" : "文山國小(忠勇路)",
      "pgp" : "0",
      "terminal" : "0",
      "latitude" : "24.14938",
      "inDis" : "50",
      "routeId" : "150",
      "seqNo" : "10"
   },
   {
      "GoBack" : "2",
      "longitude" : "120.6157",
      "outDis" : "50",
      "Id" : "5489",
      "oid" : "319048771",
      "districtId" : "1",
      "nameZh" : "寶山里土地公",
      "pgp" : "0",
      "terminal" : "0",
      "latitude" : "24.15073",
      "inDis" : "50",
      "routeId" : "150",
      "seqNo" : "11"
   },
   {
      "GoBack" : "2",
      "longitude" : "120.61629",
      "outDis" : "50",
      "Id" : "5488",
      "oid" : "319048773",
      "districtId" : "1",
      "nameZh" : "忠勇寶山東二街口",
      "pgp" : "0",
      "terminal" : "0",
      "latitude" : "24.15275",
      "inDis" : "50",
      "routeId" : "150",
      "seqNo" : "12"
   },
   {
      "GoBack" : "2",
      "longitude" : "120.63305",
      "outDis" : "50",
      "Id" : "0545",
      "oid" : "319729704",
      "districtId" : "1",
      "nameZh" : "公益永春東七路口",
      "pgp" : "0",
      "terminal" : "0",
      "latitude" : "24.15101",
      "inDis" : "50",
      "routeId" : "150",
      "seqNo" : "16"
   },
   {
      "GoBack" : "2",
      "longitude" : "120.63463",
      "outDis" : "50",
      "Id" : "0059",
      "oid" : "319048775",
      "districtId" : "1",
      "nameZh" : "公益黎明路口",
      "pgp" : "0",
      "terminal" : "0",
      "latitude" : "24.15118",
      "inDis" : "50",
      "routeId" : "150",
      "seqNo" : "17"
   },
   {
      "GoBack" : "2",
      "longitude" : "120.63495",
      "outDis" : "50",
      "Id" : "4160",
      "oid" : "319048777",
      "districtId" : "1",
      "nameZh" : "黎明大業路口",
      "pgp" : "0",
      "terminal" : "0",
      "latitude" : "24.15284",
      "inDis" : "50",
      "routeId" : "150",
      "seqNo" : "18"
   },
   {
      "GoBack" : "2",
      "longitude" : "120.63462",
      "outDis" : "50",
      "Id" : "3892",
      "oid" : "319048779",
      "districtId" : "1",
      "nameZh" : "黎明新村(黎明路)",
      "pgp" : "0",
      "terminal" : "0",
      "latitude" : "24.15476",
      "inDis" : "50",
      "routeId" : "150",
      "seqNo" : "19"
   },
   {
      "GoBack" : "2",
      "longitude" : "120.63431",
      "outDis" : "50",
      "Id" : "0056",
      "oid" : "319048781",
      "districtId" : "1",
      "nameZh" : "黎明國小",
      "pgp" : "0",
      "terminal" : "0",
      "latitude" : "24.1571",
      "inDis" : "50",
      "routeId" : "150",
      "seqNo" : "20"
   },
   {
      "GoBack" : "2",
      "longitude" : "120.63385",
      "outDis" : "50",
      "Id" : "5155",
      "oid" : "319048783",
      "districtId" : "1",
      "nameZh" : "黎明市政路口",
      "pgp" : "0",
      "terminal" : "0",
      "latitude" : "24.16096",
      "inDis" : "50",
      "routeId" : "150",
      "seqNo" : "21"
   },
   {
      "GoBack" : "2",
      "longitude" : "120.63949",
      "outDis" : "50",
      "Id" : "0055",
      "oid" : "319048785",
      "districtId" : "1",
      "nameZh" : "第六分局",
      "pgp" : "0",
      "terminal" : "0",
      "latitude" : "24.15953",
      "inDis" : "50",
      "routeId" : "150",
      "seqNo" : "22"
   },
   {
      "GoBack" : "2",
      "longitude" : "120.64144",
      "outDis" : "50",
      "Id" : "5726",
      "oid" : "319048787",
      "districtId" : "1",
      "nameZh" : "臺中國家歌劇院",
      "pgp" : "0",
      "terminal" : "0",
      "latitude" : "24.1625",
      "inDis" : "50",
      "routeId" : "150",
      "seqNo" : "23"
   },
   {
      "GoBack" : "2",
      "longitude" : "120.63962",
      "outDis" : "50",
      "Id" : "0608",
      "oid" : "319048789",
      "districtId" : "1",
      "nameZh" : "老虎城(市政北六路)",
      "pgp" : "0",
      "terminal" : "0",
      "latitude" : "24.16483",
      "inDis" : "50",
      "routeId" : "150",
      "seqNo" : "24"
   },
   {
      "GoBack" : "2",
      "longitude" : "120.63804",
      "outDis" : "50",
      "Id" : "3059",
      "oid" : "319048791",
      "districtId" : "1",
      "nameZh" : "朝馬轉運站(朝富路)",
      "pgp" : "0",
      "terminal" : "0",
      "latitude" : "24.16725",
      "inDis" : "50",
      "routeId" : "150",
      "seqNo" : "25"
   },
   {
      "GoBack" : "2",
      "longitude" : "120.63712",
      "outDis" : "50",
      "Id" : "0054",
      "oid" : "319048793",
      "districtId" : "1",
      "nameZh" : "朝馬(臺灣大道)",
      "pgp" : "0",
      "terminal" : "0",
      "latitude" : "24.17027",
      "inDis" : "50",
      "routeId" : "150",
      "seqNo" : "26"
   },
   {
      "GoBack" : "2",
      "longitude" : "120.62372",
      "outDis" : "50",
      "Id" : "5149",
      "oid" : "319048795",
      "districtId" : "1",
      "nameZh" : "福安里(臺灣大道)",
      "pgp" : "0",
      "terminal" : "0",
      "latitude" : "24.17879",
      "inDis" : "50",
      "routeId" : "150",
      "seqNo" : "28"
   },
   {
      "GoBack" : "2",
      "longitude" : "120.62195",
      "outDis" : "50",
      "Id" : "3060",
      "oid" : "319048797",
      "districtId" : "1",
      "nameZh" : "統聯轉運站",
      "pgp" : "0",
      "terminal" : "0",
      "latitude" : "24.18001",
      "inDis" : "50",
      "routeId" : "150",
      "seqNo" : "29"
   },
   {
      "GoBack" : "2",
      "longitude" : "120.62029",
      "outDis" : "50",
      "Id" : "0008",
      "oid" : "319048799",
      "districtId" : "1",
      "nameZh" : "中港新城",
      "pgp" : "0",
      "terminal" : "0",
      "latitude" : "24.18082",
      "inDis" : "50",
      "routeId" : "150",
      "seqNo" : "30"
   },
   {
      "GoBack" : "2",
      "longitude" : "120.61605",
      "outDis" : "50",
      "Id" : "0430",
      "oid" : "319048801",
      "districtId" : "1",
      "nameZh" : "中港澄清醫院",
      "pgp" : "0",
      "terminal" : "0",
      "latitude" : "24.18294",
      "inDis" : "50",
      "routeId" : "150",
      "seqNo" : "31"
   },
   {
      "GoBack" : "2",
      "longitude" : "120.6129",
      "outDis" : "50",
      "Id" : "0006",
      "oid" : "319048803",
      "districtId" : "1",
      "nameZh" : "臺中捐血中心",
      "pgp" : "0",
      "terminal" : "0",
      "latitude" : "24.18443",
      "inDis" : "50",
      "routeId" : "150",
      "seqNo" : "32"
   },
   {
      "GoBack" : "2",
      "longitude" : "120.61064",
      "outDis" : "50",
      "Id" : "4335",
      "oid" : "319048805",
      "districtId" : "1",
      "nameZh" : "臺灣大道玉門路口",
      "pgp" : "0",
      "terminal" : "0",
      "latitude" : "24.18473",
      "inDis" : "50",
      "routeId" : "150",
      "seqNo" : "33"
   },
   {
      "GoBack" : "2",
      "longitude" : "120.60838",
      "outDis" : "50",
      "Id" : "0004",
      "oid" : "319048807",
      "districtId" : "1",
      "nameZh" : "普濟寺",
      "pgp" : "0",
      "terminal" : "0",
      "latitude" : "24.18431",
      "inDis" : "50",
      "routeId" : "150",
      "seqNo" : "34"
   },
   {
      "GoBack" : "2",
      "longitude" : "120.60653",
      "outDis" : "50",
      "Id" : "2378",
      "oid" : "319048809",
      "districtId" : "1",
      "nameZh" : "東大附中",
      "pgp" : "0",
      "terminal" : "0",
      "latitude" : "24.18385",
      "inDis" : "50",
      "routeId" : "150",
      "seqNo" : "35"
   },
   {
      "GoBack" : "2",
      "longitude" : "120.60491",
      "outDis" : "50",
      "Id" : "5386",
      "oid" : "319048811",
      "districtId" : "1",
      "nameZh" : "臺中榮總(臺灣大道)",
      "pgp" : "0",
      "terminal" : "0",
      "latitude" : "24.18349",
      "inDis" : "50",
      "routeId" : "150",
      "seqNo" : "36"
   },
   {
      "GoBack" : "2",
      "longitude" : "120.59758",
      "outDis" : "50",
      "Id" : "0475",
      "oid" : "319048813",
      "districtId" : "1",
      "nameZh" : "臺中精機",
      "pgp" : "0",
      "terminal" : "0",
      "latitude" : "24.18211",
      "inDis" : "50",
      "routeId" : "150",
      "seqNo" : "37"
   },
   {
      "GoBack" : "2",
      "longitude" : "120.59358",
      "outDis" : "50",
      "Id" : "0240",
      "oid" : "319048815",
      "districtId" : "1",
      "nameZh" : "東海別墅",
      "pgp" : "0",
      "terminal" : "0",
      "latitude" : "24.18267",
      "inDis" : "50",
      "routeId" : "150",
      "seqNo" : "38"
   },
   {
      "GoBack" : "2",
      "longitude" : "120.59128",
      "outDis" : "50",
      "Id" : "4383",
      "oid" : "319048817",
      "districtId" : "1",
      "nameZh" : "臺糖公營學苑",
      "pgp" : "0",
      "terminal" : "0",
      "latitude" : "24.1838",
      "inDis" : "50",
      "routeId" : "150",
      "seqNo" : "39"
   },
   {
      "GoBack" : "2",
      "longitude" : "120.58798",
      "outDis" : "50",
      "Id" : "5304",
      "oid" : "319048819",
      "districtId" : "1",
      "nameZh" : "東海街口",
      "pgp" : "0",
      "terminal" : "0",
      "latitude" : "24.18533",
      "inDis" : "50",
      "routeId" : "150",
      "seqNo" : "40"
   },
   {
      "GoBack" : "2",
      "longitude" : "120.58505",
      "outDis" : "50",
      "Id" : "2325",
      "oid" : "319048821",
      "districtId" : "1",
      "nameZh" : "坪頂",
      "pgp" : "0",
      "terminal" : "0",
      "latitude" : "24.1866",
      "inDis" : "50",
      "routeId" : "150",
      "seqNo" : "41"
   },
   {
      "GoBack" : "2",
      "longitude" : "120.5786",
      "outDis" : "50",
      "Id" : "0395",
      "oid" : "319060123",
      "districtId" : "1",
      "nameZh" : "中興臺灣大道口",
      "pgp" : "0",
      "terminal" : "0",
      "latitude" : "24.1873",
      "inDis" : "50",
      "routeId" : "150",
      "seqNo" : "42"
   },
   {
      "GoBack" : "2",
      "longitude" : "120.57647",
      "outDis" : "50",
      "Id" : "0393",
      "oid" : "319045318",
      "districtId" : "1",
      "nameZh" : "中興向上路口",
      "pgp" : "0",
      "terminal" : "0",
      "latitude" : "24.18536",
      "inDis" : "50",
      "routeId" : "150",
      "seqNo" : "43"
   },
   {
      "GoBack" : "2",
      "longitude" : "120.59899",
      "outDis" : "50",
      "Id" : "0135",
      "oid" : "319048823",
      "districtId" : "1",
      "nameZh" : "臺中航空站",
      "pgp" : "0",
      "terminal" : "0",
      "latitude" : "24.25348",
      "inDis" : "50",
      "routeId" : "150",
      "seqNo" : "53"
   }
]
