[
   {
      "GoBack" : "1",
      "longitude" : "120.57005",
      "outDis" : "50",
      "Id" : "5471",
      "oid" : "314200099",
      "districtId" : "1",
      "nameZh" : "清水火車站",
      "pgp" : "0",
      "terminal" : "0",
      "latitude" : "24.26341",
      "inDis" : "50",
      "routeId" : "178",
      "seqNo" : "1"
   },
   {
      "GoBack" : "1",
      "longitude" : "120.5742",
      "outDis" : "50",
      "Id" : "4119",
      "oid" : "14359",
      "districtId" : "1",
      "nameZh" : "清水高中",
      "pgp" : "0",
      "terminal" : "0",
      "latitude" : "24.2658",
      "inDis" : "50",
      "routeId" : "178",
      "seqNo" : "2"
   },
   {
      "GoBack" : "1",
      "longitude" : "120.57516",
      "outDis" : "50",
      "Id" : "5141",
      "oid" : "14057",
      "districtId" : "1",
      "nameZh" : "華南銀行(清水分行)",
      "pgp" : "0",
      "terminal" : "0",
      "latitude" : "24.2683",
      "inDis" : "50",
      "routeId" : "178",
      "seqNo" : "3"
   },
   {
      "GoBack" : "1",
      "longitude" : "120.57594",
      "outDis" : "50",
      "Id" : "3013",
      "oid" : "10843",
      "districtId" : "1",
      "nameZh" : "清水",
      "pgp" : "0",
      "terminal" : "0",
      "latitude" : "24.2703",
      "inDis" : "50",
      "routeId" : "178",
      "seqNo" : "4"
   },
   {
      "GoBack" : "1",
      "longitude" : "120.57687",
      "outDis" : "50",
      "Id" : "4521",
      "oid" : "305513525",
      "districtId" : "1",
      "nameZh" : "中山董公街口",
      "pgp" : "0",
      "terminal" : "0",
      "latitude" : "24.27284",
      "inDis" : "50",
      "routeId" : "178",
      "seqNo" : "5"
   },
   {
      "GoBack" : "1",
      "longitude" : "120.57725",
      "outDis" : "50",
      "Id" : "4442",
      "oid" : "312352563",
      "districtId" : "1",
      "nameZh" : "中山高美路口",
      "pgp" : "0",
      "terminal" : "0",
      "latitude" : "24.27461",
      "inDis" : "50",
      "routeId" : "178",
      "seqNo" : "6"
   },
   {
      "GoBack" : "1",
      "longitude" : "120.57524",
      "outDis" : "50",
      "Id" : "4863",
      "oid" : "311502867",
      "districtId" : "1",
      "nameZh" : "橋頭",
      "pgp" : "0",
      "terminal" : "0",
      "latitude" : "24.27929",
      "inDis" : "50",
      "routeId" : "178",
      "seqNo" : "7"
   },
   {
      "GoBack" : "1",
      "longitude" : "120.57494",
      "outDis" : "50",
      "Id" : "4847",
      "oid" : "316040246",
      "districtId" : "1",
      "nameZh" : "頂橋頭",
      "pgp" : "0",
      "terminal" : "0",
      "latitude" : "24.28251",
      "inDis" : "50",
      "routeId" : "178",
      "seqNo" : "8"
   },
   {
      "GoBack" : "1",
      "longitude" : "120.57462",
      "outDis" : "50",
      "Id" : "3586",
      "oid" : "14597",
      "districtId" : "1",
      "nameZh" : "廖厝",
      "pgp" : "0",
      "terminal" : "0",
      "latitude" : "24.28457",
      "inDis" : "50",
      "routeId" : "178",
      "seqNo" : "9"
   },
   {
      "GoBack" : "1",
      "longitude" : "120.57372",
      "outDis" : "50",
      "Id" : "1096",
      "oid" : "14598",
      "districtId" : "1",
      "nameZh" : "三塊厝",
      "pgp" : "0",
      "terminal" : "0",
      "latitude" : "24.28633",
      "inDis" : "50",
      "routeId" : "178",
      "seqNo" : "10"
   },
   {
      "GoBack" : "1",
      "longitude" : "120.5722",
      "outDis" : "50",
      "Id" : "5517",
      "oid" : "14584",
      "districtId" : "1",
      "nameZh" : "國姓里(高美路)",
      "pgp" : "0",
      "terminal" : "0",
      "latitude" : "24.28898",
      "inDis" : "50",
      "routeId" : "178",
      "seqNo" : "11"
   },
   {
      "GoBack" : "1",
      "longitude" : "120.5702",
      "outDis" : "50",
      "Id" : "4855",
      "oid" : "14600",
      "districtId" : "1",
      "nameZh" : "裕嘉里",
      "pgp" : "0",
      "terminal" : "0",
      "latitude" : "24.291",
      "inDis" : "50",
      "routeId" : "178",
      "seqNo" : "12"
   },
   {
      "GoBack" : "1",
      "longitude" : "120.56812",
      "outDis" : "50",
      "Id" : "0525",
      "oid" : "319559958",
      "districtId" : "1",
      "nameZh" : "高美路350巷口",
      "pgp" : "0",
      "terminal" : "0",
      "latitude" : "24.29145",
      "inDis" : "50",
      "routeId" : "178",
      "seqNo" : "13"
   },
   {
      "GoBack" : "1",
      "longitude" : "120.56774",
      "outDis" : "50",
      "Id" : "1852",
      "oid" : "14601",
      "districtId" : "1",
      "nameZh" : "四塊厝",
      "pgp" : "0",
      "terminal" : "0",
      "latitude" : "24.29152",
      "inDis" : "50",
      "routeId" : "178",
      "seqNo" : "14"
   },
   {
      "GoBack" : "1",
      "longitude" : "120.56394",
      "outDis" : "50",
      "Id" : "4834",
      "oid" : "14602",
      "districtId" : "1",
      "nameZh" : "高南路口",
      "pgp" : "0",
      "terminal" : "0",
      "latitude" : "24.29427",
      "inDis" : "50",
      "routeId" : "178",
      "seqNo" : "15"
   },
   {
      "GoBack" : "1",
      "longitude" : "120.56441",
      "outDis" : "50",
      "Id" : "5545",
      "oid" : "14603",
      "districtId" : "1",
      "nameZh" : "溪底(高美路)",
      "pgp" : "0",
      "terminal" : "0",
      "latitude" : "24.29914",
      "inDis" : "50",
      "routeId" : "178",
      "seqNo" : "16"
   },
   {
      "GoBack" : "1",
      "longitude" : "120.56391",
      "outDis" : "50",
      "Id" : "4846",
      "oid" : "14604",
      "districtId" : "1",
      "nameZh" : "頂溪底",
      "pgp" : "0",
      "terminal" : "0",
      "latitude" : "24.30123",
      "inDis" : "50",
      "routeId" : "178",
      "seqNo" : "17"
   },
   {
      "GoBack" : "1",
      "longitude" : "120.56322",
      "outDis" : "50",
      "Id" : "4861",
      "oid" : "14605",
      "districtId" : "1",
      "nameZh" : "蔡厝",
      "pgp" : "0",
      "terminal" : "0",
      "latitude" : "24.30371",
      "inDis" : "50",
      "routeId" : "178",
      "seqNo" : "18"
   },
   {
      "GoBack" : "1",
      "longitude" : "120.5635",
      "outDis" : "50",
      "Id" : "3918",
      "oid" : "14606",
      "districtId" : "1",
      "nameZh" : "舊庄",
      "pgp" : "0",
      "terminal" : "0",
      "latitude" : "24.30536",
      "inDis" : "50",
      "routeId" : "178",
      "seqNo" : "19"
   },
   {
      "GoBack" : "1",
      "longitude" : "120.56293",
      "outDis" : "50",
      "Id" : "4836",
      "oid" : "14607",
      "districtId" : "1",
      "nameZh" : "高美社區",
      "pgp" : "0",
      "terminal" : "0",
      "latitude" : "24.3075",
      "inDis" : "50",
      "routeId" : "178",
      "seqNo" : "20"
   },
   {
      "GoBack" : "1",
      "longitude" : "120.56267",
      "outDis" : "50",
      "Id" : "4835",
      "oid" : "14608",
      "districtId" : "1",
      "nameZh" : "高美",
      "pgp" : "0",
      "terminal" : "0",
      "latitude" : "24.3104",
      "inDis" : "50",
      "routeId" : "178",
      "seqNo" : "21"
   },
   {
      "GoBack" : "1",
      "longitude" : "120.55975",
      "outDis" : "50",
      "Id" : "4789",
      "oid" : "14609",
      "districtId" : "1",
      "nameZh" : "五分子",
      "pgp" : "0",
      "terminal" : "0",
      "latitude" : "24.30949",
      "inDis" : "50",
      "routeId" : "178",
      "seqNo" : "22"
   },
   {
      "GoBack" : "1",
      "longitude" : "120.55723",
      "outDis" : "50",
      "Id" : "4831",
      "oid" : "14610",
      "districtId" : "1",
      "nameZh" : "海口村",
      "pgp" : "0",
      "terminal" : "0",
      "latitude" : "24.31086",
      "inDis" : "50",
      "routeId" : "178",
      "seqNo" : "23"
   },
   {
      "GoBack" : "1",
      "longitude" : "120.5555",
      "outDis" : "50",
      "Id" : "0347",
      "oid" : "14611",
      "districtId" : "1",
      "nameZh" : "土地公廟",
      "pgp" : "0",
      "terminal" : "0",
      "latitude" : "24.31103",
      "inDis" : "50",
      "routeId" : "178",
      "seqNo" : "24"
   },
   {
      "GoBack" : "1",
      "longitude" : "120.55226",
      "outDis" : "50",
      "Id" : "4793",
      "oid" : "14612",
      "districtId" : "1",
      "nameZh" : "文興宮",
      "pgp" : "0",
      "terminal" : "0",
      "latitude" : "24.31122",
      "inDis" : "50",
      "routeId" : "178",
      "seqNo" : "25"
   },
   {
      "GoBack" : "1",
      "longitude" : "120.55137",
      "outDis" : "50",
      "Id" : "4728",
      "oid" : "14613",
      "districtId" : "1",
      "nameZh" : "高美濕地",
      "pgp" : "0",
      "terminal" : "0",
      "latitude" : "24.3118",
      "inDis" : "50",
      "routeId" : "178",
      "seqNo" : "26"
   },
   {
      "GoBack" : "1",
      "longitude" : "120.54944",
      "outDis" : "50",
      "Id" : "0322",
      "oid" : "318752341",
      "districtId" : "1",
      "nameZh" : "西安朝天宮",
      "pgp" : "0",
      "terminal" : "0",
      "latitude" : "24.30845",
      "inDis" : "50",
      "routeId" : "178",
      "seqNo" : "27"
   },
   {
      "GoBack" : "1",
      "longitude" : "120.54649",
      "outDis" : "50",
      "Id" : "0326",
      "oid" : "318752342",
      "districtId" : "1",
      "nameZh" : "高美濕地體驗館",
      "pgp" : "0",
      "terminal" : "0",
      "latitude" : "24.30599",
      "inDis" : "50",
      "routeId" : "178",
      "seqNo" : "28"
   },
   {
      "GoBack" : "1",
      "longitude" : "120.54631",
      "outDis" : "50",
      "Id" : "5760",
      "oid" : "318752343",
      "districtId" : "1",
      "nameZh" : "高美濕地遊客中心",
      "pgp" : "0",
      "terminal" : "0",
      "latitude" : "24.29995",
      "inDis" : "50",
      "routeId" : "178",
      "seqNo" : "29"
   },
   {
      "GoBack" : "2",
      "longitude" : "120.54631",
      "outDis" : "50",
      "Id" : "5760",
      "oid" : "318752343",
      "districtId" : "1",
      "nameZh" : "高美濕地遊客中心",
      "pgp" : "0",
      "terminal" : "0",
      "latitude" : "24.29995",
      "inDis" : "50",
      "routeId" : "178",
      "seqNo" : "1"
   },
   {
      "GoBack" : "2",
      "longitude" : "120.54654",
      "outDis" : "50",
      "Id" : "0326",
      "oid" : "318752344",
      "districtId" : "1",
      "nameZh" : "高美濕地體驗館",
      "pgp" : "0",
      "terminal" : "0",
      "latitude" : "24.30601",
      "inDis" : "50",
      "routeId" : "178",
      "seqNo" : "2"
   },
   {
      "GoBack" : "2",
      "longitude" : "120.54955",
      "outDis" : "50",
      "Id" : "0322",
      "oid" : "318752345",
      "districtId" : "1",
      "nameZh" : "西安朝天宮",
      "pgp" : "0",
      "terminal" : "0",
      "latitude" : "24.30875",
      "inDis" : "50",
      "routeId" : "178",
      "seqNo" : "3"
   },
   {
      "GoBack" : "2",
      "longitude" : "120.55137",
      "outDis" : "50",
      "Id" : "4728",
      "oid" : "14570",
      "districtId" : "1",
      "nameZh" : "高美濕地",
      "pgp" : "0",
      "terminal" : "0",
      "latitude" : "24.3118",
      "inDis" : "50",
      "routeId" : "178",
      "seqNo" : "4"
   },
   {
      "GoBack" : "2",
      "longitude" : "120.55226",
      "outDis" : "50",
      "Id" : "4793",
      "oid" : "14571",
      "districtId" : "1",
      "nameZh" : "文興宮",
      "pgp" : "0",
      "terminal" : "0",
      "latitude" : "24.31122",
      "inDis" : "50",
      "routeId" : "178",
      "seqNo" : "5"
   },
   {
      "GoBack" : "2",
      "longitude" : "120.5555",
      "outDis" : "50",
      "Id" : "0347",
      "oid" : "14572",
      "districtId" : "1",
      "nameZh" : "土地公廟",
      "pgp" : "0",
      "terminal" : "0",
      "latitude" : "24.31103",
      "inDis" : "50",
      "routeId" : "178",
      "seqNo" : "6"
   },
   {
      "GoBack" : "2",
      "longitude" : "120.55723",
      "outDis" : "50",
      "Id" : "4831",
      "oid" : "14573",
      "districtId" : "1",
      "nameZh" : "海口村",
      "pgp" : "0",
      "terminal" : "0",
      "latitude" : "24.31086",
      "inDis" : "50",
      "routeId" : "178",
      "seqNo" : "7"
   },
   {
      "GoBack" : "2",
      "longitude" : "120.55975",
      "outDis" : "50",
      "Id" : "4789",
      "oid" : "14574",
      "districtId" : "1",
      "nameZh" : "五分子",
      "pgp" : "0",
      "terminal" : "0",
      "latitude" : "24.30949",
      "inDis" : "50",
      "routeId" : "178",
      "seqNo" : "8"
   },
   {
      "GoBack" : "2",
      "longitude" : "120.56257",
      "outDis" : "50",
      "Id" : "4835",
      "oid" : "14575",
      "districtId" : "1",
      "nameZh" : "高美",
      "pgp" : "0",
      "terminal" : "0",
      "latitude" : "24.31028",
      "inDis" : "50",
      "routeId" : "178",
      "seqNo" : "9"
   },
   {
      "GoBack" : "2",
      "longitude" : "120.56293",
      "outDis" : "50",
      "Id" : "4836",
      "oid" : "14576",
      "districtId" : "1",
      "nameZh" : "高美社區",
      "pgp" : "0",
      "terminal" : "0",
      "latitude" : "24.3075",
      "inDis" : "50",
      "routeId" : "178",
      "seqNo" : "10"
   },
   {
      "GoBack" : "2",
      "longitude" : "120.5635",
      "outDis" : "50",
      "Id" : "3918",
      "oid" : "14577",
      "districtId" : "1",
      "nameZh" : "舊庄",
      "pgp" : "0",
      "terminal" : "0",
      "latitude" : "24.30536",
      "inDis" : "50",
      "routeId" : "178",
      "seqNo" : "11"
   },
   {
      "GoBack" : "2",
      "longitude" : "120.56322",
      "outDis" : "50",
      "Id" : "4861",
      "oid" : "14578",
      "districtId" : "1",
      "nameZh" : "蔡厝",
      "pgp" : "0",
      "terminal" : "0",
      "latitude" : "24.30371",
      "inDis" : "50",
      "routeId" : "178",
      "seqNo" : "12"
   },
   {
      "GoBack" : "2",
      "longitude" : "120.56391",
      "outDis" : "50",
      "Id" : "4846",
      "oid" : "14579",
      "districtId" : "1",
      "nameZh" : "頂溪底",
      "pgp" : "0",
      "terminal" : "0",
      "latitude" : "24.30123",
      "inDis" : "50",
      "routeId" : "178",
      "seqNo" : "13"
   },
   {
      "GoBack" : "2",
      "longitude" : "120.56441",
      "outDis" : "50",
      "Id" : "5545",
      "oid" : "14580",
      "districtId" : "1",
      "nameZh" : "溪底(高美路)",
      "pgp" : "0",
      "terminal" : "0",
      "latitude" : "24.29914",
      "inDis" : "50",
      "routeId" : "178",
      "seqNo" : "14"
   },
   {
      "GoBack" : "2",
      "longitude" : "120.56394",
      "outDis" : "50",
      "Id" : "4834",
      "oid" : "14581",
      "districtId" : "1",
      "nameZh" : "高南路口",
      "pgp" : "0",
      "terminal" : "0",
      "latitude" : "24.29427",
      "inDis" : "50",
      "routeId" : "178",
      "seqNo" : "15"
   },
   {
      "GoBack" : "2",
      "longitude" : "120.56774",
      "outDis" : "50",
      "Id" : "1852",
      "oid" : "14582",
      "districtId" : "1",
      "nameZh" : "四塊厝",
      "pgp" : "0",
      "terminal" : "0",
      "latitude" : "24.29152",
      "inDis" : "50",
      "routeId" : "178",
      "seqNo" : "16"
   },
   {
      "GoBack" : "2",
      "longitude" : "120.56872",
      "outDis" : "50",
      "Id" : "0525",
      "oid" : "319559957",
      "districtId" : "1",
      "nameZh" : "高美路350巷口",
      "pgp" : "0",
      "terminal" : "0",
      "latitude" : "24.29128",
      "inDis" : "50",
      "routeId" : "178",
      "seqNo" : "17"
   },
   {
      "GoBack" : "2",
      "longitude" : "120.5702",
      "outDis" : "50",
      "Id" : "4855",
      "oid" : "14583",
      "districtId" : "1",
      "nameZh" : "裕嘉里",
      "pgp" : "0",
      "terminal" : "0",
      "latitude" : "24.291",
      "inDis" : "50",
      "routeId" : "178",
      "seqNo" : "18"
   },
   {
      "GoBack" : "2",
      "longitude" : "120.5722",
      "outDis" : "50",
      "Id" : "5517",
      "oid" : "14584",
      "districtId" : "1",
      "nameZh" : "國姓里(高美路)",
      "pgp" : "0",
      "terminal" : "0",
      "latitude" : "24.28898",
      "inDis" : "50",
      "routeId" : "178",
      "seqNo" : "19"
   },
   {
      "GoBack" : "2",
      "longitude" : "120.57372",
      "outDis" : "50",
      "Id" : "1096",
      "oid" : "14585",
      "districtId" : "1",
      "nameZh" : "三塊厝",
      "pgp" : "0",
      "terminal" : "0",
      "latitude" : "24.28633",
      "inDis" : "50",
      "routeId" : "178",
      "seqNo" : "20"
   },
   {
      "GoBack" : "2",
      "longitude" : "120.57462",
      "outDis" : "50",
      "Id" : "3586",
      "oid" : "14586",
      "districtId" : "1",
      "nameZh" : "廖厝",
      "pgp" : "0",
      "terminal" : "0",
      "latitude" : "24.28457",
      "inDis" : "50",
      "routeId" : "178",
      "seqNo" : "21"
   },
   {
      "GoBack" : "2",
      "longitude" : "120.57501",
      "outDis" : "50",
      "Id" : "4847",
      "oid" : "311502868",
      "districtId" : "1",
      "nameZh" : "頂橋頭",
      "pgp" : "0",
      "terminal" : "0",
      "latitude" : "24.28255",
      "inDis" : "50",
      "routeId" : "178",
      "seqNo" : "22"
   },
   {
      "GoBack" : "2",
      "longitude" : "120.5751",
      "outDis" : "50",
      "Id" : "4863",
      "oid" : "316040245",
      "districtId" : "1",
      "nameZh" : "橋頭",
      "pgp" : "0",
      "terminal" : "0",
      "latitude" : "24.28043",
      "inDis" : "50",
      "routeId" : "178",
      "seqNo" : "23"
   },
   {
      "GoBack" : "2",
      "longitude" : "120.57725",
      "outDis" : "50",
      "Id" : "4442",
      "oid" : "312352563",
      "districtId" : "1",
      "nameZh" : "中山高美路口",
      "pgp" : "0",
      "terminal" : "0",
      "latitude" : "24.27461",
      "inDis" : "50",
      "routeId" : "178",
      "seqNo" : "24"
   },
   {
      "GoBack" : "2",
      "longitude" : "120.57687",
      "outDis" : "50",
      "Id" : "4521",
      "oid" : "305513525",
      "districtId" : "1",
      "nameZh" : "中山董公街口",
      "pgp" : "0",
      "terminal" : "0",
      "latitude" : "24.27284",
      "inDis" : "50",
      "routeId" : "178",
      "seqNo" : "25"
   },
   {
      "GoBack" : "2",
      "longitude" : "120.57594",
      "outDis" : "50",
      "Id" : "3013",
      "oid" : "10843",
      "districtId" : "1",
      "nameZh" : "清水",
      "pgp" : "0",
      "terminal" : "0",
      "latitude" : "24.2703",
      "inDis" : "50",
      "routeId" : "178",
      "seqNo" : "26"
   },
   {
      "GoBack" : "2",
      "longitude" : "120.57516",
      "outDis" : "50",
      "Id" : "5141",
      "oid" : "14057",
      "districtId" : "1",
      "nameZh" : "華南銀行(清水分行)",
      "pgp" : "0",
      "terminal" : "0",
      "latitude" : "24.2683",
      "inDis" : "50",
      "routeId" : "178",
      "seqNo" : "27"
   },
   {
      "GoBack" : "2",
      "longitude" : "120.5742",
      "outDis" : "50",
      "Id" : "4119",
      "oid" : "14359",
      "districtId" : "1",
      "nameZh" : "清水高中",
      "pgp" : "0",
      "terminal" : "0",
      "latitude" : "24.2658",
      "inDis" : "50",
      "routeId" : "178",
      "seqNo" : "28"
   },
   {
      "GoBack" : "2",
      "longitude" : "120.57005",
      "outDis" : "50",
      "Id" : "5471",
      "oid" : "314200099",
      "districtId" : "1",
      "nameZh" : "清水火車站",
      "pgp" : "0",
      "terminal" : "0",
      "latitude" : "24.26341",
      "inDis" : "50",
      "routeId" : "178",
      "seqNo" : "29"
   }
]
