[
   {
      "GoBack" : "1",
      "longitude" : "120.61693",
      "outDis" : "50",
      "Id" : "2907",
      "oid" : "300245879",
      "districtId" : "1",
      "nameZh" : "高鐵臺中站(18月台)",
      "pgp" : "0",
      "terminal" : "0",
      "latitude" : "24.1114",
      "inDis" : "50",
      "routeId" : "125",
      "seqNo" : "1"
   },
   {
      "GoBack" : "1",
      "longitude" : "120.61759",
      "outDis" : "50",
      "Id" : "2820",
      "oid" : "7793",
      "districtId" : "1",
      "nameZh" : "烏日國中",
      "pgp" : "0",
      "terminal" : "0",
      "latitude" : "24.1064",
      "inDis" : "50",
      "routeId" : "125",
      "seqNo" : "3"
   },
   {
      "GoBack" : "1",
      "longitude" : "120.62193",
      "outDis" : "50",
      "Id" : "2816",
      "oid" : "7792",
      "districtId" : "1",
      "nameZh" : "烏日",
      "pgp" : "0",
      "terminal" : "0",
      "latitude" : "24.1065",
      "inDis" : "50",
      "routeId" : "125",
      "seqNo" : "4"
   },
   {
      "GoBack" : "1",
      "longitude" : "120.62665",
      "outDis" : "50",
      "Id" : "4660",
      "oid" : "7688",
      "districtId" : "1",
      "nameZh" : "中山五光路口",
      "pgp" : "0",
      "terminal" : "0",
      "latitude" : "24.10602",
      "inDis" : "50",
      "routeId" : "125",
      "seqNo" : "5"
   },
   {
      "GoBack" : "1",
      "longitude" : "120.62864",
      "outDis" : "50",
      "Id" : "1454",
      "oid" : "7681",
      "districtId" : "1",
      "nameZh" : "中和紡織",
      "pgp" : "0",
      "terminal" : "0",
      "latitude" : "24.10564",
      "inDis" : "50",
      "routeId" : "125",
      "seqNo" : "6"
   },
   {
      "GoBack" : "1",
      "longitude" : "120.63294",
      "outDis" : "50",
      "Id" : "2821",
      "oid" : "7794",
      "districtId" : "1",
      "nameZh" : "烏日橋",
      "pgp" : "0",
      "terminal" : "0",
      "latitude" : "24.10581",
      "inDis" : "50",
      "routeId" : "125",
      "seqNo" : "7"
   },
   {
      "GoBack" : "1",
      "longitude" : "120.63696",
      "outDis" : "50",
      "Id" : "2365",
      "oid" : "7760",
      "districtId" : "1",
      "nameZh" : "明道中學",
      "pgp" : "0",
      "terminal" : "0",
      "latitude" : "24.10749",
      "inDis" : "50",
      "routeId" : "125",
      "seqNo" : "8"
   },
   {
      "GoBack" : "1",
      "longitude" : "120.63886",
      "outDis" : "50",
      "Id" : "2366",
      "oid" : "7761",
      "districtId" : "1",
      "nameZh" : "明道花園城",
      "pgp" : "0",
      "terminal" : "0",
      "latitude" : "24.10807",
      "inDis" : "50",
      "routeId" : "125",
      "seqNo" : "9"
   },
   {
      "GoBack" : "1",
      "longitude" : "120.64182",
      "outDis" : "50",
      "Id" : "0994",
      "oid" : "7648",
      "districtId" : "1",
      "nameZh" : "九張犁",
      "pgp" : "0",
      "terminal" : "0",
      "latitude" : "24.10901",
      "inDis" : "50",
      "routeId" : "125",
      "seqNo" : "10"
   },
   {
      "GoBack" : "1",
      "longitude" : "120.64588",
      "outDis" : "50",
      "Id" : "3790",
      "oid" : "7871",
      "districtId" : "1",
      "nameZh" : "樹仔腳",
      "pgp" : "0",
      "terminal" : "0",
      "latitude" : "24.11023",
      "inDis" : "50",
      "routeId" : "125",
      "seqNo" : "11"
   },
   {
      "GoBack" : "1",
      "longitude" : "120.64744",
      "outDis" : "50",
      "Id" : "5195",
      "oid" : "314612351",
      "districtId" : "1",
      "nameZh" : "復興環中路口",
      "pgp" : "0",
      "terminal" : "0",
      "latitude" : "24.11089",
      "inDis" : "50",
      "routeId" : "125",
      "seqNo" : "12"
   },
   {
      "GoBack" : "1",
      "longitude" : "120.6512",
      "outDis" : "50",
      "Id" : "3330",
      "oid" : "7846",
      "districtId" : "1",
      "nameZh" : "勤工派出所",
      "pgp" : "0",
      "terminal" : "0",
      "latitude" : "24.11225",
      "inDis" : "50",
      "routeId" : "125",
      "seqNo" : "13"
   },
   {
      "GoBack" : "1",
      "longitude" : "120.65422",
      "outDis" : "50",
      "Id" : "4536",
      "oid" : "7670",
      "districtId" : "1",
      "nameZh" : "復興大慶街口",
      "pgp" : "0",
      "terminal" : "0",
      "latitude" : "24.11444",
      "inDis" : "50",
      "routeId" : "125",
      "seqNo" : "14"
   },
   {
      "GoBack" : "1",
      "longitude" : "120.65818",
      "outDis" : "50",
      "Id" : "4538",
      "oid" : "7715",
      "districtId" : "1",
      "nameZh" : "臺中高工(復興路)",
      "pgp" : "0",
      "terminal" : "0",
      "latitude" : "24.11751",
      "inDis" : "50",
      "routeId" : "125",
      "seqNo" : "15"
   },
   {
      "GoBack" : "1",
      "longitude" : "120.65942",
      "outDis" : "50",
      "Id" : "0129",
      "oid" : "7755",
      "districtId" : "1",
      "nameZh" : "宜寧中學",
      "pgp" : "0",
      "terminal" : "0",
      "latitude" : "24.11898",
      "inDis" : "50",
      "routeId" : "125",
      "seqNo" : "16"
   },
   {
      "GoBack" : "1",
      "longitude" : "120.66133",
      "outDis" : "50",
      "Id" : "0128",
      "oid" : "7754",
      "districtId" : "1",
      "nameZh" : "和平國小",
      "pgp" : "0",
      "terminal" : "0",
      "latitude" : "24.12141",
      "inDis" : "50",
      "routeId" : "125",
      "seqNo" : "17"
   },
   {
      "GoBack" : "1",
      "longitude" : "120.66303",
      "outDis" : "50",
      "Id" : "3395",
      "oid" : "7850",
      "districtId" : "1",
      "nameZh" : "復興新和街口",
      "pgp" : "0",
      "terminal" : "0",
      "latitude" : "24.12392",
      "inDis" : "50",
      "routeId" : "125",
      "seqNo" : "18"
   },
   {
      "GoBack" : "1",
      "longitude" : "120.66576",
      "outDis" : "50",
      "Id" : "0543",
      "oid" : "7720",
      "districtId" : "1",
      "nameZh" : "四育國中",
      "pgp" : "0",
      "terminal" : "0",
      "latitude" : "24.12702",
      "inDis" : "50",
      "routeId" : "125",
      "seqNo" : "19"
   },
   {
      "GoBack" : "1",
      "longitude" : "120.66837",
      "outDis" : "50",
      "Id" : "5478",
      "oid" : "319311008",
      "districtId" : "1",
      "nameZh" : "高等法院臺中分院",
      "pgp" : "0",
      "terminal" : "0",
      "latitude" : "24.12838",
      "inDis" : "50",
      "routeId" : "125",
      "seqNo" : "20"
   },
   {
      "GoBack" : "1",
      "longitude" : "120.67196",
      "outDis" : "50",
      "Id" : "5393",
      "oid" : "312954998",
      "districtId" : "1",
      "nameZh" : "公共資訊圖書館(復興路)",
      "pgp" : "0",
      "terminal" : "0",
      "latitude" : "24.12985",
      "inDis" : "50",
      "routeId" : "125",
      "seqNo" : "21"
   },
   {
      "GoBack" : "1",
      "longitude" : "120.67469",
      "outDis" : "50",
      "Id" : "0178",
      "oid" : "7817",
      "districtId" : "1",
      "nameZh" : "第三分局",
      "pgp" : "0",
      "terminal" : "0",
      "latitude" : "24.13108",
      "inDis" : "50",
      "routeId" : "125",
      "seqNo" : "22"
   },
   {
      "GoBack" : "1",
      "longitude" : "120.6764",
      "outDis" : "50",
      "Id" : "4604",
      "oid" : "7737",
      "districtId" : "1",
      "nameZh" : "復興有恆街口",
      "pgp" : "0",
      "terminal" : "0",
      "latitude" : "24.13182",
      "inDis" : "50",
      "routeId" : "125",
      "seqNo" : "23"
   },
   {
      "GoBack" : "1",
      "longitude" : "120.67877",
      "outDis" : "50",
      "Id" : "0180",
      "oid" : "7766",
      "districtId" : "1",
      "nameZh" : "林祖厝",
      "pgp" : "0",
      "terminal" : "0",
      "latitude" : "24.1328",
      "inDis" : "50",
      "routeId" : "125",
      "seqNo" : "24"
   },
   {
      "GoBack" : "1",
      "longitude" : "120.67994",
      "outDis" : "50",
      "Id" : "1659",
      "oid" : "7779",
      "districtId" : "1",
      "nameZh" : "文化創意園區",
      "pgp" : "0",
      "terminal" : "0",
      "latitude" : "24.13317",
      "inDis" : "50",
      "routeId" : "125",
      "seqNo" : "25"
   },
   {
      "GoBack" : "1",
      "longitude" : "120.68241",
      "outDis" : "50",
      "Id" : "0518",
      "oid" : "7714",
      "districtId" : "1",
      "nameZh" : "臺中酒廠(復興路)",
      "pgp" : "0",
      "terminal" : "0",
      "latitude" : "24.13421",
      "inDis" : "50",
      "routeId" : "125",
      "seqNo" : "26"
   },
   {
      "GoBack" : "1",
      "longitude" : "120.68456",
      "outDis" : "50",
      "Id" : "1824",
      "oid" : "310776877",
      "districtId" : "1",
      "nameZh" : "臺中火車站",
      "pgp" : "0",
      "terminal" : "0",
      "latitude" : "24.13798",
      "inDis" : "50",
      "routeId" : "125",
      "seqNo" : "27"
   },
   {
      "GoBack" : "1",
      "longitude" : "120.68333",
      "outDis" : "50",
      "Id" : "4401",
      "oid" : "7675",
      "districtId" : "1",
      "nameZh" : "彰化銀行(臺灣大道)",
      "pgp" : "0",
      "terminal" : "0",
      "latitude" : "24.13938",
      "inDis" : "50",
      "routeId" : "125",
      "seqNo" : "28"
   },
   {
      "GoBack" : "1",
      "longitude" : "120.68038",
      "outDis" : "50",
      "Id" : "4395",
      "oid" : "7816",
      "districtId" : "1",
      "nameZh" : "第二市場(臺灣大道)",
      "pgp" : "0",
      "terminal" : "0",
      "latitude" : "24.14161",
      "inDis" : "50",
      "routeId" : "125",
      "seqNo" : "29"
   },
   {
      "GoBack" : "1",
      "longitude" : "120.67694",
      "outDis" : "50",
      "Id" : "4375",
      "oid" : "7686",
      "districtId" : "1",
      "nameZh" : "臺灣大道中華路口",
      "pgp" : "0",
      "terminal" : "0",
      "latitude" : "24.14477",
      "inDis" : "50",
      "routeId" : "125",
      "seqNo" : "31"
   },
   {
      "GoBack" : "1",
      "longitude" : "120.67529",
      "outDis" : "50",
      "Id" : "5092",
      "oid" : "7680",
      "districtId" : "1",
      "nameZh" : "臺灣大道原子街口",
      "pgp" : "0",
      "terminal" : "0",
      "latitude" : "24.14614",
      "inDis" : "50",
      "routeId" : "125",
      "seqNo" : "32"
   },
   {
      "GoBack" : "1",
      "longitude" : "120.67218",
      "outDis" : "50",
      "Id" : "0723",
      "oid" : "7786",
      "districtId" : "1",
      "nameZh" : "茄苳腳",
      "pgp" : "0",
      "terminal" : "0",
      "latitude" : "24.149",
      "inDis" : "50",
      "routeId" : "125",
      "seqNo" : "34"
   },
   {
      "GoBack" : "1",
      "longitude" : "120.6705",
      "outDis" : "50",
      "Id" : "5103",
      "oid" : "7684",
      "districtId" : "1",
      "nameZh" : "民權臺灣大道口",
      "pgp" : "0",
      "terminal" : "0",
      "latitude" : "24.15167",
      "inDis" : "50",
      "routeId" : "125",
      "seqNo" : "35"
   },
   {
      "GoBack" : "1",
      "longitude" : "120.67034",
      "outDis" : "50",
      "Id" : "0263",
      "oid" : "7788",
      "districtId" : "1",
      "nameZh" : "英才公園",
      "pgp" : "0",
      "terminal" : "0",
      "latitude" : "24.15371",
      "inDis" : "50",
      "routeId" : "125",
      "seqNo" : "36"
   },
   {
      "GoBack" : "1",
      "longitude" : "120.66926",
      "outDis" : "50",
      "Id" : "0264",
      "oid" : "7808",
      "districtId" : "1",
      "nameZh" : "淡溝里",
      "pgp" : "0",
      "terminal" : "0",
      "latitude" : "24.1551",
      "inDis" : "50",
      "routeId" : "125",
      "seqNo" : "37"
   },
   {
      "GoBack" : "1",
      "longitude" : "120.66716",
      "outDis" : "50",
      "Id" : "4318",
      "oid" : "7784",
      "districtId" : "1",
      "nameZh" : "植物園(西屯路)",
      "pgp" : "0",
      "terminal" : "0",
      "latitude" : "24.15807",
      "inDis" : "50",
      "routeId" : "125",
      "seqNo" : "38"
   },
   {
      "GoBack" : "1",
      "longitude" : "120.66609",
      "outDis" : "50",
      "Id" : "4574",
      "oid" : "7801",
      "districtId" : "1",
      "nameZh" : "西屯健行路口",
      "pgp" : "0",
      "terminal" : "0",
      "latitude" : "24.15952",
      "inDis" : "50",
      "routeId" : "125",
      "seqNo" : "39"
   },
   {
      "GoBack" : "1",
      "longitude" : "120.66486",
      "outDis" : "50",
      "Id" : "0265",
      "oid" : "7758",
      "districtId" : "1",
      "nameZh" : "西屯忠明路口",
      "pgp" : "0",
      "terminal" : "0",
      "latitude" : "24.16122",
      "inDis" : "50",
      "routeId" : "125",
      "seqNo" : "40"
   },
   {
      "GoBack" : "1",
      "longitude" : "120.66342",
      "outDis" : "50",
      "Id" : "4341",
      "oid" : "7724",
      "districtId" : "1",
      "nameZh" : "西屯太原路口",
      "pgp" : "0",
      "terminal" : "0",
      "latitude" : "24.16318",
      "inDis" : "50",
      "routeId" : "125",
      "seqNo" : "41"
   },
   {
      "GoBack" : "1",
      "longitude" : "120.66119",
      "outDis" : "50",
      "Id" : "4570",
      "oid" : "7825",
      "districtId" : "1",
      "nameZh" : "頂何厝(西屯路)",
      "pgp" : "0",
      "terminal" : "0",
      "latitude" : "24.16403",
      "inDis" : "50",
      "routeId" : "125",
      "seqNo" : "42"
   },
   {
      "GoBack" : "1",
      "longitude" : "120.6601",
      "outDis" : "50",
      "Id" : "0836",
      "oid" : "7842",
      "districtId" : "1",
      "nameZh" : "華港新城",
      "pgp" : "0",
      "terminal" : "0",
      "latitude" : "24.16456",
      "inDis" : "50",
      "routeId" : "125",
      "seqNo" : "43"
   },
   {
      "GoBack" : "1",
      "longitude" : "120.65799",
      "outDis" : "50",
      "Id" : "4567",
      "oid" : "7748",
      "districtId" : "1",
      "nameZh" : "何厝(西屯路)",
      "pgp" : "0",
      "terminal" : "0",
      "latitude" : "24.16507",
      "inDis" : "50",
      "routeId" : "125",
      "seqNo" : "44"
   },
   {
      "GoBack" : "1",
      "longitude" : "120.65647",
      "outDis" : "50",
      "Id" : "0268",
      "oid" : "7848",
      "districtId" : "1",
      "nameZh" : "勤美社區",
      "pgp" : "0",
      "terminal" : "0",
      "latitude" : "24.16553",
      "inDis" : "50",
      "routeId" : "125",
      "seqNo" : "45"
   },
   {
      "GoBack" : "1",
      "longitude" : "120.65407",
      "outDis" : "50",
      "Id" : "0269",
      "oid" : "7702",
      "districtId" : "1",
      "nameZh" : "西屯文心路口",
      "pgp" : "0",
      "terminal" : "0",
      "latitude" : "24.16619",
      "inDis" : "50",
      "routeId" : "125",
      "seqNo" : "46"
   },
   {
      "GoBack" : "1",
      "longitude" : "120.65211",
      "outDis" : "50",
      "Id" : "4621",
      "oid" : "7782",
      "districtId" : "1",
      "nameZh" : "西屯洛陽路口",
      "pgp" : "0",
      "terminal" : "0",
      "latitude" : "24.16669",
      "inDis" : "50",
      "routeId" : "125",
      "seqNo" : "47"
   },
   {
      "GoBack" : "1",
      "longitude" : "120.64988",
      "outDis" : "50",
      "Id" : "5749",
      "oid" : "7717",
      "districtId" : "1",
      "nameZh" : "惠民公園",
      "pgp" : "0",
      "terminal" : "0",
      "latitude" : "24.16765",
      "inDis" : "50",
      "routeId" : "125",
      "seqNo" : "48"
   },
   {
      "GoBack" : "1",
      "longitude" : "120.6482",
      "outDis" : "50",
      "Id" : "0272",
      "oid" : "7835",
      "districtId" : "1",
      "nameZh" : "西屯惠中路口",
      "pgp" : "0",
      "terminal" : "0",
      "latitude" : "24.16945",
      "inDis" : "50",
      "routeId" : "125",
      "seqNo" : "49"
   },
   {
      "GoBack" : "1",
      "longitude" : "120.64737",
      "outDis" : "50",
      "Id" : "0273",
      "oid" : "7657",
      "districtId" : "1",
      "nameZh" : "上石里",
      "pgp" : "0",
      "terminal" : "0",
      "latitude" : "24.17042",
      "inDis" : "50",
      "routeId" : "125",
      "seqNo" : "50"
   },
   {
      "GoBack" : "1",
      "longitude" : "120.64646",
      "outDis" : "50",
      "Id" : "0274",
      "oid" : "7823",
      "districtId" : "1",
      "nameZh" : "西屯上石路口",
      "pgp" : "0",
      "terminal" : "0",
      "latitude" : "24.17143",
      "inDis" : "50",
      "routeId" : "125",
      "seqNo" : "51"
   },
   {
      "GoBack" : "1",
      "longitude" : "120.6451",
      "outDis" : "50",
      "Id" : "4600",
      "oid" : "7767",
      "districtId" : "1",
      "nameZh" : "西屯河南路口",
      "pgp" : "0",
      "terminal" : "0",
      "latitude" : "24.17285",
      "inDis" : "50",
      "routeId" : "125",
      "seqNo" : "52"
   },
   {
      "GoBack" : "1",
      "longitude" : "120.64446",
      "outDis" : "50",
      "Id" : "3164",
      "oid" : "7830",
      "districtId" : "1",
      "nameZh" : "頂楠仔",
      "pgp" : "0",
      "terminal" : "0",
      "latitude" : "24.17394",
      "inDis" : "50",
      "routeId" : "125",
      "seqNo" : "53"
   },
   {
      "GoBack" : "1",
      "longitude" : "120.64377",
      "outDis" : "50",
      "Id" : "1202",
      "oid" : "7654",
      "districtId" : "1",
      "nameZh" : "下楠仔",
      "pgp" : "0",
      "terminal" : "0",
      "latitude" : "24.17621",
      "inDis" : "50",
      "routeId" : "125",
      "seqNo" : "54"
   },
   {
      "GoBack" : "1",
      "longitude" : "120.64289",
      "outDis" : "50",
      "Id" : "0361",
      "oid" : "7664",
      "districtId" : "1",
      "nameZh" : "大漁池",
      "pgp" : "0",
      "terminal" : "0",
      "latitude" : "24.17713",
      "inDis" : "50",
      "routeId" : "125",
      "seqNo" : "55"
   },
   {
      "GoBack" : "1",
      "longitude" : "120.64506",
      "outDis" : "50",
      "Id" : "4586",
      "oid" : "F5FD13B420234C028D282560F53F29F3",
      "districtId" : "1",
      "nameZh" : "逢甲大學(福星路)",
      "pgp" : "0",
      "terminal" : "0",
      "latitude" : "24.17941",
      "inDis" : "50",
      "routeId" : "125",
      "seqNo" : "56"
   },
   {
      "GoBack" : "1",
      "longitude" : "120.64504",
      "outDis" : "50",
      "Id" : "4334",
      "oid" : "7743",
      "districtId" : "1",
      "nameZh" : "福星西安街口",
      "pgp" : "0",
      "terminal" : "0",
      "latitude" : "24.18132",
      "inDis" : "50",
      "routeId" : "125",
      "seqNo" : "57"
   },
   {
      "GoBack" : "1",
      "longitude" : "120.64472",
      "outDis" : "50",
      "Id" : "5658",
      "oid" : "313222695",
      "districtId" : "1",
      "nameZh" : "漢翔公司(星享道)",
      "pgp" : "0",
      "terminal" : "0",
      "latitude" : "24.18421",
      "inDis" : "50",
      "routeId" : "125",
      "seqNo" : "58"
   },
   {
      "GoBack" : "1",
      "longitude" : "120.64436",
      "outDis" : "50",
      "Id" : "4327",
      "oid" : "7858",
      "districtId" : "1",
      "nameZh" : "僑光科技大學",
      "pgp" : "0",
      "terminal" : "0",
      "latitude" : "24.18636",
      "inDis" : "50",
      "routeId" : "125",
      "seqNo" : "59"
   },
   {
      "GoBack" : "1",
      "longitude" : "120.6403",
      "outDis" : "50",
      "Id" : "2192",
      "oid" : "C64B649F9E384121A6AED87F781EDEC7",
      "districtId" : "1",
      "nameZh" : "西苑高中",
      "pgp" : "0",
      "terminal" : "0",
      "latitude" : "24.18621",
      "inDis" : "50",
      "routeId" : "125",
      "seqNo" : "60"
   },
   {
      "GoBack" : "1",
      "longitude" : "120.64166",
      "outDis" : "50",
      "Id" : "5409",
      "oid" : "313222698",
      "districtId" : "1",
      "nameZh" : "文修停車場",
      "pgp" : "0",
      "terminal" : "0",
      "latitude" : "24.18505",
      "inDis" : "50",
      "routeId" : "125",
      "seqNo" : "61"
   },
   {
      "GoBack" : "2",
      "longitude" : "120.64166",
      "outDis" : "50",
      "Id" : "5409",
      "oid" : "313222698",
      "districtId" : "1",
      "nameZh" : "文修停車場",
      "pgp" : "0",
      "terminal" : "0",
      "latitude" : "24.18505",
      "inDis" : "50",
      "routeId" : "125",
      "seqNo" : "1"
   },
   {
      "GoBack" : "2",
      "longitude" : "120.6403",
      "outDis" : "50",
      "Id" : "2192",
      "oid" : "C64B649F9E384121A6AED87F781EDEC7",
      "districtId" : "1",
      "nameZh" : "西苑高中",
      "pgp" : "0",
      "terminal" : "0",
      "latitude" : "24.18621",
      "inDis" : "50",
      "routeId" : "125",
      "seqNo" : "2"
   },
   {
      "GoBack" : "2",
      "longitude" : "120.64451",
      "outDis" : "50",
      "Id" : "4327",
      "oid" : "12817",
      "districtId" : "1",
      "nameZh" : "僑光科技大學",
      "pgp" : "0",
      "terminal" : "0",
      "latitude" : "24.18662",
      "inDis" : "50",
      "routeId" : "125",
      "seqNo" : "3"
   },
   {
      "GoBack" : "2",
      "longitude" : "120.64472",
      "outDis" : "50",
      "Id" : "5658",
      "oid" : "313222695",
      "districtId" : "1",
      "nameZh" : "漢翔公司(星享道)",
      "pgp" : "0",
      "terminal" : "0",
      "latitude" : "24.18421",
      "inDis" : "50",
      "routeId" : "125",
      "seqNo" : "4"
   },
   {
      "GoBack" : "2",
      "longitude" : "120.64525",
      "outDis" : "50",
      "Id" : "4334",
      "oid" : "7744",
      "districtId" : "1",
      "nameZh" : "福星西安街口",
      "pgp" : "0",
      "terminal" : "0",
      "latitude" : "24.18206",
      "inDis" : "50",
      "routeId" : "125",
      "seqNo" : "5"
   },
   {
      "GoBack" : "2",
      "longitude" : "120.64508",
      "outDis" : "50",
      "Id" : "4586",
      "oid" : "DBBD4456885E4E32B7A849F7709F81B9",
      "districtId" : "1",
      "nameZh" : "逢甲大學(福星路)",
      "pgp" : "0",
      "terminal" : "0",
      "latitude" : "24.17938",
      "inDis" : "50",
      "routeId" : "125",
      "seqNo" : "6"
   },
   {
      "GoBack" : "2",
      "longitude" : "120.64247",
      "outDis" : "50",
      "Id" : "0361",
      "oid" : "7665",
      "districtId" : "1",
      "nameZh" : "大漁池",
      "pgp" : "0",
      "terminal" : "0",
      "latitude" : "24.17754",
      "inDis" : "50",
      "routeId" : "125",
      "seqNo" : "7"
   },
   {
      "GoBack" : "2",
      "longitude" : "120.64322",
      "outDis" : "50",
      "Id" : "1202",
      "oid" : "7655",
      "districtId" : "1",
      "nameZh" : "下楠仔",
      "pgp" : "0",
      "terminal" : "0",
      "latitude" : "24.17676",
      "inDis" : "50",
      "routeId" : "125",
      "seqNo" : "8"
   },
   {
      "GoBack" : "2",
      "longitude" : "120.64439",
      "outDis" : "50",
      "Id" : "3164",
      "oid" : "7831",
      "districtId" : "1",
      "nameZh" : "頂楠仔",
      "pgp" : "0",
      "terminal" : "0",
      "latitude" : "24.17448",
      "inDis" : "50",
      "routeId" : "125",
      "seqNo" : "9"
   },
   {
      "GoBack" : "2",
      "longitude" : "120.64467",
      "outDis" : "50",
      "Id" : "4600",
      "oid" : "7768",
      "districtId" : "1",
      "nameZh" : "西屯河南路口",
      "pgp" : "0",
      "terminal" : "0",
      "latitude" : "24.17345",
      "inDis" : "50",
      "routeId" : "125",
      "seqNo" : "10"
   },
   {
      "GoBack" : "2",
      "longitude" : "120.6459",
      "outDis" : "50",
      "Id" : "0274",
      "oid" : "7824",
      "districtId" : "1",
      "nameZh" : "西屯上石路口",
      "pgp" : "0",
      "terminal" : "0",
      "latitude" : "24.172",
      "inDis" : "50",
      "routeId" : "125",
      "seqNo" : "11"
   },
   {
      "GoBack" : "2",
      "longitude" : "120.64685",
      "outDis" : "50",
      "Id" : "0273",
      "oid" : "7658",
      "districtId" : "1",
      "nameZh" : "上石里",
      "pgp" : "0",
      "terminal" : "0",
      "latitude" : "24.17097",
      "inDis" : "50",
      "routeId" : "125",
      "seqNo" : "12"
   },
   {
      "GoBack" : "2",
      "longitude" : "120.6486",
      "outDis" : "50",
      "Id" : "0272",
      "oid" : "7834",
      "districtId" : "1",
      "nameZh" : "西屯惠中路口",
      "pgp" : "0",
      "terminal" : "0",
      "latitude" : "24.169",
      "inDis" : "50",
      "routeId" : "125",
      "seqNo" : "13"
   },
   {
      "GoBack" : "2",
      "longitude" : "120.64931",
      "outDis" : "50",
      "Id" : "5749",
      "oid" : "7718",
      "districtId" : "1",
      "nameZh" : "惠民公園",
      "pgp" : "0",
      "terminal" : "0",
      "latitude" : "24.16824",
      "inDis" : "50",
      "routeId" : "125",
      "seqNo" : "14"
   },
   {
      "GoBack" : "2",
      "longitude" : "120.65131",
      "outDis" : "50",
      "Id" : "4621",
      "oid" : "7783",
      "districtId" : "1",
      "nameZh" : "西屯洛陽路口",
      "pgp" : "0",
      "terminal" : "0",
      "latitude" : "24.16682",
      "inDis" : "50",
      "routeId" : "125",
      "seqNo" : "15"
   },
   {
      "GoBack" : "2",
      "longitude" : "120.65386",
      "outDis" : "50",
      "Id" : "0269",
      "oid" : "7701",
      "districtId" : "1",
      "nameZh" : "西屯文心路口",
      "pgp" : "0",
      "terminal" : "0",
      "latitude" : "24.16616",
      "inDis" : "50",
      "routeId" : "125",
      "seqNo" : "16"
   },
   {
      "GoBack" : "2",
      "longitude" : "120.65615",
      "outDis" : "50",
      "Id" : "0268",
      "oid" : "7847",
      "districtId" : "1",
      "nameZh" : "勤美社區",
      "pgp" : "0",
      "terminal" : "0",
      "latitude" : "24.16544",
      "inDis" : "50",
      "routeId" : "125",
      "seqNo" : "17"
   },
   {
      "GoBack" : "2",
      "longitude" : "120.65748",
      "outDis" : "50",
      "Id" : "4567",
      "oid" : "7747",
      "districtId" : "1",
      "nameZh" : "何厝(西屯路)",
      "pgp" : "0",
      "terminal" : "0",
      "latitude" : "24.16507",
      "inDis" : "50",
      "routeId" : "125",
      "seqNo" : "18"
   },
   {
      "GoBack" : "2",
      "longitude" : "120.65887",
      "outDis" : "50",
      "Id" : "0836",
      "oid" : "7843",
      "districtId" : "1",
      "nameZh" : "華港新城",
      "pgp" : "0",
      "terminal" : "0",
      "latitude" : "24.16465",
      "inDis" : "50",
      "routeId" : "125",
      "seqNo" : "19"
   },
   {
      "GoBack" : "2",
      "longitude" : "120.66024",
      "outDis" : "50",
      "Id" : "4570",
      "oid" : "7826",
      "districtId" : "1",
      "nameZh" : "頂何厝(西屯路)",
      "pgp" : "0",
      "terminal" : "0",
      "latitude" : "24.16427",
      "inDis" : "50",
      "routeId" : "125",
      "seqNo" : "20"
   },
   {
      "GoBack" : "2",
      "longitude" : "120.66255",
      "outDis" : "50",
      "Id" : "4341",
      "oid" : "7725",
      "districtId" : "1",
      "nameZh" : "西屯太原路口",
      "pgp" : "0",
      "terminal" : "0",
      "latitude" : "24.16357",
      "inDis" : "50",
      "routeId" : "125",
      "seqNo" : "21"
   },
   {
      "GoBack" : "2",
      "longitude" : "120.6641",
      "outDis" : "50",
      "Id" : "0265",
      "oid" : "7759",
      "districtId" : "1",
      "nameZh" : "西屯忠明路口",
      "pgp" : "0",
      "terminal" : "0",
      "latitude" : "24.16222",
      "inDis" : "50",
      "routeId" : "125",
      "seqNo" : "22"
   },
   {
      "GoBack" : "2",
      "longitude" : "120.66579",
      "outDis" : "50",
      "Id" : "4574",
      "oid" : "7802",
      "districtId" : "1",
      "nameZh" : "西屯健行路口",
      "pgp" : "0",
      "terminal" : "0",
      "latitude" : "24.15987",
      "inDis" : "50",
      "routeId" : "125",
      "seqNo" : "23"
   },
   {
      "GoBack" : "2",
      "longitude" : "120.66671",
      "outDis" : "50",
      "Id" : "4318",
      "oid" : "7785",
      "districtId" : "1",
      "nameZh" : "植物園(西屯路)",
      "pgp" : "0",
      "terminal" : "0",
      "latitude" : "24.15855",
      "inDis" : "50",
      "routeId" : "125",
      "seqNo" : "24"
   },
   {
      "GoBack" : "2",
      "longitude" : "120.66913",
      "outDis" : "50",
      "Id" : "0264",
      "oid" : "7809",
      "districtId" : "1",
      "nameZh" : "淡溝里",
      "pgp" : "0",
      "terminal" : "0",
      "latitude" : "24.15532",
      "inDis" : "50",
      "routeId" : "125",
      "seqNo" : "25"
   },
   {
      "GoBack" : "2",
      "longitude" : "120.66997",
      "outDis" : "50",
      "Id" : "0263",
      "oid" : "7789",
      "districtId" : "1",
      "nameZh" : "英才公園",
      "pgp" : "0",
      "terminal" : "0",
      "latitude" : "24.1542",
      "inDis" : "50",
      "routeId" : "125",
      "seqNo" : "26"
   },
   {
      "GoBack" : "2",
      "longitude" : "120.67067",
      "outDis" : "50",
      "Id" : "5103",
      "oid" : "7685",
      "districtId" : "1",
      "nameZh" : "民權臺灣大道口",
      "pgp" : "0",
      "terminal" : "0",
      "latitude" : "24.15274",
      "inDis" : "50",
      "routeId" : "125",
      "seqNo" : "27"
   },
   {
      "GoBack" : "2",
      "longitude" : "120.67132",
      "outDis" : "50",
      "Id" : "0723",
      "oid" : "7787",
      "districtId" : "1",
      "nameZh" : "茄苳腳",
      "pgp" : "0",
      "terminal" : "0",
      "latitude" : "24.14945",
      "inDis" : "50",
      "routeId" : "125",
      "seqNo" : "28"
   },
   {
      "GoBack" : "2",
      "longitude" : "120.67269",
      "outDis" : "50",
      "Id" : "5628",
      "oid" : "317223824",
      "districtId" : "1",
      "nameZh" : "五權臺灣大道口",
      "pgp" : "0",
      "terminal" : "0",
      "latitude" : "24.1469",
      "inDis" : "50",
      "routeId" : "125",
      "seqNo" : "30"
   },
   {
      "GoBack" : "2",
      "longitude" : "120.67153",
      "outDis" : "50",
      "Id" : "0513",
      "oid" : "7713",
      "districtId" : "1",
      "nameZh" : "臺中教育大學",
      "pgp" : "0",
      "terminal" : "0",
      "latitude" : "24.14517",
      "inDis" : "50",
      "routeId" : "125",
      "seqNo" : "31"
   },
   {
      "GoBack" : "2",
      "longitude" : "120.67463",
      "outDis" : "50",
      "Id" : "4623",
      "oid" : "7727",
      "districtId" : "1",
      "nameZh" : "民權中華路口",
      "pgp" : "0",
      "terminal" : "0",
      "latitude" : "24.14242",
      "inDis" : "50",
      "routeId" : "125",
      "seqNo" : "32"
   },
   {
      "GoBack" : "2",
      "longitude" : "120.6765",
      "outDis" : "50",
      "Id" : "0208",
      "oid" : "8157",
      "districtId" : "1",
      "nameZh" : "臺中醫院",
      "pgp" : "0",
      "terminal" : "0",
      "latitude" : "24.14097",
      "inDis" : "50",
      "routeId" : "125",
      "seqNo" : "33"
   },
   {
      "GoBack" : "2",
      "longitude" : "120.6783",
      "outDis" : "50",
      "Id" : "4416",
      "oid" : "7726",
      "districtId" : "1",
      "nameZh" : "臺中州廳",
      "pgp" : "0",
      "terminal" : "0",
      "latitude" : "24.13928",
      "inDis" : "50",
      "routeId" : "125",
      "seqNo" : "34"
   },
   {
      "GoBack" : "2",
      "longitude" : "120.68032",
      "outDis" : "50",
      "Id" : "0215",
      "oid" : "7734",
      "districtId" : "1",
      "nameZh" : "合作金庫",
      "pgp" : "0",
      "terminal" : "0",
      "latitude" : "24.13829",
      "inDis" : "50",
      "routeId" : "125",
      "seqNo" : "35"
   },
   {
      "GoBack" : "2",
      "longitude" : "120.68191",
      "outDis" : "50",
      "Id" : "0216",
      "oid" : "7860",
      "districtId" : "1",
      "nameZh" : "彰化銀行(自由路)",
      "pgp" : "0",
      "terminal" : "0",
      "latitude" : "24.13992",
      "inDis" : "50",
      "routeId" : "125",
      "seqNo" : "36"
   },
   {
      "GoBack" : "2",
      "longitude" : "120.68593",
      "outDis" : "50",
      "Id" : "0402",
      "oid" : "5942BBEA964A4C2F9A39F041CB2C4328",
      "districtId" : "1",
      "nameZh" : "干城站",
      "pgp" : "0",
      "terminal" : "0",
      "latitude" : "24.14096",
      "inDis" : "50",
      "routeId" : "125",
      "seqNo" : "38"
   },
   {
      "GoBack" : "2",
      "longitude" : "120.6842",
      "outDis" : "50",
      "Id" : "0443",
      "oid" : "7710",
      "districtId" : "1",
      "nameZh" : "仁友東站",
      "pgp" : "0",
      "terminal" : "0",
      "latitude" : "24.1388",
      "inDis" : "50",
      "routeId" : "125",
      "seqNo" : "39"
   },
   {
      "GoBack" : "2",
      "longitude" : "120.68241",
      "outDis" : "50",
      "Id" : "0518",
      "oid" : "7714",
      "districtId" : "1",
      "nameZh" : "臺中酒廠(復興路)",
      "pgp" : "0",
      "terminal" : "0",
      "latitude" : "24.13421",
      "inDis" : "50",
      "routeId" : "125",
      "seqNo" : "40"
   },
   {
      "GoBack" : "2",
      "longitude" : "120.67994",
      "outDis" : "50",
      "Id" : "1659",
      "oid" : "7779",
      "districtId" : "1",
      "nameZh" : "文化創意園區",
      "pgp" : "0",
      "terminal" : "0",
      "latitude" : "24.13317",
      "inDis" : "50",
      "routeId" : "125",
      "seqNo" : "41"
   },
   {
      "GoBack" : "2",
      "longitude" : "120.67877",
      "outDis" : "50",
      "Id" : "0180",
      "oid" : "7766",
      "districtId" : "1",
      "nameZh" : "林祖厝",
      "pgp" : "0",
      "terminal" : "0",
      "latitude" : "24.1328",
      "inDis" : "50",
      "routeId" : "125",
      "seqNo" : "42"
   },
   {
      "GoBack" : "2",
      "longitude" : "120.6764",
      "outDis" : "50",
      "Id" : "4604",
      "oid" : "7737",
      "districtId" : "1",
      "nameZh" : "復興有恆街口",
      "pgp" : "0",
      "terminal" : "0",
      "latitude" : "24.13182",
      "inDis" : "50",
      "routeId" : "125",
      "seqNo" : "43"
   },
   {
      "GoBack" : "2",
      "longitude" : "120.67469",
      "outDis" : "50",
      "Id" : "0178",
      "oid" : "7817",
      "districtId" : "1",
      "nameZh" : "第三分局",
      "pgp" : "0",
      "terminal" : "0",
      "latitude" : "24.13108",
      "inDis" : "50",
      "routeId" : "125",
      "seqNo" : "44"
   },
   {
      "GoBack" : "2",
      "longitude" : "120.67196",
      "outDis" : "50",
      "Id" : "5393",
      "oid" : "312954998",
      "districtId" : "1",
      "nameZh" : "公共資訊圖書館(復興路)",
      "pgp" : "0",
      "terminal" : "0",
      "latitude" : "24.12985",
      "inDis" : "50",
      "routeId" : "125",
      "seqNo" : "45"
   },
   {
      "GoBack" : "2",
      "longitude" : "120.66837",
      "outDis" : "50",
      "Id" : "5478",
      "oid" : "319311008",
      "districtId" : "1",
      "nameZh" : "高等法院臺中分院",
      "pgp" : "0",
      "terminal" : "0",
      "latitude" : "24.12838",
      "inDis" : "50",
      "routeId" : "125",
      "seqNo" : "46"
   },
   {
      "GoBack" : "2",
      "longitude" : "120.66576",
      "outDis" : "50",
      "Id" : "0543",
      "oid" : "7720",
      "districtId" : "1",
      "nameZh" : "四育國中",
      "pgp" : "0",
      "terminal" : "0",
      "latitude" : "24.12702",
      "inDis" : "50",
      "routeId" : "125",
      "seqNo" : "47"
   },
   {
      "GoBack" : "2",
      "longitude" : "120.66303",
      "outDis" : "50",
      "Id" : "3395",
      "oid" : "7850",
      "districtId" : "1",
      "nameZh" : "復興新和街口",
      "pgp" : "0",
      "terminal" : "0",
      "latitude" : "24.12392",
      "inDis" : "50",
      "routeId" : "125",
      "seqNo" : "48"
   },
   {
      "GoBack" : "2",
      "longitude" : "120.66133",
      "outDis" : "50",
      "Id" : "0128",
      "oid" : "7754",
      "districtId" : "1",
      "nameZh" : "和平國小",
      "pgp" : "0",
      "terminal" : "0",
      "latitude" : "24.12141",
      "inDis" : "50",
      "routeId" : "125",
      "seqNo" : "49"
   },
   {
      "GoBack" : "2",
      "longitude" : "120.65942",
      "outDis" : "50",
      "Id" : "0129",
      "oid" : "7755",
      "districtId" : "1",
      "nameZh" : "宜寧中學",
      "pgp" : "0",
      "terminal" : "0",
      "latitude" : "24.11898",
      "inDis" : "50",
      "routeId" : "125",
      "seqNo" : "50"
   },
   {
      "GoBack" : "2",
      "longitude" : "120.65818",
      "outDis" : "50",
      "Id" : "4538",
      "oid" : "7715",
      "districtId" : "1",
      "nameZh" : "臺中高工(復興路)",
      "pgp" : "0",
      "terminal" : "0",
      "latitude" : "24.11751",
      "inDis" : "50",
      "routeId" : "125",
      "seqNo" : "51"
   },
   {
      "GoBack" : "2",
      "longitude" : "120.65422",
      "outDis" : "50",
      "Id" : "4536",
      "oid" : "7670",
      "districtId" : "1",
      "nameZh" : "復興大慶街口",
      "pgp" : "0",
      "terminal" : "0",
      "latitude" : "24.11444",
      "inDis" : "50",
      "routeId" : "125",
      "seqNo" : "52"
   },
   {
      "GoBack" : "2",
      "longitude" : "120.6512",
      "outDis" : "50",
      "Id" : "3330",
      "oid" : "7846",
      "districtId" : "1",
      "nameZh" : "勤工派出所",
      "pgp" : "0",
      "terminal" : "0",
      "latitude" : "24.11225",
      "inDis" : "50",
      "routeId" : "125",
      "seqNo" : "53"
   },
   {
      "GoBack" : "2",
      "longitude" : "120.64744",
      "outDis" : "50",
      "Id" : "5195",
      "oid" : "314612351",
      "districtId" : "1",
      "nameZh" : "復興環中路口",
      "pgp" : "0",
      "terminal" : "0",
      "latitude" : "24.11089",
      "inDis" : "50",
      "routeId" : "125",
      "seqNo" : "54"
   },
   {
      "GoBack" : "2",
      "longitude" : "120.64588",
      "outDis" : "50",
      "Id" : "3790",
      "oid" : "7871",
      "districtId" : "1",
      "nameZh" : "樹仔腳",
      "pgp" : "0",
      "terminal" : "0",
      "latitude" : "24.11023",
      "inDis" : "50",
      "routeId" : "125",
      "seqNo" : "55"
   },
   {
      "GoBack" : "2",
      "longitude" : "120.64182",
      "outDis" : "50",
      "Id" : "0994",
      "oid" : "7648",
      "districtId" : "1",
      "nameZh" : "九張犁",
      "pgp" : "0",
      "terminal" : "0",
      "latitude" : "24.10901",
      "inDis" : "50",
      "routeId" : "125",
      "seqNo" : "56"
   },
   {
      "GoBack" : "2",
      "longitude" : "120.63886",
      "outDis" : "50",
      "Id" : "2366",
      "oid" : "7761",
      "districtId" : "1",
      "nameZh" : "明道花園城",
      "pgp" : "0",
      "terminal" : "0",
      "latitude" : "24.10807",
      "inDis" : "50",
      "routeId" : "125",
      "seqNo" : "57"
   },
   {
      "GoBack" : "2",
      "longitude" : "120.63696",
      "outDis" : "50",
      "Id" : "2365",
      "oid" : "7760",
      "districtId" : "1",
      "nameZh" : "明道中學",
      "pgp" : "0",
      "terminal" : "0",
      "latitude" : "24.10749",
      "inDis" : "50",
      "routeId" : "125",
      "seqNo" : "58"
   },
   {
      "GoBack" : "2",
      "longitude" : "120.63294",
      "outDis" : "50",
      "Id" : "2821",
      "oid" : "7794",
      "districtId" : "1",
      "nameZh" : "烏日橋",
      "pgp" : "0",
      "terminal" : "0",
      "latitude" : "24.10581",
      "inDis" : "50",
      "routeId" : "125",
      "seqNo" : "59"
   },
   {
      "GoBack" : "2",
      "longitude" : "120.62864",
      "outDis" : "50",
      "Id" : "1454",
      "oid" : "7681",
      "districtId" : "1",
      "nameZh" : "中和紡織",
      "pgp" : "0",
      "terminal" : "0",
      "latitude" : "24.10564",
      "inDis" : "50",
      "routeId" : "125",
      "seqNo" : "60"
   },
   {
      "GoBack" : "2",
      "longitude" : "120.62665",
      "outDis" : "50",
      "Id" : "4660",
      "oid" : "7688",
      "districtId" : "1",
      "nameZh" : "中山五光路口",
      "pgp" : "0",
      "terminal" : "0",
      "latitude" : "24.10602",
      "inDis" : "50",
      "routeId" : "125",
      "seqNo" : "61"
   },
   {
      "GoBack" : "2",
      "longitude" : "120.62193",
      "outDis" : "50",
      "Id" : "2816",
      "oid" : "7792",
      "districtId" : "1",
      "nameZh" : "烏日",
      "pgp" : "0",
      "terminal" : "0",
      "latitude" : "24.1065",
      "inDis" : "50",
      "routeId" : "125",
      "seqNo" : "62"
   },
   {
      "GoBack" : "2",
      "longitude" : "120.61759",
      "outDis" : "50",
      "Id" : "2820",
      "oid" : "7793",
      "districtId" : "1",
      "nameZh" : "烏日國中",
      "pgp" : "0",
      "terminal" : "0",
      "latitude" : "24.1064",
      "inDis" : "50",
      "routeId" : "125",
      "seqNo" : "63"
   },
   {
      "GoBack" : "2",
      "longitude" : "120.61698",
      "outDis" : "50",
      "Id" : "2907",
      "oid" : "300245881",
      "districtId" : "1",
      "nameZh" : "高鐵臺中站(18月台)",
      "pgp" : "0",
      "terminal" : "0",
      "latitude" : "24.11144",
      "inDis" : "50",
      "routeId" : "125",
      "seqNo" : "64"
   }
]
