[
   {
      "GoBack" : "1",
      "longitude" : "120.7033",
      "outDis" : "50",
      "Id" : "5776",
      "oid" : "320650268",
      "districtId" : "1",
      "nameZh" : "新光里(新福路)",
      "pgp" : "0",
      "terminal" : "0",
      "latitude" : "24.1518",
      "inDis" : "50",
      "routeId" : "61",
      "seqNo" : "1"
   },
   {
      "GoBack" : "1",
      "longitude" : "120.70479",
      "outDis" : "50",
      "Id" : "4745",
      "oid" : "306695531",
      "districtId" : "1",
      "nameZh" : "精武十甲東路口",
      "pgp" : "0",
      "terminal" : "0",
      "latitude" : "24.14822",
      "inDis" : "50",
      "routeId" : "61",
      "seqNo" : "2"
   },
   {
      "GoBack" : "1",
      "longitude" : "120.7062",
      "outDis" : "50",
      "Id" : "5781",
      "oid" : "320650267",
      "districtId" : "1",
      "nameZh" : "東英十甲路口",
      "pgp" : "0",
      "terminal" : "0",
      "latitude" : "24.1458",
      "inDis" : "50",
      "routeId" : "61",
      "seqNo" : "3"
   },
   {
      "GoBack" : "1",
      "longitude" : "120.70616",
      "outDis" : "50",
      "Id" : "4214",
      "oid" : "248603757",
      "districtId" : "1",
      "nameZh" : "東英自由路口",
      "pgp" : "0",
      "terminal" : "0",
      "latitude" : "24.14221",
      "inDis" : "50",
      "routeId" : "61",
      "seqNo" : "4"
   },
   {
      "GoBack" : "1",
      "longitude" : "120.70597",
      "outDis" : "50",
      "Id" : "4213",
      "oid" : "248603755",
      "districtId" : "1",
      "nameZh" : "東英旱溪街口",
      "pgp" : "0",
      "terminal" : "0",
      "latitude" : "24.13967",
      "inDis" : "50",
      "routeId" : "61",
      "seqNo" : "5"
   },
   {
      "GoBack" : "1",
      "longitude" : "120.70514",
      "outDis" : "50",
      "Id" : "4212",
      "oid" : "248603753",
      "districtId" : "1",
      "nameZh" : "東英樂業路口",
      "pgp" : "0",
      "terminal" : "0",
      "latitude" : "24.13772",
      "inDis" : "50",
      "routeId" : "61",
      "seqNo" : "6"
   },
   {
      "GoBack" : "1",
      "longitude" : "120.70369",
      "outDis" : "50",
      "Id" : "0083",
      "oid" : "3836",
      "districtId" : "1",
      "nameZh" : "樂成公園",
      "pgp" : "0",
      "terminal" : "0",
      "latitude" : "24.13869",
      "inDis" : "50",
      "routeId" : "61",
      "seqNo" : "7"
   },
   {
      "GoBack" : "1",
      "longitude" : "120.69971",
      "outDis" : "50",
      "Id" : "0075",
      "oid" : "5DB8427611E74634A9E58D7DB71E1C4B",
      "districtId" : "1",
      "nameZh" : "育英國中",
      "pgp" : "0",
      "terminal" : "0",
      "latitude" : "24.13893",
      "inDis" : "50",
      "routeId" : "61",
      "seqNo" : "8"
   },
   {
      "GoBack" : "1",
      "longitude" : "120.69694",
      "outDis" : "50",
      "Id" : "4563",
      "oid" : "42B3301D5A1D4AE0A2BC2F5AB6158A9B",
      "districtId" : "1",
      "nameZh" : "樂業建成路口",
      "pgp" : "0",
      "terminal" : "0",
      "latitude" : "24.13883",
      "inDis" : "50",
      "routeId" : "61",
      "seqNo" : "9"
   },
   {
      "GoBack" : "1",
      "longitude" : "120.69194",
      "outDis" : "50",
      "Id" : "0073",
      "oid" : "F2E108DD972043F19032732E898F5243",
      "districtId" : "1",
      "nameZh" : "明功堂醫院",
      "pgp" : "0",
      "terminal" : "0",
      "latitude" : "24.14277",
      "inDis" : "50",
      "routeId" : "61",
      "seqNo" : "10"
   },
   {
      "GoBack" : "1",
      "longitude" : "120.69065",
      "outDis" : "50",
      "Id" : "2030",
      "oid" : "4D6EAB1C5E774951B5CA349A8B84E625",
      "districtId" : "1",
      "nameZh" : "自由富台東街口",
      "pgp" : "0",
      "terminal" : "0",
      "latitude" : "24.14281",
      "inDis" : "50",
      "routeId" : "61",
      "seqNo" : "11"
   },
   {
      "GoBack" : "1",
      "longitude" : "120.6878",
      "outDis" : "50",
      "Id" : "0753",
      "oid" : "320650266",
      "districtId" : "1",
      "nameZh" : "國軍英雄館 ",
      "pgp" : "0",
      "terminal" : "0",
      "latitude" : "24.1403",
      "inDis" : "50",
      "routeId" : "61",
      "seqNo" : "12"
   },
   {
      "GoBack" : "1",
      "longitude" : "120.6846",
      "outDis" : "100",
      "Id" : "1824",
      "oid" : "7360",
      "districtId" : "1",
      "nameZh" : "臺中火車站",
      "pgp" : "0",
      "terminal" : "0",
      "latitude" : "24.13796",
      "inDis" : "100",
      "routeId" : "61",
      "seqNo" : "13"
   },
   {
      "GoBack" : "1",
      "longitude" : "120.68364",
      "outDis" : "50",
      "Id" : "0151",
      "oid" : "3610",
      "districtId" : "1",
      "nameZh" : "第一廣場",
      "pgp" : "0",
      "terminal" : "0",
      "latitude" : "24.13898",
      "inDis" : "50",
      "routeId" : "61",
      "seqNo" : "14"
   },
   {
      "GoBack" : "1",
      "longitude" : "120.6826",
      "outDis" : "50",
      "Id" : "4401",
      "oid" : "3611",
      "districtId" : "1",
      "nameZh" : "彰化銀行(臺灣大道)",
      "pgp" : "0",
      "terminal" : "0",
      "latitude" : "24.13996",
      "inDis" : "50",
      "routeId" : "61",
      "seqNo" : "15"
   },
   {
      "GoBack" : "1",
      "longitude" : "120.68616",
      "outDis" : "50",
      "Id" : "4544",
      "oid" : "3613",
      "districtId" : "1",
      "nameZh" : "臺中公園(雙十路)",
      "pgp" : "0",
      "terminal" : "0",
      "latitude" : "24.14517",
      "inDis" : "50",
      "routeId" : "61",
      "seqNo" : "17"
   },
   {
      "GoBack" : "1",
      "longitude" : "120.68448",
      "outDis" : "50",
      "Id" : "1513",
      "oid" : "15989",
      "districtId" : "1",
      "nameZh" : "中興堂",
      "pgp" : "0",
      "terminal" : "0",
      "latitude" : "24.14626",
      "inDis" : "50",
      "routeId" : "61",
      "seqNo" : "18"
   },
   {
      "GoBack" : "1",
      "longitude" : "120.68406",
      "outDis" : "50",
      "Id" : "0045",
      "oid" : "3615",
      "districtId" : "1",
      "nameZh" : "國立臺中科技大學",
      "pgp" : "0",
      "terminal" : "0",
      "latitude" : "24.14974",
      "inDis" : "50",
      "routeId" : "61",
      "seqNo" : "20"
   },
   {
      "GoBack" : "1",
      "longitude" : "120.68528",
      "outDis" : "50",
      "Id" : "0046",
      "oid" : "3616",
      "districtId" : "1",
      "nameZh" : "中友百貨",
      "pgp" : "0",
      "terminal" : "0",
      "latitude" : "24.15244",
      "inDis" : "50",
      "routeId" : "61",
      "seqNo" : "21"
   },
   {
      "GoBack" : "1",
      "longitude" : "120.68389",
      "outDis" : "50",
      "Id" : "3772",
      "oid" : "3618",
      "districtId" : "1",
      "nameZh" : "五權學士路口",
      "pgp" : "0",
      "terminal" : "0",
      "latitude" : "24.15388",
      "inDis" : "50",
      "routeId" : "61",
      "seqNo" : "23"
   },
   {
      "GoBack" : "1",
      "longitude" : "120.68184",
      "outDis" : "50",
      "Id" : "0406",
      "oid" : "3619",
      "districtId" : "1",
      "nameZh" : "中山堂",
      "pgp" : "0",
      "terminal" : "0",
      "latitude" : "24.1553",
      "inDis" : "50",
      "routeId" : "61",
      "seqNo" : "24"
   },
   {
      "GoBack" : "1",
      "longitude" : "120.68149",
      "outDis" : "50",
      "Id" : "0426",
      "oid" : "3620",
      "districtId" : "1",
      "nameZh" : "中國醫藥大學",
      "pgp" : "0",
      "terminal" : "0",
      "latitude" : "24.15624",
      "inDis" : "50",
      "routeId" : "61",
      "seqNo" : "25"
   },
   {
      "GoBack" : "1",
      "longitude" : "120.68098",
      "outDis" : "50",
      "Id" : "4575",
      "oid" : "3621",
      "districtId" : "1",
      "nameZh" : "學士健行路口",
      "pgp" : "0",
      "terminal" : "0",
      "latitude" : "24.15929",
      "inDis" : "50",
      "routeId" : "61",
      "seqNo" : "26"
   },
   {
      "GoBack" : "1",
      "longitude" : "120.68105",
      "outDis" : "50",
      "Id" : "4577",
      "oid" : "3622",
      "districtId" : "1",
      "nameZh" : "學士德化街口",
      "pgp" : "0",
      "terminal" : "0",
      "latitude" : "24.16147",
      "inDis" : "50",
      "routeId" : "61",
      "seqNo" : "27"
   },
   {
      "GoBack" : "1",
      "longitude" : "120.68023",
      "outDis" : "50",
      "Id" : "0920",
      "oid" : "3623",
      "districtId" : "1",
      "nameZh" : "衛道新世界",
      "pgp" : "0",
      "terminal" : "0",
      "latitude" : "24.16326",
      "inDis" : "50",
      "routeId" : "61",
      "seqNo" : "28"
   },
   {
      "GoBack" : "1",
      "longitude" : "120.67606",
      "outDis" : "50",
      "Id" : "4625",
      "oid" : "3624",
      "districtId" : "1",
      "nameZh" : "大道公廟(進化北路)",
      "pgp" : "0",
      "terminal" : "0",
      "latitude" : "24.16337",
      "inDis" : "50",
      "routeId" : "61",
      "seqNo" : "29"
   },
   {
      "GoBack" : "1",
      "longitude" : "120.67425",
      "outDis" : "50",
      "Id" : "5735",
      "oid" : "3625",
      "districtId" : "1",
      "nameZh" : "中清太原路口",
      "pgp" : "0",
      "terminal" : "0",
      "latitude" : "24.16438",
      "inDis" : "50",
      "routeId" : "61",
      "seqNo" : "30"
   },
   {
      "GoBack" : "1",
      "longitude" : "120.67351",
      "outDis" : "50",
      "Id" : "5736",
      "oid" : "3626",
      "districtId" : "1",
      "nameZh" : "中清漢口路口",
      "pgp" : "0",
      "terminal" : "0",
      "latitude" : "24.16664",
      "inDis" : "50",
      "routeId" : "61",
      "seqNo" : "31"
   },
   {
      "GoBack" : "1",
      "longitude" : "120.67314",
      "outDis" : "50",
      "Id" : "5737",
      "oid" : "3627",
      "districtId" : "1",
      "nameZh" : "曉明女中(中清路)",
      "pgp" : "0",
      "terminal" : "0",
      "latitude" : "24.16782",
      "inDis" : "50",
      "routeId" : "61",
      "seqNo" : "32"
   },
   {
      "GoBack" : "1",
      "longitude" : "120.67231",
      "outDis" : "50",
      "Id" : "1629",
      "oid" : "3628",
      "districtId" : "1",
      "nameZh" : "天津路商圈",
      "pgp" : "0",
      "terminal" : "0",
      "latitude" : "24.17052",
      "inDis" : "50",
      "routeId" : "61",
      "seqNo" : "33"
   },
   {
      "GoBack" : "1",
      "longitude" : "120.67197",
      "outDis" : "50",
      "Id" : "0805",
      "oid" : "3629",
      "districtId" : "1",
      "nameZh" : "頂賴厝",
      "pgp" : "0",
      "terminal" : "0",
      "latitude" : "24.17206",
      "inDis" : "50",
      "routeId" : "61",
      "seqNo" : "34"
   },
   {
      "GoBack" : "1",
      "longitude" : "120.67094",
      "outDis" : "50",
      "Id" : "0334",
      "oid" : "3630",
      "districtId" : "1",
      "nameZh" : "下水湳",
      "pgp" : "0",
      "terminal" : "0",
      "latitude" : "24.1754",
      "inDis" : "50",
      "routeId" : "61",
      "seqNo" : "35"
   },
   {
      "GoBack" : "1",
      "longitude" : "120.66998",
      "outDis" : "50",
      "Id" : "0486",
      "oid" : "3631",
      "districtId" : "1",
      "nameZh" : "水湳",
      "pgp" : "0",
      "terminal" : "0",
      "latitude" : "24.17686",
      "inDis" : "50",
      "routeId" : "61",
      "seqNo" : "36"
   },
   {
      "GoBack" : "1",
      "longitude" : "120.66937",
      "outDis" : "50",
      "Id" : "5100",
      "oid" : "3632",
      "districtId" : "1",
      "nameZh" : "水湳市場(中清路)",
      "pgp" : "0",
      "terminal" : "0",
      "latitude" : "24.17747",
      "inDis" : "50",
      "routeId" : "61",
      "seqNo" : "37"
   },
   {
      "GoBack" : "1",
      "longitude" : "120.66845",
      "outDis" : "50",
      "Id" : "0385",
      "oid" : "3633",
      "districtId" : "1",
      "nameZh" : "大德國中",
      "pgp" : "0",
      "terminal" : "0",
      "latitude" : "24.17865",
      "inDis" : "50",
      "routeId" : "61",
      "seqNo" : "38"
   },
   {
      "GoBack" : "1",
      "longitude" : "120.66678",
      "outDis" : "50",
      "Id" : "0593",
      "oid" : "3634",
      "districtId" : "1",
      "nameZh" : "全民醫院",
      "pgp" : "0",
      "terminal" : "0",
      "latitude" : "24.18094",
      "inDis" : "50",
      "routeId" : "61",
      "seqNo" : "39"
   },
   {
      "GoBack" : "1",
      "longitude" : "120.6657",
      "outDis" : "50",
      "Id" : "0789",
      "oid" : "3635",
      "districtId" : "1",
      "nameZh" : "陳平",
      "pgp" : "0",
      "terminal" : "0",
      "latitude" : "24.18297",
      "inDis" : "50",
      "routeId" : "61",
      "seqNo" : "40"
   },
   {
      "GoBack" : "1",
      "longitude" : "120.66476",
      "outDis" : "50",
      "Id" : "0801",
      "oid" : "3636",
      "districtId" : "1",
      "nameZh" : "頂陳平",
      "pgp" : "0",
      "terminal" : "0",
      "latitude" : "24.18478",
      "inDis" : "50",
      "routeId" : "61",
      "seqNo" : "41"
   },
   {
      "GoBack" : "1",
      "longitude" : "120.66344",
      "outDis" : "50",
      "Id" : "2639",
      "oid" : "3637",
      "districtId" : "1",
      "nameZh" : "后庄仔",
      "pgp" : "0",
      "terminal" : "0",
      "latitude" : "24.18664",
      "inDis" : "50",
      "routeId" : "61",
      "seqNo" : "42"
   },
   {
      "GoBack" : "1",
      "longitude" : "120.66271",
      "outDis" : "50",
      "Id" : "0989",
      "oid" : "3638",
      "districtId" : "1",
      "nameZh" : "中清后庄路口",
      "pgp" : "0",
      "terminal" : "0",
      "latitude" : "24.18833",
      "inDis" : "50",
      "routeId" : "61",
      "seqNo" : "43"
   },
   {
      "GoBack" : "1",
      "longitude" : "120.66207",
      "outDis" : "50",
      "Id" : "0708",
      "oid" : "3639",
      "districtId" : "1",
      "nameZh" : "后庄國宅",
      "pgp" : "0",
      "terminal" : "0",
      "latitude" : "24.18942",
      "inDis" : "50",
      "routeId" : "61",
      "seqNo" : "44"
   },
   {
      "GoBack" : "1",
      "longitude" : "120.66053",
      "outDis" : "50",
      "Id" : "3293",
      "oid" : "3640",
      "districtId" : "1",
      "nameZh" : "貿易三村",
      "pgp" : "0",
      "terminal" : "0",
      "latitude" : "24.1922",
      "inDis" : "50",
      "routeId" : "61",
      "seqNo" : "45"
   },
   {
      "GoBack" : "1",
      "longitude" : "120.65939",
      "outDis" : "110",
      "Id" : "2069",
      "oid" : "3641",
      "districtId" : "1",
      "nameZh" : "中清同榮路口",
      "pgp" : "0",
      "terminal" : "0",
      "latitude" : "24.19388",
      "inDis" : "110",
      "routeId" : "61",
      "seqNo" : "46"
   },
   {
      "GoBack" : "1",
      "longitude" : "120.65844",
      "outDis" : "50",
      "Id" : "0136",
      "oid" : "3642",
      "districtId" : "1",
      "nameZh" : "下港尾",
      "pgp" : "0",
      "terminal" : "0",
      "latitude" : "24.19556",
      "inDis" : "50",
      "routeId" : "61",
      "seqNo" : "47"
   },
   {
      "GoBack" : "1",
      "longitude" : "120.65632",
      "outDis" : "40",
      "Id" : "1475",
      "oid" : "3644",
      "districtId" : "1",
      "nameZh" : "中清環中路口",
      "pgp" : "0",
      "terminal" : "0",
      "latitude" : "24.19867",
      "inDis" : "40",
      "routeId" : "61",
      "seqNo" : "48"
   },
   {
      "GoBack" : "1",
      "longitude" : "120.65529",
      "outDis" : "40",
      "Id" : "0827",
      "oid" : "3643",
      "districtId" : "1",
      "nameZh" : "港尾",
      "pgp" : "0",
      "terminal" : "0",
      "latitude" : "24.20082",
      "inDis" : "40",
      "routeId" : "61",
      "seqNo" : "49"
   },
   {
      "GoBack" : "1",
      "longitude" : "120.65363",
      "outDis" : "50",
      "Id" : "3247",
      "oid" : "3645",
      "districtId" : "1",
      "nameZh" : "港尾橋",
      "pgp" : "0",
      "terminal" : "0",
      "latitude" : "24.2034",
      "inDis" : "50",
      "routeId" : "61",
      "seqNo" : "50"
   },
   {
      "GoBack" : "1",
      "longitude" : "120.65253",
      "outDis" : "50",
      "Id" : "0936",
      "oid" : "3646",
      "districtId" : "1",
      "nameZh" : "頭張(中清路)",
      "pgp" : "0",
      "terminal" : "0",
      "latitude" : "24.20585",
      "inDis" : "50",
      "routeId" : "61",
      "seqNo" : "51"
   },
   {
      "GoBack" : "1",
      "longitude" : "120.65178",
      "outDis" : "50",
      "Id" : "0806",
      "oid" : "3647",
      "districtId" : "1",
      "nameZh" : "頂頭張(中清路)",
      "pgp" : "0",
      "terminal" : "0",
      "latitude" : "24.20738",
      "inDis" : "50",
      "routeId" : "61",
      "seqNo" : "52"
   },
   {
      "GoBack" : "1",
      "longitude" : "120.6509",
      "outDis" : "50",
      "Id" : "1348",
      "oid" : "308058862",
      "districtId" : "1",
      "nameZh" : "大雅交流道",
      "pgp" : "0",
      "terminal" : "0",
      "latitude" : "24.20939",
      "inDis" : "50",
      "routeId" : "61",
      "seqNo" : "53"
   },
   {
      "GoBack" : "1",
      "longitude" : "120.65036",
      "outDis" : "50",
      "Id" : "0938",
      "oid" : "3649",
      "districtId" : "1",
      "nameZh" : "龍善寺",
      "pgp" : "0",
      "terminal" : "0",
      "latitude" : "24.21149",
      "inDis" : "50",
      "routeId" : "61",
      "seqNo" : "54"
   },
   {
      "GoBack" : "1",
      "longitude" : "120.64975",
      "outDis" : "50",
      "Id" : "1345",
      "oid" : "3650",
      "districtId" : "1",
      "nameZh" : "大華國中",
      "pgp" : "0",
      "terminal" : "0",
      "latitude" : "24.21445",
      "inDis" : "50",
      "routeId" : "61",
      "seqNo" : "55"
   },
   {
      "GoBack" : "1",
      "longitude" : "120.6494",
      "outDis" : "50",
      "Id" : "2558",
      "oid" : "51754500",
      "districtId" : "1",
      "nameZh" : "南大雅",
      "pgp" : "0",
      "terminal" : "0",
      "latitude" : "24.21638",
      "inDis" : "50",
      "routeId" : "61",
      "seqNo" : "56"
   },
   {
      "GoBack" : "1",
      "longitude" : "120.64843",
      "outDis" : "50",
      "Id" : "4306",
      "oid" : "51754502",
      "districtId" : "1",
      "nameZh" : "中清雅潭路口",
      "pgp" : "0",
      "terminal" : "0",
      "latitude" : "24.21925",
      "inDis" : "50",
      "routeId" : "61",
      "seqNo" : "57"
   },
   {
      "GoBack" : "1",
      "longitude" : "120.64811",
      "outDis" : "50",
      "Id" : "1346",
      "oid" : "51754504",
      "districtId" : "1",
      "nameZh" : "大雅",
      "pgp" : "0",
      "terminal" : "0",
      "latitude" : "24.22306",
      "inDis" : "50",
      "routeId" : "61",
      "seqNo" : "58"
   },
   {
      "GoBack" : "1",
      "longitude" : "120.64715",
      "outDis" : "50",
      "Id" : "1620",
      "oid" : "51754506",
      "districtId" : "1",
      "nameZh" : "大雅分駐所",
      "pgp" : "0",
      "terminal" : "0",
      "latitude" : "24.22458",
      "inDis" : "50",
      "routeId" : "61",
      "seqNo" : "59"
   },
   {
      "GoBack" : "1",
      "longitude" : "120.64376",
      "outDis" : "50",
      "Id" : "4652",
      "oid" : "51754508",
      "districtId" : "1",
      "nameZh" : "大明國小(雅環路)",
      "pgp" : "0",
      "terminal" : "0",
      "latitude" : "24.22799",
      "inDis" : "50",
      "routeId" : "61",
      "seqNo" : "60"
   },
   {
      "GoBack" : "1",
      "longitude" : "120.6474",
      "outDis" : "40",
      "Id" : "1351",
      "oid" : "3658",
      "districtId" : "1",
      "nameZh" : "大雅區公所",
      "pgp" : "0",
      "terminal" : "0",
      "latitude" : "24.22924",
      "inDis" : "40",
      "routeId" : "61",
      "seqNo" : "61"
   },
   {
      "GoBack" : "1",
      "longitude" : "120.65163",
      "outDis" : "50",
      "Id" : "4307",
      "oid" : "51754510",
      "districtId" : "1",
      "nameZh" : "雅環民生路口",
      "pgp" : "0",
      "terminal" : "0",
      "latitude" : "24.22792",
      "inDis" : "50",
      "routeId" : "61",
      "seqNo" : "62"
   },
   {
      "GoBack" : "1",
      "longitude" : "120.65286",
      "outDis" : "50",
      "Id" : "4308",
      "oid" : "51754512",
      "districtId" : "1",
      "nameZh" : "雅環大榮街口",
      "pgp" : "0",
      "terminal" : "0",
      "latitude" : "24.22619",
      "inDis" : "50",
      "routeId" : "61",
      "seqNo" : "63"
   },
   {
      "GoBack" : "1",
      "longitude" : "120.65345",
      "outDis" : "50",
      "Id" : "4309",
      "oid" : "51754514",
      "districtId" : "1",
      "nameZh" : "雅環保齡球館",
      "pgp" : "0",
      "terminal" : "0",
      "latitude" : "24.22478",
      "inDis" : "50",
      "routeId" : "61",
      "seqNo" : "64"
   },
   {
      "GoBack" : "1",
      "longitude" : "120.6535",
      "outDis" : "50",
      "Id" : "4310",
      "oid" : "51754516",
      "districtId" : "1",
      "nameZh" : "雅環雅潭路口",
      "pgp" : "0",
      "terminal" : "0",
      "latitude" : "24.22212",
      "inDis" : "50",
      "routeId" : "61",
      "seqNo" : "65"
   },
   {
      "GoBack" : "1",
      "longitude" : "120.65662",
      "outDis" : "50",
      "Id" : "2943",
      "oid" : "3666",
      "districtId" : "1",
      "nameZh" : "國際花市",
      "pgp" : "0",
      "terminal" : "0",
      "latitude" : "24.22062",
      "inDis" : "50",
      "routeId" : "61",
      "seqNo" : "66"
   },
   {
      "GoBack" : "1",
      "longitude" : "120.65868",
      "outDis" : "50",
      "Id" : "4314",
      "oid" : "3667",
      "districtId" : "1",
      "nameZh" : "臺電大雅服務所",
      "pgp" : "0",
      "terminal" : "0",
      "latitude" : "24.22011",
      "inDis" : "50",
      "routeId" : "61",
      "seqNo" : "67"
   },
   {
      "GoBack" : "1",
      "longitude" : "120.66074",
      "outDis" : "50",
      "Id" : "3237",
      "oid" : "3668",
      "districtId" : "1",
      "nameZh" : "惠明盲校",
      "pgp" : "0",
      "terminal" : "0",
      "latitude" : "24.2196",
      "inDis" : "50",
      "routeId" : "61",
      "seqNo" : "68"
   },
   {
      "GoBack" : "1",
      "longitude" : "120.66481",
      "outDis" : "50",
      "Id" : "2895",
      "oid" : "3669",
      "districtId" : "1",
      "nameZh" : "馬岡厝加油站",
      "pgp" : "0",
      "terminal" : "0",
      "latitude" : "24.21778",
      "inDis" : "50",
      "routeId" : "61",
      "seqNo" : "69"
   },
   {
      "GoBack" : "1",
      "longitude" : "120.66639",
      "outDis" : "50",
      "Id" : "3027",
      "oid" : "3670",
      "districtId" : "1",
      "nameZh" : "清泉醫院",
      "pgp" : "0",
      "terminal" : "0",
      "latitude" : "24.21651",
      "inDis" : "50",
      "routeId" : "61",
      "seqNo" : "70"
   },
   {
      "GoBack" : "2",
      "longitude" : "120.66657",
      "outDis" : "50",
      "Id" : "3027",
      "oid" : "3547",
      "districtId" : "1",
      "nameZh" : "清泉醫院",
      "pgp" : "0",
      "terminal" : "0",
      "latitude" : "24.21661",
      "inDis" : "50",
      "routeId" : "61",
      "seqNo" : "1"
   },
   {
      "GoBack" : "2",
      "longitude" : "120.66335",
      "outDis" : "50",
      "Id" : "2895",
      "oid" : "3548",
      "districtId" : "1",
      "nameZh" : "馬岡厝加油站",
      "pgp" : "0",
      "terminal" : "0",
      "latitude" : "24.21897",
      "inDis" : "50",
      "routeId" : "61",
      "seqNo" : "2"
   },
   {
      "GoBack" : "2",
      "longitude" : "120.66069",
      "outDis" : "50",
      "Id" : "3237",
      "oid" : "3549",
      "districtId" : "1",
      "nameZh" : "惠明盲校",
      "pgp" : "0",
      "terminal" : "0",
      "latitude" : "24.21984",
      "inDis" : "50",
      "routeId" : "61",
      "seqNo" : "3"
   },
   {
      "GoBack" : "2",
      "longitude" : "120.65882",
      "outDis" : "50",
      "Id" : "4314",
      "oid" : "3550",
      "districtId" : "1",
      "nameZh" : "臺電大雅服務所",
      "pgp" : "0",
      "terminal" : "0",
      "latitude" : "24.22026",
      "inDis" : "50",
      "routeId" : "61",
      "seqNo" : "4"
   },
   {
      "GoBack" : "2",
      "longitude" : "120.65669",
      "outDis" : "50",
      "Id" : "2943",
      "oid" : "3551",
      "districtId" : "1",
      "nameZh" : "國際花市",
      "pgp" : "0",
      "terminal" : "0",
      "latitude" : "24.22074",
      "inDis" : "50",
      "routeId" : "61",
      "seqNo" : "5"
   },
   {
      "GoBack" : "2",
      "longitude" : "120.6535",
      "outDis" : "50",
      "Id" : "4310",
      "oid" : "51754527",
      "districtId" : "1",
      "nameZh" : "雅環雅潭路口",
      "pgp" : "0",
      "terminal" : "0",
      "latitude" : "24.22212",
      "inDis" : "50",
      "routeId" : "61",
      "seqNo" : "6"
   },
   {
      "GoBack" : "2",
      "longitude" : "120.65368",
      "outDis" : "50",
      "Id" : "4309",
      "oid" : "51754529",
      "districtId" : "1",
      "nameZh" : "雅環保齡球館",
      "pgp" : "0",
      "terminal" : "0",
      "latitude" : "24.22464",
      "inDis" : "50",
      "routeId" : "61",
      "seqNo" : "7"
   },
   {
      "GoBack" : "2",
      "longitude" : "120.65321",
      "outDis" : "50",
      "Id" : "4308",
      "oid" : "51754531",
      "districtId" : "1",
      "nameZh" : "雅環大榮街口",
      "pgp" : "0",
      "terminal" : "0",
      "latitude" : "24.22568",
      "inDis" : "50",
      "routeId" : "61",
      "seqNo" : "8"
   },
   {
      "GoBack" : "2",
      "longitude" : "120.65207",
      "outDis" : "50",
      "Id" : "4307",
      "oid" : "51754533",
      "districtId" : "1",
      "nameZh" : "雅環民生路口",
      "pgp" : "0",
      "terminal" : "0",
      "latitude" : "24.22769",
      "inDis" : "50",
      "routeId" : "61",
      "seqNo" : "9"
   },
   {
      "GoBack" : "2",
      "longitude" : "120.64856",
      "outDis" : "35",
      "Id" : "1351",
      "oid" : "3559",
      "districtId" : "1",
      "nameZh" : "大雅區公所",
      "pgp" : "0",
      "terminal" : "0",
      "latitude" : "24.22932",
      "inDis" : "35",
      "routeId" : "61",
      "seqNo" : "10"
   },
   {
      "GoBack" : "2",
      "longitude" : "120.64376",
      "outDis" : "50",
      "Id" : "4652",
      "oid" : "51754535",
      "districtId" : "1",
      "nameZh" : "大明國小(雅環路)",
      "pgp" : "0",
      "terminal" : "0",
      "latitude" : "24.22799",
      "inDis" : "50",
      "routeId" : "61",
      "seqNo" : "11"
   },
   {
      "GoBack" : "2",
      "longitude" : "120.64612",
      "outDis" : "50",
      "Id" : "1620",
      "oid" : "51754537",
      "districtId" : "1",
      "nameZh" : "大雅分駐所",
      "pgp" : "0",
      "terminal" : "0",
      "latitude" : "24.22538",
      "inDis" : "50",
      "routeId" : "61",
      "seqNo" : "12"
   },
   {
      "GoBack" : "2",
      "longitude" : "120.64777",
      "outDis" : "50",
      "Id" : "1346",
      "oid" : "51754539",
      "districtId" : "1",
      "nameZh" : "大雅",
      "pgp" : "0",
      "terminal" : "0",
      "latitude" : "24.2236",
      "inDis" : "50",
      "routeId" : "61",
      "seqNo" : "13"
   },
   {
      "GoBack" : "2",
      "longitude" : "120.64747",
      "outDis" : "50",
      "Id" : "4306",
      "oid" : "51754541",
      "districtId" : "1",
      "nameZh" : "中清雅潭路口",
      "pgp" : "0",
      "terminal" : "0",
      "latitude" : "24.22107",
      "inDis" : "50",
      "routeId" : "61",
      "seqNo" : "14"
   },
   {
      "GoBack" : "2",
      "longitude" : "120.64853",
      "outDis" : "50",
      "Id" : "2558",
      "oid" : "51754543",
      "districtId" : "1",
      "nameZh" : "南大雅",
      "pgp" : "0",
      "terminal" : "0",
      "latitude" : "24.21841",
      "inDis" : "50",
      "routeId" : "61",
      "seqNo" : "15"
   },
   {
      "GoBack" : "2",
      "longitude" : "120.64923",
      "outDis" : "50",
      "Id" : "1345",
      "oid" : "3567",
      "districtId" : "1",
      "nameZh" : "大華國中",
      "pgp" : "0",
      "terminal" : "0",
      "latitude" : "24.21552",
      "inDis" : "50",
      "routeId" : "61",
      "seqNo" : "16"
   },
   {
      "GoBack" : "2",
      "longitude" : "120.6501",
      "outDis" : "50",
      "Id" : "0938",
      "oid" : "3568",
      "districtId" : "1",
      "nameZh" : "龍善寺",
      "pgp" : "0",
      "terminal" : "0",
      "latitude" : "24.21169",
      "inDis" : "50",
      "routeId" : "61",
      "seqNo" : "17"
   },
   {
      "GoBack" : "2",
      "longitude" : "120.6507",
      "outDis" : "50",
      "Id" : "1348",
      "oid" : "307750209",
      "districtId" : "1",
      "nameZh" : "大雅交流道",
      "pgp" : "0",
      "terminal" : "0",
      "latitude" : "24.20979",
      "inDis" : "50",
      "routeId" : "61",
      "seqNo" : "18"
   },
   {
      "GoBack" : "2",
      "longitude" : "120.65158",
      "outDis" : "50",
      "Id" : "0806",
      "oid" : "3570",
      "districtId" : "1",
      "nameZh" : "頂頭張(中清路)",
      "pgp" : "0",
      "terminal" : "0",
      "latitude" : "24.20738",
      "inDis" : "50",
      "routeId" : "61",
      "seqNo" : "19"
   },
   {
      "GoBack" : "2",
      "longitude" : "120.65228",
      "outDis" : "50",
      "Id" : "0936",
      "oid" : "3571",
      "districtId" : "1",
      "nameZh" : "頭張(中清路)",
      "pgp" : "0",
      "terminal" : "0",
      "latitude" : "24.20578",
      "inDis" : "50",
      "routeId" : "61",
      "seqNo" : "20"
   },
   {
      "GoBack" : "2",
      "longitude" : "120.65338",
      "outDis" : "50",
      "Id" : "3247",
      "oid" : "3572",
      "districtId" : "1",
      "nameZh" : "港尾橋",
      "pgp" : "0",
      "terminal" : "0",
      "latitude" : "24.20326",
      "inDis" : "50",
      "routeId" : "61",
      "seqNo" : "21"
   },
   {
      "GoBack" : "2",
      "longitude" : "120.65531",
      "outDis" : "40",
      "Id" : "0827",
      "oid" : "3574",
      "districtId" : "1",
      "nameZh" : "港尾",
      "pgp" : "0",
      "terminal" : "0",
      "latitude" : "24.20047",
      "inDis" : "40",
      "routeId" : "61",
      "seqNo" : "22"
   },
   {
      "GoBack" : "2",
      "longitude" : "120.65636",
      "outDis" : "40",
      "Id" : "1475",
      "oid" : "3573",
      "districtId" : "1",
      "nameZh" : "中清環中路口",
      "pgp" : "0",
      "terminal" : "0",
      "latitude" : "24.19826",
      "inDis" : "40",
      "routeId" : "61",
      "seqNo" : "23"
   },
   {
      "GoBack" : "2",
      "longitude" : "120.65808",
      "outDis" : "50",
      "Id" : "0136",
      "oid" : "3575",
      "districtId" : "1",
      "nameZh" : "下港尾",
      "pgp" : "0",
      "terminal" : "0",
      "latitude" : "24.19545",
      "inDis" : "50",
      "routeId" : "61",
      "seqNo" : "24"
   },
   {
      "GoBack" : "2",
      "longitude" : "120.65931",
      "outDis" : "50",
      "Id" : "2069",
      "oid" : "3576",
      "districtId" : "1",
      "nameZh" : "中清同榮路口",
      "pgp" : "0",
      "terminal" : "0",
      "latitude" : "24.19345",
      "inDis" : "50",
      "routeId" : "61",
      "seqNo" : "25"
   },
   {
      "GoBack" : "2",
      "longitude" : "120.6603",
      "outDis" : "50",
      "Id" : "3293",
      "oid" : "3577",
      "districtId" : "1",
      "nameZh" : "貿易三村",
      "pgp" : "0",
      "terminal" : "0",
      "latitude" : "24.19189",
      "inDis" : "50",
      "routeId" : "61",
      "seqNo" : "26"
   },
   {
      "GoBack" : "2",
      "longitude" : "120.66187",
      "outDis" : "50",
      "Id" : "0708",
      "oid" : "3578",
      "districtId" : "1",
      "nameZh" : "后庄國宅",
      "pgp" : "0",
      "terminal" : "0",
      "latitude" : "24.18926",
      "inDis" : "50",
      "routeId" : "61",
      "seqNo" : "27"
   },
   {
      "GoBack" : "2",
      "longitude" : "120.66283",
      "outDis" : "50",
      "Id" : "0989",
      "oid" : "3579",
      "districtId" : "1",
      "nameZh" : "中清后庄路口",
      "pgp" : "0",
      "terminal" : "0",
      "latitude" : "24.18824",
      "inDis" : "50",
      "routeId" : "61",
      "seqNo" : "28"
   },
   {
      "GoBack" : "2",
      "longitude" : "120.66344",
      "outDis" : "50",
      "Id" : "2639",
      "oid" : "3580",
      "districtId" : "1",
      "nameZh" : "后庄仔",
      "pgp" : "0",
      "terminal" : "0",
      "latitude" : "24.18664",
      "inDis" : "50",
      "routeId" : "61",
      "seqNo" : "29"
   },
   {
      "GoBack" : "2",
      "longitude" : "120.66446",
      "outDis" : "50",
      "Id" : "0801",
      "oid" : "3581",
      "districtId" : "1",
      "nameZh" : "頂陳平",
      "pgp" : "0",
      "terminal" : "0",
      "latitude" : "24.18473",
      "inDis" : "50",
      "routeId" : "61",
      "seqNo" : "30"
   },
   {
      "GoBack" : "2",
      "longitude" : "120.6657",
      "outDis" : "50",
      "Id" : "0789",
      "oid" : "3582",
      "districtId" : "1",
      "nameZh" : "陳平",
      "pgp" : "0",
      "terminal" : "0",
      "latitude" : "24.18297",
      "inDis" : "50",
      "routeId" : "61",
      "seqNo" : "31"
   },
   {
      "GoBack" : "2",
      "longitude" : "120.66637",
      "outDis" : "50",
      "Id" : "0593",
      "oid" : "3583",
      "districtId" : "1",
      "nameZh" : "全民醫院",
      "pgp" : "0",
      "terminal" : "0",
      "latitude" : "24.18118",
      "inDis" : "50",
      "routeId" : "61",
      "seqNo" : "32"
   },
   {
      "GoBack" : "2",
      "longitude" : "120.66795",
      "outDis" : "50",
      "Id" : "0385",
      "oid" : "3584",
      "districtId" : "1",
      "nameZh" : "大德國中",
      "pgp" : "0",
      "terminal" : "0",
      "latitude" : "24.17882",
      "inDis" : "50",
      "routeId" : "61",
      "seqNo" : "33"
   },
   {
      "GoBack" : "2",
      "longitude" : "120.66937",
      "outDis" : "50",
      "Id" : "5100",
      "oid" : "3632",
      "districtId" : "1",
      "nameZh" : "水湳市場(中清路)",
      "pgp" : "0",
      "terminal" : "0",
      "latitude" : "24.17747",
      "inDis" : "50",
      "routeId" : "61",
      "seqNo" : "34"
   },
   {
      "GoBack" : "2",
      "longitude" : "120.66998",
      "outDis" : "50",
      "Id" : "0486",
      "oid" : "3631",
      "districtId" : "1",
      "nameZh" : "水湳",
      "pgp" : "0",
      "terminal" : "0",
      "latitude" : "24.17686",
      "inDis" : "50",
      "routeId" : "61",
      "seqNo" : "35"
   },
   {
      "GoBack" : "2",
      "longitude" : "120.67094",
      "outDis" : "50",
      "Id" : "0334",
      "oid" : "3630",
      "districtId" : "1",
      "nameZh" : "下水湳",
      "pgp" : "0",
      "terminal" : "0",
      "latitude" : "24.1754",
      "inDis" : "50",
      "routeId" : "61",
      "seqNo" : "36"
   },
   {
      "GoBack" : "2",
      "longitude" : "120.67197",
      "outDis" : "50",
      "Id" : "0805",
      "oid" : "3588",
      "districtId" : "1",
      "nameZh" : "頂賴厝",
      "pgp" : "0",
      "terminal" : "0",
      "latitude" : "24.17206",
      "inDis" : "50",
      "routeId" : "61",
      "seqNo" : "37"
   },
   {
      "GoBack" : "2",
      "longitude" : "120.67206",
      "outDis" : "50",
      "Id" : "1629",
      "oid" : "3589",
      "districtId" : "1",
      "nameZh" : "天津路商圈",
      "pgp" : "0",
      "terminal" : "0",
      "latitude" : "24.1703",
      "inDis" : "50",
      "routeId" : "61",
      "seqNo" : "38"
   },
   {
      "GoBack" : "2",
      "longitude" : "120.67285",
      "outDis" : "50",
      "Id" : "5737",
      "oid" : "3590",
      "districtId" : "1",
      "nameZh" : "曉明女中(中清路)",
      "pgp" : "0",
      "terminal" : "0",
      "latitude" : "24.16785",
      "inDis" : "50",
      "routeId" : "61",
      "seqNo" : "39"
   },
   {
      "GoBack" : "2",
      "longitude" : "120.67326",
      "outDis" : "50",
      "Id" : "5736",
      "oid" : "3591",
      "districtId" : "1",
      "nameZh" : "中清漢口路口",
      "pgp" : "0",
      "terminal" : "0",
      "latitude" : "24.16659",
      "inDis" : "50",
      "routeId" : "61",
      "seqNo" : "40"
   },
   {
      "GoBack" : "2",
      "longitude" : "120.67397",
      "outDis" : "50",
      "Id" : "5735",
      "oid" : "3592",
      "districtId" : "1",
      "nameZh" : "中清太原路口",
      "pgp" : "0",
      "terminal" : "0",
      "latitude" : "24.16439",
      "inDis" : "50",
      "routeId" : "61",
      "seqNo" : "41"
   },
   {
      "GoBack" : "2",
      "longitude" : "120.67624",
      "outDis" : "50",
      "Id" : "4625",
      "oid" : "3593",
      "districtId" : "1",
      "nameZh" : "大道公廟(進化北路)",
      "pgp" : "0",
      "terminal" : "0",
      "latitude" : "24.16305",
      "inDis" : "50",
      "routeId" : "61",
      "seqNo" : "42"
   },
   {
      "GoBack" : "2",
      "longitude" : "120.68024",
      "outDis" : "50",
      "Id" : "0920",
      "oid" : "3594",
      "districtId" : "1",
      "nameZh" : "衛道新世界",
      "pgp" : "0",
      "terminal" : "0",
      "latitude" : "24.16295",
      "inDis" : "50",
      "routeId" : "61",
      "seqNo" : "43"
   },
   {
      "GoBack" : "2",
      "longitude" : "120.68096",
      "outDis" : "50",
      "Id" : "4577",
      "oid" : "3595",
      "districtId" : "1",
      "nameZh" : "學士德化街口",
      "pgp" : "0",
      "terminal" : "0",
      "latitude" : "24.16145",
      "inDis" : "50",
      "routeId" : "61",
      "seqNo" : "44"
   },
   {
      "GoBack" : "2",
      "longitude" : "120.68088",
      "outDis" : "50",
      "Id" : "4575",
      "oid" : "3596",
      "districtId" : "1",
      "nameZh" : "學士健行路口",
      "pgp" : "0",
      "terminal" : "0",
      "latitude" : "24.15935",
      "inDis" : "50",
      "routeId" : "61",
      "seqNo" : "45"
   },
   {
      "GoBack" : "2",
      "longitude" : "120.68138",
      "outDis" : "50",
      "Id" : "0426",
      "oid" : "3597",
      "districtId" : "1",
      "nameZh" : "中國醫藥大學",
      "pgp" : "0",
      "terminal" : "0",
      "latitude" : "24.1561",
      "inDis" : "50",
      "routeId" : "61",
      "seqNo" : "46"
   },
   {
      "GoBack" : "2",
      "longitude" : "120.68168",
      "outDis" : "50",
      "Id" : "0406",
      "oid" : "3598",
      "districtId" : "1",
      "nameZh" : "中山堂",
      "pgp" : "0",
      "terminal" : "0",
      "latitude" : "24.1552",
      "inDis" : "50",
      "routeId" : "61",
      "seqNo" : "47"
   },
   {
      "GoBack" : "2",
      "longitude" : "120.68398",
      "outDis" : "50",
      "Id" : "3772",
      "oid" : "3599",
      "districtId" : "1",
      "nameZh" : "五權學士路口",
      "pgp" : "0",
      "terminal" : "0",
      "latitude" : "24.15369",
      "inDis" : "50",
      "routeId" : "61",
      "seqNo" : "48"
   },
   {
      "GoBack" : "2",
      "longitude" : "120.6856",
      "outDis" : "50",
      "Id" : "0047",
      "oid" : "3600",
      "districtId" : "1",
      "nameZh" : "一心市場",
      "pgp" : "0",
      "terminal" : "0",
      "latitude" : "24.15384",
      "inDis" : "50",
      "routeId" : "61",
      "seqNo" : "49"
   },
   {
      "GoBack" : "2",
      "longitude" : "120.68492",
      "outDis" : "50",
      "Id" : "0046",
      "oid" : "3601",
      "districtId" : "1",
      "nameZh" : "中友百貨",
      "pgp" : "0",
      "terminal" : "0",
      "latitude" : "24.152",
      "inDis" : "50",
      "routeId" : "61",
      "seqNo" : "50"
   },
   {
      "GoBack" : "2",
      "longitude" : "120.68389",
      "outDis" : "50",
      "Id" : "0045",
      "oid" : "3602",
      "districtId" : "1",
      "nameZh" : "國立臺中科技大學",
      "pgp" : "0",
      "terminal" : "0",
      "latitude" : "24.14955",
      "inDis" : "50",
      "routeId" : "61",
      "seqNo" : "51"
   },
   {
      "GoBack" : "2",
      "longitude" : "120.68463",
      "outDis" : "50",
      "Id" : "1513",
      "oid" : "16096",
      "districtId" : "1",
      "nameZh" : "中興堂",
      "pgp" : "0",
      "terminal" : "0",
      "latitude" : "24.14621",
      "inDis" : "50",
      "routeId" : "61",
      "seqNo" : "53"
   },
   {
      "GoBack" : "2",
      "longitude" : "120.68585",
      "outDis" : "50",
      "Id" : "4544",
      "oid" : "3604",
      "districtId" : "1",
      "nameZh" : "臺中公園(雙十路)",
      "pgp" : "0",
      "terminal" : "0",
      "latitude" : "24.14403",
      "inDis" : "50",
      "routeId" : "61",
      "seqNo" : "54"
   },
   {
      "GoBack" : "2",
      "longitude" : "120.68581",
      "outDis" : "50",
      "Id" : "0402",
      "oid" : "3608",
      "districtId" : "1",
      "nameZh" : "干城站",
      "pgp" : "0",
      "terminal" : "0",
      "latitude" : "24.142",
      "inDis" : "50",
      "routeId" : "61",
      "seqNo" : "55"
   },
   {
      "GoBack" : "2",
      "longitude" : "120.6845",
      "outDis" : "50",
      "Id" : "0443",
      "oid" : "856C616F5B4E453BA69AFCC223CB73A6",
      "districtId" : "1",
      "nameZh" : "仁友東站",
      "pgp" : "0",
      "terminal" : "0",
      "latitude" : "24.13897",
      "inDis" : "50",
      "routeId" : "61",
      "seqNo" : "56"
   },
   {
      "GoBack" : "2",
      "longitude" : "120.6878",
      "outDis" : "50",
      "Id" : "0753",
      "oid" : "320650266",
      "districtId" : "1",
      "nameZh" : "國軍英雄館 ",
      "pgp" : "0",
      "terminal" : "0",
      "latitude" : "24.1403",
      "inDis" : "50",
      "routeId" : "61",
      "seqNo" : "57"
   },
   {
      "GoBack" : "2",
      "longitude" : "120.69065",
      "outDis" : "50",
      "Id" : "2030",
      "oid" : "4D6EAB1C5E774951B5CA349A8B84E625",
      "districtId" : "1",
      "nameZh" : "自由富台東街口",
      "pgp" : "0",
      "terminal" : "0",
      "latitude" : "24.14281",
      "inDis" : "50",
      "routeId" : "61",
      "seqNo" : "58"
   },
   {
      "GoBack" : "2",
      "longitude" : "120.69194",
      "outDis" : "50",
      "Id" : "0073",
      "oid" : "F2E108DD972043F19032732E898F5243",
      "districtId" : "1",
      "nameZh" : "明功堂醫院",
      "pgp" : "0",
      "terminal" : "0",
      "latitude" : "24.14277",
      "inDis" : "50",
      "routeId" : "61",
      "seqNo" : "59"
   },
   {
      "GoBack" : "2",
      "longitude" : "120.69694",
      "outDis" : "50",
      "Id" : "4563",
      "oid" : "42B3301D5A1D4AE0A2BC2F5AB6158A9B",
      "districtId" : "1",
      "nameZh" : "樂業建成路口",
      "pgp" : "0",
      "terminal" : "0",
      "latitude" : "24.13883",
      "inDis" : "50",
      "routeId" : "61",
      "seqNo" : "60"
   },
   {
      "GoBack" : "2",
      "longitude" : "120.69971",
      "outDis" : "50",
      "Id" : "0075",
      "oid" : "5DB8427611E74634A9E58D7DB71E1C4B",
      "districtId" : "1",
      "nameZh" : "育英國中",
      "pgp" : "0",
      "terminal" : "0",
      "latitude" : "24.13893",
      "inDis" : "50",
      "routeId" : "61",
      "seqNo" : "61"
   },
   {
      "GoBack" : "2",
      "longitude" : "120.70369",
      "outDis" : "50",
      "Id" : "0083",
      "oid" : "3836",
      "districtId" : "1",
      "nameZh" : "樂成公園",
      "pgp" : "0",
      "terminal" : "0",
      "latitude" : "24.13869",
      "inDis" : "50",
      "routeId" : "61",
      "seqNo" : "62"
   },
   {
      "GoBack" : "2",
      "longitude" : "120.70514",
      "outDis" : "50",
      "Id" : "4212",
      "oid" : "248603753",
      "districtId" : "1",
      "nameZh" : "東英樂業路口",
      "pgp" : "0",
      "terminal" : "0",
      "latitude" : "24.13772",
      "inDis" : "50",
      "routeId" : "61",
      "seqNo" : "63"
   },
   {
      "GoBack" : "2",
      "longitude" : "120.70597",
      "outDis" : "50",
      "Id" : "4213",
      "oid" : "248603755",
      "districtId" : "1",
      "nameZh" : "東英旱溪街口",
      "pgp" : "0",
      "terminal" : "0",
      "latitude" : "24.13967",
      "inDis" : "50",
      "routeId" : "61",
      "seqNo" : "64"
   },
   {
      "GoBack" : "2",
      "longitude" : "120.70616",
      "outDis" : "50",
      "Id" : "4214",
      "oid" : "248603757",
      "districtId" : "1",
      "nameZh" : "東英自由路口",
      "pgp" : "0",
      "terminal" : "0",
      "latitude" : "24.14221",
      "inDis" : "50",
      "routeId" : "61",
      "seqNo" : "65"
   },
   {
      "GoBack" : "2",
      "longitude" : "120.7062",
      "outDis" : "50",
      "Id" : "5781",
      "oid" : "320650267",
      "districtId" : "1",
      "nameZh" : "東英十甲路口",
      "pgp" : "0",
      "terminal" : "0",
      "latitude" : "24.1458",
      "inDis" : "50",
      "routeId" : "61",
      "seqNo" : "66"
   },
   {
      "GoBack" : "2",
      "longitude" : "120.70479",
      "outDis" : "50",
      "Id" : "4745",
      "oid" : "306695531",
      "districtId" : "1",
      "nameZh" : "精武十甲東路口",
      "pgp" : "0",
      "terminal" : "0",
      "latitude" : "24.14822",
      "inDis" : "50",
      "routeId" : "61",
      "seqNo" : "67"
   },
   {
      "GoBack" : "2",
      "longitude" : "120.7033",
      "outDis" : "50",
      "Id" : "5776",
      "oid" : "320650268",
      "districtId" : "1",
      "nameZh" : "新光里(新福路)",
      "pgp" : "0",
      "terminal" : "0",
      "latitude" : "24.1518",
      "inDis" : "50",
      "routeId" : "61",
      "seqNo" : "68"
   }
]
