[
   {
      "GoBack" : "1",
      "longitude" : "120.61478",
      "outDis" : "50",
      "Id" : "5061",
      "oid" : "309863811",
      "districtId" : "1",
      "nameZh" : "新政大安港路口",
      "pgp" : "0",
      "terminal" : "0",
      "latitude" : "24.35087",
      "inDis" : "50",
      "routeId" : "170",
      "seqNo" : "1"
   },
   {
      "GoBack" : "1",
      "longitude" : "120.61645",
      "outDis" : "50",
      "Id" : "2038",
      "oid" : "5679",
      "districtId" : "1",
      "nameZh" : "光田",
      "pgp" : "0",
      "terminal" : "0",
      "latitude" : "24.34723",
      "inDis" : "50",
      "routeId" : "170",
      "seqNo" : "2"
   },
   {
      "GoBack" : "1",
      "longitude" : "120.61737",
      "outDis" : "50",
      "Id" : "5691",
      "oid" : "319713434",
      "districtId" : "1",
      "nameZh" : "大甲體育場",
      "pgp" : "0",
      "terminal" : "0",
      "latitude" : "24.35018",
      "inDis" : "50",
      "routeId" : "170",
      "seqNo" : "3"
   },
   {
      "GoBack" : "1",
      "longitude" : "120.61841",
      "outDis" : "50",
      "Id" : "5692",
      "oid" : "320604390",
      "districtId" : "1",
      "nameZh" : "李綜合醫院",
      "pgp" : "0",
      "terminal" : "0",
      "latitude" : "24.35135",
      "inDis" : "50",
      "routeId" : "170",
      "seqNo" : "4"
   },
   {
      "GoBack" : "1",
      "longitude" : "120.62028",
      "outDis" : "50",
      "Id" : "5775",
      "oid" : "320571958",
      "districtId" : "1",
      "nameZh" : "庄尾(文武路)",
      "pgp" : "0",
      "terminal" : "0",
      "latitude" : "24.34819",
      "inDis" : "50",
      "routeId" : "170",
      "seqNo" : "5"
   },
   {
      "GoBack" : "1",
      "longitude" : "120.62286",
      "outDis" : "50",
      "Id" : "1074",
      "oid" : "13774",
      "districtId" : "1",
      "nameZh" : "文昌祠",
      "pgp" : "0",
      "terminal" : "0",
      "latitude" : "24.34726",
      "inDis" : "50",
      "routeId" : "170",
      "seqNo" : "6"
   },
   {
      "GoBack" : "1",
      "longitude" : "120.62664",
      "outDis" : "50",
      "Id" : "4432",
      "oid" : "14074",
      "districtId" : "1",
      "nameZh" : "大甲火車站",
      "pgp" : "0",
      "terminal" : "0",
      "latitude" : "24.34461",
      "inDis" : "50",
      "routeId" : "170",
      "seqNo" : "7"
   },
   {
      "GoBack" : "1",
      "longitude" : "120.62553",
      "outDis" : "50",
      "Id" : "5084",
      "oid" : "5215",
      "districtId" : "1",
      "nameZh" : "大甲",
      "pgp" : "0",
      "terminal" : "0",
      "latitude" : "24.34321",
      "inDis" : "50",
      "routeId" : "170",
      "seqNo" : "8"
   },
   {
      "GoBack" : "1",
      "longitude" : "120.62404",
      "outDis" : "50",
      "Id" : "5639",
      "oid" : "4049",
      "districtId" : "1",
      "nameZh" : "南陽里(中山路)",
      "pgp" : "0",
      "terminal" : "0",
      "latitude" : "24.34279",
      "inDis" : "50",
      "routeId" : "170",
      "seqNo" : "9"
   },
   {
      "GoBack" : "1",
      "longitude" : "120.62143",
      "outDis" : "50",
      "Id" : "5048",
      "oid" : "309863798",
      "districtId" : "1",
      "nameZh" : "大甲高中(中山路)",
      "pgp" : "0",
      "terminal" : "0",
      "latitude" : "24.34212",
      "inDis" : "50",
      "routeId" : "170",
      "seqNo" : "10"
   },
   {
      "GoBack" : "1",
      "longitude" : "120.61874",
      "outDis" : "50",
      "Id" : "5693",
      "oid" : "319916595",
      "districtId" : "1",
      "nameZh" : "水尾橋 ",
      "pgp" : "0",
      "terminal" : "0",
      "latitude" : "24.33972",
      "inDis" : "50",
      "routeId" : "170",
      "seqNo" : "11"
   },
   {
      "GoBack" : "1",
      "longitude" : "120.61723",
      "outDis" : "50",
      "Id" : "1859",
      "oid" : "5584",
      "districtId" : "1",
      "nameZh" : "外水尾",
      "pgp" : "0",
      "terminal" : "0",
      "latitude" : "24.33731",
      "inDis" : "50",
      "routeId" : "170",
      "seqNo" : "12"
   },
   {
      "GoBack" : "1",
      "longitude" : "120.61302",
      "outDis" : "50",
      "Id" : "4133",
      "oid" : "319916345",
      "districtId" : "1",
      "nameZh" : "番子寮",
      "pgp" : "0",
      "terminal" : "0",
      "latitude" : "24.33171",
      "inDis" : "50",
      "routeId" : "170",
      "seqNo" : "13"
   },
   {
      "GoBack" : "1",
      "longitude" : "120.60843",
      "outDis" : "50",
      "Id" : "1705",
      "oid" : "5482",
      "districtId" : "1",
      "nameZh" : "水汴頭",
      "pgp" : "0",
      "terminal" : "0",
      "latitude" : "24.3267",
      "inDis" : "50",
      "routeId" : "170",
      "seqNo" : "14"
   },
   {
      "GoBack" : "1",
      "longitude" : "120.60112",
      "outDis" : "50",
      "Id" : "1993",
      "oid" : "5645",
      "districtId" : "1",
      "nameZh" : "甲南",
      "pgp" : "0",
      "terminal" : "0",
      "latitude" : "24.30457",
      "inDis" : "50",
      "routeId" : "170",
      "seqNo" : "15"
   },
   {
      "GoBack" : "1",
      "longitude" : "120.59271",
      "outDis" : "50",
      "Id" : "3022",
      "oid" : "6229",
      "districtId" : "1",
      "nameZh" : "清泉國中　",
      "pgp" : "0",
      "terminal" : "0",
      "latitude" : "24.305",
      "inDis" : "50",
      "routeId" : "170",
      "seqNo" : "16"
   },
   {
      "GoBack" : "1",
      "longitude" : "120.58429",
      "outDis" : "50",
      "Id" : "2933",
      "oid" : "6180",
      "districtId" : "1",
      "nameZh" : "國姓廟",
      "pgp" : "0",
      "terminal" : "0",
      "latitude" : "24.30266",
      "inDis" : "50",
      "routeId" : "170",
      "seqNo" : "17"
   },
   {
      "GoBack" : "1",
      "longitude" : "120.57816",
      "outDis" : "50",
      "Id" : "5772",
      "oid" : "309863817",
      "districtId" : "1",
      "nameZh" : "臨港三美路口",
      "pgp" : "0",
      "terminal" : "0",
      "latitude" : "24.30095",
      "inDis" : "50",
      "routeId" : "170",
      "seqNo" : "18"
   },
   {
      "GoBack" : "1",
      "longitude" : "120.57483",
      "outDis" : "50",
      "Id" : "3473",
      "oid" : "6486",
      "districtId" : "1",
      "nameZh" : "溪埔仔",
      "pgp" : "0",
      "terminal" : "0",
      "latitude" : "24.30009",
      "inDis" : "50",
      "routeId" : "170",
      "seqNo" : "19"
   },
   {
      "GoBack" : "1",
      "longitude" : "120.56491",
      "outDis" : "50",
      "Id" : "5771",
      "oid" : "309863818",
      "districtId" : "1",
      "nameZh" : "臨港高美路口",
      "pgp" : "0",
      "terminal" : "0",
      "latitude" : "24.29737",
      "inDis" : "50",
      "routeId" : "170",
      "seqNo" : "20"
   },
   {
      "GoBack" : "1",
      "longitude" : "120.55094",
      "outDis" : "50",
      "Id" : "5770",
      "oid" : "309863819",
      "districtId" : "1",
      "nameZh" : "臨港港埠路口",
      "pgp" : "0",
      "terminal" : "0",
      "latitude" : "24.29344",
      "inDis" : "50",
      "routeId" : "170",
      "seqNo" : "21"
   },
   {
      "GoBack" : "1",
      "longitude" : "120.53974",
      "outDis" : "50",
      "Id" : "5063",
      "oid" : "309863813",
      "districtId" : "1",
      "nameZh" : "臺中港北堤",
      "pgp" : "0",
      "terminal" : "0",
      "latitude" : "24.28838",
      "inDis" : "50",
      "routeId" : "170",
      "seqNo" : "22"
   },
   {
      "GoBack" : "1",
      "longitude" : "120.53797",
      "outDis" : "50",
      "Id" : "3763",
      "oid" : "6614",
      "districtId" : "1",
      "nameZh" : "賢德大樓",
      "pgp" : "0",
      "terminal" : "0",
      "latitude" : "24.28544",
      "inDis" : "50",
      "routeId" : "170",
      "seqNo" : "23"
   },
   {
      "GoBack" : "1",
      "longitude" : "120.53716",
      "outDis" : "50",
      "Id" : "3729",
      "oid" : "6597",
      "districtId" : "1",
      "nameZh" : "德豐大樓",
      "pgp" : "0",
      "terminal" : "0",
      "latitude" : "24.28354",
      "inDis" : "50",
      "routeId" : "170",
      "seqNo" : "24"
   },
   {
      "GoBack" : "1",
      "longitude" : "120.53648",
      "outDis" : "50",
      "Id" : "2180",
      "oid" : "5758",
      "districtId" : "1",
      "nameZh" : "西瓜寮",
      "pgp" : "0",
      "terminal" : "0",
      "latitude" : "24.28195",
      "inDis" : "50",
      "routeId" : "170",
      "seqNo" : "25"
   },
   {
      "GoBack" : "1",
      "longitude" : "120.53521",
      "outDis" : "50",
      "Id" : "2657",
      "oid" : "6031",
      "districtId" : "1",
      "nameZh" : "後營門口",
      "pgp" : "0",
      "terminal" : "0",
      "latitude" : "24.27895",
      "inDis" : "50",
      "routeId" : "170",
      "seqNo" : "26"
   },
   {
      "GoBack" : "1",
      "longitude" : "120.53423",
      "outDis" : "50",
      "Id" : "2996",
      "oid" : "6206",
      "districtId" : "1",
      "nameZh" : "梧棟",
      "pgp" : "0",
      "terminal" : "0",
      "latitude" : "24.27666",
      "inDis" : "50",
      "routeId" : "170",
      "seqNo" : "27"
   },
   {
      "GoBack" : "1",
      "longitude" : "120.5331",
      "outDis" : "50",
      "Id" : "5066",
      "oid" : "309863816",
      "districtId" : "1",
      "nameZh" : "環球大樓",
      "pgp" : "0",
      "terminal" : "0",
      "latitude" : "24.27372",
      "inDis" : "50",
      "routeId" : "170",
      "seqNo" : "28"
   },
   {
      "GoBack" : "1",
      "longitude" : "120.53229",
      "outDis" : "50",
      "Id" : "5058",
      "oid" : "309863808",
      "districtId" : "1",
      "nameZh" : "舶來品商圈",
      "pgp" : "0",
      "terminal" : "0",
      "latitude" : "24.27162",
      "inDis" : "50",
      "routeId" : "170",
      "seqNo" : "29"
   },
   {
      "GoBack" : "1",
      "longitude" : "120.53144",
      "outDis" : "50",
      "Id" : "4397",
      "oid" : "13547",
      "districtId" : "1",
      "nameZh" : "港灣技術中心",
      "pgp" : "0",
      "terminal" : "0",
      "latitude" : "24.26981",
      "inDis" : "50",
      "routeId" : "170",
      "seqNo" : "30"
   },
   {
      "GoBack" : "1",
      "longitude" : "120.52987",
      "outDis" : "50",
      "Id" : "4374",
      "oid" : "309863799",
      "districtId" : "1",
      "nameZh" : "大智梧北路口",
      "pgp" : "0",
      "terminal" : "0",
      "latitude" : "24.26109",
      "inDis" : "50",
      "routeId" : "170",
      "seqNo" : "31"
   },
   {
      "GoBack" : "1",
      "longitude" : "120.52987",
      "outDis" : "50",
      "Id" : "5057",
      "oid" : "309863807",
      "districtId" : "1",
      "nameZh" : "梧棲郵局",
      "pgp" : "0",
      "terminal" : "0",
      "latitude" : "24.25756",
      "inDis" : "50",
      "routeId" : "170",
      "seqNo" : "32"
   },
   {
      "GoBack" : "1",
      "longitude" : "120.52946",
      "outDis" : "50",
      "Id" : "2997",
      "oid" : "319851511",
      "districtId" : "1",
      "nameZh" : "梧棲(梧棲路)",
      "pgp" : "0",
      "terminal" : "0",
      "latitude" : "24.25647",
      "inDis" : "50",
      "routeId" : "170",
      "seqNo" : "33"
   },
   {
      "GoBack" : "2",
      "longitude" : "120.52946",
      "outDis" : "50",
      "Id" : "2997",
      "oid" : "319851511",
      "districtId" : "1",
      "nameZh" : "梧棲(梧棲路)",
      "pgp" : "0",
      "terminal" : "0",
      "latitude" : "24.25647",
      "inDis" : "50",
      "routeId" : "170",
      "seqNo" : "1"
   },
   {
      "GoBack" : "2",
      "longitude" : "120.52987",
      "outDis" : "50",
      "Id" : "5057",
      "oid" : "309863807",
      "districtId" : "1",
      "nameZh" : "梧棲郵局",
      "pgp" : "0",
      "terminal" : "0",
      "latitude" : "24.25756",
      "inDis" : "50",
      "routeId" : "170",
      "seqNo" : "2"
   },
   {
      "GoBack" : "2",
      "longitude" : "120.52987",
      "outDis" : "50",
      "Id" : "4374",
      "oid" : "309863799",
      "districtId" : "1",
      "nameZh" : "大智梧北路口",
      "pgp" : "0",
      "terminal" : "0",
      "latitude" : "24.26109",
      "inDis" : "50",
      "routeId" : "170",
      "seqNo" : "3"
   },
   {
      "GoBack" : "2",
      "longitude" : "120.53144",
      "outDis" : "50",
      "Id" : "4397",
      "oid" : "13547",
      "districtId" : "1",
      "nameZh" : "港灣技術中心",
      "pgp" : "0",
      "terminal" : "0",
      "latitude" : "24.26981",
      "inDis" : "50",
      "routeId" : "170",
      "seqNo" : "4"
   },
   {
      "GoBack" : "2",
      "longitude" : "120.53229",
      "outDis" : "50",
      "Id" : "5058",
      "oid" : "309863808",
      "districtId" : "1",
      "nameZh" : "舶來品商圈",
      "pgp" : "0",
      "terminal" : "0",
      "latitude" : "24.27162",
      "inDis" : "50",
      "routeId" : "170",
      "seqNo" : "5"
   },
   {
      "GoBack" : "2",
      "longitude" : "120.5331",
      "outDis" : "50",
      "Id" : "5066",
      "oid" : "309863816",
      "districtId" : "1",
      "nameZh" : "環球大樓",
      "pgp" : "0",
      "terminal" : "0",
      "latitude" : "24.27372",
      "inDis" : "50",
      "routeId" : "170",
      "seqNo" : "6"
   },
   {
      "GoBack" : "2",
      "longitude" : "120.53423",
      "outDis" : "50",
      "Id" : "2996",
      "oid" : "6206",
      "districtId" : "1",
      "nameZh" : "梧棟",
      "pgp" : "0",
      "terminal" : "0",
      "latitude" : "24.27666",
      "inDis" : "50",
      "routeId" : "170",
      "seqNo" : "7"
   },
   {
      "GoBack" : "2",
      "longitude" : "120.53521",
      "outDis" : "50",
      "Id" : "2657",
      "oid" : "6031",
      "districtId" : "1",
      "nameZh" : "後營門口",
      "pgp" : "0",
      "terminal" : "0",
      "latitude" : "24.27895",
      "inDis" : "50",
      "routeId" : "170",
      "seqNo" : "8"
   },
   {
      "GoBack" : "2",
      "longitude" : "120.53648",
      "outDis" : "50",
      "Id" : "2180",
      "oid" : "5758",
      "districtId" : "1",
      "nameZh" : "西瓜寮",
      "pgp" : "0",
      "terminal" : "0",
      "latitude" : "24.28195",
      "inDis" : "50",
      "routeId" : "170",
      "seqNo" : "9"
   },
   {
      "GoBack" : "2",
      "longitude" : "120.53716",
      "outDis" : "50",
      "Id" : "3729",
      "oid" : "6597",
      "districtId" : "1",
      "nameZh" : "德豐大樓",
      "pgp" : "0",
      "terminal" : "0",
      "latitude" : "24.28354",
      "inDis" : "50",
      "routeId" : "170",
      "seqNo" : "10"
   },
   {
      "GoBack" : "2",
      "longitude" : "120.53797",
      "outDis" : "50",
      "Id" : "3763",
      "oid" : "6614",
      "districtId" : "1",
      "nameZh" : "賢德大樓",
      "pgp" : "0",
      "terminal" : "0",
      "latitude" : "24.28544",
      "inDis" : "50",
      "routeId" : "170",
      "seqNo" : "11"
   },
   {
      "GoBack" : "2",
      "longitude" : "120.53974",
      "outDis" : "50",
      "Id" : "5063",
      "oid" : "309863813",
      "districtId" : "1",
      "nameZh" : "臺中港北堤",
      "pgp" : "0",
      "terminal" : "0",
      "latitude" : "24.28838",
      "inDis" : "50",
      "routeId" : "170",
      "seqNo" : "12"
   },
   {
      "GoBack" : "2",
      "longitude" : "120.55094",
      "outDis" : "50",
      "Id" : "5770",
      "oid" : "309863819",
      "districtId" : "1",
      "nameZh" : "臨港港埠路口",
      "pgp" : "0",
      "terminal" : "0",
      "latitude" : "24.29344",
      "inDis" : "50",
      "routeId" : "170",
      "seqNo" : "13"
   },
   {
      "GoBack" : "2",
      "longitude" : "120.56491",
      "outDis" : "50",
      "Id" : "5771",
      "oid" : "309863818",
      "districtId" : "1",
      "nameZh" : "臨港高美路口",
      "pgp" : "0",
      "terminal" : "0",
      "latitude" : "24.29737",
      "inDis" : "50",
      "routeId" : "170",
      "seqNo" : "14"
   },
   {
      "GoBack" : "2",
      "longitude" : "120.57483",
      "outDis" : "50",
      "Id" : "3473",
      "oid" : "6486",
      "districtId" : "1",
      "nameZh" : "溪埔仔",
      "pgp" : "0",
      "terminal" : "0",
      "latitude" : "24.30009",
      "inDis" : "50",
      "routeId" : "170",
      "seqNo" : "15"
   },
   {
      "GoBack" : "2",
      "longitude" : "120.57816",
      "outDis" : "50",
      "Id" : "5772",
      "oid" : "309863817",
      "districtId" : "1",
      "nameZh" : "臨港三美路口",
      "pgp" : "0",
      "terminal" : "0",
      "latitude" : "24.30095",
      "inDis" : "50",
      "routeId" : "170",
      "seqNo" : "16"
   },
   {
      "GoBack" : "2",
      "longitude" : "120.58429",
      "outDis" : "50",
      "Id" : "2933",
      "oid" : "6180",
      "districtId" : "1",
      "nameZh" : "國姓廟",
      "pgp" : "0",
      "terminal" : "0",
      "latitude" : "24.30266",
      "inDis" : "50",
      "routeId" : "170",
      "seqNo" : "17"
   },
   {
      "GoBack" : "2",
      "longitude" : "120.59271",
      "outDis" : "50",
      "Id" : "3022",
      "oid" : "6229",
      "districtId" : "1",
      "nameZh" : "清泉國中　",
      "pgp" : "0",
      "terminal" : "0",
      "latitude" : "24.305",
      "inDis" : "50",
      "routeId" : "170",
      "seqNo" : "18"
   },
   {
      "GoBack" : "2",
      "longitude" : "120.60112",
      "outDis" : "50",
      "Id" : "1993",
      "oid" : "5645",
      "districtId" : "1",
      "nameZh" : "甲南",
      "pgp" : "0",
      "terminal" : "0",
      "latitude" : "24.30457",
      "inDis" : "50",
      "routeId" : "170",
      "seqNo" : "19"
   },
   {
      "GoBack" : "2",
      "longitude" : "120.60843",
      "outDis" : "50",
      "Id" : "1705",
      "oid" : "5482",
      "districtId" : "1",
      "nameZh" : "水汴頭",
      "pgp" : "0",
      "terminal" : "0",
      "latitude" : "24.3267",
      "inDis" : "50",
      "routeId" : "170",
      "seqNo" : "20"
   },
   {
      "GoBack" : "2",
      "longitude" : "120.61302",
      "outDis" : "50",
      "Id" : "4133",
      "oid" : "319916345",
      "districtId" : "1",
      "nameZh" : "番子寮",
      "pgp" : "0",
      "terminal" : "0",
      "latitude" : "24.33171",
      "inDis" : "50",
      "routeId" : "170",
      "seqNo" : "21"
   },
   {
      "GoBack" : "2",
      "longitude" : "120.61723",
      "outDis" : "50",
      "Id" : "1859",
      "oid" : "5584",
      "districtId" : "1",
      "nameZh" : "外水尾",
      "pgp" : "0",
      "terminal" : "0",
      "latitude" : "24.33731",
      "inDis" : "50",
      "routeId" : "170",
      "seqNo" : "22"
   },
   {
      "GoBack" : "2",
      "longitude" : "120.61874",
      "outDis" : "50",
      "Id" : "5693",
      "oid" : "319916595",
      "districtId" : "1",
      "nameZh" : "水尾橋 ",
      "pgp" : "0",
      "terminal" : "0",
      "latitude" : "24.33972",
      "inDis" : "50",
      "routeId" : "170",
      "seqNo" : "23"
   },
   {
      "GoBack" : "2",
      "longitude" : "120.62143",
      "outDis" : "50",
      "Id" : "5048",
      "oid" : "309863798",
      "districtId" : "1",
      "nameZh" : "大甲高中(中山路)",
      "pgp" : "0",
      "terminal" : "0",
      "latitude" : "24.34212",
      "inDis" : "50",
      "routeId" : "170",
      "seqNo" : "24"
   },
   {
      "GoBack" : "2",
      "longitude" : "120.62404",
      "outDis" : "50",
      "Id" : "5639",
      "oid" : "4101",
      "districtId" : "1",
      "nameZh" : "南陽里(中山路)",
      "pgp" : "0",
      "terminal" : "0",
      "latitude" : "24.34279",
      "inDis" : "50",
      "routeId" : "170",
      "seqNo" : "25"
   },
   {
      "GoBack" : "2",
      "longitude" : "120.62553",
      "outDis" : "50",
      "Id" : "5084",
      "oid" : "5215",
      "districtId" : "1",
      "nameZh" : "大甲",
      "pgp" : "0",
      "terminal" : "0",
      "latitude" : "24.34321",
      "inDis" : "50",
      "routeId" : "170",
      "seqNo" : "26"
   },
   {
      "GoBack" : "2",
      "longitude" : "120.62664",
      "outDis" : "50",
      "Id" : "4432",
      "oid" : "14074",
      "districtId" : "1",
      "nameZh" : "大甲火車站",
      "pgp" : "0",
      "terminal" : "0",
      "latitude" : "24.34461",
      "inDis" : "50",
      "routeId" : "170",
      "seqNo" : "27"
   },
   {
      "GoBack" : "2",
      "longitude" : "120.62286",
      "outDis" : "50",
      "Id" : "1074",
      "oid" : "13774",
      "districtId" : "1",
      "nameZh" : "文昌祠",
      "pgp" : "0",
      "terminal" : "0",
      "latitude" : "24.34726",
      "inDis" : "50",
      "routeId" : "170",
      "seqNo" : "28"
   },
   {
      "GoBack" : "2",
      "longitude" : "120.62028",
      "outDis" : "50",
      "Id" : "5775",
      "oid" : "320571958",
      "districtId" : "1",
      "nameZh" : "庄尾(文武路)",
      "pgp" : "0",
      "terminal" : "0",
      "latitude" : "24.34819",
      "inDis" : "50",
      "routeId" : "170",
      "seqNo" : "29"
   },
   {
      "GoBack" : "2",
      "longitude" : "120.61841",
      "outDis" : "50",
      "Id" : "5692",
      "oid" : "320604390",
      "districtId" : "1",
      "nameZh" : "李綜合醫院",
      "pgp" : "0",
      "terminal" : "0",
      "latitude" : "24.35135",
      "inDis" : "50",
      "routeId" : "170",
      "seqNo" : "30"
   },
   {
      "GoBack" : "2",
      "longitude" : "120.61737",
      "outDis" : "50",
      "Id" : "5691",
      "oid" : "319713434",
      "districtId" : "1",
      "nameZh" : "大甲體育場",
      "pgp" : "0",
      "terminal" : "0",
      "latitude" : "24.35018",
      "inDis" : "50",
      "routeId" : "170",
      "seqNo" : "31"
   },
   {
      "GoBack" : "2",
      "longitude" : "120.61645",
      "outDis" : "50",
      "Id" : "2038",
      "oid" : "5679",
      "districtId" : "1",
      "nameZh" : "光田",
      "pgp" : "0",
      "terminal" : "0",
      "latitude" : "24.34723",
      "inDis" : "50",
      "routeId" : "170",
      "seqNo" : "32"
   },
   {
      "GoBack" : "2",
      "longitude" : "120.61478",
      "outDis" : "50",
      "Id" : "5061",
      "oid" : "309863811",
      "districtId" : "1",
      "nameZh" : "新政大安港路口",
      "pgp" : "0",
      "terminal" : "0",
      "latitude" : "24.35087",
      "inDis" : "50",
      "routeId" : "170",
      "seqNo" : "33"
   }
]
