[
   {
      "GoBack" : "1",
      "longitude" : "120.65581",
      "outDis" : "50",
      "Id" : "5766",
      "oid" : "320612806",
      "districtId" : "1",
      "nameZh" : "豐富公園",
      "pgp" : "0",
      "terminal" : "0",
      "latitude" : "24.12975",
      "inDis" : "50",
      "routeId" : "202",
      "seqNo" : "1"
   },
   {
      "GoBack" : "1",
      "longitude" : "120.66008",
      "outDis" : "50",
      "Id" : "5765",
      "oid" : "320612807",
      "districtId" : "1",
      "nameZh" : "三民西柳川東路口",
      "pgp" : "0",
      "terminal" : "0",
      "latitude" : "24.13012",
      "inDis" : "50",
      "routeId" : "202",
      "seqNo" : "2"
   },
   {
      "GoBack" : "1",
      "longitude" : "120.66317",
      "outDis" : "50",
      "Id" : "5764",
      "oid" : "320612808",
      "districtId" : "1",
      "nameZh" : "三民西民興街口",
      "pgp" : "0",
      "terminal" : "0",
      "latitude" : "24.13014",
      "inDis" : "50",
      "routeId" : "202",
      "seqNo" : "3"
   },
   {
      "GoBack" : "1",
      "longitude" : "120.66682",
      "outDis" : "50",
      "Id" : "5763",
      "oid" : "320612809",
      "districtId" : "1",
      "nameZh" : "奉順宮",
      "pgp" : "0",
      "terminal" : "0",
      "latitude" : "24.13142",
      "inDis" : "50",
      "routeId" : "202",
      "seqNo" : "4"
   },
   {
      "GoBack" : "1",
      "longitude" : "120.66997",
      "outDis" : "50",
      "Id" : "5778",
      "oid" : "320612811",
      "districtId" : "1",
      "nameZh" : "公館公園(自由路)",
      "pgp" : "0",
      "terminal" : "0",
      "latitude" : "24.13199",
      "inDis" : "50",
      "routeId" : "202",
      "seqNo" : "5"
   },
   {
      "GoBack" : "1",
      "longitude" : "120.67607",
      "outDis" : "50",
      "Id" : "0070",
      "oid" : "13306",
      "districtId" : "1",
      "nameZh" : "地方法院",
      "pgp" : "0",
      "terminal" : "0",
      "latitude" : "24.13406",
      "inDis" : "50",
      "routeId" : "202",
      "seqNo" : "6"
   },
   {
      "GoBack" : "1",
      "longitude" : "120.67803",
      "outDis" : "50",
      "Id" : "0071",
      "oid" : "12345",
      "districtId" : "1",
      "nameZh" : "臺中女中",
      "pgp" : "0",
      "terminal" : "0",
      "latitude" : "24.13596",
      "inDis" : "50",
      "routeId" : "202",
      "seqNo" : "7"
   },
   {
      "GoBack" : "1",
      "longitude" : "120.68111",
      "outDis" : "50",
      "Id" : "4284",
      "oid" : "13343",
      "districtId" : "1",
      "nameZh" : "民權繼光街口",
      "pgp" : "0",
      "terminal" : "0",
      "latitude" : "24.1366",
      "inDis" : "50",
      "routeId" : "202",
      "seqNo" : "8"
   },
   {
      "GoBack" : "1",
      "longitude" : "120.68397",
      "outDis" : "50",
      "Id" : "1824",
      "oid" : "320612812",
      "districtId" : "1",
      "nameZh" : "臺中火車站",
      "pgp" : "0",
      "terminal" : "0",
      "latitude" : "24.13672",
      "inDis" : "50",
      "routeId" : "202",
      "seqNo" : "9"
   },
   {
      "GoBack" : "1",
      "longitude" : "120.68522",
      "outDis" : "50",
      "Id" : "0402",
      "oid" : "320612813",
      "districtId" : "1",
      "nameZh" : "干城站",
      "pgp" : "0",
      "terminal" : "0",
      "latitude" : "24.14287",
      "inDis" : "50",
      "routeId" : "202",
      "seqNo" : "10"
   },
   {
      "GoBack" : "1",
      "longitude" : "120.68612",
      "outDis" : "50",
      "Id" : "4544",
      "oid" : "13289",
      "districtId" : "1",
      "nameZh" : "臺中公園(雙十路)",
      "pgp" : "0",
      "terminal" : "0",
      "latitude" : "24.14399",
      "inDis" : "50",
      "routeId" : "202",
      "seqNo" : "11"
   },
   {
      "GoBack" : "1",
      "longitude" : "120.68744",
      "outDis" : "50",
      "Id" : "5265",
      "oid" : "310787838",
      "districtId" : "1",
      "nameZh" : "精武雙十路口",
      "pgp" : "0",
      "terminal" : "0",
      "latitude" : "24.14655",
      "inDis" : "50",
      "routeId" : "202",
      "seqNo" : "12"
   },
   {
      "GoBack" : "1",
      "longitude" : "120.69354",
      "outDis" : "50",
      "Id" : "3351",
      "oid" : "6402",
      "districtId" : "1",
      "nameZh" : "慈航寺",
      "pgp" : "0",
      "terminal" : "0",
      "latitude" : "24.1479",
      "inDis" : "50",
      "routeId" : "202",
      "seqNo" : "13"
   },
   {
      "GoBack" : "1",
      "longitude" : "120.69537",
      "outDis" : "50",
      "Id" : "0317",
      "oid" : "5058",
      "districtId" : "1",
      "nameZh" : "十甲社區",
      "pgp" : "0",
      "terminal" : "0",
      "latitude" : "24.14794",
      "inDis" : "50",
      "routeId" : "202",
      "seqNo" : "14"
   },
   {
      "GoBack" : "1",
      "longitude" : "120.70276",
      "outDis" : "50",
      "Id" : "0862",
      "oid" : "6422",
      "districtId" : "1",
      "nameZh" : "新光里",
      "pgp" : "0",
      "terminal" : "0",
      "latitude" : "24.14827",
      "inDis" : "50",
      "routeId" : "202",
      "seqNo" : "15"
   },
   {
      "GoBack" : "1",
      "longitude" : "120.70434",
      "outDis" : "50",
      "Id" : "4745",
      "oid" : "317813139",
      "districtId" : "1",
      "nameZh" : "精武十甲東路口",
      "pgp" : "0",
      "terminal" : "0",
      "latitude" : "24.14824",
      "inDis" : "50",
      "routeId" : "202",
      "seqNo" : "16"
   },
   {
      "GoBack" : "1",
      "longitude" : "120.70753",
      "outDis" : "50",
      "Id" : "0867",
      "oid" : "EB74C917327C478AAD23A04A0F19D6D4",
      "districtId" : "1",
      "nameZh" : "楓愛林社區",
      "pgp" : "0",
      "terminal" : "0",
      "latitude" : "24.14897",
      "inDis" : "50",
      "routeId" : "202",
      "seqNo" : "17"
   },
   {
      "GoBack" : "1",
      "longitude" : "120.70973",
      "outDis" : "50",
      "Id" : "0864",
      "oid" : "6441",
      "districtId" : "1",
      "nameZh" : "新高社區",
      "pgp" : "0",
      "terminal" : "0",
      "latitude" : "24.1494",
      "inDis" : "50",
      "routeId" : "202",
      "seqNo" : "18"
   },
   {
      "GoBack" : "1",
      "longitude" : "120.71087",
      "outDis" : "50",
      "Id" : "5005",
      "oid" : "305945921",
      "districtId" : "1",
      "nameZh" : "新高兒童公園",
      "pgp" : "0",
      "terminal" : "0",
      "latitude" : "24.15097",
      "inDis" : "50",
      "routeId" : "202",
      "seqNo" : "19"
   },
   {
      "GoBack" : "1",
      "longitude" : "120.71107",
      "outDis" : "50",
      "Id" : "5271",
      "oid" : "310787850",
      "districtId" : "1",
      "nameZh" : "樹德廣三街口",
      "pgp" : "0",
      "terminal" : "0",
      "latitude" : "24.15176",
      "inDis" : "50",
      "routeId" : "202",
      "seqNo" : "20"
   },
   {
      "GoBack" : "1",
      "longitude" : "120.71221",
      "outDis" : "50",
      "Id" : "5008",
      "oid" : "309414081",
      "districtId" : "1",
      "nameZh" : "樹德育才路口",
      "pgp" : "0",
      "terminal" : "0",
      "latitude" : "24.15619",
      "inDis" : "50",
      "routeId" : "202",
      "seqNo" : "21"
   },
   {
      "GoBack" : "1",
      "longitude" : "120.71256",
      "outDis" : "50",
      "Id" : "5007",
      "oid" : "309414078",
      "districtId" : "1",
      "nameZh" : "樹德育賢路口",
      "pgp" : "0",
      "terminal" : "0",
      "latitude" : "24.15747",
      "inDis" : "50",
      "routeId" : "202",
      "seqNo" : "22"
   },
   {
      "GoBack" : "1",
      "longitude" : "120.71414",
      "outDis" : "50",
      "Id" : "1850",
      "oid" : "5574",
      "districtId" : "1",
      "nameZh" : "四角竹圍",
      "pgp" : "0",
      "terminal" : "0",
      "latitude" : "24.16264",
      "inDis" : "50",
      "routeId" : "202",
      "seqNo" : "23"
   },
   {
      "GoBack" : "1",
      "longitude" : "120.71678",
      "outDis" : "50",
      "Id" : "5286",
      "oid" : "311033693",
      "districtId" : "1",
      "nameZh" : "軍功景賢路口",
      "pgp" : "0",
      "terminal" : "0",
      "latitude" : "24.16628",
      "inDis" : "50",
      "routeId" : "202",
      "seqNo" : "24"
   },
   {
      "GoBack" : "1",
      "longitude" : "120.71894",
      "outDis" : "50",
      "Id" : "0728",
      "oid" : "310994863",
      "districtId" : "1",
      "nameZh" : "軍功國小",
      "pgp" : "0",
      "terminal" : "0",
      "latitude" : "24.17328",
      "inDis" : "50",
      "routeId" : "202",
      "seqNo" : "25"
   },
   {
      "GoBack" : "1",
      "longitude" : "120.71912",
      "outDis" : "50",
      "Id" : "5249",
      "oid" : "310787806",
      "districtId" : "1",
      "nameZh" : "軍功軍福十六路口",
      "pgp" : "0",
      "terminal" : "0",
      "latitude" : "24.17454",
      "inDis" : "50",
      "routeId" : "202",
      "seqNo" : "26"
   },
   {
      "GoBack" : "1",
      "longitude" : "120.71935",
      "outDis" : "80",
      "Id" : "2723",
      "oid" : "1231D4FD99824DA49C314A4A979CA80C",
      "districtId" : "1",
      "nameZh" : "軍功農會",
      "pgp" : "0",
      "terminal" : "0",
      "latitude" : "24.17728",
      "inDis" : "50",
      "routeId" : "202",
      "seqNo" : "27"
   },
   {
      "GoBack" : "1",
      "longitude" : "120.71955",
      "outDis" : "50",
      "Id" : "2631",
      "oid" : "6020",
      "districtId" : "1",
      "nameZh" : "建功橋頭",
      "pgp" : "0",
      "terminal" : "0",
      "latitude" : "24.17989",
      "inDis" : "50",
      "routeId" : "202",
      "seqNo" : "28"
   },
   {
      "GoBack" : "1",
      "longitude" : "120.71934",
      "outDis" : "80",
      "Id" : "0729",
      "oid" : "18383732",
      "districtId" : "1",
      "nameZh" : "軍功松竹路口",
      "pgp" : "0",
      "terminal" : "0",
      "latitude" : "24.18293",
      "inDis" : "30",
      "routeId" : "202",
      "seqNo" : "29"
   },
   {
      "GoBack" : "1",
      "longitude" : "120.71896",
      "outDis" : "50",
      "Id" : "1552",
      "oid" : "5383",
      "districtId" : "1",
      "nameZh" : "仁愛之家",
      "pgp" : "0",
      "terminal" : "0",
      "latitude" : "24.1846",
      "inDis" : "50",
      "routeId" : "202",
      "seqNo" : "30"
   },
   {
      "GoBack" : "1",
      "longitude" : "120.71819",
      "outDis" : "50",
      "Id" : "2078",
      "oid" : "5703",
      "districtId" : "1",
      "nameZh" : "名人球場",
      "pgp" : "0",
      "terminal" : "0",
      "latitude" : "24.1885",
      "inDis" : "50",
      "routeId" : "202",
      "seqNo" : "31"
   },
   {
      "GoBack" : "1",
      "longitude" : "120.71835",
      "outDis" : "50",
      "Id" : "3692",
      "oid" : "6580",
      "districtId" : "1",
      "nameZh" : "聚興",
      "pgp" : "0",
      "terminal" : "0",
      "latitude" : "24.19173",
      "inDis" : "50",
      "routeId" : "202",
      "seqNo" : "32"
   },
   {
      "GoBack" : "1",
      "longitude" : "120.71944",
      "outDis" : "50",
      "Id" : "4769",
      "oid" : "311101855",
      "districtId" : "1",
      "nameZh" : "慈濟中醫院區",
      "pgp" : "0",
      "terminal" : "0",
      "latitude" : "24.19298",
      "inDis" : "50",
      "routeId" : "202",
      "seqNo" : "33"
   },
   {
      "GoBack" : "1",
      "longitude" : "120.71976",
      "outDis" : "50",
      "Id" : "3359",
      "oid" : "6407",
      "districtId" : "1",
      "nameZh" : "慈濟醫院",
      "pgp" : "0",
      "terminal" : "0",
      "latitude" : "24.19372",
      "inDis" : "50",
      "routeId" : "202",
      "seqNo" : "34"
   },
   {
      "GoBack" : "1",
      "longitude" : "120.72196",
      "outDis" : "50",
      "Id" : "1504",
      "oid" : "5352",
      "districtId" : "1",
      "nameZh" : "中興",
      "pgp" : "0",
      "terminal" : "0",
      "latitude" : "24.19924",
      "inDis" : "50",
      "routeId" : "202",
      "seqNo" : "35"
   },
   {
      "GoBack" : "1",
      "longitude" : "120.72265",
      "outDis" : "50",
      "Id" : "3432",
      "oid" : "6452",
      "districtId" : "1",
      "nameZh" : "新興",
      "pgp" : "0",
      "terminal" : "0",
      "latitude" : "24.20362",
      "inDis" : "50",
      "routeId" : "202",
      "seqNo" : "36"
   },
   {
      "GoBack" : "1",
      "longitude" : "120.72178",
      "outDis" : "50",
      "Id" : "2614",
      "oid" : "6014",
      "districtId" : "1",
      "nameZh" : "南新",
      "pgp" : "0",
      "terminal" : "0",
      "latitude" : "24.20973",
      "inDis" : "50",
      "routeId" : "202",
      "seqNo" : "37"
   },
   {
      "GoBack" : "1",
      "longitude" : "120.72258",
      "outDis" : "50",
      "Id" : "1492",
      "oid" : "5344",
      "districtId" : "1",
      "nameZh" : "中新",
      "pgp" : "0",
      "terminal" : "0",
      "latitude" : "24.21323",
      "inDis" : "50",
      "routeId" : "202",
      "seqNo" : "38"
   },
   {
      "GoBack" : "1",
      "longitude" : "120.72361",
      "outDis" : "50",
      "Id" : "3381",
      "oid" : "6419",
      "districtId" : "1",
      "nameZh" : "新田",
      "pgp" : "0",
      "terminal" : "0",
      "latitude" : "24.21844",
      "inDis" : "50",
      "routeId" : "202",
      "seqNo" : "39"
   },
   {
      "GoBack" : "1",
      "longitude" : "120.72407",
      "outDis" : "50",
      "Id" : "3660",
      "oid" : "6557",
      "districtId" : "1",
      "nameZh" : "福德祠",
      "pgp" : "0",
      "terminal" : "0",
      "latitude" : "24.22209",
      "inDis" : "50",
      "routeId" : "202",
      "seqNo" : "40"
   },
   {
      "GoBack" : "1",
      "longitude" : "120.72422",
      "outDis" : "50",
      "Id" : "1219",
      "oid" : "5168",
      "districtId" : "1",
      "nameZh" : "下鐮村",
      "pgp" : "0",
      "terminal" : "0",
      "latitude" : "24.2231",
      "inDis" : "50",
      "routeId" : "202",
      "seqNo" : "41"
   },
   {
      "GoBack" : "1",
      "longitude" : "120.72428",
      "outDis" : "50",
      "Id" : "2527",
      "oid" : "5961",
      "districtId" : "1",
      "nameZh" : "金星觀入口",
      "pgp" : "0",
      "terminal" : "0",
      "latitude" : "24.22677",
      "inDis" : "50",
      "routeId" : "202",
      "seqNo" : "42"
   },
   {
      "GoBack" : "1",
      "longitude" : "120.72427",
      "outDis" : "50",
      "Id" : "2151",
      "oid" : "5743",
      "districtId" : "1",
      "nameZh" : "竹圍口",
      "pgp" : "0",
      "terminal" : "0",
      "latitude" : "24.22999",
      "inDis" : "50",
      "routeId" : "202",
      "seqNo" : "43"
   },
   {
      "GoBack" : "1",
      "longitude" : "120.72476",
      "outDis" : "50",
      "Id" : "5276",
      "oid" : "310787860",
      "districtId" : "1",
      "nameZh" : "鐮村里",
      "pgp" : "0",
      "terminal" : "0",
      "latitude" : "24.23282",
      "inDis" : "50",
      "routeId" : "202",
      "seqNo" : "44"
   },
   {
      "GoBack" : "1",
      "longitude" : "120.72378",
      "outDis" : "50",
      "Id" : "1344",
      "oid" : "5260",
      "districtId" : "1",
      "nameZh" : "大發鑄造",
      "pgp" : "0",
      "terminal" : "0",
      "latitude" : "24.23515",
      "inDis" : "50",
      "routeId" : "202",
      "seqNo" : "45"
   },
   {
      "GoBack" : "1",
      "longitude" : "120.72236",
      "outDis" : "50",
      "Id" : "2666",
      "oid" : "6034",
      "districtId" : "1",
      "nameZh" : "甘宅",
      "pgp" : "0",
      "terminal" : "0",
      "latitude" : "24.23857",
      "inDis" : "50",
      "routeId" : "202",
      "seqNo" : "46"
   },
   {
      "GoBack" : "1",
      "longitude" : "120.71859",
      "outDis" : "50",
      "Id" : "5274",
      "oid" : "310787856",
      "districtId" : "1",
      "nameZh" : "豐原區公所",
      "pgp" : "0",
      "terminal" : "0",
      "latitude" : "24.24194",
      "inDis" : "50",
      "routeId" : "202",
      "seqNo" : "47"
   },
   {
      "GoBack" : "1",
      "longitude" : "120.71716",
      "outDis" : "50",
      "Id" : "4483",
      "oid" : "13855",
      "districtId" : "1",
      "nameZh" : "圓環東自強南街口",
      "pgp" : "0",
      "terminal" : "0",
      "latitude" : "24.24392",
      "inDis" : "50",
      "routeId" : "202",
      "seqNo" : "48"
   },
   {
      "GoBack" : "1",
      "longitude" : "120.7153",
      "outDis" : "50",
      "Id" : "3938",
      "oid" : "6696",
      "districtId" : "1",
      "nameZh" : "豐原高商",
      "pgp" : "0",
      "terminal" : "0",
      "latitude" : "24.24754",
      "inDis" : "50",
      "routeId" : "202",
      "seqNo" : "49"
   },
   {
      "GoBack" : "1",
      "longitude" : "120.71475",
      "outDis" : "50",
      "Id" : "0033",
      "oid" : "13324",
      "districtId" : "1",
      "nameZh" : "豐原電信局",
      "pgp" : "0",
      "terminal" : "0",
      "latitude" : "24.25003",
      "inDis" : "50",
      "routeId" : "202",
      "seqNo" : "50"
   },
   {
      "GoBack" : "1",
      "longitude" : "120.71526",
      "outDis" : "50",
      "Id" : "3939",
      "oid" : "6698",
      "districtId" : "1",
      "nameZh" : "豐原郵局",
      "pgp" : "0",
      "terminal" : "0",
      "latitude" : "24.25136",
      "inDis" : "50",
      "routeId" : "202",
      "seqNo" : "51"
   },
   {
      "GoBack" : "1",
      "longitude" : "120.71851",
      "outDis" : "50",
      "Id" : "3343",
      "oid" : "6397",
      "districtId" : "1",
      "nameZh" : "媽祖廟",
      "pgp" : "0",
      "terminal" : "0",
      "latitude" : "24.25157",
      "inDis" : "50",
      "routeId" : "202",
      "seqNo" : "52"
   },
   {
      "GoBack" : "1",
      "longitude" : "120.71986",
      "outDis" : "50",
      "Id" : "2309",
      "oid" : "5835",
      "districtId" : "1",
      "nameZh" : "和平街",
      "pgp" : "0",
      "terminal" : "0",
      "latitude" : "24.25233",
      "inDis" : "50",
      "routeId" : "202",
      "seqNo" : "53"
   },
   {
      "GoBack" : "1",
      "longitude" : "120.72154",
      "outDis" : "70",
      "Id" : "3935",
      "oid" : "6693",
      "districtId" : "1",
      "nameZh" : "豐原",
      "pgp" : "0",
      "terminal" : "0",
      "latitude" : "24.2538",
      "inDis" : "70",
      "routeId" : "202",
      "seqNo" : "54"
   },
   {
      "GoBack" : "2",
      "longitude" : "120.72154",
      "outDis" : "70",
      "Id" : "3935",
      "oid" : "6693",
      "districtId" : "1",
      "nameZh" : "豐原",
      "pgp" : "0",
      "terminal" : "0",
      "latitude" : "24.2538",
      "inDis" : "70",
      "routeId" : "202",
      "seqNo" : "1"
   },
   {
      "GoBack" : "2",
      "longitude" : "120.71851",
      "outDis" : "50",
      "Id" : "3343",
      "oid" : "6397",
      "districtId" : "1",
      "nameZh" : "媽祖廟",
      "pgp" : "0",
      "terminal" : "0",
      "latitude" : "24.25157",
      "inDis" : "50",
      "routeId" : "202",
      "seqNo" : "2"
   },
   {
      "GoBack" : "2",
      "longitude" : "120.71526",
      "outDis" : "50",
      "Id" : "3939",
      "oid" : "6698",
      "districtId" : "1",
      "nameZh" : "豐原郵局",
      "pgp" : "0",
      "terminal" : "0",
      "latitude" : "24.25136",
      "inDis" : "50",
      "routeId" : "202",
      "seqNo" : "3"
   },
   {
      "GoBack" : "2",
      "longitude" : "120.71475",
      "outDis" : "50",
      "Id" : "0033",
      "oid" : "13324",
      "districtId" : "1",
      "nameZh" : "豐原電信局",
      "pgp" : "0",
      "terminal" : "0",
      "latitude" : "24.25003",
      "inDis" : "50",
      "routeId" : "202",
      "seqNo" : "4"
   },
   {
      "GoBack" : "2",
      "longitude" : "120.7153",
      "outDis" : "50",
      "Id" : "3938",
      "oid" : "6696",
      "districtId" : "1",
      "nameZh" : "豐原高商",
      "pgp" : "0",
      "terminal" : "0",
      "latitude" : "24.24754",
      "inDis" : "50",
      "routeId" : "202",
      "seqNo" : "5"
   },
   {
      "GoBack" : "2",
      "longitude" : "120.71716",
      "outDis" : "50",
      "Id" : "4483",
      "oid" : "13855",
      "districtId" : "1",
      "nameZh" : "圓環東自強南街口",
      "pgp" : "0",
      "terminal" : "0",
      "latitude" : "24.24392",
      "inDis" : "50",
      "routeId" : "202",
      "seqNo" : "6"
   },
   {
      "GoBack" : "2",
      "longitude" : "120.71859",
      "outDis" : "50",
      "Id" : "5274",
      "oid" : "310787856",
      "districtId" : "1",
      "nameZh" : "豐原區公所",
      "pgp" : "0",
      "terminal" : "0",
      "latitude" : "24.24194",
      "inDis" : "50",
      "routeId" : "202",
      "seqNo" : "7"
   },
   {
      "GoBack" : "2",
      "longitude" : "120.72236",
      "outDis" : "50",
      "Id" : "2666",
      "oid" : "6034",
      "districtId" : "1",
      "nameZh" : "甘宅",
      "pgp" : "0",
      "terminal" : "0",
      "latitude" : "24.23857",
      "inDis" : "50",
      "routeId" : "202",
      "seqNo" : "8"
   },
   {
      "GoBack" : "2",
      "longitude" : "120.72378",
      "outDis" : "50",
      "Id" : "1344",
      "oid" : "5260",
      "districtId" : "1",
      "nameZh" : "大發鑄造",
      "pgp" : "0",
      "terminal" : "0",
      "latitude" : "24.23515",
      "inDis" : "50",
      "routeId" : "202",
      "seqNo" : "9"
   },
   {
      "GoBack" : "2",
      "longitude" : "120.72476",
      "outDis" : "50",
      "Id" : "5276",
      "oid" : "310787861",
      "districtId" : "1",
      "nameZh" : "鐮村里",
      "pgp" : "0",
      "terminal" : "0",
      "latitude" : "24.23282",
      "inDis" : "50",
      "routeId" : "202",
      "seqNo" : "10"
   },
   {
      "GoBack" : "2",
      "longitude" : "120.72427",
      "outDis" : "50",
      "Id" : "2151",
      "oid" : "5743",
      "districtId" : "1",
      "nameZh" : "竹圍口",
      "pgp" : "0",
      "terminal" : "0",
      "latitude" : "24.22999",
      "inDis" : "50",
      "routeId" : "202",
      "seqNo" : "11"
   },
   {
      "GoBack" : "2",
      "longitude" : "120.72428",
      "outDis" : "50",
      "Id" : "2527",
      "oid" : "5961",
      "districtId" : "1",
      "nameZh" : "金星觀入口",
      "pgp" : "0",
      "terminal" : "0",
      "latitude" : "24.22677",
      "inDis" : "50",
      "routeId" : "202",
      "seqNo" : "12"
   },
   {
      "GoBack" : "2",
      "longitude" : "120.72422",
      "outDis" : "50",
      "Id" : "1219",
      "oid" : "5168",
      "districtId" : "1",
      "nameZh" : "下鐮村",
      "pgp" : "0",
      "terminal" : "0",
      "latitude" : "24.2231",
      "inDis" : "50",
      "routeId" : "202",
      "seqNo" : "13"
   },
   {
      "GoBack" : "2",
      "longitude" : "120.72407",
      "outDis" : "50",
      "Id" : "3660",
      "oid" : "6557",
      "districtId" : "1",
      "nameZh" : "福德祠",
      "pgp" : "0",
      "terminal" : "0",
      "latitude" : "24.22209",
      "inDis" : "50",
      "routeId" : "202",
      "seqNo" : "14"
   },
   {
      "GoBack" : "2",
      "longitude" : "120.72361",
      "outDis" : "50",
      "Id" : "3381",
      "oid" : "6419",
      "districtId" : "1",
      "nameZh" : "新田",
      "pgp" : "0",
      "terminal" : "0",
      "latitude" : "24.21844",
      "inDis" : "50",
      "routeId" : "202",
      "seqNo" : "15"
   },
   {
      "GoBack" : "2",
      "longitude" : "120.72258",
      "outDis" : "50",
      "Id" : "1492",
      "oid" : "5344",
      "districtId" : "1",
      "nameZh" : "中新",
      "pgp" : "0",
      "terminal" : "0",
      "latitude" : "24.21323",
      "inDis" : "50",
      "routeId" : "202",
      "seqNo" : "16"
   },
   {
      "GoBack" : "2",
      "longitude" : "120.72178",
      "outDis" : "50",
      "Id" : "2614",
      "oid" : "6014",
      "districtId" : "1",
      "nameZh" : "南新",
      "pgp" : "0",
      "terminal" : "0",
      "latitude" : "24.20973",
      "inDis" : "50",
      "routeId" : "202",
      "seqNo" : "17"
   },
   {
      "GoBack" : "2",
      "longitude" : "120.72265",
      "outDis" : "50",
      "Id" : "3432",
      "oid" : "6452",
      "districtId" : "1",
      "nameZh" : "新興",
      "pgp" : "0",
      "terminal" : "0",
      "latitude" : "24.20362",
      "inDis" : "50",
      "routeId" : "202",
      "seqNo" : "18"
   },
   {
      "GoBack" : "2",
      "longitude" : "120.72196",
      "outDis" : "50",
      "Id" : "1504",
      "oid" : "5352",
      "districtId" : "1",
      "nameZh" : "中興",
      "pgp" : "0",
      "terminal" : "0",
      "latitude" : "24.19924",
      "inDis" : "50",
      "routeId" : "202",
      "seqNo" : "19"
   },
   {
      "GoBack" : "2",
      "longitude" : "120.71976",
      "outDis" : "50",
      "Id" : "3359",
      "oid" : "6407",
      "districtId" : "1",
      "nameZh" : "慈濟醫院",
      "pgp" : "0",
      "terminal" : "0",
      "latitude" : "24.19372",
      "inDis" : "50",
      "routeId" : "202",
      "seqNo" : "20"
   },
   {
      "GoBack" : "2",
      "longitude" : "120.71944",
      "outDis" : "50",
      "Id" : "4769",
      "oid" : "311101855",
      "districtId" : "1",
      "nameZh" : "慈濟中醫院區",
      "pgp" : "0",
      "terminal" : "0",
      "latitude" : "24.19298",
      "inDis" : "50",
      "routeId" : "202",
      "seqNo" : "21"
   },
   {
      "GoBack" : "2",
      "longitude" : "120.71835",
      "outDis" : "50",
      "Id" : "3692",
      "oid" : "6580",
      "districtId" : "1",
      "nameZh" : "聚興",
      "pgp" : "0",
      "terminal" : "0",
      "latitude" : "24.19173",
      "inDis" : "50",
      "routeId" : "202",
      "seqNo" : "22"
   },
   {
      "GoBack" : "2",
      "longitude" : "120.71819",
      "outDis" : "50",
      "Id" : "2078",
      "oid" : "5703",
      "districtId" : "1",
      "nameZh" : "名人球場",
      "pgp" : "0",
      "terminal" : "0",
      "latitude" : "24.1885",
      "inDis" : "50",
      "routeId" : "202",
      "seqNo" : "23"
   },
   {
      "GoBack" : "2",
      "longitude" : "120.71896",
      "outDis" : "50",
      "Id" : "1552",
      "oid" : "5383",
      "districtId" : "1",
      "nameZh" : "仁愛之家",
      "pgp" : "0",
      "terminal" : "0",
      "latitude" : "24.1846",
      "inDis" : "50",
      "routeId" : "202",
      "seqNo" : "24"
   },
   {
      "GoBack" : "2",
      "longitude" : "120.71926",
      "outDis" : "80",
      "Id" : "0729",
      "oid" : "18383741",
      "districtId" : "1",
      "nameZh" : "軍功松竹路口",
      "pgp" : "0",
      "terminal" : "0",
      "latitude" : "24.18306",
      "inDis" : "50",
      "routeId" : "202",
      "seqNo" : "25"
   },
   {
      "GoBack" : "2",
      "longitude" : "120.71955",
      "outDis" : "50",
      "Id" : "2631",
      "oid" : "6020",
      "districtId" : "1",
      "nameZh" : "建功橋頭",
      "pgp" : "0",
      "terminal" : "0",
      "latitude" : "24.17989",
      "inDis" : "50",
      "routeId" : "202",
      "seqNo" : "26"
   },
   {
      "GoBack" : "2",
      "longitude" : "120.71935",
      "outDis" : "80",
      "Id" : "2723",
      "oid" : "1231D4FD99824DA49C314A4A979CA80C",
      "districtId" : "1",
      "nameZh" : "軍功農會",
      "pgp" : "0",
      "terminal" : "0",
      "latitude" : "24.17728",
      "inDis" : "50",
      "routeId" : "202",
      "seqNo" : "27"
   },
   {
      "GoBack" : "2",
      "longitude" : "120.71912",
      "outDis" : "50",
      "Id" : "5249",
      "oid" : "310787806",
      "districtId" : "1",
      "nameZh" : "軍功軍福十六路口",
      "pgp" : "0",
      "terminal" : "0",
      "latitude" : "24.17454",
      "inDis" : "50",
      "routeId" : "202",
      "seqNo" : "28"
   },
   {
      "GoBack" : "2",
      "longitude" : "120.71894",
      "outDis" : "50",
      "Id" : "0728",
      "oid" : "310994863",
      "districtId" : "1",
      "nameZh" : "軍功國小",
      "pgp" : "0",
      "terminal" : "0",
      "latitude" : "24.17328",
      "inDis" : "50",
      "routeId" : "202",
      "seqNo" : "29"
   },
   {
      "GoBack" : "2",
      "longitude" : "120.71678",
      "outDis" : "50",
      "Id" : "5286",
      "oid" : "311033693",
      "districtId" : "1",
      "nameZh" : "軍功景賢路口",
      "pgp" : "0",
      "terminal" : "0",
      "latitude" : "24.16628",
      "inDis" : "50",
      "routeId" : "202",
      "seqNo" : "30"
   },
   {
      "GoBack" : "2",
      "longitude" : "120.71414",
      "outDis" : "50",
      "Id" : "1850",
      "oid" : "5574",
      "districtId" : "1",
      "nameZh" : "四角竹圍",
      "pgp" : "0",
      "terminal" : "0",
      "latitude" : "24.16264",
      "inDis" : "50",
      "routeId" : "202",
      "seqNo" : "31"
   },
   {
      "GoBack" : "2",
      "longitude" : "120.71256",
      "outDis" : "50",
      "Id" : "5007",
      "oid" : "309414079",
      "districtId" : "1",
      "nameZh" : "樹德育賢路口",
      "pgp" : "0",
      "terminal" : "0",
      "latitude" : "24.15747",
      "inDis" : "50",
      "routeId" : "202",
      "seqNo" : "32"
   },
   {
      "GoBack" : "2",
      "longitude" : "120.71221",
      "outDis" : "50",
      "Id" : "5008",
      "oid" : "309414081",
      "districtId" : "1",
      "nameZh" : "樹德育才路口",
      "pgp" : "0",
      "terminal" : "0",
      "latitude" : "24.15619",
      "inDis" : "50",
      "routeId" : "202",
      "seqNo" : "33"
   },
   {
      "GoBack" : "2",
      "longitude" : "120.71107",
      "outDis" : "50",
      "Id" : "5271",
      "oid" : "310787850",
      "districtId" : "1",
      "nameZh" : "樹德廣三街口",
      "pgp" : "0",
      "terminal" : "0",
      "latitude" : "24.15176",
      "inDis" : "50",
      "routeId" : "202",
      "seqNo" : "34"
   },
   {
      "GoBack" : "2",
      "longitude" : "120.71087",
      "outDis" : "50",
      "Id" : "5005",
      "oid" : "305945921",
      "districtId" : "1",
      "nameZh" : "新高兒童公園",
      "pgp" : "0",
      "terminal" : "0",
      "latitude" : "24.15097",
      "inDis" : "50",
      "routeId" : "202",
      "seqNo" : "35"
   },
   {
      "GoBack" : "2",
      "longitude" : "120.70973",
      "outDis" : "50",
      "Id" : "0864",
      "oid" : "6441",
      "districtId" : "1",
      "nameZh" : "新高社區",
      "pgp" : "0",
      "terminal" : "0",
      "latitude" : "24.1494",
      "inDis" : "50",
      "routeId" : "202",
      "seqNo" : "36"
   },
   {
      "GoBack" : "2",
      "longitude" : "120.70753",
      "outDis" : "50",
      "Id" : "0867",
      "oid" : "EB74C917327C478AAD23A04A0F19D6D4",
      "districtId" : "1",
      "nameZh" : "楓愛林社區",
      "pgp" : "0",
      "terminal" : "0",
      "latitude" : "24.14897",
      "inDis" : "50",
      "routeId" : "202",
      "seqNo" : "37"
   },
   {
      "GoBack" : "2",
      "longitude" : "120.70434",
      "outDis" : "50",
      "Id" : "4745",
      "oid" : "317813139",
      "districtId" : "1",
      "nameZh" : "精武十甲東路口",
      "pgp" : "0",
      "terminal" : "0",
      "latitude" : "24.14824",
      "inDis" : "50",
      "routeId" : "202",
      "seqNo" : "38"
   },
   {
      "GoBack" : "2",
      "longitude" : "120.70276",
      "outDis" : "50",
      "Id" : "0862",
      "oid" : "6422",
      "districtId" : "1",
      "nameZh" : "新光里",
      "pgp" : "0",
      "terminal" : "0",
      "latitude" : "24.14827",
      "inDis" : "50",
      "routeId" : "202",
      "seqNo" : "39"
   },
   {
      "GoBack" : "2",
      "longitude" : "120.69537",
      "outDis" : "50",
      "Id" : "0317",
      "oid" : "5058",
      "districtId" : "1",
      "nameZh" : "十甲社區",
      "pgp" : "0",
      "terminal" : "0",
      "latitude" : "24.14794",
      "inDis" : "50",
      "routeId" : "202",
      "seqNo" : "40"
   },
   {
      "GoBack" : "2",
      "longitude" : "120.69354",
      "outDis" : "50",
      "Id" : "3351",
      "oid" : "6402",
      "districtId" : "1",
      "nameZh" : "慈航寺",
      "pgp" : "0",
      "terminal" : "0",
      "latitude" : "24.1479",
      "inDis" : "50",
      "routeId" : "202",
      "seqNo" : "41"
   },
   {
      "GoBack" : "2",
      "longitude" : "120.68649",
      "outDis" : "50",
      "Id" : "5265",
      "oid" : "310787839",
      "districtId" : "1",
      "nameZh" : "精武雙十路口",
      "pgp" : "0",
      "terminal" : "0",
      "latitude" : "24.14497",
      "inDis" : "50",
      "routeId" : "202",
      "seqNo" : "42"
   },
   {
      "GoBack" : "2",
      "longitude" : "120.68612",
      "outDis" : "50",
      "Id" : "4544",
      "oid" : "13289",
      "districtId" : "1",
      "nameZh" : "臺中公園(雙十路)",
      "pgp" : "0",
      "terminal" : "0",
      "latitude" : "24.14399",
      "inDis" : "50",
      "routeId" : "202",
      "seqNo" : "43"
   },
   {
      "GoBack" : "2",
      "longitude" : "120.68522",
      "outDis" : "50",
      "Id" : "0402",
      "oid" : "320612813",
      "districtId" : "1",
      "nameZh" : "干城站",
      "pgp" : "0",
      "terminal" : "0",
      "latitude" : "24.14287",
      "inDis" : "50",
      "routeId" : "202",
      "seqNo" : "44"
   },
   {
      "GoBack" : "2",
      "longitude" : "120.68397",
      "outDis" : "50",
      "Id" : "1824",
      "oid" : "320612812",
      "districtId" : "1",
      "nameZh" : "臺中火車站",
      "pgp" : "0",
      "terminal" : "0",
      "latitude" : "24.13672",
      "inDis" : "50",
      "routeId" : "202",
      "seqNo" : "45"
   },
   {
      "GoBack" : "2",
      "longitude" : "120.68111",
      "outDis" : "50",
      "Id" : "4284",
      "oid" : "13343",
      "districtId" : "1",
      "nameZh" : "民權繼光街口",
      "pgp" : "0",
      "terminal" : "0",
      "latitude" : "24.1366",
      "inDis" : "50",
      "routeId" : "202",
      "seqNo" : "46"
   },
   {
      "GoBack" : "2",
      "longitude" : "120.67803",
      "outDis" : "50",
      "Id" : "0071",
      "oid" : "12345",
      "districtId" : "1",
      "nameZh" : "臺中女中",
      "pgp" : "0",
      "terminal" : "0",
      "latitude" : "24.13596",
      "inDis" : "50",
      "routeId" : "202",
      "seqNo" : "47"
   },
   {
      "GoBack" : "2",
      "longitude" : "120.67607",
      "outDis" : "50",
      "Id" : "0070",
      "oid" : "13306",
      "districtId" : "1",
      "nameZh" : "地方法院",
      "pgp" : "0",
      "terminal" : "0",
      "latitude" : "24.13406",
      "inDis" : "50",
      "routeId" : "202",
      "seqNo" : "48"
   },
   {
      "GoBack" : "2",
      "longitude" : "120.66997",
      "outDis" : "50",
      "Id" : "5778",
      "oid" : "320612811",
      "districtId" : "1",
      "nameZh" : "公館公園(自由路)",
      "pgp" : "0",
      "terminal" : "0",
      "latitude" : "24.13199",
      "inDis" : "50",
      "routeId" : "202",
      "seqNo" : "49"
   },
   {
      "GoBack" : "2",
      "longitude" : "120.66682",
      "outDis" : "50",
      "Id" : "5763",
      "oid" : "320612809",
      "districtId" : "1",
      "nameZh" : "奉順宮",
      "pgp" : "0",
      "terminal" : "0",
      "latitude" : "24.13142",
      "inDis" : "50",
      "routeId" : "202",
      "seqNo" : "50"
   },
   {
      "GoBack" : "2",
      "longitude" : "120.66317",
      "outDis" : "50",
      "Id" : "5764",
      "oid" : "320612808",
      "districtId" : "1",
      "nameZh" : "三民西民興街口",
      "pgp" : "0",
      "terminal" : "0",
      "latitude" : "24.13014",
      "inDis" : "50",
      "routeId" : "202",
      "seqNo" : "51"
   },
   {
      "GoBack" : "2",
      "longitude" : "120.66008",
      "outDis" : "50",
      "Id" : "5765",
      "oid" : "320612807",
      "districtId" : "1",
      "nameZh" : "三民西柳川東路口",
      "pgp" : "0",
      "terminal" : "0",
      "latitude" : "24.13012",
      "inDis" : "50",
      "routeId" : "202",
      "seqNo" : "52"
   },
   {
      "GoBack" : "2",
      "longitude" : "120.65581",
      "outDis" : "50",
      "Id" : "5766",
      "oid" : "320612806",
      "districtId" : "1",
      "nameZh" : "豐富公園",
      "pgp" : "0",
      "terminal" : "0",
      "latitude" : "24.12975",
      "inDis" : "50",
      "routeId" : "202",
      "seqNo" : "53"
   }
]
