[
   {
      "GoBack" : "1",
      "longitude" : "120.57213",
      "outDis" : "50",
      "Id" : "3620",
      "oid" : "318983556",
      "districtId" : "1",
      "nameZh" : "臺中區監理所（遊園路）",
      "pgp" : "0",
      "terminal" : "0",
      "latitude" : "24.15567",
      "inDis" : "50",
      "routeId" : "藍9",
      "seqNo" : "1"
   },
   {
      "GoBack" : "1",
      "longitude" : "120.57342",
      "outDis" : "50",
      "Id" : "4752",
      "oid" : "318983558",
      "districtId" : "1",
      "nameZh" : "幸福新城",
      "pgp" : "0",
      "terminal" : "0",
      "latitude" : "24.15772",
      "inDis" : "50",
      "routeId" : "藍9",
      "seqNo" : "2"
   },
   {
      "GoBack" : "1",
      "longitude" : "120.57437",
      "outDis" : "50",
      "Id" : "1480",
      "oid" : "318983560",
      "districtId" : "1",
      "nameZh" : "中富國宅",
      "pgp" : "0",
      "terminal" : "0",
      "latitude" : "24.1598",
      "inDis" : "50",
      "routeId" : "藍9",
      "seqNo" : "3"
   },
   {
      "GoBack" : "1",
      "longitude" : "120.57538",
      "outDis" : "50",
      "Id" : "1521",
      "oid" : "318983562",
      "districtId" : "1",
      "nameZh" : "井子頭",
      "pgp" : "0",
      "terminal" : "0",
      "latitude" : "24.16178",
      "inDis" : "50",
      "routeId" : "藍9",
      "seqNo" : "4"
   },
   {
      "GoBack" : "1",
      "longitude" : "120.57641",
      "outDis" : "50",
      "Id" : "5145",
      "oid" : "318983564",
      "districtId" : "1",
      "nameZh" : "瑞井里",
      "pgp" : "0",
      "terminal" : "0",
      "latitude" : "24.1637",
      "inDis" : "50",
      "routeId" : "藍9",
      "seqNo" : "5"
   },
   {
      "GoBack" : "1",
      "longitude" : "120.57801",
      "outDis" : "50",
      "Id" : "2419",
      "oid" : "318983566",
      "districtId" : "1",
      "nameZh" : "東海駕訓班",
      "pgp" : "0",
      "terminal" : "0",
      "latitude" : "24.16681",
      "inDis" : "50",
      "routeId" : "藍9",
      "seqNo" : "6"
   },
   {
      "GoBack" : "1",
      "longitude" : "120.57923",
      "outDis" : "50",
      "Id" : "1501",
      "oid" : "318983568",
      "districtId" : "1",
      "nameZh" : "遊園中蔗路口",
      "pgp" : "0",
      "terminal" : "0",
      "latitude" : "24.1694",
      "inDis" : "50",
      "routeId" : "藍9",
      "seqNo" : "7"
   },
   {
      "GoBack" : "1",
      "longitude" : "120.57977",
      "outDis" : "50",
      "Id" : "3751",
      "oid" : "318983570",
      "districtId" : "1",
      "nameZh" : "蔗部",
      "pgp" : "0",
      "terminal" : "0",
      "latitude" : "24.17085",
      "inDis" : "50",
      "routeId" : "藍9",
      "seqNo" : "8"
   },
   {
      "GoBack" : "1",
      "longitude" : "120.58053",
      "outDis" : "50",
      "Id" : "2168",
      "oid" : "318983572",
      "districtId" : "1",
      "nameZh" : "自強新城",
      "pgp" : "0",
      "terminal" : "0",
      "latitude" : "24.17289",
      "inDis" : "50",
      "routeId" : "藍9",
      "seqNo" : "9"
   },
   {
      "GoBack" : "1",
      "longitude" : "120.58156",
      "outDis" : "50",
      "Id" : "1875",
      "oid" : "318983574",
      "districtId" : "1",
      "nameZh" : "巧聖先師",
      "pgp" : "0",
      "terminal" : "0",
      "latitude" : "24.17563",
      "inDis" : "50",
      "routeId" : "藍9",
      "seqNo" : "10"
   },
   {
      "GoBack" : "1",
      "longitude" : "120.58207",
      "outDis" : "50",
      "Id" : "3747",
      "oid" : "318989032",
      "districtId" : "1",
      "nameZh" : "磐頂教會",
      "pgp" : "0",
      "terminal" : "0",
      "latitude" : "24.17694",
      "inDis" : "50",
      "routeId" : "藍9",
      "seqNo" : "11"
   },
   {
      "GoBack" : "1",
      "longitude" : "120.58327",
      "outDis" : "50",
      "Id" : "5144",
      "oid" : "318989034",
      "districtId" : "1",
      "nameZh" : "新庄里",
      "pgp" : "0",
      "terminal" : "0",
      "latitude" : "24.18024",
      "inDis" : "50",
      "routeId" : "藍9",
      "seqNo" : "12"
   },
   {
      "GoBack" : "1",
      "longitude" : "120.58537",
      "outDis" : "50",
      "Id" : "5170",
      "oid" : "318989036",
      "districtId" : "1",
      "nameZh" : "新興新莊路口",
      "pgp" : "0",
      "terminal" : "0",
      "latitude" : "24.18186",
      "inDis" : "50",
      "routeId" : "藍9",
      "seqNo" : "13"
   },
   {
      "GoBack" : "1",
      "longitude" : "120.58738",
      "outDis" : "50",
      "Id" : "3301",
      "oid" : "318989038",
      "districtId" : "1",
      "nameZh" : "陽明別墅",
      "pgp" : "0",
      "terminal" : "0",
      "latitude" : "24.18135",
      "inDis" : "50",
      "routeId" : "藍9",
      "seqNo" : "14"
   },
   {
      "GoBack" : "1",
      "longitude" : "120.59",
      "outDis" : "50",
      "Id" : "5377",
      "oid" : "318989040",
      "districtId" : "1",
      "nameZh" : "東海商圈",
      "pgp" : "0",
      "terminal" : "0",
      "latitude" : "24.18096",
      "inDis" : "50",
      "routeId" : "藍9",
      "seqNo" : "15"
   },
   {
      "GoBack" : "1",
      "longitude" : "120.59424",
      "outDis" : "50",
      "Id" : "0240",
      "oid" : "318989042",
      "districtId" : "1",
      "nameZh" : "東海別墅",
      "pgp" : "0",
      "terminal" : "0",
      "latitude" : "24.18244",
      "inDis" : "50",
      "routeId" : "藍9",
      "seqNo" : "16"
   },
   {
      "GoBack" : "1",
      "longitude" : "120.59644",
      "outDis" : "50",
      "Id" : "0526",
      "oid" : "318989044",
      "districtId" : "1",
      "nameZh" : "台中精機",
      "pgp" : "0",
      "terminal" : "0",
      "latitude" : "24.18203",
      "inDis" : "50",
      "routeId" : "藍9",
      "seqNo" : "17"
   },
   {
      "GoBack" : "1",
      "longitude" : "120.60491",
      "outDis" : "50",
      "Id" : "5386",
      "oid" : "318989046",
      "districtId" : "1",
      "nameZh" : "臺中榮總（臺灣大道）",
      "pgp" : "0",
      "terminal" : "0",
      "latitude" : "24.18349",
      "inDis" : "50",
      "routeId" : "藍9",
      "seqNo" : "18"
   },
   {
      "GoBack" : "1",
      "longitude" : "120.60633",
      "outDis" : "50",
      "Id" : "2378",
      "oid" : "318989048",
      "districtId" : "1",
      "nameZh" : "東大附中",
      "pgp" : "0",
      "terminal" : "0",
      "latitude" : "24.18371",
      "inDis" : "50",
      "routeId" : "藍9",
      "seqNo" : "19"
   },
   {
      "GoBack" : "1",
      "longitude" : "120.60821",
      "outDis" : "50",
      "Id" : "0004",
      "oid" : "318989050",
      "districtId" : "1",
      "nameZh" : "普濟寺",
      "pgp" : "0",
      "terminal" : "0",
      "latitude" : "24.18422",
      "inDis" : "50",
      "routeId" : "藍9",
      "seqNo" : "20"
   },
   {
      "GoBack" : "1",
      "longitude" : "120.6098",
      "outDis" : "50",
      "Id" : "5287",
      "oid" : "318989052",
      "districtId" : "1",
      "nameZh" : "玉門臺灣大道口",
      "pgp" : "0",
      "terminal" : "0",
      "latitude" : "24.18503",
      "inDis" : "50",
      "routeId" : "藍9",
      "seqNo" : "21"
   },
   {
      "GoBack" : "1",
      "longitude" : "120.61034",
      "outDis" : "50",
      "Id" : "5234",
      "oid" : "318989054",
      "districtId" : "1",
      "nameZh" : "玉門福科路口",
      "pgp" : "0",
      "terminal" : "0",
      "latitude" : "24.18838",
      "inDis" : "50",
      "routeId" : "藍9",
      "seqNo" : "22"
   },
   {
      "GoBack" : "1",
      "longitude" : "120.61072",
      "outDis" : "50",
      "Id" : "0885",
      "oid" : "318989056",
      "districtId" : "1",
      "nameZh" : "榮總宿舍",
      "pgp" : "0",
      "terminal" : "0",
      "latitude" : "24.1898",
      "inDis" : "50",
      "routeId" : "藍9",
      "seqNo" : "23"
   },
   {
      "GoBack" : "1",
      "longitude" : "120.61092",
      "outDis" : "50",
      "Id" : "4683",
      "oid" : "318989058",
      "districtId" : "1",
      "nameZh" : "玉門西屯路口",
      "pgp" : "0",
      "terminal" : "0",
      "latitude" : "24.19098",
      "inDis" : "50",
      "routeId" : "藍9",
      "seqNo" : "24"
   },
   {
      "GoBack" : "1",
      "longitude" : "120.61237",
      "outDis" : "50",
      "Id" : "0403",
      "oid" : "318990276",
      "districtId" : "1",
      "nameZh" : "新杜拜社區",
      "pgp" : "0",
      "terminal" : "0",
      "latitude" : "24.19152",
      "inDis" : "50",
      "routeId" : "藍9",
      "seqNo" : "25"
   },
   {
      "GoBack" : "1",
      "longitude" : "120.61443",
      "outDis" : "50",
      "Id" : "0408",
      "oid" : "318990279",
      "districtId" : "1",
      "nameZh" : "國安一福林路口",
      "pgp" : "0",
      "terminal" : "0",
      "latitude" : "24.19066",
      "inDis" : "50",
      "routeId" : "藍9",
      "seqNo" : "26"
   },
   {
      "GoBack" : "1",
      "longitude" : "120.61595",
      "outDis" : "50",
      "Id" : "0959",
      "oid" : "318989060",
      "districtId" : "1",
      "nameZh" : "麗景天地",
      "pgp" : "0",
      "terminal" : "0",
      "latitude" : "24.18904",
      "inDis" : "50",
      "routeId" : "藍9",
      "seqNo" : "27"
   },
   {
      "GoBack" : "1",
      "longitude" : "120.61796",
      "outDis" : "50",
      "Id" : "0620",
      "oid" : "318989062",
      "districtId" : "1",
      "nameZh" : "宏台別墅",
      "pgp" : "0",
      "terminal" : "0",
      "latitude" : "24.18803",
      "inDis" : "50",
      "routeId" : "藍9",
      "seqNo" : "28"
   },
   {
      "GoBack" : "1",
      "longitude" : "120.61792",
      "outDis" : "50",
      "Id" : "5263",
      "oid" : "318989064",
      "districtId" : "1",
      "nameZh" : "福科福雅路口",
      "pgp" : "0",
      "terminal" : "0",
      "latitude" : "24.18526",
      "inDis" : "50",
      "routeId" : "藍9",
      "seqNo" : "29"
   },
   {
      "GoBack" : "1",
      "longitude" : "120.62096",
      "outDis" : "50",
      "Id" : "0053",
      "oid" : "318989066",
      "districtId" : "1",
      "nameZh" : "福科永福路口",
      "pgp" : "0",
      "terminal" : "0",
      "latitude" : "24.18382",
      "inDis" : "50",
      "routeId" : "藍9",
      "seqNo" : "30"
   },
   {
      "GoBack" : "1",
      "longitude" : "120.62466",
      "outDis" : "50",
      "Id" : "0010",
      "oid" : "318989068",
      "districtId" : "1",
      "nameZh" : "福科安和路口",
      "pgp" : "0",
      "terminal" : "0",
      "latitude" : "24.18224",
      "inDis" : "50",
      "routeId" : "藍9",
      "seqNo" : "31"
   },
   {
      "GoBack" : "1",
      "longitude" : "120.62665",
      "outDis" : "50",
      "Id" : "0286",
      "oid" : "318961604",
      "districtId" : "1",
      "nameZh" : "福科福裕路口",
      "pgp" : "0",
      "terminal" : "0",
      "latitude" : "24.18132",
      "inDis" : "50",
      "routeId" : "藍9",
      "seqNo" : "32"
   },
   {
      "GoBack" : "1",
      "longitude" : "120.63655",
      "outDis" : "50",
      "Id" : "4649",
      "oid" : "318989070",
      "districtId" : "1",
      "nameZh" : "福科環中路口",
      "pgp" : "0",
      "terminal" : "0",
      "latitude" : "24.17924",
      "inDis" : "50",
      "routeId" : "藍9",
      "seqNo" : "33"
   },
   {
      "GoBack" : "1",
      "longitude" : "120.63741",
      "outDis" : "50",
      "Id" : "0238",
      "oid" : "318989072",
      "districtId" : "1",
      "nameZh" : "西屯郵局",
      "pgp" : "0",
      "terminal" : "0",
      "latitude" : "24.17695",
      "inDis" : "50",
      "routeId" : "藍9",
      "seqNo" : "34"
   },
   {
      "GoBack" : "1",
      "longitude" : "120.6389",
      "outDis" : "50",
      "Id" : "4616",
      "oid" : "318989074",
      "districtId" : "1",
      "nameZh" : "青海光明路口",
      "pgp" : "0",
      "terminal" : "0",
      "latitude" : "24.17491",
      "inDis" : "50",
      "routeId" : "藍9",
      "seqNo" : "35"
   },
   {
      "GoBack" : "1",
      "longitude" : "120.64033",
      "outDis" : "50",
      "Id" : "5657",
      "oid" : "318989076",
      "districtId" : "1",
      "nameZh" : "至善國中(逢甲路)",
      "pgp" : "0",
      "terminal" : "0",
      "latitude" : "24.17563",
      "inDis" : "50",
      "routeId" : "藍9",
      "seqNo" : "36"
   },
   {
      "GoBack" : "1",
      "longitude" : "120.64325",
      "outDis" : "50",
      "Id" : "4585",
      "oid" : "318989078",
      "districtId" : "1",
      "nameZh" : "逢甲大學(逢甲路)",
      "pgp" : "0",
      "terminal" : "0",
      "latitude" : "24.17822",
      "inDis" : "50",
      "routeId" : "藍9",
      "seqNo" : "37"
   },
   {
      "GoBack" : "1",
      "longitude" : "120.64506",
      "outDis" : "50",
      "Id" : "4586",
      "oid" : "318989080",
      "districtId" : "1",
      "nameZh" : "逢甲大學(福星路)",
      "pgp" : "0",
      "terminal" : "0",
      "latitude" : "24.17941",
      "inDis" : "50",
      "routeId" : "藍9",
      "seqNo" : "38"
   },
   {
      "GoBack" : "1",
      "longitude" : "120.64505",
      "outDis" : "50",
      "Id" : "4334",
      "oid" : "318989082",
      "districtId" : "1",
      "nameZh" : "福星西安街口",
      "pgp" : "0",
      "terminal" : "0",
      "latitude" : "24.18155",
      "inDis" : "50",
      "routeId" : "藍9",
      "seqNo" : "39"
   },
   {
      "GoBack" : "1",
      "longitude" : "120.64472",
      "outDis" : "50",
      "Id" : "5658",
      "oid" : "318989084",
      "districtId" : "1",
      "nameZh" : "漢翔公司(星享道)",
      "pgp" : "0",
      "terminal" : "0",
      "latitude" : "24.18421",
      "inDis" : "50",
      "routeId" : "藍9",
      "seqNo" : "40"
   },
   {
      "GoBack" : "1",
      "longitude" : "120.64441",
      "outDis" : "50",
      "Id" : "4327",
      "oid" : "318989086",
      "districtId" : "1",
      "nameZh" : "僑光科技大學",
      "pgp" : "0",
      "terminal" : "0",
      "latitude" : "24.1865",
      "inDis" : "50",
      "routeId" : "藍9",
      "seqNo" : "41"
   },
   {
      "GoBack" : "1",
      "longitude" : "120.64019",
      "outDis" : "50",
      "Id" : "2192",
      "oid" : "318989088",
      "districtId" : "1",
      "nameZh" : "西苑高中",
      "pgp" : "0",
      "terminal" : "0",
      "latitude" : "24.18633",
      "inDis" : "50",
      "routeId" : "藍9",
      "seqNo" : "42"
   },
   {
      "GoBack" : "1",
      "longitude" : "120.64166",
      "outDis" : "30",
      "Id" : "5409",
      "oid" : "318989090",
      "districtId" : "1",
      "nameZh" : "文修停車場",
      "pgp" : "0",
      "terminal" : "0",
      "latitude" : "24.18505",
      "inDis" : "30",
      "routeId" : "藍9",
      "seqNo" : "43"
   },
   {
      "GoBack" : "2",
      "longitude" : "120.64166",
      "outDis" : "50",
      "Id" : "5409",
      "oid" : "318989092",
      "districtId" : "1",
      "nameZh" : "文修停車場",
      "pgp" : "0",
      "terminal" : "0",
      "latitude" : "24.18505",
      "inDis" : "50",
      "routeId" : "藍9",
      "seqNo" : "1"
   },
   {
      "GoBack" : "2",
      "longitude" : "120.6403",
      "outDis" : "50",
      "Id" : "2192",
      "oid" : "318989094",
      "districtId" : "1",
      "nameZh" : "西苑高中",
      "pgp" : "0",
      "terminal" : "0",
      "latitude" : "24.18621",
      "inDis" : "50",
      "routeId" : "藍9",
      "seqNo" : "2"
   },
   {
      "GoBack" : "2",
      "longitude" : "120.64439",
      "outDis" : "50",
      "Id" : "4327",
      "oid" : "318989096",
      "districtId" : "1",
      "nameZh" : "僑光科技大學",
      "pgp" : "0",
      "terminal" : "0",
      "latitude" : "24.18646",
      "inDis" : "50",
      "routeId" : "藍9",
      "seqNo" : "3"
   },
   {
      "GoBack" : "2",
      "longitude" : "120.64472",
      "outDis" : "50",
      "Id" : "5658",
      "oid" : "318989098",
      "districtId" : "1",
      "nameZh" : "漢翔公司(星享道)",
      "pgp" : "0",
      "terminal" : "0",
      "latitude" : "24.18421",
      "inDis" : "50",
      "routeId" : "藍9",
      "seqNo" : "4"
   },
   {
      "GoBack" : "2",
      "longitude" : "120.64495",
      "outDis" : "50",
      "Id" : "4334",
      "oid" : "318989100",
      "districtId" : "1",
      "nameZh" : "福星西安街口",
      "pgp" : "0",
      "terminal" : "0",
      "latitude" : "24.18154",
      "inDis" : "50",
      "routeId" : "藍9",
      "seqNo" : "5"
   },
   {
      "GoBack" : "2",
      "longitude" : "120.64508",
      "outDis" : "50",
      "Id" : "4586",
      "oid" : "318989102",
      "districtId" : "1",
      "nameZh" : "逢甲大學(福星路)",
      "pgp" : "0",
      "terminal" : "0",
      "latitude" : "24.17938",
      "inDis" : "50",
      "routeId" : "藍9",
      "seqNo" : "6"
   },
   {
      "GoBack" : "2",
      "longitude" : "120.64417",
      "outDis" : "50",
      "Id" : "4585",
      "oid" : "318989104",
      "districtId" : "1",
      "nameZh" : "逢甲大學(逢甲路)",
      "pgp" : "0",
      "terminal" : "0",
      "latitude" : "24.17879",
      "inDis" : "50",
      "routeId" : "藍9",
      "seqNo" : "7"
   },
   {
      "GoBack" : "2",
      "longitude" : "120.64011",
      "outDis" : "50",
      "Id" : "5657",
      "oid" : "318989106",
      "districtId" : "1",
      "nameZh" : "至善國中(逢甲路)",
      "pgp" : "0",
      "terminal" : "0",
      "latitude" : "24.17554",
      "inDis" : "50",
      "routeId" : "藍9",
      "seqNo" : "8"
   },
   {
      "GoBack" : "2",
      "longitude" : "120.6389",
      "outDis" : "50",
      "Id" : "4616",
      "oid" : "318989074",
      "districtId" : "1",
      "nameZh" : "青海光明路口",
      "pgp" : "0",
      "terminal" : "0",
      "latitude" : "24.17491",
      "inDis" : "50",
      "routeId" : "藍9",
      "seqNo" : "9"
   },
   {
      "GoBack" : "2",
      "longitude" : "120.63741",
      "outDis" : "50",
      "Id" : "0238",
      "oid" : "318989072",
      "districtId" : "1",
      "nameZh" : "西屯郵局",
      "pgp" : "0",
      "terminal" : "0",
      "latitude" : "24.17695",
      "inDis" : "50",
      "routeId" : "藍9",
      "seqNo" : "10"
   },
   {
      "GoBack" : "2",
      "longitude" : "120.63655",
      "outDis" : "50",
      "Id" : "4649",
      "oid" : "318989112",
      "districtId" : "1",
      "nameZh" : "福科環中路口",
      "pgp" : "0",
      "terminal" : "0",
      "latitude" : "24.17924",
      "inDis" : "50",
      "routeId" : "藍9",
      "seqNo" : "11"
   },
   {
      "GoBack" : "2",
      "longitude" : "120.62671",
      "outDis" : "50",
      "Id" : "0286",
      "oid" : "318961605",
      "districtId" : "1",
      "nameZh" : "福科福裕路口",
      "pgp" : "0",
      "terminal" : "0",
      "latitude" : "24.18144",
      "inDis" : "50",
      "routeId" : "藍9",
      "seqNo" : "12"
   },
   {
      "GoBack" : "2",
      "longitude" : "120.62447",
      "outDis" : "50",
      "Id" : "0010",
      "oid" : "318989114",
      "districtId" : "1",
      "nameZh" : "福科安和路口",
      "pgp" : "0",
      "terminal" : "0",
      "latitude" : "24.18235",
      "inDis" : "50",
      "routeId" : "藍9",
      "seqNo" : "13"
   },
   {
      "GoBack" : "2",
      "longitude" : "120.62129",
      "outDis" : "50",
      "Id" : "0053",
      "oid" : "318989116",
      "districtId" : "1",
      "nameZh" : "福科永福路口",
      "pgp" : "0",
      "terminal" : "0",
      "latitude" : "24.18368",
      "inDis" : "50",
      "routeId" : "藍9",
      "seqNo" : "14"
   },
   {
      "GoBack" : "2",
      "longitude" : "120.61792",
      "outDis" : "50",
      "Id" : "5263",
      "oid" : "318989118",
      "districtId" : "1",
      "nameZh" : "福科福雅路口",
      "pgp" : "0",
      "terminal" : "0",
      "latitude" : "24.18526",
      "inDis" : "50",
      "routeId" : "藍9",
      "seqNo" : "15"
   },
   {
      "GoBack" : "2",
      "longitude" : "120.61791",
      "outDis" : "50",
      "Id" : "0620",
      "oid" : "318989120",
      "districtId" : "1",
      "nameZh" : "宏台別墅",
      "pgp" : "0",
      "terminal" : "0",
      "latitude" : "24.18829",
      "inDis" : "50",
      "routeId" : "藍9",
      "seqNo" : "16"
   },
   {
      "GoBack" : "2",
      "longitude" : "120.61591",
      "outDis" : "50",
      "Id" : "0959",
      "oid" : "318989122",
      "districtId" : "1",
      "nameZh" : "麗景天地",
      "pgp" : "0",
      "terminal" : "0",
      "latitude" : "24.18913",
      "inDis" : "50",
      "routeId" : "藍9",
      "seqNo" : "17"
   },
   {
      "GoBack" : "2",
      "longitude" : "120.61445",
      "outDis" : "50",
      "Id" : "0408",
      "oid" : "318990277",
      "districtId" : "1",
      "nameZh" : "國安一福林路口",
      "pgp" : "0",
      "terminal" : "0",
      "latitude" : "24.19071",
      "inDis" : "50",
      "routeId" : "藍9",
      "seqNo" : "18"
   },
   {
      "GoBack" : "2",
      "longitude" : "120.6124",
      "outDis" : "50",
      "Id" : "0403",
      "oid" : "318990275",
      "districtId" : "1",
      "nameZh" : "新杜拜社區",
      "pgp" : "0",
      "terminal" : "0",
      "latitude" : "24.19155",
      "inDis" : "50",
      "routeId" : "藍9",
      "seqNo" : "19"
   },
   {
      "GoBack" : "2",
      "longitude" : "120.61092",
      "outDis" : "50",
      "Id" : "4683",
      "oid" : "318989124",
      "districtId" : "1",
      "nameZh" : "玉門西屯路口",
      "pgp" : "0",
      "terminal" : "0",
      "latitude" : "24.19098",
      "inDis" : "50",
      "routeId" : "藍9",
      "seqNo" : "20"
   },
   {
      "GoBack" : "2",
      "longitude" : "120.61072",
      "outDis" : "50",
      "Id" : "0885",
      "oid" : "318989126",
      "districtId" : "1",
      "nameZh" : "榮總宿舍",
      "pgp" : "0",
      "terminal" : "0",
      "latitude" : "24.1898",
      "inDis" : "50",
      "routeId" : "藍9",
      "seqNo" : "21"
   },
   {
      "GoBack" : "2",
      "longitude" : "120.61016",
      "outDis" : "50",
      "Id" : "5234",
      "oid" : "318989128",
      "districtId" : "1",
      "nameZh" : "玉門福科路口",
      "pgp" : "0",
      "terminal" : "0",
      "latitude" : "24.18753",
      "inDis" : "50",
      "routeId" : "藍9",
      "seqNo" : "22"
   },
   {
      "GoBack" : "2",
      "longitude" : "120.60964",
      "outDis" : "50",
      "Id" : "5287",
      "oid" : "318989130",
      "districtId" : "1",
      "nameZh" : "玉門臺灣大道口",
      "pgp" : "0",
      "terminal" : "0",
      "latitude" : "24.18516",
      "inDis" : "50",
      "routeId" : "藍9",
      "seqNo" : "23"
   },
   {
      "GoBack" : "2",
      "longitude" : "120.60898",
      "outDis" : "50",
      "Id" : "0004",
      "oid" : "318989132",
      "districtId" : "1",
      "nameZh" : "普濟寺",
      "pgp" : "0",
      "terminal" : "0",
      "latitude" : "24.18437",
      "inDis" : "50",
      "routeId" : "藍9",
      "seqNo" : "24"
   },
   {
      "GoBack" : "2",
      "longitude" : "120.60686",
      "outDis" : "50",
      "Id" : "2378",
      "oid" : "318989134",
      "districtId" : "1",
      "nameZh" : "東大附中",
      "pgp" : "0",
      "terminal" : "0",
      "latitude" : "24.18365",
      "inDis" : "50",
      "routeId" : "藍9",
      "seqNo" : "25"
   },
   {
      "GoBack" : "2",
      "longitude" : "120.60491",
      "outDis" : "50",
      "Id" : "5386",
      "oid" : "318989136",
      "districtId" : "1",
      "nameZh" : "臺中榮總（臺灣大道）",
      "pgp" : "0",
      "terminal" : "0",
      "latitude" : "24.18349",
      "inDis" : "50",
      "routeId" : "藍9",
      "seqNo" : "26"
   },
   {
      "GoBack" : "2",
      "longitude" : "120.59",
      "outDis" : "50",
      "Id" : "5377",
      "oid" : "318989138",
      "districtId" : "1",
      "nameZh" : "東海商圈",
      "pgp" : "0",
      "terminal" : "0",
      "latitude" : "24.18096",
      "inDis" : "50",
      "routeId" : "藍9",
      "seqNo" : "27"
   },
   {
      "GoBack" : "2",
      "longitude" : "120.58738",
      "outDis" : "50",
      "Id" : "3301",
      "oid" : "318989140",
      "districtId" : "1",
      "nameZh" : "陽明別墅",
      "pgp" : "0",
      "terminal" : "0",
      "latitude" : "24.18135",
      "inDis" : "50",
      "routeId" : "藍9",
      "seqNo" : "28"
   },
   {
      "GoBack" : "2",
      "longitude" : "120.58537",
      "outDis" : "50",
      "Id" : "5170",
      "oid" : "318989142",
      "districtId" : "1",
      "nameZh" : "新興新莊路口",
      "pgp" : "0",
      "terminal" : "0",
      "latitude" : "24.18186",
      "inDis" : "50",
      "routeId" : "藍9",
      "seqNo" : "29"
   },
   {
      "GoBack" : "2",
      "longitude" : "120.58327",
      "outDis" : "50",
      "Id" : "5144",
      "oid" : "318989144",
      "districtId" : "1",
      "nameZh" : "新庄里",
      "pgp" : "0",
      "terminal" : "0",
      "latitude" : "24.18024",
      "inDis" : "50",
      "routeId" : "藍9",
      "seqNo" : "30"
   },
   {
      "GoBack" : "2",
      "longitude" : "120.58207",
      "outDis" : "50",
      "Id" : "3747",
      "oid" : "318989146",
      "districtId" : "1",
      "nameZh" : "磐頂教會",
      "pgp" : "0",
      "terminal" : "0",
      "latitude" : "24.17694",
      "inDis" : "50",
      "routeId" : "藍9",
      "seqNo" : "31"
   },
   {
      "GoBack" : "2",
      "longitude" : "120.58156",
      "outDis" : "50",
      "Id" : "1875",
      "oid" : "318989148",
      "districtId" : "1",
      "nameZh" : "巧聖先師",
      "pgp" : "0",
      "terminal" : "0",
      "latitude" : "24.17563",
      "inDis" : "50",
      "routeId" : "藍9",
      "seqNo" : "32"
   },
   {
      "GoBack" : "2",
      "longitude" : "120.58053",
      "outDis" : "50",
      "Id" : "2168",
      "oid" : "318989150",
      "districtId" : "1",
      "nameZh" : "自強新城",
      "pgp" : "0",
      "terminal" : "0",
      "latitude" : "24.17289",
      "inDis" : "50",
      "routeId" : "藍9",
      "seqNo" : "33"
   },
   {
      "GoBack" : "2",
      "longitude" : "120.57977",
      "outDis" : "50",
      "Id" : "3751",
      "oid" : "318989152",
      "districtId" : "1",
      "nameZh" : "蔗部",
      "pgp" : "0",
      "terminal" : "0",
      "latitude" : "24.17085",
      "inDis" : "50",
      "routeId" : "藍9",
      "seqNo" : "34"
   },
   {
      "GoBack" : "2",
      "longitude" : "120.57923",
      "outDis" : "50",
      "Id" : "1501",
      "oid" : "318989154",
      "districtId" : "1",
      "nameZh" : "遊園中蔗路口",
      "pgp" : "0",
      "terminal" : "0",
      "latitude" : "24.1694",
      "inDis" : "50",
      "routeId" : "藍9",
      "seqNo" : "35"
   },
   {
      "GoBack" : "2",
      "longitude" : "120.57801",
      "outDis" : "50",
      "Id" : "2419",
      "oid" : "318989156",
      "districtId" : "1",
      "nameZh" : "東海駕訓班",
      "pgp" : "0",
      "terminal" : "0",
      "latitude" : "24.16681",
      "inDis" : "50",
      "routeId" : "藍9",
      "seqNo" : "36"
   },
   {
      "GoBack" : "2",
      "longitude" : "120.57641",
      "outDis" : "50",
      "Id" : "5145",
      "oid" : "318989158",
      "districtId" : "1",
      "nameZh" : "瑞井里",
      "pgp" : "0",
      "terminal" : "0",
      "latitude" : "24.1637",
      "inDis" : "50",
      "routeId" : "藍9",
      "seqNo" : "37"
   },
   {
      "GoBack" : "2",
      "longitude" : "120.57538",
      "outDis" : "50",
      "Id" : "1521",
      "oid" : "318989160",
      "districtId" : "1",
      "nameZh" : "井子頭",
      "pgp" : "0",
      "terminal" : "0",
      "latitude" : "24.16178",
      "inDis" : "50",
      "routeId" : "藍9",
      "seqNo" : "38"
   },
   {
      "GoBack" : "2",
      "longitude" : "120.57437",
      "outDis" : "50",
      "Id" : "1480",
      "oid" : "318989162",
      "districtId" : "1",
      "nameZh" : "中富國宅",
      "pgp" : "0",
      "terminal" : "0",
      "latitude" : "24.1598",
      "inDis" : "50",
      "routeId" : "藍9",
      "seqNo" : "39"
   },
   {
      "GoBack" : "2",
      "longitude" : "120.57336",
      "outDis" : "50",
      "Id" : "4752",
      "oid" : "318989164",
      "districtId" : "1",
      "nameZh" : "幸福新城",
      "pgp" : "0",
      "terminal" : "0",
      "latitude" : "24.15784",
      "inDis" : "50",
      "routeId" : "藍9",
      "seqNo" : "40"
   },
   {
      "GoBack" : "2",
      "longitude" : "120.57213",
      "outDis" : "50",
      "Id" : "3620",
      "oid" : "318989166",
      "districtId" : "1",
      "nameZh" : "臺中區監理所（遊園路）",
      "pgp" : "0",
      "terminal" : "0",
      "latitude" : "24.15567",
      "inDis" : "50",
      "routeId" : "藍9",
      "seqNo" : "41"
   }
]
