[
   {
      "GoBack" : "1",
      "longitude" : "120.68972",
      "outDis" : "50",
      "Id" : "4693",
      "oid" : "13870",
      "districtId" : "1",
      "nameZh" : "雙十興進路口",
      "pgp" : "0",
      "terminal" : "0",
      "latitude" : "24.15522",
      "inDis" : "50",
      "routeId" : "7",
      "seqNo" : "1"
   },
   {
      "GoBack" : "1",
      "longitude" : "120.68841",
      "outDis" : "50",
      "Id" : "4694",
      "oid" : "13871",
      "districtId" : "1",
      "nameZh" : "臺灣體大體育場",
      "pgp" : "0",
      "terminal" : "0",
      "latitude" : "24.15201",
      "inDis" : "50",
      "routeId" : "7",
      "seqNo" : "2"
   },
   {
      "GoBack" : "1",
      "longitude" : "120.68738",
      "outDis" : "50",
      "Id" : "0149",
      "oid" : "13872",
      "districtId" : "1",
      "nameZh" : "臺中一中",
      "pgp" : "0",
      "terminal" : "0",
      "latitude" : "24.14953",
      "inDis" : "50",
      "routeId" : "7",
      "seqNo" : "3"
   },
   {
      "GoBack" : "1",
      "longitude" : "120.68619",
      "outDis" : "50",
      "Id" : "4695",
      "oid" : "13873",
      "districtId" : "1",
      "nameZh" : "臺灣體大游泳池",
      "pgp" : "0",
      "terminal" : "0",
      "latitude" : "24.14683",
      "inDis" : "50",
      "routeId" : "7",
      "seqNo" : "4"
   },
   {
      "GoBack" : "1",
      "longitude" : "120.68588",
      "outDis" : "50",
      "Id" : "4544",
      "oid" : "13874",
      "districtId" : "1",
      "nameZh" : "臺中公園(雙十路)",
      "pgp" : "0",
      "terminal" : "0",
      "latitude" : "24.1442",
      "inDis" : "50",
      "routeId" : "7",
      "seqNo" : "5"
   },
   {
      "GoBack" : "1",
      "longitude" : "120.68561",
      "outDis" : "50",
      "Id" : "0402",
      "oid" : "13875",
      "districtId" : "1",
      "nameZh" : "干城站",
      "pgp" : "0",
      "terminal" : "0",
      "latitude" : "24.14207",
      "inDis" : "50",
      "routeId" : "7",
      "seqNo" : "6"
   },
   {
      "GoBack" : "1",
      "longitude" : "120.6837",
      "outDis" : "50",
      "Id" : "1824",
      "oid" : "13876",
      "districtId" : "1",
      "nameZh" : "臺中火車站",
      "pgp" : "0",
      "terminal" : "0",
      "latitude" : "24.1366",
      "inDis" : "50",
      "routeId" : "7",
      "seqNo" : "7"
   },
   {
      "GoBack" : "1",
      "longitude" : "120.68354",
      "outDis" : "50",
      "Id" : "0049",
      "oid" : "13877",
      "districtId" : "1",
      "nameZh" : "第三市場(臺中家商)",
      "pgp" : "0",
      "terminal" : "0",
      "latitude" : "24.13301",
      "inDis" : "50",
      "routeId" : "7",
      "seqNo" : "8"
   },
   {
      "GoBack" : "1",
      "longitude" : "120.68483",
      "outDis" : "50",
      "Id" : "0257",
      "oid" : "13878",
      "districtId" : "1",
      "nameZh" : "臺中國小",
      "pgp" : "0",
      "terminal" : "0",
      "latitude" : "24.1303",
      "inDis" : "50",
      "routeId" : "7",
      "seqNo" : "9"
   },
   {
      "GoBack" : "1",
      "longitude" : "120.6861",
      "outDis" : "50",
      "Id" : "5647",
      "oid" : "13879",
      "districtId" : "1",
      "nameZh" : "興大附農(建成路)",
      "pgp" : "0",
      "terminal" : "0",
      "latitude" : "24.12974",
      "inDis" : "50",
      "routeId" : "7",
      "seqNo" : "10"
   },
   {
      "GoBack" : "1",
      "longitude" : "120.68761",
      "outDis" : "50",
      "Id" : "2029",
      "oid" : "13880",
      "districtId" : "1",
      "nameZh" : "建成立德街口",
      "pgp" : "0",
      "terminal" : "0",
      "latitude" : "24.1307",
      "inDis" : "50",
      "routeId" : "7",
      "seqNo" : "11"
   },
   {
      "GoBack" : "1",
      "longitude" : "120.6901",
      "outDis" : "50",
      "Id" : "0249",
      "oid" : "13881",
      "districtId" : "1",
      "nameZh" : "大智建成路口",
      "pgp" : "0",
      "terminal" : "0",
      "latitude" : "24.1311",
      "inDis" : "50",
      "routeId" : "7",
      "seqNo" : "12"
   },
   {
      "GoBack" : "1",
      "longitude" : "120.6902",
      "outDis" : "50",
      "Id" : "0363",
      "oid" : "13882",
      "districtId" : "1",
      "nameZh" : "大智國小",
      "pgp" : "0",
      "terminal" : "0",
      "latitude" : "24.12863",
      "inDis" : "50",
      "routeId" : "7",
      "seqNo" : "13"
   },
   {
      "GoBack" : "1",
      "longitude" : "120.69021",
      "outDis" : "50",
      "Id" : "0362",
      "oid" : "314487333",
      "districtId" : "1",
      "nameZh" : "大智公園",
      "pgp" : "0",
      "terminal" : "0",
      "latitude" : "24.12585",
      "inDis" : "50",
      "routeId" : "7",
      "seqNo" : "14"
   },
   {
      "GoBack" : "1",
      "longitude" : "120.69028",
      "outDis" : "50",
      "Id" : "4697",
      "oid" : "13883",
      "districtId" : "1",
      "nameZh" : "大智喬城路口",
      "pgp" : "0",
      "terminal" : "0",
      "latitude" : "24.12382",
      "inDis" : "50",
      "routeId" : "7",
      "seqNo" : "15"
   },
   {
      "GoBack" : "1",
      "longitude" : "120.69255",
      "outDis" : "50",
      "Id" : "4700",
      "oid" : "13884",
      "districtId" : "1",
      "nameZh" : "日新巷口",
      "pgp" : "0",
      "terminal" : "0",
      "latitude" : "24.12022",
      "inDis" : "50",
      "routeId" : "7",
      "seqNo" : "16"
   },
   {
      "GoBack" : "1",
      "longitude" : "120.69219",
      "outDis" : "50",
      "Id" : "4701",
      "oid" : "13885",
      "districtId" : "1",
      "nameZh" : "日新鐵路街口",
      "pgp" : "0",
      "terminal" : "0",
      "latitude" : "24.11591",
      "inDis" : "50",
      "routeId" : "7",
      "seqNo" : "17"
   },
   {
      "GoBack" : "1",
      "longitude" : "120.69495",
      "outDis" : "50",
      "Id" : "4699",
      "oid" : "13886",
      "districtId" : "1",
      "nameZh" : "內新國小",
      "pgp" : "0",
      "terminal" : "0",
      "latitude" : "24.11221",
      "inDis" : "50",
      "routeId" : "7",
      "seqNo" : "18"
   },
   {
      "GoBack" : "1",
      "longitude" : "120.70055",
      "outDis" : "50",
      "Id" : "4711",
      "oid" : "13887",
      "districtId" : "1",
      "nameZh" : "新仁好來一街口",
      "pgp" : "0",
      "terminal" : "0",
      "latitude" : "24.11038",
      "inDis" : "50",
      "routeId" : "7",
      "seqNo" : "19"
   },
   {
      "GoBack" : "1",
      "longitude" : "120.70329",
      "outDis" : "50",
      "Id" : "4709",
      "oid" : "13888",
      "districtId" : "1",
      "nameZh" : "新仁永豐路口",
      "pgp" : "0",
      "terminal" : "0",
      "latitude" : "24.11129",
      "inDis" : "50",
      "routeId" : "7",
      "seqNo" : "20"
   },
   {
      "GoBack" : "1",
      "longitude" : "120.70585",
      "outDis" : "50",
      "Id" : "4708",
      "oid" : "13889",
      "districtId" : "1",
      "nameZh" : "新仁五街口",
      "pgp" : "0",
      "terminal" : "0",
      "latitude" : "24.11186",
      "inDis" : "50",
      "routeId" : "7",
      "seqNo" : "21"
   },
   {
      "GoBack" : "1",
      "longitude" : "120.70992",
      "outDis" : "50",
      "Id" : "4707",
      "oid" : "13890",
      "districtId" : "1",
      "nameZh" : "新仁一街口",
      "pgp" : "0",
      "terminal" : "0",
      "latitude" : "24.11115",
      "inDis" : "50",
      "routeId" : "7",
      "seqNo" : "22"
   },
   {
      "GoBack" : "1",
      "longitude" : "120.71602",
      "outDis" : "50",
      "Id" : "4698",
      "oid" : "13891",
      "districtId" : "1",
      "nameZh" : "工業十七路口",
      "pgp" : "0",
      "terminal" : "0",
      "latitude" : "24.10632",
      "inDis" : "50",
      "routeId" : "7",
      "seqNo" : "23"
   },
   {
      "GoBack" : "1",
      "longitude" : "120.71771",
      "outDis" : "50",
      "Id" : "1456",
      "oid" : "13892",
      "districtId" : "1",
      "nameZh" : "中南東巷",
      "pgp" : "0",
      "terminal" : "0",
      "latitude" : "24.10309",
      "inDis" : "50",
      "routeId" : "7",
      "seqNo" : "24"
   },
   {
      "GoBack" : "1",
      "longitude" : "120.71622",
      "outDis" : "50",
      "Id" : "4704",
      "oid" : "13893",
      "districtId" : "1",
      "nameZh" : "宏巨社區",
      "pgp" : "0",
      "terminal" : "0",
      "latitude" : "24.10075",
      "inDis" : "50",
      "routeId" : "7",
      "seqNo" : "25"
   },
   {
      "GoBack" : "1",
      "longitude" : "120.71514",
      "outDis" : "50",
      "Id" : "2222",
      "oid" : "13894",
      "districtId" : "1",
      "nameZh" : "吾友公司",
      "pgp" : "0",
      "terminal" : "0",
      "latitude" : "24.09815",
      "inDis" : "50",
      "routeId" : "7",
      "seqNo" : "26"
   },
   {
      "GoBack" : "1",
      "longitude" : "120.7138",
      "outDis" : "50",
      "Id" : "2733",
      "oid" : "13895",
      "districtId" : "1",
      "nameZh" : "修平科技大學",
      "pgp" : "0",
      "terminal" : "0",
      "latitude" : "24.09524",
      "inDis" : "50",
      "routeId" : "7",
      "seqNo" : "27"
   },
   {
      "GoBack" : "1",
      "longitude" : "120.71786",
      "outDis" : "50",
      "Id" : "4702",
      "oid" : "13896",
      "districtId" : "1",
      "nameZh" : "光正國中",
      "pgp" : "0",
      "terminal" : "0",
      "latitude" : "24.0963",
      "inDis" : "50",
      "routeId" : "7",
      "seqNo" : "28"
   },
   {
      "GoBack" : "1",
      "longitude" : "120.71967",
      "outDis" : "50",
      "Id" : "4712",
      "oid" : "13897",
      "districtId" : "1",
      "nameZh" : "鳳凰路182巷口",
      "pgp" : "0",
      "terminal" : "0",
      "latitude" : "24.09847",
      "inDis" : "50",
      "routeId" : "7",
      "seqNo" : "29"
   },
   {
      "GoBack" : "1",
      "longitude" : "120.72094",
      "outDis" : "50",
      "Id" : "1457",
      "oid" : "13898",
      "districtId" : "1",
      "nameZh" : "中南巷",
      "pgp" : "0",
      "terminal" : "0",
      "latitude" : "24.10066",
      "inDis" : "50",
      "routeId" : "7",
      "seqNo" : "30"
   },
   {
      "GoBack" : "1",
      "longitude" : "120.72273",
      "outDis" : "50",
      "Id" : "5012",
      "oid" : "309414089",
      "districtId" : "1",
      "nameZh" : "光德中南巷",
      "pgp" : "0",
      "terminal" : "0",
      "latitude" : "24.10385",
      "inDis" : "50",
      "routeId" : "7",
      "seqNo" : "31"
   },
   {
      "GoBack" : "1",
      "longitude" : "120.72439",
      "outDis" : "60",
      "Id" : "4706",
      "oid" : "309414087",
      "districtId" : "1",
      "nameZh" : "慈明高中(光德路)",
      "pgp" : "0",
      "terminal" : "0",
      "latitude" : "24.1067",
      "inDis" : "50",
      "routeId" : "7",
      "seqNo" : "32"
   },
   {
      "GoBack" : "1",
      "longitude" : "120.72109",
      "outDis" : "50",
      "Id" : "4518",
      "oid" : "305398431",
      "districtId" : "1",
      "nameZh" : "長億高中",
      "pgp" : "0",
      "terminal" : "0",
      "latitude" : "24.11396",
      "inDis" : "50",
      "routeId" : "7",
      "seqNo" : "33"
   },
   {
      "GoBack" : "1",
      "longitude" : "120.71947",
      "outDis" : "50",
      "Id" : "4949",
      "oid" : "309054917",
      "districtId" : "1",
      "nameZh" : "長億六太平一街口",
      "pgp" : "0",
      "terminal" : "0",
      "latitude" : "24.11543",
      "inDis" : "50",
      "routeId" : "7",
      "seqNo" : "34"
   },
   {
      "GoBack" : "1",
      "longitude" : "120.71658",
      "outDis" : "50",
      "Id" : "4948",
      "oid" : "309054916",
      "districtId" : "1",
      "nameZh" : "長億六永成北路口",
      "pgp" : "0",
      "terminal" : "0",
      "latitude" : "24.11832",
      "inDis" : "50",
      "routeId" : "7",
      "seqNo" : "35"
   },
   {
      "GoBack" : "1",
      "longitude" : "120.71481",
      "outDis" : "50",
      "Id" : "5649",
      "oid" : "317514634",
      "districtId" : "1",
      "nameZh" : "長億公園(永成北路)",
      "pgp" : "0",
      "terminal" : "0",
      "latitude" : "24.11779",
      "inDis" : "50",
      "routeId" : "7",
      "seqNo" : "36"
   },
   {
      "GoBack" : "1",
      "longitude" : "120.71272",
      "outDis" : "50",
      "Id" : "5650",
      "oid" : "317514635",
      "districtId" : "1",
      "nameZh" : "永成公園(永富街)",
      "pgp" : "0",
      "terminal" : "0",
      "latitude" : "24.1168",
      "inDis" : "50",
      "routeId" : "7",
      "seqNo" : "37"
   },
   {
      "GoBack" : "2",
      "longitude" : "120.71272",
      "outDis" : "50",
      "Id" : "5650",
      "oid" : "317514635",
      "districtId" : "1",
      "nameZh" : "永成公園(永富街)",
      "pgp" : "0",
      "terminal" : "0",
      "latitude" : "24.1168",
      "inDis" : "50",
      "routeId" : "7",
      "seqNo" : "1"
   },
   {
      "GoBack" : "2",
      "longitude" : "120.71481",
      "outDis" : "50",
      "Id" : "5649",
      "oid" : "317514634",
      "districtId" : "1",
      "nameZh" : "長億公園(永成北路)",
      "pgp" : "0",
      "terminal" : "0",
      "latitude" : "24.11779",
      "inDis" : "50",
      "routeId" : "7",
      "seqNo" : "2"
   },
   {
      "GoBack" : "2",
      "longitude" : "120.71658",
      "outDis" : "50",
      "Id" : "4948",
      "oid" : "309054916",
      "districtId" : "1",
      "nameZh" : "長億六永成北路口",
      "pgp" : "0",
      "terminal" : "0",
      "latitude" : "24.11832",
      "inDis" : "50",
      "routeId" : "7",
      "seqNo" : "3"
   },
   {
      "GoBack" : "2",
      "longitude" : "120.71947",
      "outDis" : "50",
      "Id" : "4949",
      "oid" : "309054917",
      "districtId" : "1",
      "nameZh" : "長億六太平一街口",
      "pgp" : "0",
      "terminal" : "0",
      "latitude" : "24.11543",
      "inDis" : "50",
      "routeId" : "7",
      "seqNo" : "4"
   },
   {
      "GoBack" : "2",
      "longitude" : "120.72109",
      "outDis" : "50",
      "Id" : "4518",
      "oid" : "305398431",
      "districtId" : "1",
      "nameZh" : "長億高中",
      "pgp" : "0",
      "terminal" : "0",
      "latitude" : "24.11396",
      "inDis" : "50",
      "routeId" : "7",
      "seqNo" : "5"
   },
   {
      "GoBack" : "2",
      "longitude" : "120.72499",
      "outDis" : "50",
      "Id" : "4706",
      "oid" : "309414088",
      "districtId" : "1",
      "nameZh" : "慈明高中(光德路)",
      "pgp" : "0",
      "terminal" : "0",
      "latitude" : "24.10768",
      "inDis" : "50",
      "routeId" : "7",
      "seqNo" : "6"
   },
   {
      "GoBack" : "2",
      "longitude" : "120.72272",
      "outDis" : "50",
      "Id" : "5012",
      "oid" : "309414090",
      "districtId" : "1",
      "nameZh" : "光德中南巷",
      "pgp" : "0",
      "terminal" : "0",
      "latitude" : "24.10375",
      "inDis" : "50",
      "routeId" : "7",
      "seqNo" : "7"
   },
   {
      "GoBack" : "2",
      "longitude" : "120.72083",
      "outDis" : "50",
      "Id" : "1457",
      "oid" : "13929",
      "districtId" : "1",
      "nameZh" : "中南巷",
      "pgp" : "0",
      "terminal" : "0",
      "latitude" : "24.10058",
      "inDis" : "50",
      "routeId" : "7",
      "seqNo" : "8"
   },
   {
      "GoBack" : "2",
      "longitude" : "120.71961",
      "outDis" : "50",
      "Id" : "4712",
      "oid" : "13928",
      "districtId" : "1",
      "nameZh" : "鳳凰路182巷口",
      "pgp" : "0",
      "terminal" : "0",
      "latitude" : "24.09837",
      "inDis" : "50",
      "routeId" : "7",
      "seqNo" : "9"
   },
   {
      "GoBack" : "2",
      "longitude" : "120.71784",
      "outDis" : "50",
      "Id" : "4702",
      "oid" : "13927",
      "districtId" : "1",
      "nameZh" : "光正國中",
      "pgp" : "0",
      "terminal" : "0",
      "latitude" : "24.09633",
      "inDis" : "50",
      "routeId" : "7",
      "seqNo" : "10"
   },
   {
      "GoBack" : "2",
      "longitude" : "120.71392",
      "outDis" : "50",
      "Id" : "2733",
      "oid" : "13926",
      "districtId" : "1",
      "nameZh" : "修平科技大學",
      "pgp" : "0",
      "terminal" : "0",
      "latitude" : "24.09516",
      "inDis" : "50",
      "routeId" : "7",
      "seqNo" : "11"
   },
   {
      "GoBack" : "2",
      "longitude" : "120.71536",
      "outDis" : "50",
      "Id" : "2222",
      "oid" : "13925",
      "districtId" : "1",
      "nameZh" : "吾友公司",
      "pgp" : "0",
      "terminal" : "0",
      "latitude" : "24.09823",
      "inDis" : "50",
      "routeId" : "7",
      "seqNo" : "12"
   },
   {
      "GoBack" : "2",
      "longitude" : "120.71642",
      "outDis" : "50",
      "Id" : "4704",
      "oid" : "13924",
      "districtId" : "1",
      "nameZh" : "宏巨社區",
      "pgp" : "0",
      "terminal" : "0",
      "latitude" : "24.10094",
      "inDis" : "50",
      "routeId" : "7",
      "seqNo" : "13"
   },
   {
      "GoBack" : "2",
      "longitude" : "120.7178",
      "outDis" : "50",
      "Id" : "1456",
      "oid" : "13923",
      "districtId" : "1",
      "nameZh" : "中南東巷",
      "pgp" : "0",
      "terminal" : "0",
      "latitude" : "24.10317",
      "inDis" : "50",
      "routeId" : "7",
      "seqNo" : "14"
   },
   {
      "GoBack" : "2",
      "longitude" : "120.71599",
      "outDis" : "50",
      "Id" : "4698",
      "oid" : "13922",
      "districtId" : "1",
      "nameZh" : "工業十七路口",
      "pgp" : "0",
      "terminal" : "0",
      "latitude" : "24.1064",
      "inDis" : "50",
      "routeId" : "7",
      "seqNo" : "15"
   },
   {
      "GoBack" : "2",
      "longitude" : "120.70986",
      "outDis" : "50",
      "Id" : "4707",
      "oid" : "13921",
      "districtId" : "1",
      "nameZh" : "新仁一街口",
      "pgp" : "0",
      "terminal" : "0",
      "latitude" : "24.11119",
      "inDis" : "50",
      "routeId" : "7",
      "seqNo" : "16"
   },
   {
      "GoBack" : "2",
      "longitude" : "120.70572",
      "outDis" : "50",
      "Id" : "4708",
      "oid" : "13920",
      "districtId" : "1",
      "nameZh" : "新仁五街口",
      "pgp" : "0",
      "terminal" : "0",
      "latitude" : "24.11171",
      "inDis" : "50",
      "routeId" : "7",
      "seqNo" : "17"
   },
   {
      "GoBack" : "2",
      "longitude" : "120.70314",
      "outDis" : "50",
      "Id" : "4709",
      "oid" : "13919",
      "districtId" : "1",
      "nameZh" : "新仁永豐路口",
      "pgp" : "0",
      "terminal" : "0",
      "latitude" : "24.11113",
      "inDis" : "50",
      "routeId" : "7",
      "seqNo" : "18"
   },
   {
      "GoBack" : "2",
      "longitude" : "120.70055",
      "outDis" : "50",
      "Id" : "4711",
      "oid" : "13918",
      "districtId" : "1",
      "nameZh" : "新仁好來一街口",
      "pgp" : "0",
      "terminal" : "0",
      "latitude" : "24.11038",
      "inDis" : "50",
      "routeId" : "7",
      "seqNo" : "19"
   },
   {
      "GoBack" : "2",
      "longitude" : "120.69501",
      "outDis" : "50",
      "Id" : "4699",
      "oid" : "13917",
      "districtId" : "1",
      "nameZh" : "內新國小",
      "pgp" : "0",
      "terminal" : "0",
      "latitude" : "24.11228",
      "inDis" : "50",
      "routeId" : "7",
      "seqNo" : "20"
   },
   {
      "GoBack" : "2",
      "longitude" : "120.69231",
      "outDis" : "50",
      "Id" : "4701",
      "oid" : "13916",
      "districtId" : "1",
      "nameZh" : "日新鐵路街口",
      "pgp" : "0",
      "terminal" : "0",
      "latitude" : "24.11599",
      "inDis" : "50",
      "routeId" : "7",
      "seqNo" : "21"
   },
   {
      "GoBack" : "2",
      "longitude" : "120.69262",
      "outDis" : "50",
      "Id" : "4700",
      "oid" : "13915",
      "districtId" : "1",
      "nameZh" : "日新巷口",
      "pgp" : "0",
      "terminal" : "0",
      "latitude" : "24.12064",
      "inDis" : "50",
      "routeId" : "7",
      "seqNo" : "22"
   },
   {
      "GoBack" : "2",
      "longitude" : "120.69031",
      "outDis" : "50",
      "Id" : "4697",
      "oid" : "13914",
      "districtId" : "1",
      "nameZh" : "大智喬城路口",
      "pgp" : "0",
      "terminal" : "0",
      "latitude" : "24.12374",
      "inDis" : "50",
      "routeId" : "7",
      "seqNo" : "23"
   },
   {
      "GoBack" : "2",
      "longitude" : "120.69042",
      "outDis" : "50",
      "Id" : "0363",
      "oid" : "13913",
      "districtId" : "1",
      "nameZh" : "大智國小",
      "pgp" : "0",
      "terminal" : "0",
      "latitude" : "24.12898",
      "inDis" : "50",
      "routeId" : "7",
      "seqNo" : "24"
   },
   {
      "GoBack" : "2",
      "longitude" : "120.69041",
      "outDis" : "50",
      "Id" : "0249",
      "oid" : "13912",
      "districtId" : "1",
      "nameZh" : "大智建成路口",
      "pgp" : "0",
      "terminal" : "0",
      "latitude" : "24.13047",
      "inDis" : "50",
      "routeId" : "7",
      "seqNo" : "25"
   },
   {
      "GoBack" : "2",
      "longitude" : "120.68813",
      "outDis" : "50",
      "Id" : "2029",
      "oid" : "13911",
      "districtId" : "1",
      "nameZh" : "建成立德街口",
      "pgp" : "0",
      "terminal" : "0",
      "latitude" : "24.1306",
      "inDis" : "50",
      "routeId" : "7",
      "seqNo" : "26"
   },
   {
      "GoBack" : "2",
      "longitude" : "120.68561",
      "outDis" : "50",
      "Id" : "5647",
      "oid" : "13910",
      "districtId" : "1",
      "nameZh" : "興大附農(建成路)",
      "pgp" : "0",
      "terminal" : "0",
      "latitude" : "24.12984",
      "inDis" : "50",
      "routeId" : "7",
      "seqNo" : "27"
   },
   {
      "GoBack" : "2",
      "longitude" : "120.68503",
      "outDis" : "50",
      "Id" : "0257",
      "oid" : "13909",
      "districtId" : "1",
      "nameZh" : "臺中國小",
      "pgp" : "0",
      "terminal" : "0",
      "latitude" : "24.13055",
      "inDis" : "50",
      "routeId" : "7",
      "seqNo" : "28"
   },
   {
      "GoBack" : "2",
      "longitude" : "120.68372",
      "outDis" : "50",
      "Id" : "0049",
      "oid" : "13908",
      "districtId" : "1",
      "nameZh" : "第三市場(臺中家商)",
      "pgp" : "0",
      "terminal" : "0",
      "latitude" : "24.13301",
      "inDis" : "50",
      "routeId" : "7",
      "seqNo" : "29"
   },
   {
      "GoBack" : "2",
      "longitude" : "120.6837",
      "outDis" : "50",
      "Id" : "1824",
      "oid" : "13907",
      "districtId" : "1",
      "nameZh" : "臺中火車站",
      "pgp" : "0",
      "terminal" : "0",
      "latitude" : "24.1366",
      "inDis" : "50",
      "routeId" : "7",
      "seqNo" : "30"
   },
   {
      "GoBack" : "2",
      "longitude" : "120.68614",
      "outDis" : "50",
      "Id" : "0402",
      "oid" : "13906",
      "districtId" : "1",
      "nameZh" : "干城站",
      "pgp" : "0",
      "terminal" : "0",
      "latitude" : "24.14094",
      "inDis" : "50",
      "routeId" : "7",
      "seqNo" : "31"
   },
   {
      "GoBack" : "2",
      "longitude" : "120.68626",
      "outDis" : "50",
      "Id" : "4544",
      "oid" : "13905",
      "districtId" : "1",
      "nameZh" : "臺中公園(雙十路)",
      "pgp" : "0",
      "terminal" : "0",
      "latitude" : "24.1441",
      "inDis" : "50",
      "routeId" : "7",
      "seqNo" : "32"
   },
   {
      "GoBack" : "2",
      "longitude" : "120.68643",
      "outDis" : "50",
      "Id" : "4695",
      "oid" : "13904",
      "districtId" : "1",
      "nameZh" : "臺灣體大游泳池",
      "pgp" : "0",
      "terminal" : "0",
      "latitude" : "24.14699",
      "inDis" : "50",
      "routeId" : "7",
      "seqNo" : "33"
   },
   {
      "GoBack" : "2",
      "longitude" : "120.6875",
      "outDis" : "50",
      "Id" : "0149",
      "oid" : "13903",
      "districtId" : "1",
      "nameZh" : "臺中一中",
      "pgp" : "0",
      "terminal" : "0",
      "latitude" : "24.14944",
      "inDis" : "50",
      "routeId" : "7",
      "seqNo" : "34"
   },
   {
      "GoBack" : "2",
      "longitude" : "120.68885",
      "outDis" : "50",
      "Id" : "4694",
      "oid" : "13902",
      "districtId" : "1",
      "nameZh" : "臺灣體大體育場",
      "pgp" : "0",
      "terminal" : "0",
      "latitude" : "24.15263",
      "inDis" : "50",
      "routeId" : "7",
      "seqNo" : "35"
   },
   {
      "GoBack" : "2",
      "longitude" : "120.68987",
      "outDis" : "50",
      "Id" : "4693",
      "oid" : "13901",
      "districtId" : "1",
      "nameZh" : "雙十興進路口",
      "pgp" : "0",
      "terminal" : "0",
      "latitude" : "24.15518",
      "inDis" : "50",
      "routeId" : "7",
      "seqNo" : "36"
   }
]
