[
   {
      "GoBack" : "1",
      "longitude" : "120.61552",
      "outDis" : "50",
      "Id" : "2907",
      "oid" : "319373168",
      "districtId" : "1",
      "nameZh" : "高鐵臺中站",
      "pgp" : "0",
      "terminal" : "0",
      "latitude" : "24.11147",
      "inDis" : "50",
      "routeId" : "39",
      "seqNo" : "1"
   },
   {
      "GoBack" : "1",
      "longitude" : "120.61694",
      "outDis" : "50",
      "Id" : "5126",
      "oid" : "319373171",
      "districtId" : "1",
      "nameZh" : "烏日國中(新興路)",
      "pgp" : "0",
      "terminal" : "0",
      "latitude" : "24.10561",
      "inDis" : "50",
      "routeId" : "39",
      "seqNo" : "2"
   },
   {
      "GoBack" : "1",
      "longitude" : "120.6213",
      "outDis" : "50",
      "Id" : "2816",
      "oid" : "319373175",
      "districtId" : "1",
      "nameZh" : "烏日",
      "pgp" : "0",
      "terminal" : "0",
      "latitude" : "24.1052",
      "inDis" : "50",
      "routeId" : "39",
      "seqNo" : "3"
   },
   {
      "GoBack" : "1",
      "longitude" : "120.62384",
      "outDis" : "50",
      "Id" : "4340",
      "oid" : "319373176",
      "districtId" : "1",
      "nameZh" : "烏日區公所",
      "pgp" : "0",
      "terminal" : "0",
      "latitude" : "24.10439",
      "inDis" : "50",
      "routeId" : "39",
      "seqNo" : "4"
   },
   {
      "GoBack" : "1",
      "longitude" : "120.62813",
      "outDis" : "50",
      "Id" : "0040",
      "oid" : "319373177",
      "districtId" : "1",
      "nameZh" : "五光公園三街口",
      "pgp" : "0",
      "terminal" : "0",
      "latitude" : "24.10287",
      "inDis" : "50",
      "routeId" : "39",
      "seqNo" : "5"
   },
   {
      "GoBack" : "1",
      "longitude" : "120.63098",
      "outDis" : "50",
      "Id" : "0469",
      "oid" : "319373179",
      "districtId" : "1",
      "nameZh" : "五光復光六巷口",
      "pgp" : "0",
      "terminal" : "0",
      "latitude" : "24.09983",
      "inDis" : "50",
      "routeId" : "39",
      "seqNo" : "6"
   },
   {
      "GoBack" : "1",
      "longitude" : "120.63307",
      "outDis" : "50",
      "Id" : "0472",
      "oid" : "319373180",
      "districtId" : "1",
      "nameZh" : "五光復光五巷口",
      "pgp" : "0",
      "terminal" : "0",
      "latitude" : "24.09852",
      "inDis" : "50",
      "routeId" : "39",
      "seqNo" : "7"
   },
   {
      "GoBack" : "1",
      "longitude" : "120.63834",
      "outDis" : "50",
      "Id" : "0474",
      "oid" : "319373182",
      "districtId" : "1",
      "nameZh" : "五光溪南路口",
      "pgp" : "0",
      "terminal" : "0",
      "latitude" : "24.09629",
      "inDis" : "50",
      "routeId" : "39",
      "seqNo" : "8"
   },
   {
      "GoBack" : "1",
      "longitude" : "120.64376",
      "outDis" : "50",
      "Id" : "0475",
      "oid" : "319373183",
      "districtId" : "1",
      "nameZh" : "五光環河路口",
      "pgp" : "0",
      "terminal" : "0",
      "latitude" : "24.09354",
      "inDis" : "50",
      "routeId" : "39",
      "seqNo" : "9"
   },
   {
      "GoBack" : "1",
      "longitude" : "120.6471",
      "outDis" : "50",
      "Id" : "0476",
      "oid" : "319373185",
      "districtId" : "1",
      "nameZh" : "五光環中路口",
      "pgp" : "0",
      "terminal" : "0",
      "latitude" : "24.09292",
      "inDis" : "50",
      "routeId" : "39",
      "seqNo" : "10"
   },
   {
      "GoBack" : "1",
      "longitude" : "120.6508",
      "outDis" : "50",
      "Id" : "0477",
      "oid" : "319373187",
      "districtId" : "1",
      "nameZh" : "五張犁福德宮",
      "pgp" : "0",
      "terminal" : "0",
      "latitude" : "24.09382",
      "inDis" : "50",
      "routeId" : "39",
      "seqNo" : "11"
   },
   {
      "GoBack" : "1",
      "longitude" : "120.65266",
      "outDis" : "50",
      "Id" : "5226",
      "oid" : "319373189",
      "districtId" : "1",
      "nameZh" : "五光里",
      "pgp" : "0",
      "terminal" : "0",
      "latitude" : "24.09446",
      "inDis" : "50",
      "routeId" : "39",
      "seqNo" : "12"
   },
   {
      "GoBack" : "1",
      "longitude" : "120.65499",
      "outDis" : "50",
      "Id" : "5225",
      "oid" : "319373191",
      "districtId" : "1",
      "nameZh" : "五光五中巷口",
      "pgp" : "0",
      "terminal" : "0",
      "latitude" : "24.09516",
      "inDis" : "50",
      "routeId" : "39",
      "seqNo" : "13"
   },
   {
      "GoBack" : "1",
      "longitude" : "120.65912",
      "outDis" : "50",
      "Id" : "3789",
      "oid" : "319376564",
      "districtId" : "1",
      "nameZh" : "德昌社區",
      "pgp" : "0",
      "terminal" : "0",
      "latitude" : "24.0961",
      "inDis" : "50",
      "routeId" : "39",
      "seqNo" : "14"
   },
   {
      "GoBack" : "1",
      "longitude" : "120.66481",
      "outDis" : "50",
      "Id" : "3788",
      "oid" : "319373193",
      "districtId" : "1",
      "nameZh" : "樹王",
      "pgp" : "0",
      "terminal" : "0",
      "latitude" : "24.09677",
      "inDis" : "50",
      "routeId" : "39",
      "seqNo" : "15"
   },
   {
      "GoBack" : "1",
      "longitude" : "120.67354",
      "outDis" : "50",
      "Id" : "1972",
      "oid" : "319373195",
      "districtId" : "1",
      "nameZh" : "瓦瑤",
      "pgp" : "0",
      "terminal" : "0",
      "latitude" : "24.09758",
      "inDis" : "50",
      "routeId" : "39",
      "seqNo" : "16"
   },
   {
      "GoBack" : "1",
      "longitude" : "120.67702",
      "outDis" : "50",
      "Id" : "1360",
      "oid" : "319373198",
      "districtId" : "1",
      "nameZh" : "大里",
      "pgp" : "0",
      "terminal" : "0",
      "latitude" : "24.09789",
      "inDis" : "50",
      "routeId" : "39",
      "seqNo" : "17"
   },
   {
      "GoBack" : "1",
      "longitude" : "120.67705",
      "outDis" : "50",
      "Id" : "5218",
      "oid" : "319373199",
      "districtId" : "1",
      "nameZh" : "大里國小",
      "pgp" : "0",
      "terminal" : "0",
      "latitude" : "24.09971",
      "inDis" : "50",
      "routeId" : "39",
      "seqNo" : "18"
   },
   {
      "GoBack" : "1",
      "longitude" : "120.67679",
      "outDis" : "50",
      "Id" : "1364",
      "oid" : "319373201",
      "districtId" : "1",
      "nameZh" : "大里農會",
      "pgp" : "0",
      "terminal" : "0",
      "latitude" : "24.10077",
      "inDis" : "50",
      "routeId" : "39",
      "seqNo" : "19"
   },
   {
      "GoBack" : "1",
      "longitude" : "120.67576",
      "outDis" : "50",
      "Id" : "0506",
      "oid" : "319373203",
      "districtId" : "1",
      "nameZh" : "進士公園",
      "pgp" : "0",
      "terminal" : "0",
      "latitude" : "24.10308",
      "inDis" : "50",
      "routeId" : "39",
      "seqNo" : "20"
   },
   {
      "GoBack" : "1",
      "longitude" : "120.67829",
      "outDis" : "50",
      "Id" : "0508",
      "oid" : "319373205",
      "districtId" : "1",
      "nameZh" : "環保公園",
      "pgp" : "0",
      "terminal" : "0",
      "latitude" : "24.1039",
      "inDis" : "50",
      "routeId" : "39",
      "seqNo" : "21"
   },
   {
      "GoBack" : "1",
      "longitude" : "120.68115",
      "outDis" : "50",
      "Id" : "4294",
      "oid" : "319373207",
      "districtId" : "1",
      "nameZh" : "國光德芳路口",
      "pgp" : "0",
      "terminal" : "0",
      "latitude" : "24.10523",
      "inDis" : "50",
      "routeId" : "39",
      "seqNo" : "22"
   },
   {
      "GoBack" : "1",
      "longitude" : "120.68048",
      "outDis" : "50",
      "Id" : "1558",
      "oid" : "319373209",
      "districtId" : "1",
      "nameZh" : "大里仁愛醫院",
      "pgp" : "0",
      "terminal" : "0",
      "latitude" : "24.10945",
      "inDis" : "50",
      "routeId" : "39",
      "seqNo" : "23"
   },
   {
      "GoBack" : "1",
      "longitude" : "120.68319",
      "outDis" : "50",
      "Id" : "5627",
      "oid" : "319373211",
      "districtId" : "1",
      "nameZh" : "興大附中(東榮路)",
      "pgp" : "0",
      "terminal" : "0",
      "latitude" : "24.11011",
      "inDis" : "50",
      "routeId" : "39",
      "seqNo" : "24"
   },
   {
      "GoBack" : "1",
      "longitude" : "120.68543",
      "outDis" : "50",
      "Id" : "5074",
      "oid" : "319373213",
      "districtId" : "1",
      "nameZh" : "大里地政事務所",
      "pgp" : "0",
      "terminal" : "0",
      "latitude" : "24.11033",
      "inDis" : "50",
      "routeId" : "39",
      "seqNo" : "25"
   },
   {
      "GoBack" : "1",
      "longitude" : "120.68805",
      "outDis" : "50",
      "Id" : "4919",
      "oid" : "319373215",
      "districtId" : "1",
      "nameZh" : "大里公園",
      "pgp" : "0",
      "terminal" : "0",
      "latitude" : "24.1102",
      "inDis" : "50",
      "routeId" : "39",
      "seqNo" : "26"
   },
   {
      "GoBack" : "1",
      "longitude" : "120.68994",
      "outDis" : "50",
      "Id" : "1363",
      "oid" : "319376519",
      "districtId" : "1",
      "nameZh" : "中興大里路口",
      "pgp" : "0",
      "terminal" : "0",
      "latitude" : "24.10857",
      "inDis" : "50",
      "routeId" : "39",
      "seqNo" : "27"
   },
   {
      "GoBack" : "1",
      "longitude" : "120.68939",
      "outDis" : "50",
      "Id" : "2026",
      "oid" : "319376521",
      "districtId" : "1",
      "nameZh" : "立人高中",
      "pgp" : "0",
      "terminal" : "0",
      "latitude" : "24.10581",
      "inDis" : "50",
      "routeId" : "39",
      "seqNo" : "28"
   },
   {
      "GoBack" : "1",
      "longitude" : "120.68844",
      "outDis" : "50",
      "Id" : "1126",
      "oid" : "319376523",
      "districtId" : "1",
      "nameZh" : "下內新",
      "pgp" : "0",
      "terminal" : "0",
      "latitude" : "24.10256",
      "inDis" : "50",
      "routeId" : "39",
      "seqNo" : "29"
   },
   {
      "GoBack" : "1",
      "longitude" : "120.68938",
      "outDis" : "50",
      "Id" : "0479",
      "oid" : "319376525",
      "districtId" : "1",
      "nameZh" : "大元國小",
      "pgp" : "0",
      "terminal" : "0",
      "latitude" : "24.10111",
      "inDis" : "50",
      "routeId" : "39",
      "seqNo" : "30"
   },
   {
      "GoBack" : "1",
      "longitude" : "120.69595",
      "outDis" : "50",
      "Id" : "0490",
      "oid" : "319376527",
      "districtId" : "1",
      "nameZh" : "健康公園(立元路) ",
      "pgp" : "0",
      "terminal" : "0",
      "latitude" : "24.09977",
      "inDis" : "50",
      "routeId" : "39",
      "seqNo" : "31"
   },
   {
      "GoBack" : "1",
      "longitude" : "120.69718",
      "outDis" : "50",
      "Id" : "0480",
      "oid" : "319376529",
      "districtId" : "1",
      "nameZh" : "立中街",
      "pgp" : "0",
      "terminal" : "0",
      "latitude" : "24.10121",
      "inDis" : "50",
      "routeId" : "39",
      "seqNo" : "32"
   },
   {
      "GoBack" : "1",
      "longitude" : "120.69805",
      "outDis" : "50",
      "Id" : "0482",
      "oid" : "319376531",
      "districtId" : "1",
      "nameZh" : "立新國中",
      "pgp" : "0",
      "terminal" : "0",
      "latitude" : "24.10421",
      "inDis" : "50",
      "routeId" : "39",
      "seqNo" : "33"
   },
   {
      "GoBack" : "1",
      "longitude" : "120.6998",
      "outDis" : "50",
      "Id" : "0495",
      "oid" : "319376532",
      "districtId" : "1",
      "nameZh" : "立新國小",
      "pgp" : "0",
      "terminal" : "0",
      "latitude" : "24.10566",
      "inDis" : "50",
      "routeId" : "39",
      "seqNo" : "34"
   },
   {
      "GoBack" : "2",
      "longitude" : "120.6999",
      "outDis" : "50",
      "Id" : "0495",
      "oid" : "319376533",
      "districtId" : "1",
      "nameZh" : "立新國小",
      "pgp" : "0",
      "terminal" : "0",
      "latitude" : "24.1051",
      "inDis" : "50",
      "routeId" : "39",
      "seqNo" : "1"
   },
   {
      "GoBack" : "2",
      "longitude" : "120.69805",
      "outDis" : "50",
      "Id" : "0482",
      "oid" : "319376531",
      "districtId" : "1",
      "nameZh" : "立新國中",
      "pgp" : "0",
      "terminal" : "0",
      "latitude" : "24.10421",
      "inDis" : "50",
      "routeId" : "39",
      "seqNo" : "2"
   },
   {
      "GoBack" : "2",
      "longitude" : "120.69715",
      "outDis" : "50",
      "Id" : "0480",
      "oid" : "319376530",
      "districtId" : "1",
      "nameZh" : "立中街",
      "pgp" : "0",
      "terminal" : "0",
      "latitude" : "24.1017",
      "inDis" : "50",
      "routeId" : "39",
      "seqNo" : "3"
   },
   {
      "GoBack" : "2",
      "longitude" : "120.69588",
      "outDis" : "50",
      "Id" : "0490",
      "oid" : "319376528",
      "districtId" : "1",
      "nameZh" : "健康公園(立元路) ",
      "pgp" : "0",
      "terminal" : "0",
      "latitude" : "24.09976",
      "inDis" : "50",
      "routeId" : "39",
      "seqNo" : "4"
   },
   {
      "GoBack" : "2",
      "longitude" : "120.6895",
      "outDis" : "50",
      "Id" : "0479",
      "oid" : "319376526",
      "districtId" : "1",
      "nameZh" : "大元國小",
      "pgp" : "0",
      "terminal" : "0",
      "latitude" : "24.10123",
      "inDis" : "50",
      "routeId" : "39",
      "seqNo" : "5"
   },
   {
      "GoBack" : "2",
      "longitude" : "120.68856",
      "outDis" : "50",
      "Id" : "1126",
      "oid" : "319376524",
      "districtId" : "1",
      "nameZh" : "下內新",
      "pgp" : "0",
      "terminal" : "0",
      "latitude" : "24.10289",
      "inDis" : "50",
      "routeId" : "39",
      "seqNo" : "6"
   },
   {
      "GoBack" : "2",
      "longitude" : "120.68917",
      "outDis" : "50",
      "Id" : "2026",
      "oid" : "319376522",
      "districtId" : "1",
      "nameZh" : "立人高中",
      "pgp" : "0",
      "terminal" : "0",
      "latitude" : "24.10494",
      "inDis" : "50",
      "routeId" : "39",
      "seqNo" : "7"
   },
   {
      "GoBack" : "2",
      "longitude" : "120.68996",
      "outDis" : "50",
      "Id" : "1363",
      "oid" : "319376520",
      "districtId" : "1",
      "nameZh" : "中興大里路口",
      "pgp" : "0",
      "terminal" : "0",
      "latitude" : "24.10879",
      "inDis" : "50",
      "routeId" : "39",
      "seqNo" : "8"
   },
   {
      "GoBack" : "2",
      "longitude" : "120.68749",
      "outDis" : "50",
      "Id" : "4919",
      "oid" : "319373216",
      "districtId" : "1",
      "nameZh" : "大里公園",
      "pgp" : "0",
      "terminal" : "0",
      "latitude" : "24.11028",
      "inDis" : "50",
      "routeId" : "39",
      "seqNo" : "9"
   },
   {
      "GoBack" : "2",
      "longitude" : "120.68541",
      "outDis" : "50",
      "Id" : "5074",
      "oid" : "319373214",
      "districtId" : "1",
      "nameZh" : "大里地政事務所",
      "pgp" : "0",
      "terminal" : "0",
      "latitude" : "24.11037",
      "inDis" : "50",
      "routeId" : "39",
      "seqNo" : "10"
   },
   {
      "GoBack" : "2",
      "longitude" : "120.68232",
      "outDis" : "50",
      "Id" : "5627",
      "oid" : "319373212",
      "districtId" : "1",
      "nameZh" : "興大附中(東榮路)",
      "pgp" : "0",
      "terminal" : "0",
      "latitude" : "24.10996",
      "inDis" : "50",
      "routeId" : "39",
      "seqNo" : "11"
   },
   {
      "GoBack" : "2",
      "longitude" : "120.67995",
      "outDis" : "50",
      "Id" : "1558",
      "oid" : "319373210",
      "districtId" : "1",
      "nameZh" : "大里仁愛醫院",
      "pgp" : "0",
      "terminal" : "0",
      "latitude" : "24.10856",
      "inDis" : "50",
      "routeId" : "39",
      "seqNo" : "12"
   },
   {
      "GoBack" : "2",
      "longitude" : "120.68094",
      "outDis" : "50",
      "Id" : "4294",
      "oid" : "319373208",
      "districtId" : "1",
      "nameZh" : "國光德芳路口",
      "pgp" : "0",
      "terminal" : "0",
      "latitude" : "24.10524",
      "inDis" : "50",
      "routeId" : "39",
      "seqNo" : "13"
   },
   {
      "GoBack" : "2",
      "longitude" : "120.67825",
      "outDis" : "50",
      "Id" : "0508",
      "oid" : "319373206",
      "districtId" : "1",
      "nameZh" : "環保公園",
      "pgp" : "0",
      "terminal" : "0",
      "latitude" : "24.10405",
      "inDis" : "50",
      "routeId" : "39",
      "seqNo" : "14"
   },
   {
      "GoBack" : "2",
      "longitude" : "120.67555",
      "outDis" : "50",
      "Id" : "0506",
      "oid" : "319373204",
      "districtId" : "1",
      "nameZh" : "進士公園",
      "pgp" : "0",
      "terminal" : "0",
      "latitude" : "24.10246",
      "inDis" : "50",
      "routeId" : "39",
      "seqNo" : "15"
   },
   {
      "GoBack" : "2",
      "longitude" : "120.67659",
      "outDis" : "50",
      "Id" : "1364",
      "oid" : "319373202",
      "districtId" : "1",
      "nameZh" : "大里農會",
      "pgp" : "0",
      "terminal" : "0",
      "latitude" : "24.10101",
      "inDis" : "50",
      "routeId" : "39",
      "seqNo" : "16"
   },
   {
      "GoBack" : "2",
      "longitude" : "120.67705",
      "outDis" : "50",
      "Id" : "5218",
      "oid" : "319373200",
      "districtId" : "1",
      "nameZh" : "大里國小",
      "pgp" : "0",
      "terminal" : "0",
      "latitude" : "24.09958",
      "inDis" : "50",
      "routeId" : "39",
      "seqNo" : "17"
   },
   {
      "GoBack" : "2",
      "longitude" : "120.67702",
      "outDis" : "50",
      "Id" : "1360",
      "oid" : "319373198",
      "districtId" : "1",
      "nameZh" : "大里",
      "pgp" : "0",
      "terminal" : "0",
      "latitude" : "24.09789",
      "inDis" : "50",
      "routeId" : "39",
      "seqNo" : "18"
   },
   {
      "GoBack" : "2",
      "longitude" : "120.67328",
      "outDis" : "50",
      "Id" : "1972",
      "oid" : "319373196",
      "districtId" : "1",
      "nameZh" : "瓦瑤",
      "pgp" : "0",
      "terminal" : "0",
      "latitude" : "24.09756",
      "inDis" : "50",
      "routeId" : "39",
      "seqNo" : "19"
   },
   {
      "GoBack" : "2",
      "longitude" : "120.66467",
      "outDis" : "50",
      "Id" : "3788",
      "oid" : "319373194",
      "districtId" : "1",
      "nameZh" : "樹王",
      "pgp" : "0",
      "terminal" : "0",
      "latitude" : "24.0968",
      "inDis" : "50",
      "routeId" : "39",
      "seqNo" : "20"
   },
   {
      "GoBack" : "2",
      "longitude" : "120.65912",
      "outDis" : "50",
      "Id" : "3789",
      "oid" : "319376564",
      "districtId" : "1",
      "nameZh" : "德昌社區",
      "pgp" : "0",
      "terminal" : "0",
      "latitude" : "24.0961",
      "inDis" : "50",
      "routeId" : "39",
      "seqNo" : "21"
   },
   {
      "GoBack" : "2",
      "longitude" : "120.65522",
      "outDis" : "50",
      "Id" : "5225",
      "oid" : "319373192",
      "districtId" : "1",
      "nameZh" : "五光五中巷口",
      "pgp" : "0",
      "terminal" : "0",
      "latitude" : "24.09525",
      "inDis" : "50",
      "routeId" : "39",
      "seqNo" : "22"
   },
   {
      "GoBack" : "2",
      "longitude" : "120.65266",
      "outDis" : "50",
      "Id" : "5226",
      "oid" : "319373189",
      "districtId" : "1",
      "nameZh" : "五光里",
      "pgp" : "0",
      "terminal" : "0",
      "latitude" : "24.09446",
      "inDis" : "50",
      "routeId" : "39",
      "seqNo" : "23"
   },
   {
      "GoBack" : "2",
      "longitude" : "120.6508",
      "outDis" : "50",
      "Id" : "0477",
      "oid" : "319373187",
      "districtId" : "1",
      "nameZh" : "五張犁福德宮",
      "pgp" : "0",
      "terminal" : "0",
      "latitude" : "24.09382",
      "inDis" : "50",
      "routeId" : "39",
      "seqNo" : "24"
   },
   {
      "GoBack" : "2",
      "longitude" : "120.64723",
      "outDis" : "50",
      "Id" : "0476",
      "oid" : "319373186",
      "districtId" : "1",
      "nameZh" : "五光環中路口",
      "pgp" : "0",
      "terminal" : "0",
      "latitude" : "24.09298",
      "inDis" : "50",
      "routeId" : "39",
      "seqNo" : "25"
   },
   {
      "GoBack" : "2",
      "longitude" : "120.64376",
      "outDis" : "50",
      "Id" : "0475",
      "oid" : "319373183",
      "districtId" : "1",
      "nameZh" : "五光環河路口",
      "pgp" : "0",
      "terminal" : "0",
      "latitude" : "24.09354",
      "inDis" : "50",
      "routeId" : "39",
      "seqNo" : "26"
   },
   {
      "GoBack" : "2",
      "longitude" : "120.63834",
      "outDis" : "50",
      "Id" : "0474",
      "oid" : "319373182",
      "districtId" : "1",
      "nameZh" : "五光溪南路口",
      "pgp" : "0",
      "terminal" : "0",
      "latitude" : "24.09629",
      "inDis" : "50",
      "routeId" : "39",
      "seqNo" : "27"
   },
   {
      "GoBack" : "2",
      "longitude" : "120.63307",
      "outDis" : "50",
      "Id" : "0472",
      "oid" : "319373180",
      "districtId" : "1",
      "nameZh" : "五光復光五巷口",
      "pgp" : "0",
      "terminal" : "0",
      "latitude" : "24.09852",
      "inDis" : "50",
      "routeId" : "39",
      "seqNo" : "28"
   },
   {
      "GoBack" : "2",
      "longitude" : "120.63098",
      "outDis" : "50",
      "Id" : "0469",
      "oid" : "319373179",
      "districtId" : "1",
      "nameZh" : "五光復光六巷口",
      "pgp" : "0",
      "terminal" : "0",
      "latitude" : "24.09983",
      "inDis" : "50",
      "routeId" : "39",
      "seqNo" : "29"
   },
   {
      "GoBack" : "2",
      "longitude" : "120.62813",
      "outDis" : "50",
      "Id" : "0040",
      "oid" : "319373178",
      "districtId" : "1",
      "nameZh" : "五光公園三街口",
      "pgp" : "0",
      "terminal" : "0",
      "latitude" : "24.10287",
      "inDis" : "50",
      "routeId" : "39",
      "seqNo" : "30"
   },
   {
      "GoBack" : "2",
      "longitude" : "120.62384",
      "outDis" : "50",
      "Id" : "4340",
      "oid" : "319373176",
      "districtId" : "1",
      "nameZh" : "烏日區公所",
      "pgp" : "0",
      "terminal" : "0",
      "latitude" : "24.10439",
      "inDis" : "50",
      "routeId" : "39",
      "seqNo" : "31"
   },
   {
      "GoBack" : "2",
      "longitude" : "120.6213",
      "outDis" : "50",
      "Id" : "2816",
      "oid" : "319373175",
      "districtId" : "1",
      "nameZh" : "烏日",
      "pgp" : "0",
      "terminal" : "0",
      "latitude" : "24.1052",
      "inDis" : "50",
      "routeId" : "39",
      "seqNo" : "32"
   },
   {
      "GoBack" : "2",
      "longitude" : "120.61697",
      "outDis" : "50",
      "Id" : "2820",
      "oid" : "319373172",
      "districtId" : "1",
      "nameZh" : "烏日國中",
      "pgp" : "0",
      "terminal" : "0",
      "latitude" : "24.10565",
      "inDis" : "50",
      "routeId" : "39",
      "seqNo" : "33"
   },
   {
      "GoBack" : "2",
      "longitude" : "120.61629",
      "outDis" : "50",
      "Id" : "2907",
      "oid" : "319373169",
      "districtId" : "1",
      "nameZh" : "高鐵臺中站",
      "pgp" : "0",
      "terminal" : "0",
      "latitude" : "24.11094",
      "inDis" : "50",
      "routeId" : "39",
      "seqNo" : "34"
   }
]
