[
   {
      "GoBack" : "1",
      "longitude" : "120.68823",
      "outDis" : "75",
      "Id" : "4399",
      "oid" : "11136",
      "districtId" : "1",
      "nameZh" : "新民高中(三民路)",
      "pgp" : "0",
      "terminal" : "0",
      "latitude" : "24.1564",
      "inDis" : "75",
      "routeId" : "50",
      "seqNo" : "1"
   },
   {
      "GoBack" : "1",
      "longitude" : "120.68941",
      "outDis" : "50",
      "Id" : "4520",
      "oid" : "305458530",
      "districtId" : "1",
      "nameZh" : "文英兒童公園",
      "pgp" : "0",
      "terminal" : "0",
      "latitude" : "24.15652",
      "inDis" : "50",
      "routeId" : "50",
      "seqNo" : "2"
   },
   {
      "GoBack" : "1",
      "longitude" : "120.68866",
      "outDis" : "50",
      "Id" : "4694",
      "oid" : "303563766",
      "districtId" : "1",
      "nameZh" : "臺灣體大體育場",
      "pgp" : "0",
      "terminal" : "0",
      "latitude" : "24.15269",
      "inDis" : "50",
      "routeId" : "50",
      "seqNo" : "3"
   },
   {
      "GoBack" : "1",
      "longitude" : "120.68736",
      "outDis" : "50",
      "Id" : "0149",
      "oid" : "10661",
      "districtId" : "1",
      "nameZh" : "臺中一中",
      "pgp" : "0",
      "terminal" : "0",
      "latitude" : "24.14955",
      "inDis" : "50",
      "routeId" : "50",
      "seqNo" : "4"
   },
   {
      "GoBack" : "1",
      "longitude" : "120.68624",
      "outDis" : "50",
      "Id" : "4695",
      "oid" : "303563767",
      "districtId" : "1",
      "nameZh" : "臺灣體大游泳池",
      "pgp" : "0",
      "terminal" : "0",
      "latitude" : "24.1466",
      "inDis" : "50",
      "routeId" : "50",
      "seqNo" : "5"
   },
   {
      "GoBack" : "1",
      "longitude" : "120.68617",
      "outDis" : "50",
      "Id" : "4544",
      "oid" : "303563768",
      "districtId" : "1",
      "nameZh" : "臺中公園(雙十路)",
      "pgp" : "0",
      "terminal" : "0",
      "latitude" : "24.14466",
      "inDis" : "50",
      "routeId" : "50",
      "seqNo" : "6"
   },
   {
      "GoBack" : "1",
      "longitude" : "120.68567",
      "outDis" : "50",
      "Id" : "0402",
      "oid" : "13087",
      "districtId" : "1",
      "nameZh" : "干城站",
      "pgp" : "0",
      "terminal" : "0",
      "latitude" : "24.14253",
      "inDis" : "50",
      "routeId" : "50",
      "seqNo" : "7"
   },
   {
      "GoBack" : "1",
      "longitude" : "120.6855",
      "outDis" : "50",
      "Id" : "1824",
      "oid" : "13136",
      "districtId" : "1",
      "nameZh" : "臺中火車站",
      "pgp" : "0",
      "terminal" : "0",
      "latitude" : "24.13818",
      "inDis" : "50",
      "routeId" : "50",
      "seqNo" : "8"
   },
   {
      "GoBack" : "1",
      "longitude" : "120.68087",
      "outDis" : "50",
      "Id" : "4284",
      "oid" : "13146",
      "districtId" : "1",
      "nameZh" : "民權繼光街口",
      "pgp" : "0",
      "terminal" : "0",
      "latitude" : "24.13702",
      "inDis" : "50",
      "routeId" : "50",
      "seqNo" : "9"
   },
   {
      "GoBack" : "1",
      "longitude" : "120.67793",
      "outDis" : "50",
      "Id" : "0071",
      "oid" : "13134",
      "districtId" : "1",
      "nameZh" : "臺中女中",
      "pgp" : "0",
      "terminal" : "0",
      "latitude" : "24.13595",
      "inDis" : "50",
      "routeId" : "50",
      "seqNo" : "10"
   },
   {
      "GoBack" : "1",
      "longitude" : "120.67675",
      "outDis" : "50",
      "Id" : "0070",
      "oid" : "13160",
      "districtId" : "1",
      "nameZh" : "地方法院",
      "pgp" : "0",
      "terminal" : "0",
      "latitude" : "24.13487",
      "inDis" : "50",
      "routeId" : "50",
      "seqNo" : "11"
   },
   {
      "GoBack" : "1",
      "longitude" : "120.67687",
      "outDis" : "50",
      "Id" : "4313",
      "oid" : "13240",
      "districtId" : "1",
      "nameZh" : "醒修宮",
      "pgp" : "0",
      "terminal" : "0",
      "latitude" : "24.13078",
      "inDis" : "50",
      "routeId" : "50",
      "seqNo" : "12"
   },
   {
      "GoBack" : "1",
      "longitude" : "120.67862",
      "outDis" : "50",
      "Id" : "0735",
      "oid" : "13190",
      "districtId" : "1",
      "nameZh" : "恩光堂",
      "pgp" : "0",
      "terminal" : "0",
      "latitude" : "24.12747",
      "inDis" : "50",
      "routeId" : "50",
      "seqNo" : "13"
   },
   {
      "GoBack" : "1",
      "longitude" : "120.67903",
      "outDis" : "50",
      "Id" : "0038",
      "oid" : "13212",
      "districtId" : "1",
      "nameZh" : "國光國小",
      "pgp" : "0",
      "terminal" : "0",
      "latitude" : "24.12588",
      "inDis" : "50",
      "routeId" : "50",
      "seqNo" : "14"
   },
   {
      "GoBack" : "1",
      "longitude" : "120.6794",
      "outDis" : "50",
      "Id" : "4347",
      "oid" : "DE2C6BA3BE8942E79BA0CABF1CF65AE0",
      "districtId" : "1",
      "nameZh" : "中興大學(國光路)",
      "pgp" : "0",
      "terminal" : "0",
      "latitude" : "24.12133",
      "inDis" : "50",
      "routeId" : "50",
      "seqNo" : "15"
   },
   {
      "GoBack" : "1",
      "longitude" : "120.67915",
      "outDis" : "50",
      "Id" : "4292",
      "oid" : "13206",
      "districtId" : "1",
      "nameZh" : "國光忠明南路口",
      "pgp" : "0",
      "terminal" : "0",
      "latitude" : "24.1183",
      "inDis" : "50",
      "routeId" : "50",
      "seqNo" : "16"
   },
   {
      "GoBack" : "1",
      "longitude" : "120.67918",
      "outDis" : "50",
      "Id" : "2930",
      "oid" : "13216",
      "districtId" : "1",
      "nameZh" : "國光橋",
      "pgp" : "0",
      "terminal" : "0",
      "latitude" : "24.11585",
      "inDis" : "50",
      "routeId" : "50",
      "seqNo" : "17"
   },
   {
      "GoBack" : "1",
      "longitude" : "120.67894",
      "outDis" : "50",
      "Id" : "4293",
      "oid" : "13208",
      "districtId" : "1",
      "nameZh" : "國光東興路口",
      "pgp" : "0",
      "terminal" : "0",
      "latitude" : "24.11363",
      "inDis" : "50",
      "routeId" : "50",
      "seqNo" : "18"
   },
   {
      "GoBack" : "1",
      "longitude" : "120.67987",
      "outDis" : "50",
      "Id" : "1558",
      "oid" : "13104",
      "districtId" : "1",
      "nameZh" : "大里仁愛醫院",
      "pgp" : "0",
      "terminal" : "0",
      "latitude" : "24.10855",
      "inDis" : "50",
      "routeId" : "50",
      "seqNo" : "19"
   },
   {
      "GoBack" : "1",
      "longitude" : "120.68087",
      "outDis" : "50",
      "Id" : "4294",
      "oid" : "13214",
      "districtId" : "1",
      "nameZh" : "國光德芳路口",
      "pgp" : "0",
      "terminal" : "0",
      "latitude" : "24.10532",
      "inDis" : "50",
      "routeId" : "50",
      "seqNo" : "20"
   },
   {
      "GoBack" : "1",
      "longitude" : "120.68128",
      "outDis" : "50",
      "Id" : "2928",
      "oid" : "13210",
      "districtId" : "1",
      "nameZh" : "國光花市",
      "pgp" : "0",
      "terminal" : "0",
      "latitude" : "24.10348",
      "inDis" : "50",
      "routeId" : "50",
      "seqNo" : "21"
   },
   {
      "GoBack" : "1",
      "longitude" : "120.68268",
      "outDis" : "50",
      "Id" : "4254",
      "oid" : "310175396",
      "districtId" : "1",
      "nameZh" : "大里運動公園",
      "pgp" : "0",
      "terminal" : "0",
      "latitude" : "24.10003",
      "inDis" : "50",
      "routeId" : "50",
      "seqNo" : "22"
   },
   {
      "GoBack" : "1",
      "longitude" : "120.68585",
      "outDis" : "50",
      "Id" : "4291",
      "oid" : "13204",
      "districtId" : "1",
      "nameZh" : "國光中興路口",
      "pgp" : "0",
      "terminal" : "0",
      "latitude" : "24.09592",
      "inDis" : "50",
      "routeId" : "50",
      "seqNo" : "23"
   },
   {
      "GoBack" : "1",
      "longitude" : "120.69172",
      "outDis" : "50",
      "Id" : "4661",
      "oid" : "13101",
      "districtId" : "1",
      "nameZh" : "中興仁化路口",
      "pgp" : "0",
      "terminal" : "0",
      "latitude" : "24.09148",
      "inDis" : "50",
      "routeId" : "50",
      "seqNo" : "24"
   },
   {
      "GoBack" : "1",
      "longitude" : "120.69385",
      "outDis" : "50",
      "Id" : "4286",
      "oid" : "13181",
      "districtId" : "1",
      "nameZh" : "青年高中",
      "pgp" : "0",
      "terminal" : "0",
      "latitude" : "24.0897",
      "inDis" : "50",
      "routeId" : "50",
      "seqNo" : "25"
   },
   {
      "GoBack" : "1",
      "longitude" : "120.69593",
      "outDis" : "50",
      "Id" : "4253",
      "oid" : "13071",
      "districtId" : "1",
      "nameZh" : "大里圖書館(中興路)",
      "pgp" : "0",
      "terminal" : "0",
      "latitude" : "24.08743",
      "inDis" : "50",
      "routeId" : "50",
      "seqNo" : "26"
   },
   {
      "GoBack" : "1",
      "longitude" : "120.69713",
      "outDis" : "50",
      "Id" : "2866",
      "oid" : "13197",
      "districtId" : "1",
      "nameZh" : "草湖",
      "pgp" : "0",
      "terminal" : "0",
      "latitude" : "24.08362",
      "inDis" : "50",
      "routeId" : "50",
      "seqNo" : "27"
   },
   {
      "GoBack" : "1",
      "longitude" : "120.69825",
      "outDis" : "50",
      "Id" : "4349",
      "oid" : "13099",
      "districtId" : "1",
      "nameZh" : "中興東南路口",
      "pgp" : "0",
      "terminal" : "0",
      "latitude" : "24.08012",
      "inDis" : "50",
      "routeId" : "50",
      "seqNo" : "28"
   },
   {
      "GoBack" : "1",
      "longitude" : "120.69947",
      "outDis" : "50",
      "Id" : "2062",
      "oid" : "13155",
      "districtId" : "1",
      "nameZh" : "中正吉峰路口",
      "pgp" : "0",
      "terminal" : "0",
      "latitude" : "24.0765",
      "inDis" : "50",
      "routeId" : "50",
      "seqNo" : "29"
   },
   {
      "GoBack" : "1",
      "longitude" : "120.69968",
      "outDis" : "50",
      "Id" : "3980",
      "oid" : "13249",
      "districtId" : "1",
      "nameZh" : "霧峰農工",
      "pgp" : "0",
      "terminal" : "0",
      "latitude" : "24.07308",
      "inDis" : "50",
      "routeId" : "50",
      "seqNo" : "30"
   },
   {
      "GoBack" : "1",
      "longitude" : "120.69928",
      "outDis" : "50",
      "Id" : "1994",
      "oid" : "311784445",
      "districtId" : "1",
      "nameZh" : "甲寅",
      "pgp" : "0",
      "terminal" : "0",
      "latitude" : "24.0697",
      "inDis" : "50",
      "routeId" : "50",
      "seqNo" : "31"
   },
   {
      "GoBack" : "1",
      "longitude" : "120.6989",
      "outDis" : "50",
      "Id" : "4972",
      "oid" : "7027",
      "districtId" : "1",
      "nameZh" : "中正草湖路口",
      "pgp" : "0",
      "terminal" : "0",
      "latitude" : "24.067",
      "inDis" : "50",
      "routeId" : "50",
      "seqNo" : "32"
   },
   {
      "GoBack" : "1",
      "longitude" : "120.69852",
      "outDis" : "50",
      "Id" : "3972",
      "oid" : "13245",
      "districtId" : "1",
      "nameZh" : "霧峰",
      "pgp" : "0",
      "terminal" : "0",
      "latitude" : "24.06383",
      "inDis" : "50",
      "routeId" : "50",
      "seqNo" : "33"
   },
   {
      "GoBack" : "1",
      "longitude" : "120.6984",
      "outDis" : "50",
      "Id" : "3978",
      "oid" : "13223",
      "districtId" : "1",
      "nameZh" : "霧峰郵局",
      "pgp" : "0",
      "terminal" : "0",
      "latitude" : "24.06174",
      "inDis" : "50",
      "routeId" : "50",
      "seqNo" : "34"
   },
   {
      "GoBack" : "1",
      "longitude" : "120.69799",
      "outDis" : "50",
      "Id" : "5546",
      "oid" : "316462697",
      "districtId" : "1",
      "nameZh" : "教育部國教署",
      "pgp" : "0",
      "terminal" : "0",
      "latitude" : "24.05932",
      "inDis" : "50",
      "routeId" : "50",
      "seqNo" : "35"
   },
   {
      "GoBack" : "1",
      "longitude" : "120.6977",
      "outDis" : "50",
      "Id" : "3976",
      "oid" : "13247",
      "districtId" : "1",
      "nameZh" : "霧峰國小",
      "pgp" : "0",
      "terminal" : "0",
      "latitude" : "24.05745",
      "inDis" : "50",
      "routeId" : "50",
      "seqNo" : "36"
   },
   {
      "GoBack" : "1",
      "longitude" : "120.69688",
      "outDis" : "50",
      "Id" : "2692",
      "oid" : "13185",
      "districtId" : "1",
      "nameZh" : "省議會",
      "pgp" : "0",
      "terminal" : "0",
      "latitude" : "24.05527",
      "inDis" : "50",
      "routeId" : "50",
      "seqNo" : "37"
   },
   {
      "GoBack" : "1",
      "longitude" : "120.6942",
      "outDis" : "50",
      "Id" : "1026",
      "oid" : "13057",
      "districtId" : "1",
      "nameZh" : "八德橋",
      "pgp" : "0",
      "terminal" : "0",
      "latitude" : "24.05028",
      "inDis" : "50",
      "routeId" : "50",
      "seqNo" : "38"
   },
   {
      "GoBack" : "1",
      "longitude" : "120.69213",
      "outDis" : "50",
      "Id" : "2048",
      "oid" : "13153",
      "districtId" : "1",
      "nameZh" : "光復新村",
      "pgp" : "0",
      "terminal" : "0",
      "latitude" : "24.04513",
      "inDis" : "50",
      "routeId" : "50",
      "seqNo" : "39"
   },
   {
      "GoBack" : "1",
      "longitude" : "120.69278",
      "outDis" : "50",
      "Id" : "5709",
      "oid" : "319729701",
      "districtId" : "1",
      "nameZh" : "六股(乾溪路)",
      "pgp" : "0",
      "terminal" : "0",
      "latitude" : "24.04276",
      "inDis" : "50",
      "routeId" : "50",
      "seqNo" : "40"
   },
   {
      "GoBack" : "1",
      "longitude" : "120.6998",
      "outDis" : "50",
      "Id" : "4343",
      "oid" : "13055",
      "districtId" : "1",
      "nameZh" : "921地震教育園區",
      "pgp" : "0",
      "terminal" : "0",
      "latitude" : "24.04043",
      "inDis" : "50",
      "routeId" : "50",
      "seqNo" : "41"
   },
   {
      "GoBack" : "2",
      "longitude" : "120.6998",
      "outDis" : "50",
      "Id" : "4343",
      "oid" : "13056",
      "districtId" : "1",
      "nameZh" : "921地震教育園區",
      "pgp" : "0",
      "terminal" : "0",
      "latitude" : "24.04043",
      "inDis" : "50",
      "routeId" : "50",
      "seqNo" : "1"
   },
   {
      "GoBack" : "2",
      "longitude" : "120.69278",
      "outDis" : "50",
      "Id" : "5709",
      "oid" : "319729703",
      "districtId" : "1",
      "nameZh" : "六股(乾溪路)",
      "pgp" : "0",
      "terminal" : "0",
      "latitude" : "24.04283",
      "inDis" : "50",
      "routeId" : "50",
      "seqNo" : "2"
   },
   {
      "GoBack" : "2",
      "longitude" : "120.69441",
      "outDis" : "50",
      "Id" : "5495",
      "oid" : "312281890",
      "districtId" : "1",
      "nameZh" : "光復新村圓環",
      "pgp" : "0",
      "terminal" : "0",
      "latitude" : "24.04455",
      "inDis" : "50",
      "routeId" : "50",
      "seqNo" : "3"
   },
   {
      "GoBack" : "2",
      "longitude" : "120.6924",
      "outDis" : "50",
      "Id" : "2048",
      "oid" : "13154",
      "districtId" : "1",
      "nameZh" : "光復新村",
      "pgp" : "0",
      "terminal" : "0",
      "latitude" : "24.04548",
      "inDis" : "50",
      "routeId" : "50",
      "seqNo" : "4"
   },
   {
      "GoBack" : "2",
      "longitude" : "120.69462",
      "outDis" : "50",
      "Id" : "1026",
      "oid" : "13058",
      "districtId" : "1",
      "nameZh" : "八德橋",
      "pgp" : "0",
      "terminal" : "0",
      "latitude" : "24.05077",
      "inDis" : "50",
      "routeId" : "50",
      "seqNo" : "5"
   },
   {
      "GoBack" : "2",
      "longitude" : "120.69683",
      "outDis" : "50",
      "Id" : "2692",
      "oid" : "13186",
      "districtId" : "1",
      "nameZh" : "省議會",
      "pgp" : "0",
      "terminal" : "0",
      "latitude" : "24.05493",
      "inDis" : "50",
      "routeId" : "50",
      "seqNo" : "6"
   },
   {
      "GoBack" : "2",
      "longitude" : "120.6979",
      "outDis" : "50",
      "Id" : "3976",
      "oid" : "13248",
      "districtId" : "1",
      "nameZh" : "霧峰國小",
      "pgp" : "0",
      "terminal" : "0",
      "latitude" : "24.05787",
      "inDis" : "50",
      "routeId" : "50",
      "seqNo" : "7"
   },
   {
      "GoBack" : "2",
      "longitude" : "120.69807",
      "outDis" : "50",
      "Id" : "5546",
      "oid" : "316462698",
      "districtId" : "1",
      "nameZh" : "教育部國教署",
      "pgp" : "0",
      "terminal" : "0",
      "latitude" : "24.05974",
      "inDis" : "50",
      "routeId" : "50",
      "seqNo" : "8"
   },
   {
      "GoBack" : "2",
      "longitude" : "120.69853",
      "outDis" : "50",
      "Id" : "3978",
      "oid" : "13224",
      "districtId" : "1",
      "nameZh" : "霧峰郵局",
      "pgp" : "0",
      "terminal" : "0",
      "latitude" : "24.06268",
      "inDis" : "50",
      "routeId" : "50",
      "seqNo" : "9"
   },
   {
      "GoBack" : "2",
      "longitude" : "120.69862",
      "outDis" : "50",
      "Id" : "3972",
      "oid" : "13246",
      "districtId" : "1",
      "nameZh" : "霧峰",
      "pgp" : "0",
      "terminal" : "0",
      "latitude" : "24.0635",
      "inDis" : "50",
      "routeId" : "50",
      "seqNo" : "10"
   },
   {
      "GoBack" : "2",
      "longitude" : "120.6989",
      "outDis" : "50",
      "Id" : "4972",
      "oid" : "7027",
      "districtId" : "1",
      "nameZh" : "中正草湖路口",
      "pgp" : "0",
      "terminal" : "0",
      "latitude" : "24.067",
      "inDis" : "50",
      "routeId" : "50",
      "seqNo" : "11"
   },
   {
      "GoBack" : "2",
      "longitude" : "120.69928",
      "outDis" : "50",
      "Id" : "1994",
      "oid" : "311784445",
      "districtId" : "1",
      "nameZh" : "甲寅",
      "pgp" : "0",
      "terminal" : "0",
      "latitude" : "24.0697",
      "inDis" : "50",
      "routeId" : "50",
      "seqNo" : "12"
   },
   {
      "GoBack" : "2",
      "longitude" : "120.69985",
      "outDis" : "50",
      "Id" : "3980",
      "oid" : "13250",
      "districtId" : "1",
      "nameZh" : "霧峰農工",
      "pgp" : "0",
      "terminal" : "0",
      "latitude" : "24.07303",
      "inDis" : "50",
      "routeId" : "50",
      "seqNo" : "13"
   },
   {
      "GoBack" : "2",
      "longitude" : "120.69987",
      "outDis" : "50",
      "Id" : "2062",
      "oid" : "13156",
      "districtId" : "1",
      "nameZh" : "中正吉峰路口",
      "pgp" : "0",
      "terminal" : "0",
      "latitude" : "24.07597",
      "inDis" : "50",
      "routeId" : "50",
      "seqNo" : "14"
   },
   {
      "GoBack" : "2",
      "longitude" : "120.69823",
      "outDis" : "50",
      "Id" : "4349",
      "oid" : "13100",
      "districtId" : "1",
      "nameZh" : "中興東南路口",
      "pgp" : "0",
      "terminal" : "0",
      "latitude" : "24.08097",
      "inDis" : "50",
      "routeId" : "50",
      "seqNo" : "15"
   },
   {
      "GoBack" : "2",
      "longitude" : "120.69745",
      "outDis" : "50",
      "Id" : "2866",
      "oid" : "13198",
      "districtId" : "1",
      "nameZh" : "草湖",
      "pgp" : "0",
      "terminal" : "0",
      "latitude" : "24.08347",
      "inDis" : "50",
      "routeId" : "50",
      "seqNo" : "16"
   },
   {
      "GoBack" : "2",
      "longitude" : "120.69635",
      "outDis" : "50",
      "Id" : "5034",
      "oid" : "309557183",
      "districtId" : "1",
      "nameZh" : "財政部印刷廠",
      "pgp" : "0",
      "terminal" : "0",
      "latitude" : "24.08663",
      "inDis" : "50",
      "routeId" : "50",
      "seqNo" : "17"
   },
   {
      "GoBack" : "2",
      "longitude" : "120.69536",
      "outDis" : "50",
      "Id" : "4253",
      "oid" : "13072",
      "districtId" : "1",
      "nameZh" : "大里圖書館(中興路)",
      "pgp" : "0",
      "terminal" : "0",
      "latitude" : "24.08867",
      "inDis" : "50",
      "routeId" : "50",
      "seqNo" : "18"
   },
   {
      "GoBack" : "2",
      "longitude" : "120.6941",
      "outDis" : "50",
      "Id" : "4286",
      "oid" : "13182",
      "districtId" : "1",
      "nameZh" : "青年高中",
      "pgp" : "0",
      "terminal" : "0",
      "latitude" : "24.0898",
      "inDis" : "50",
      "routeId" : "50",
      "seqNo" : "19"
   },
   {
      "GoBack" : "2",
      "longitude" : "120.69178",
      "outDis" : "50",
      "Id" : "4661",
      "oid" : "13102",
      "districtId" : "1",
      "nameZh" : "中興仁化路口",
      "pgp" : "0",
      "terminal" : "0",
      "latitude" : "24.09162",
      "inDis" : "50",
      "routeId" : "50",
      "seqNo" : "20"
   },
   {
      "GoBack" : "2",
      "longitude" : "120.68528",
      "outDis" : "50",
      "Id" : "4291",
      "oid" : "13203",
      "districtId" : "1",
      "nameZh" : "國光中興路口",
      "pgp" : "0",
      "terminal" : "0",
      "latitude" : "24.09675",
      "inDis" : "50",
      "routeId" : "50",
      "seqNo" : "21"
   },
   {
      "GoBack" : "2",
      "longitude" : "120.68268",
      "outDis" : "50",
      "Id" : "4254",
      "oid" : "310175396",
      "districtId" : "1",
      "nameZh" : "大里運動公園",
      "pgp" : "0",
      "terminal" : "0",
      "latitude" : "24.10003",
      "inDis" : "50",
      "routeId" : "50",
      "seqNo" : "22"
   },
   {
      "GoBack" : "2",
      "longitude" : "120.68185",
      "outDis" : "50",
      "Id" : "2928",
      "oid" : "13209",
      "districtId" : "1",
      "nameZh" : "國光花市",
      "pgp" : "0",
      "terminal" : "0",
      "latitude" : "24.10312",
      "inDis" : "50",
      "routeId" : "50",
      "seqNo" : "23"
   },
   {
      "GoBack" : "2",
      "longitude" : "120.68123",
      "outDis" : "50",
      "Id" : "4294",
      "oid" : "13213",
      "districtId" : "1",
      "nameZh" : "國光德芳路口",
      "pgp" : "0",
      "terminal" : "0",
      "latitude" : "24.10522",
      "inDis" : "50",
      "routeId" : "50",
      "seqNo" : "24"
   },
   {
      "GoBack" : "2",
      "longitude" : "120.67988",
      "outDis" : "50",
      "Id" : "1558",
      "oid" : "13103",
      "districtId" : "1",
      "nameZh" : "大里仁愛醫院",
      "pgp" : "0",
      "terminal" : "0",
      "latitude" : "24.10967",
      "inDis" : "50",
      "routeId" : "50",
      "seqNo" : "25"
   },
   {
      "GoBack" : "2",
      "longitude" : "120.67929",
      "outDis" : "50",
      "Id" : "4293",
      "oid" : "13207",
      "districtId" : "1",
      "nameZh" : "國光東興路口",
      "pgp" : "0",
      "terminal" : "0",
      "latitude" : "24.11463",
      "inDis" : "50",
      "routeId" : "50",
      "seqNo" : "26"
   },
   {
      "GoBack" : "2",
      "longitude" : "120.67947",
      "outDis" : "50",
      "Id" : "2930",
      "oid" : "13215",
      "districtId" : "1",
      "nameZh" : "國光橋",
      "pgp" : "0",
      "terminal" : "0",
      "latitude" : "24.11588",
      "inDis" : "50",
      "routeId" : "50",
      "seqNo" : "27"
   },
   {
      "GoBack" : "2",
      "longitude" : "120.67943",
      "outDis" : "50",
      "Id" : "4292",
      "oid" : "13205",
      "districtId" : "1",
      "nameZh" : "國光忠明南路口",
      "pgp" : "0",
      "terminal" : "0",
      "latitude" : "24.11823",
      "inDis" : "50",
      "routeId" : "50",
      "seqNo" : "28"
   },
   {
      "GoBack" : "2",
      "longitude" : "120.67925",
      "outDis" : "50",
      "Id" : "4347",
      "oid" : "FFADDB58C7DD4E5C9DF0726DEE651794",
      "districtId" : "1",
      "nameZh" : "中興大學(國光路)",
      "pgp" : "0",
      "terminal" : "0",
      "latitude" : "24.12135",
      "inDis" : "50",
      "routeId" : "50",
      "seqNo" : "29"
   },
   {
      "GoBack" : "2",
      "longitude" : "120.67947",
      "outDis" : "50",
      "Id" : "0038",
      "oid" : "13211",
      "districtId" : "1",
      "nameZh" : "國光國小",
      "pgp" : "0",
      "terminal" : "0",
      "latitude" : "24.1259",
      "inDis" : "50",
      "routeId" : "50",
      "seqNo" : "30"
   },
   {
      "GoBack" : "2",
      "longitude" : "120.67897",
      "outDis" : "50",
      "Id" : "0735",
      "oid" : "13189",
      "districtId" : "1",
      "nameZh" : "恩光堂",
      "pgp" : "0",
      "terminal" : "0",
      "latitude" : "24.12747",
      "inDis" : "50",
      "routeId" : "50",
      "seqNo" : "31"
   },
   {
      "GoBack" : "2",
      "longitude" : "120.67757",
      "outDis" : "50",
      "Id" : "4313",
      "oid" : "13239",
      "districtId" : "1",
      "nameZh" : "醒修宮",
      "pgp" : "0",
      "terminal" : "0",
      "latitude" : "24.13018",
      "inDis" : "50",
      "routeId" : "50",
      "seqNo" : "32"
   },
   {
      "GoBack" : "2",
      "longitude" : "120.67605",
      "outDis" : "50",
      "Id" : "0070",
      "oid" : "13159",
      "districtId" : "1",
      "nameZh" : "地方法院",
      "pgp" : "0",
      "terminal" : "0",
      "latitude" : "24.13407",
      "inDis" : "50",
      "routeId" : "50",
      "seqNo" : "33"
   },
   {
      "GoBack" : "2",
      "longitude" : "120.67802",
      "outDis" : "50",
      "Id" : "0071",
      "oid" : "13133",
      "districtId" : "1",
      "nameZh" : "臺中女中",
      "pgp" : "0",
      "terminal" : "0",
      "latitude" : "24.13593",
      "inDis" : "50",
      "routeId" : "50",
      "seqNo" : "34"
   },
   {
      "GoBack" : "2",
      "longitude" : "120.68105",
      "outDis" : "50",
      "Id" : "4284",
      "oid" : "13145",
      "districtId" : "1",
      "nameZh" : "民權繼光街口",
      "pgp" : "0",
      "terminal" : "0",
      "latitude" : "24.1369",
      "inDis" : "50",
      "routeId" : "50",
      "seqNo" : "35"
   },
   {
      "GoBack" : "2",
      "longitude" : "120.6848",
      "outDis" : "50",
      "Id" : "1824",
      "oid" : "13135",
      "districtId" : "1",
      "nameZh" : "臺中火車站",
      "pgp" : "0",
      "terminal" : "0",
      "latitude" : "24.1374",
      "inDis" : "50",
      "routeId" : "50",
      "seqNo" : "36"
   },
   {
      "GoBack" : "2",
      "longitude" : "120.68613",
      "outDis" : "50",
      "Id" : "0402",
      "oid" : "13088",
      "districtId" : "1",
      "nameZh" : "干城站",
      "pgp" : "0",
      "terminal" : "0",
      "latitude" : "24.1408",
      "inDis" : "50",
      "routeId" : "50",
      "seqNo" : "37"
   },
   {
      "GoBack" : "2",
      "longitude" : "120.68617",
      "outDis" : "50",
      "Id" : "4544",
      "oid" : "303563768",
      "districtId" : "1",
      "nameZh" : "臺中公園(雙十路)",
      "pgp" : "0",
      "terminal" : "0",
      "latitude" : "24.14466",
      "inDis" : "50",
      "routeId" : "50",
      "seqNo" : "38"
   },
   {
      "GoBack" : "2",
      "longitude" : "120.68624",
      "outDis" : "50",
      "Id" : "4695",
      "oid" : "303563767",
      "districtId" : "1",
      "nameZh" : "臺灣體大游泳池",
      "pgp" : "0",
      "terminal" : "0",
      "latitude" : "24.1466",
      "inDis" : "50",
      "routeId" : "50",
      "seqNo" : "39"
   },
   {
      "GoBack" : "2",
      "longitude" : "120.68753",
      "outDis" : "50",
      "Id" : "0149",
      "oid" : "10662",
      "districtId" : "1",
      "nameZh" : "臺中一中",
      "pgp" : "0",
      "terminal" : "0",
      "latitude" : "24.14943",
      "inDis" : "50",
      "routeId" : "50",
      "seqNo" : "40"
   },
   {
      "GoBack" : "2",
      "longitude" : "120.68866",
      "outDis" : "50",
      "Id" : "4694",
      "oid" : "303563766",
      "districtId" : "1",
      "nameZh" : "臺灣體大體育場",
      "pgp" : "0",
      "terminal" : "0",
      "latitude" : "24.15269",
      "inDis" : "50",
      "routeId" : "50",
      "seqNo" : "41"
   },
   {
      "GoBack" : "2",
      "longitude" : "120.68797",
      "outDis" : "50",
      "Id" : "0048",
      "oid" : "12624",
      "districtId" : "1",
      "nameZh" : "莒光新城",
      "pgp" : "0",
      "terminal" : "0",
      "latitude" : "24.15401",
      "inDis" : "50",
      "routeId" : "50",
      "seqNo" : "42"
   },
   {
      "GoBack" : "2",
      "longitude" : "120.68819",
      "outDis" : "50",
      "Id" : "4399",
      "oid" : "6AC85734A6F54FBCA2759A51E0CE31BE",
      "districtId" : "1",
      "nameZh" : "新民高中(三民路)",
      "pgp" : "0",
      "terminal" : "0",
      "latitude" : "24.15636",
      "inDis" : "50",
      "routeId" : "50",
      "seqNo" : "43"
   }
]
