[
   {
      "GoBack" : "1",
      "longitude" : "120.68387",
      "outDis" : "170",
      "Id" : "1824",
      "oid" : "5545",
      "districtId" : "1",
      "nameZh" : "臺中火車站",
      "pgp" : "0",
      "terminal" : "0",
      "latitude" : "24.13663",
      "inDis" : "50",
      "routeId" : "285",
      "seqNo" : "1"
   },
   {
      "GoBack" : "1",
      "longitude" : "120.68381",
      "outDis" : "50",
      "Id" : "0049",
      "oid" : "6258",
      "districtId" : "1",
      "nameZh" : "第三市場(臺中家商)",
      "pgp" : "0",
      "terminal" : "0",
      "latitude" : "24.13246",
      "inDis" : "50",
      "routeId" : "285",
      "seqNo" : "2"
   },
   {
      "GoBack" : "1",
      "longitude" : "120.68499",
      "outDis" : "50",
      "Id" : "0257",
      "oid" : "5561",
      "districtId" : "1",
      "nameZh" : "臺中國小",
      "pgp" : "0",
      "terminal" : "0",
      "latitude" : "24.13028",
      "inDis" : "50",
      "routeId" : "285",
      "seqNo" : "3"
   },
   {
      "GoBack" : "1",
      "longitude" : "120.68441",
      "outDis" : "50",
      "Id" : "5607",
      "oid" : "65FD256B0CA44054A1479B565251A060",
      "districtId" : "1",
      "nameZh" : "興大附農(臺中路)",
      "pgp" : "0",
      "terminal" : "0",
      "latitude" : "24.12746",
      "inDis" : "50",
      "routeId" : "285",
      "seqNo" : "4"
   },
   {
      "GoBack" : "1",
      "longitude" : "120.68425",
      "outDis" : "50",
      "Id" : "0255",
      "oid" : "12392",
      "districtId" : "1",
      "nameZh" : "南門仔",
      "pgp" : "0",
      "terminal" : "0",
      "latitude" : "24.12529",
      "inDis" : "50",
      "routeId" : "285",
      "seqNo" : "5"
   },
   {
      "GoBack" : "1",
      "longitude" : "120.68407",
      "outDis" : "50",
      "Id" : "5112",
      "oid" : "44E1581B6B204E55B29CE1D3BC32ECAE",
      "districtId" : "1",
      "nameZh" : "明德高中(臺中路)",
      "pgp" : "0",
      "terminal" : "0",
      "latitude" : "24.1228",
      "inDis" : "50",
      "routeId" : "285",
      "seqNo" : "6"
   },
   {
      "GoBack" : "1",
      "longitude" : "120.68657",
      "outDis" : "50",
      "Id" : "2591",
      "oid" : "5998",
      "districtId" : "1",
      "nameZh" : "南門橋頭",
      "pgp" : "0",
      "terminal" : "0",
      "latitude" : "24.12112",
      "inDis" : "50",
      "routeId" : "285",
      "seqNo" : "7"
   },
   {
      "GoBack" : "1",
      "longitude" : "120.68948",
      "outDis" : "50",
      "Id" : "3281",
      "oid" : "7492",
      "districtId" : "1",
      "nameZh" : "菸葉廠",
      "pgp" : "0",
      "terminal" : "0",
      "latitude" : "24.11737",
      "inDis" : "50",
      "routeId" : "285",
      "seqNo" : "8"
   },
   {
      "GoBack" : "1",
      "longitude" : "120.68962",
      "outDis" : "50",
      "Id" : "3279",
      "oid" : "6362",
      "districtId" : "1",
      "nameZh" : "菩提醫院",
      "pgp" : "0",
      "terminal" : "0",
      "latitude" : "24.11522",
      "inDis" : "50",
      "routeId" : "285",
      "seqNo" : "9"
   },
   {
      "GoBack" : "1",
      "longitude" : "120.68974",
      "outDis" : "50",
      "Id" : "5485",
      "oid" : "314655296",
      "districtId" : "1",
      "nameZh" : "中興內新街口",
      "pgp" : "0",
      "terminal" : "0",
      "latitude" : "24.11408",
      "inDis" : "50",
      "routeId" : "285",
      "seqNo" : "10"
   },
   {
      "GoBack" : "1",
      "longitude" : "120.68986",
      "outDis" : "50",
      "Id" : "2691",
      "oid" : "6049",
      "districtId" : "1",
      "nameZh" : "省農會",
      "pgp" : "0",
      "terminal" : "0",
      "latitude" : "24.1125",
      "inDis" : "50",
      "routeId" : "285",
      "seqNo" : "11"
   },
   {
      "GoBack" : "1",
      "longitude" : "120.69002",
      "outDis" : "50",
      "Id" : "1576",
      "oid" : "5395",
      "districtId" : "1",
      "nameZh" : "內新市場",
      "pgp" : "0",
      "terminal" : "0",
      "latitude" : "24.11079",
      "inDis" : "50",
      "routeId" : "285",
      "seqNo" : "12"
   },
   {
      "GoBack" : "1",
      "longitude" : "120.68996",
      "outDis" : "50",
      "Id" : "1363",
      "oid" : "7236",
      "districtId" : "1",
      "nameZh" : "中興大里路口",
      "pgp" : "0",
      "terminal" : "0",
      "latitude" : "24.10841",
      "inDis" : "50",
      "routeId" : "285",
      "seqNo" : "13"
   },
   {
      "GoBack" : "1",
      "longitude" : "120.68942",
      "outDis" : "50",
      "Id" : "2026",
      "oid" : "5672",
      "districtId" : "1",
      "nameZh" : "立人高中",
      "pgp" : "0",
      "terminal" : "0",
      "latitude" : "24.106",
      "inDis" : "50",
      "routeId" : "285",
      "seqNo" : "14"
   },
   {
      "GoBack" : "1",
      "longitude" : "120.68807",
      "outDis" : "50",
      "Id" : "1126",
      "oid" : "7905",
      "districtId" : "1",
      "nameZh" : "下內新",
      "pgp" : "0",
      "terminal" : "0",
      "latitude" : "24.10213",
      "inDis" : "50",
      "routeId" : "285",
      "seqNo" : "15"
   },
   {
      "GoBack" : "1",
      "longitude" : "120.6879",
      "outDis" : "50",
      "Id" : "5151",
      "oid" : "7100",
      "districtId" : "1",
      "nameZh" : "兒童藝術館(中興路)",
      "pgp" : "0",
      "terminal" : "0",
      "latitude" : "24.10002",
      "inDis" : "50",
      "routeId" : "285",
      "seqNo" : "16"
   },
   {
      "GoBack" : "1",
      "longitude" : "120.68589",
      "outDis" : "50",
      "Id" : "1322",
      "oid" : "007C5FD1E1FD4FA0B5781716D87D6BE1",
      "districtId" : "1",
      "nameZh" : "大突寮(中興路)",
      "pgp" : "0",
      "terminal" : "0",
      "latitude" : "24.09536",
      "inDis" : "50",
      "routeId" : "285",
      "seqNo" : "17"
   },
   {
      "GoBack" : "1",
      "longitude" : "120.69139",
      "outDis" : "50",
      "Id" : "4950",
      "oid" : "304725405",
      "districtId" : "1",
      "nameZh" : "仁化中興路口",
      "pgp" : "0",
      "terminal" : "0",
      "latitude" : "24.09196",
      "inDis" : "50",
      "routeId" : "285",
      "seqNo" : "18"
   },
   {
      "GoBack" : "1",
      "longitude" : "120.69546",
      "outDis" : "50",
      "Id" : "5017",
      "oid" : "309414101",
      "districtId" : "1",
      "nameZh" : "仁化至善路口",
      "pgp" : "0",
      "terminal" : "0",
      "latitude" : "24.09601",
      "inDis" : "50",
      "routeId" : "285",
      "seqNo" : "19"
   },
   {
      "GoBack" : "1",
      "longitude" : "120.69865",
      "outDis" : "50",
      "Id" : "5016",
      "oid" : "304725409",
      "districtId" : "1",
      "nameZh" : "仁化慈德路口",
      "pgp" : "0",
      "terminal" : "0",
      "latitude" : "24.0966",
      "inDis" : "50",
      "routeId" : "285",
      "seqNo" : "20"
   },
   {
      "GoBack" : "1",
      "longitude" : "120.70088",
      "outDis" : "50",
      "Id" : "4420",
      "oid" : "304725411",
      "districtId" : "1",
      "nameZh" : "仁化里",
      "pgp" : "0",
      "terminal" : "0",
      "latitude" : "24.09626",
      "inDis" : "50",
      "routeId" : "285",
      "seqNo" : "21"
   },
   {
      "GoBack" : "1",
      "longitude" : "120.70345",
      "outDis" : "50",
      "Id" : "5015",
      "oid" : "304725414",
      "districtId" : "1",
      "nameZh" : "仁化仁愛路口",
      "pgp" : "0",
      "terminal" : "0",
      "latitude" : "24.09605",
      "inDis" : "50",
      "routeId" : "285",
      "seqNo" : "22"
   },
   {
      "GoBack" : "1",
      "longitude" : "120.707",
      "outDis" : "50",
      "Id" : "5014",
      "oid" : "309414094",
      "districtId" : "1",
      "nameZh" : "仁化仁城路口",
      "pgp" : "0",
      "terminal" : "0",
      "latitude" : "24.09522",
      "inDis" : "50",
      "routeId" : "285",
      "seqNo" : "23"
   },
   {
      "GoBack" : "1",
      "longitude" : "120.70962",
      "outDis" : "50",
      "Id" : "5346",
      "oid" : "314009843",
      "districtId" : "1",
      "nameZh" : "百姓公廟",
      "pgp" : "0",
      "terminal" : "0",
      "latitude" : "24.09441",
      "inDis" : "50",
      "routeId" : "285",
      "seqNo" : "24"
   },
   {
      "GoBack" : "1",
      "longitude" : "120.71392",
      "outDis" : "50",
      "Id" : "2733",
      "oid" : "6086",
      "districtId" : "1",
      "nameZh" : "修平科技大學",
      "pgp" : "0",
      "terminal" : "0",
      "latitude" : "24.09515",
      "inDis" : "50",
      "routeId" : "285",
      "seqNo" : "25"
   },
   {
      "GoBack" : "1",
      "longitude" : "120.7158",
      "outDis" : "50",
      "Id" : "2282",
      "oid" : "5811",
      "districtId" : "1",
      "nameZh" : "車站前",
      "pgp" : "0",
      "terminal" : "0",
      "latitude" : "24.09463",
      "inDis" : "50",
      "routeId" : "285",
      "seqNo" : "26"
   },
   {
      "GoBack" : "1",
      "longitude" : "120.7192",
      "outDis" : "80",
      "Id" : "2525",
      "oid" : "5959",
      "districtId" : "1",
      "nameZh" : "金田公司",
      "pgp" : "0",
      "terminal" : "0",
      "latitude" : "24.09414",
      "inDis" : "60",
      "routeId" : "285",
      "seqNo" : "27"
   },
   {
      "GoBack" : "1",
      "longitude" : "120.72154",
      "outDis" : "80",
      "Id" : "4422",
      "oid" : "304725416",
      "districtId" : "1",
      "nameZh" : "和大公司",
      "pgp" : "0",
      "terminal" : "0",
      "latitude" : "24.09251",
      "inDis" : "60",
      "routeId" : "285",
      "seqNo" : "28"
   },
   {
      "GoBack" : "1",
      "longitude" : "120.72804",
      "outDis" : "80",
      "Id" : "4423",
      "oid" : "304725418",
      "districtId" : "1",
      "nameZh" : "大愛一村",
      "pgp" : "0",
      "terminal" : "0",
      "latitude" : "24.09138",
      "inDis" : "60",
      "routeId" : "285",
      "seqNo" : "29"
   },
   {
      "GoBack" : "1",
      "longitude" : "120.72777",
      "outDis" : "50",
      "Id" : "2913",
      "oid" : "6172",
      "districtId" : "1",
      "nameZh" : "健民國小",
      "pgp" : "0",
      "terminal" : "0",
      "latitude" : "24.08973",
      "inDis" : "50",
      "routeId" : "285",
      "seqNo" : "30"
   },
   {
      "GoBack" : "1",
      "longitude" : "120.72897",
      "outDis" : "50",
      "Id" : "3699",
      "oid" : "139010571",
      "districtId" : "1",
      "nameZh" : "銀聯一村",
      "pgp" : "0",
      "terminal" : "0",
      "latitude" : "24.08768",
      "inDis" : "50",
      "routeId" : "285",
      "seqNo" : "31"
   },
   {
      "GoBack" : "1",
      "longitude" : "120.73213",
      "outDis" : "50",
      "Id" : "2478",
      "oid" : "5936",
      "districtId" : "1",
      "nameZh" : "河川巷",
      "pgp" : "0",
      "terminal" : "0",
      "latitude" : "24.08681",
      "inDis" : "50",
      "routeId" : "285",
      "seqNo" : "32"
   },
   {
      "GoBack" : "1",
      "longitude" : "120.73652",
      "outDis" : "50",
      "Id" : "2779",
      "oid" : "5003",
      "districtId" : "1",
      "nameZh" : "崁頂",
      "pgp" : "0",
      "terminal" : "0",
      "latitude" : "24.08596",
      "inDis" : "50",
      "routeId" : "285",
      "seqNo" : "33"
   },
   {
      "GoBack" : "2",
      "longitude" : "120.73652",
      "outDis" : "50",
      "Id" : "2779",
      "oid" : "5003",
      "districtId" : "1",
      "nameZh" : "崁頂",
      "pgp" : "0",
      "terminal" : "0",
      "latitude" : "24.08596",
      "inDis" : "50",
      "routeId" : "285",
      "seqNo" : "1"
   },
   {
      "GoBack" : "2",
      "longitude" : "120.73213",
      "outDis" : "50",
      "Id" : "2478",
      "oid" : "5936",
      "districtId" : "1",
      "nameZh" : "河川巷",
      "pgp" : "0",
      "terminal" : "0",
      "latitude" : "24.08681",
      "inDis" : "50",
      "routeId" : "285",
      "seqNo" : "2"
   },
   {
      "GoBack" : "2",
      "longitude" : "120.72897",
      "outDis" : "50",
      "Id" : "3699",
      "oid" : "139010571",
      "districtId" : "1",
      "nameZh" : "銀聯一村",
      "pgp" : "0",
      "terminal" : "0",
      "latitude" : "24.08768",
      "inDis" : "50",
      "routeId" : "285",
      "seqNo" : "3"
   },
   {
      "GoBack" : "2",
      "longitude" : "120.72777",
      "outDis" : "50",
      "Id" : "2913",
      "oid" : "6172",
      "districtId" : "1",
      "nameZh" : "健民國小",
      "pgp" : "0",
      "terminal" : "0",
      "latitude" : "24.08973",
      "inDis" : "50",
      "routeId" : "285",
      "seqNo" : "4"
   },
   {
      "GoBack" : "2",
      "longitude" : "120.72791",
      "outDis" : "50",
      "Id" : "4423",
      "oid" : "304725419",
      "districtId" : "1",
      "nameZh" : "大愛一村",
      "pgp" : "0",
      "terminal" : "0",
      "latitude" : "24.09145",
      "inDis" : "50",
      "routeId" : "285",
      "seqNo" : "5"
   },
   {
      "GoBack" : "2",
      "longitude" : "120.72144",
      "outDis" : "50",
      "Id" : "4422",
      "oid" : "304725417",
      "districtId" : "1",
      "nameZh" : "和大公司",
      "pgp" : "0",
      "terminal" : "0",
      "latitude" : "24.09263",
      "inDis" : "50",
      "routeId" : "285",
      "seqNo" : "6"
   },
   {
      "GoBack" : "2",
      "longitude" : "120.7192",
      "outDis" : "80",
      "Id" : "2525",
      "oid" : "5959",
      "districtId" : "1",
      "nameZh" : "金田公司",
      "pgp" : "0",
      "terminal" : "0",
      "latitude" : "24.09414",
      "inDis" : "60",
      "routeId" : "285",
      "seqNo" : "7"
   },
   {
      "GoBack" : "2",
      "longitude" : "120.7158",
      "outDis" : "50",
      "Id" : "2282",
      "oid" : "5811",
      "districtId" : "1",
      "nameZh" : "車站前",
      "pgp" : "0",
      "terminal" : "0",
      "latitude" : "24.09463",
      "inDis" : "50",
      "routeId" : "285",
      "seqNo" : "8"
   },
   {
      "GoBack" : "2",
      "longitude" : "120.71392",
      "outDis" : "50",
      "Id" : "2733",
      "oid" : "6086",
      "districtId" : "1",
      "nameZh" : "修平科技大學",
      "pgp" : "0",
      "terminal" : "0",
      "latitude" : "24.09515",
      "inDis" : "50",
      "routeId" : "285",
      "seqNo" : "9"
   },
   {
      "GoBack" : "2",
      "longitude" : "120.70962",
      "outDis" : "50",
      "Id" : "5346",
      "oid" : "314009843",
      "districtId" : "1",
      "nameZh" : "百姓公廟",
      "pgp" : "0",
      "terminal" : "0",
      "latitude" : "24.09441",
      "inDis" : "50",
      "routeId" : "285",
      "seqNo" : "10"
   },
   {
      "GoBack" : "2",
      "longitude" : "120.70684",
      "outDis" : "50",
      "Id" : "5014",
      "oid" : "309414095",
      "districtId" : "1",
      "nameZh" : "仁化仁城路口",
      "pgp" : "0",
      "terminal" : "0",
      "latitude" : "24.09526",
      "inDis" : "50",
      "routeId" : "285",
      "seqNo" : "11"
   },
   {
      "GoBack" : "2",
      "longitude" : "120.70345",
      "outDis" : "50",
      "Id" : "5015",
      "oid" : "304725415",
      "districtId" : "1",
      "nameZh" : "仁化仁愛路口",
      "pgp" : "0",
      "terminal" : "0",
      "latitude" : "24.09605",
      "inDis" : "50",
      "routeId" : "285",
      "seqNo" : "12"
   },
   {
      "GoBack" : "2",
      "longitude" : "120.70088",
      "outDis" : "50",
      "Id" : "4420",
      "oid" : "304725412",
      "districtId" : "1",
      "nameZh" : "仁化里",
      "pgp" : "0",
      "terminal" : "0",
      "latitude" : "24.09626",
      "inDis" : "50",
      "routeId" : "285",
      "seqNo" : "13"
   },
   {
      "GoBack" : "2",
      "longitude" : "120.69865",
      "outDis" : "50",
      "Id" : "5016",
      "oid" : "304725410",
      "districtId" : "1",
      "nameZh" : "仁化慈德路口",
      "pgp" : "0",
      "terminal" : "0",
      "latitude" : "24.0966",
      "inDis" : "50",
      "routeId" : "285",
      "seqNo" : "14"
   },
   {
      "GoBack" : "2",
      "longitude" : "120.69546",
      "outDis" : "50",
      "Id" : "5017",
      "oid" : "309414101",
      "districtId" : "1",
      "nameZh" : "仁化至善路口",
      "pgp" : "0",
      "terminal" : "0",
      "latitude" : "24.09601",
      "inDis" : "50",
      "routeId" : "285",
      "seqNo" : "15"
   },
   {
      "GoBack" : "2",
      "longitude" : "120.69132",
      "outDis" : "50",
      "Id" : "4950",
      "oid" : "304725406",
      "districtId" : "1",
      "nameZh" : "仁化中興路口",
      "pgp" : "0",
      "terminal" : "0",
      "latitude" : "24.09201",
      "inDis" : "50",
      "routeId" : "285",
      "seqNo" : "16"
   },
   {
      "GoBack" : "2",
      "longitude" : "120.68589",
      "outDis" : "50",
      "Id" : "1322",
      "oid" : "007C5FD1E1FD4FA0B5781716D87D6BE1",
      "districtId" : "1",
      "nameZh" : "大突寮(中興路)",
      "pgp" : "0",
      "terminal" : "0",
      "latitude" : "24.09536",
      "inDis" : "50",
      "routeId" : "285",
      "seqNo" : "17"
   },
   {
      "GoBack" : "2",
      "longitude" : "120.6879",
      "outDis" : "50",
      "Id" : "5151",
      "oid" : "5822",
      "districtId" : "1",
      "nameZh" : "兒童藝術館(中興路)",
      "pgp" : "0",
      "terminal" : "0",
      "latitude" : "24.10002",
      "inDis" : "50",
      "routeId" : "285",
      "seqNo" : "18"
   },
   {
      "GoBack" : "2",
      "longitude" : "120.68864",
      "outDis" : "50",
      "Id" : "1126",
      "oid" : "7202",
      "districtId" : "1",
      "nameZh" : "下內新",
      "pgp" : "0",
      "terminal" : "0",
      "latitude" : "24.10257",
      "inDis" : "50",
      "routeId" : "285",
      "seqNo" : "19"
   },
   {
      "GoBack" : "2",
      "longitude" : "120.68942",
      "outDis" : "50",
      "Id" : "2026",
      "oid" : "7974",
      "districtId" : "1",
      "nameZh" : "立人高中",
      "pgp" : "0",
      "terminal" : "0",
      "latitude" : "24.106",
      "inDis" : "50",
      "routeId" : "285",
      "seqNo" : "20"
   },
   {
      "GoBack" : "2",
      "longitude" : "120.69003",
      "outDis" : "50",
      "Id" : "1363",
      "oid" : "7237",
      "districtId" : "1",
      "nameZh" : "中興大里路口",
      "pgp" : "0",
      "terminal" : "0",
      "latitude" : "24.10863",
      "inDis" : "50",
      "routeId" : "285",
      "seqNo" : "21"
   },
   {
      "GoBack" : "2",
      "longitude" : "120.69002",
      "outDis" : "50",
      "Id" : "1576",
      "oid" : "5395",
      "districtId" : "1",
      "nameZh" : "內新市場",
      "pgp" : "0",
      "terminal" : "0",
      "latitude" : "24.11079",
      "inDis" : "50",
      "routeId" : "285",
      "seqNo" : "22"
   },
   {
      "GoBack" : "2",
      "longitude" : "120.68986",
      "outDis" : "50",
      "Id" : "2691",
      "oid" : "6049",
      "districtId" : "1",
      "nameZh" : "省農會",
      "pgp" : "0",
      "terminal" : "0",
      "latitude" : "24.1125",
      "inDis" : "50",
      "routeId" : "285",
      "seqNo" : "23"
   },
   {
      "GoBack" : "2",
      "longitude" : "120.68974",
      "outDis" : "50",
      "Id" : "5485",
      "oid" : "314655296",
      "districtId" : "1",
      "nameZh" : "中興內新街口",
      "pgp" : "0",
      "terminal" : "0",
      "latitude" : "24.11408",
      "inDis" : "50",
      "routeId" : "285",
      "seqNo" : "24"
   },
   {
      "GoBack" : "2",
      "longitude" : "120.68965",
      "outDis" : "50",
      "Id" : "3279",
      "oid" : "318895489",
      "districtId" : "1",
      "nameZh" : "菩提醫院",
      "pgp" : "0",
      "terminal" : "0",
      "latitude" : "24.11525",
      "inDis" : "50",
      "routeId" : "285",
      "seqNo" : "25"
   },
   {
      "GoBack" : "2",
      "longitude" : "120.68957",
      "outDis" : "50",
      "Id" : "3281",
      "oid" : "7493",
      "districtId" : "1",
      "nameZh" : "菸葉廠",
      "pgp" : "0",
      "terminal" : "0",
      "latitude" : "24.11794",
      "inDis" : "50",
      "routeId" : "285",
      "seqNo" : "26"
   },
   {
      "GoBack" : "2",
      "longitude" : "120.68657",
      "outDis" : "50",
      "Id" : "2591",
      "oid" : "5998",
      "districtId" : "1",
      "nameZh" : "南門橋頭",
      "pgp" : "0",
      "terminal" : "0",
      "latitude" : "24.12112",
      "inDis" : "50",
      "routeId" : "285",
      "seqNo" : "27"
   },
   {
      "GoBack" : "2",
      "longitude" : "120.68407",
      "outDis" : "50",
      "Id" : "5112",
      "oid" : "44E1581B6B204E55B29CE1D3BC32ECAE",
      "districtId" : "1",
      "nameZh" : "明德高中(臺中路)",
      "pgp" : "0",
      "terminal" : "0",
      "latitude" : "24.1228",
      "inDis" : "50",
      "routeId" : "285",
      "seqNo" : "28"
   },
   {
      "GoBack" : "2",
      "longitude" : "120.68404",
      "outDis" : "50",
      "Id" : "0255",
      "oid" : "7153",
      "districtId" : "1",
      "nameZh" : "南門仔",
      "pgp" : "0",
      "terminal" : "0",
      "latitude" : "24.12545",
      "inDis" : "50",
      "routeId" : "285",
      "seqNo" : "29"
   },
   {
      "GoBack" : "2",
      "longitude" : "120.68452",
      "outDis" : "50",
      "Id" : "5607",
      "oid" : "95879C963BCD4EAB8A376EF9655A419C",
      "districtId" : "1",
      "nameZh" : "興大附農(臺中路)",
      "pgp" : "0",
      "terminal" : "0",
      "latitude" : "24.12747",
      "inDis" : "50",
      "routeId" : "285",
      "seqNo" : "30"
   },
   {
      "GoBack" : "2",
      "longitude" : "120.68499",
      "outDis" : "50",
      "Id" : "0257",
      "oid" : "5561",
      "districtId" : "1",
      "nameZh" : "臺中國小",
      "pgp" : "0",
      "terminal" : "0",
      "latitude" : "24.13028",
      "inDis" : "50",
      "routeId" : "285",
      "seqNo" : "31"
   },
   {
      "GoBack" : "2",
      "longitude" : "120.68381",
      "outDis" : "50",
      "Id" : "0049",
      "oid" : "6258",
      "districtId" : "1",
      "nameZh" : "第三市場(臺中家商)",
      "pgp" : "0",
      "terminal" : "0",
      "latitude" : "24.13246",
      "inDis" : "50",
      "routeId" : "285",
      "seqNo" : "32"
   },
   {
      "GoBack" : "2",
      "longitude" : "120.68387",
      "outDis" : "170",
      "Id" : "1824",
      "oid" : "5545",
      "districtId" : "1",
      "nameZh" : "臺中火車站",
      "pgp" : "0",
      "terminal" : "0",
      "latitude" : "24.13663",
      "inDis" : "50",
      "routeId" : "285",
      "seqNo" : "33"
   }
]
