[
   {
      "GoBack" : "1",
      "longitude" : "120.72096",
      "outDis" : "50",
      "Id" : "4451",
      "oid" : "13844",
      "districtId" : "1",
      "nameZh" : "北環福德祠",
      "pgp" : "0",
      "terminal" : "0",
      "latitude" : "24.25953",
      "inDis" : "50",
      "routeId" : "63",
      "seqNo" : "1"
   },
   {
      "GoBack" : "1",
      "longitude" : "120.72158",
      "outDis" : "50",
      "Id" : "5632",
      "oid" : "D879241FDACA4623BB99AF053F6889DA",
      "districtId" : "1",
      "nameZh" : "豐中大順街口",
      "pgp" : "0",
      "terminal" : "0",
      "latitude" : "24.25766",
      "inDis" : "50",
      "routeId" : "63",
      "seqNo" : "2"
   },
   {
      "GoBack" : "1",
      "longitude" : "120.72247",
      "outDis" : "50",
      "Id" : "4931",
      "oid" : "308835188",
      "districtId" : "1",
      "nameZh" : "豐原火車站",
      "pgp" : "0",
      "terminal" : "0",
      "latitude" : "24.25504",
      "inDis" : "50",
      "routeId" : "63",
      "seqNo" : "3"
   },
   {
      "GoBack" : "1",
      "longitude" : "120.7212",
      "outDis" : "50",
      "Id" : "3157",
      "oid" : "13609",
      "districtId" : "1",
      "nameZh" : "頂街",
      "pgp" : "0",
      "terminal" : "0",
      "latitude" : "24.25229",
      "inDis" : "50",
      "routeId" : "63",
      "seqNo" : "4"
   },
   {
      "GoBack" : "1",
      "longitude" : "120.71851",
      "outDis" : "50",
      "Id" : "3343",
      "oid" : "6397",
      "districtId" : "1",
      "nameZh" : "媽祖廟",
      "pgp" : "0",
      "terminal" : "0",
      "latitude" : "24.25157",
      "inDis" : "50",
      "routeId" : "63",
      "seqNo" : "5"
   },
   {
      "GoBack" : "1",
      "longitude" : "120.71526",
      "outDis" : "50",
      "Id" : "3939",
      "oid" : "6698",
      "districtId" : "1",
      "nameZh" : "豐原郵局",
      "pgp" : "0",
      "terminal" : "0",
      "latitude" : "24.25136",
      "inDis" : "50",
      "routeId" : "63",
      "seqNo" : "6"
   },
   {
      "GoBack" : "1",
      "longitude" : "120.712",
      "outDis" : "50",
      "Id" : "3357",
      "oid" : "6406",
      "districtId" : "1",
      "nameZh" : "慈龍寺",
      "pgp" : "0",
      "terminal" : "0",
      "latitude" : "24.25079",
      "inDis" : "50",
      "routeId" : "63",
      "seqNo" : "7"
   },
   {
      "GoBack" : "1",
      "longitude" : "120.70963",
      "outDis" : "50",
      "Id" : "4448",
      "oid" : "6688",
      "districtId" : "1",
      "nameZh" : "中正圓環西路口",
      "pgp" : "0",
      "terminal" : "0",
      "latitude" : "24.25039",
      "inDis" : "50",
      "routeId" : "63",
      "seqNo" : "8"
   },
   {
      "GoBack" : "1",
      "longitude" : "120.70672",
      "outDis" : "50",
      "Id" : "1065",
      "oid" : "5072",
      "districtId" : "1",
      "nameZh" : "三光新村",
      "pgp" : "0",
      "terminal" : "0",
      "latitude" : "24.24999",
      "inDis" : "50",
      "routeId" : "63",
      "seqNo" : "9"
   },
   {
      "GoBack" : "1",
      "longitude" : "120.70696",
      "outDis" : "50",
      "Id" : "4932",
      "oid" : "308835190",
      "districtId" : "1",
      "nameZh" : "成功社興路口",
      "pgp" : "0",
      "terminal" : "0",
      "latitude" : "24.24741",
      "inDis" : "50",
      "routeId" : "63",
      "seqNo" : "10"
   },
   {
      "GoBack" : "1",
      "longitude" : "120.7085",
      "outDis" : "50",
      "Id" : "4933",
      "oid" : "308835192",
      "districtId" : "1",
      "nameZh" : "西勢成功路口",
      "pgp" : "0",
      "terminal" : "0",
      "latitude" : "24.24516",
      "inDis" : "50",
      "routeId" : "63",
      "seqNo" : "11"
   },
   {
      "GoBack" : "1",
      "longitude" : "120.70586",
      "outDis" : "50",
      "Id" : "4934",
      "oid" : "308835195",
      "districtId" : "1",
      "nameZh" : "三村里",
      "pgp" : "0",
      "terminal" : "0",
      "latitude" : "24.2426",
      "inDis" : "50",
      "routeId" : "63",
      "seqNo" : "12"
   },
   {
      "GoBack" : "1",
      "longitude" : "120.70453",
      "outDis" : "50",
      "Id" : "4935",
      "oid" : "308835196",
      "districtId" : "1",
      "nameZh" : "合作國小",
      "pgp" : "0",
      "terminal" : "0",
      "latitude" : "24.23959",
      "inDis" : "50",
      "routeId" : "63",
      "seqNo" : "13"
   },
   {
      "GoBack" : "1",
      "longitude" : "120.70108",
      "outDis" : "50",
      "Id" : "4936",
      "oid" : "308835198",
      "districtId" : "1",
      "nameZh" : "東龍家電",
      "pgp" : "0",
      "terminal" : "0",
      "latitude" : "24.23716",
      "inDis" : "50",
      "routeId" : "63",
      "seqNo" : "14"
   },
   {
      "GoBack" : "1",
      "longitude" : "120.69874",
      "outDis" : "50",
      "Id" : "4937",
      "oid" : "308835200",
      "districtId" : "1",
      "nameZh" : "承德三社東路口",
      "pgp" : "0",
      "terminal" : "0",
      "latitude" : "24.23509",
      "inDis" : "50",
      "routeId" : "63",
      "seqNo" : "15"
   },
   {
      "GoBack" : "1",
      "longitude" : "120.69437",
      "outDis" : "50",
      "Id" : "0201",
      "oid" : "318253020",
      "districtId" : "1",
      "nameZh" : "潭雅神綠園道(大豐路)",
      "pgp" : "0",
      "terminal" : "0",
      "latitude" : "24.23234",
      "inDis" : "50",
      "routeId" : "63",
      "seqNo" : "16"
   },
   {
      "GoBack" : "1",
      "longitude" : "120.69276",
      "outDis" : "50",
      "Id" : "5397",
      "oid" : "312960895",
      "districtId" : "1",
      "nameZh" : "大豐路三段230巷口",
      "pgp" : "0",
      "terminal" : "0",
      "latitude" : "24.22868",
      "inDis" : "50",
      "routeId" : "63",
      "seqNo" : "17"
   },
   {
      "GoBack" : "1",
      "longitude" : "120.69244",
      "outDis" : "50",
      "Id" : "4742",
      "oid" : "306695528",
      "districtId" : "1",
      "nameZh" : "大豐潭富路口",
      "pgp" : "0",
      "terminal" : "0",
      "latitude" : "24.22527",
      "inDis" : "50",
      "routeId" : "63",
      "seqNo" : "18"
   },
   {
      "GoBack" : "1",
      "longitude" : "120.69234",
      "outDis" : "50",
      "Id" : "4741",
      "oid" : "306695526",
      "districtId" : "1",
      "nameZh" : "矽品公司",
      "pgp" : "0",
      "terminal" : "0",
      "latitude" : "24.22439",
      "inDis" : "50",
      "routeId" : "63",
      "seqNo" : "19"
   },
   {
      "GoBack" : "1",
      "longitude" : "120.69226",
      "outDis" : "50",
      "Id" : "0347",
      "oid" : "306695524",
      "districtId" : "1",
      "nameZh" : "土地公廟",
      "pgp" : "0",
      "terminal" : "0",
      "latitude" : "24.22044",
      "inDis" : "50",
      "routeId" : "63",
      "seqNo" : "20"
   },
   {
      "GoBack" : "1",
      "longitude" : "120.69192",
      "outDis" : "50",
      "Id" : "5604",
      "oid" : "306695523",
      "districtId" : "1",
      "nameZh" : "大豐路2段110巷口",
      "pgp" : "0",
      "terminal" : "0",
      "latitude" : "24.21873",
      "inDis" : "50",
      "routeId" : "63",
      "seqNo" : "21"
   },
   {
      "GoBack" : "1",
      "longitude" : "120.69051",
      "outDis" : "50",
      "Id" : "4303",
      "oid" : "12415",
      "districtId" : "1",
      "nameZh" : "雅潭大豐路口",
      "pgp" : "0",
      "terminal" : "0",
      "latitude" : "24.21589",
      "inDis" : "50",
      "routeId" : "63",
      "seqNo" : "22"
   },
   {
      "GoBack" : "1",
      "longitude" : "120.68415",
      "outDis" : "50",
      "Id" : "4938",
      "oid" : "308835202",
      "districtId" : "1",
      "nameZh" : "東寶國小",
      "pgp" : "0",
      "terminal" : "0",
      "latitude" : "24.21619",
      "inDis" : "50",
      "routeId" : "63",
      "seqNo" : "23"
   },
   {
      "GoBack" : "1",
      "longitude" : "120.67883",
      "outDis" : "50",
      "Id" : "4939",
      "oid" : "308835204",
      "districtId" : "1",
      "nameZh" : "雅潭民族路口",
      "pgp" : "0",
      "terminal" : "0",
      "latitude" : "24.21562",
      "inDis" : "50",
      "routeId" : "63",
      "seqNo" : "24"
   },
   {
      "GoBack" : "1",
      "longitude" : "120.67223",
      "outDis" : "50",
      "Id" : "5037",
      "oid" : "309736377",
      "districtId" : "1",
      "nameZh" : "西寶里",
      "pgp" : "0",
      "terminal" : "0",
      "latitude" : "24.21548",
      "inDis" : "50",
      "routeId" : "63",
      "seqNo" : "25"
   },
   {
      "GoBack" : "1",
      "longitude" : "120.66904",
      "outDis" : "50",
      "Id" : "4940",
      "oid" : "308835206",
      "districtId" : "1",
      "nameZh" : "員寶庄福德祠",
      "pgp" : "0",
      "terminal" : "0",
      "latitude" : "24.21587",
      "inDis" : "50",
      "routeId" : "63",
      "seqNo" : "26"
   },
   {
      "GoBack" : "1",
      "longitude" : "120.66639",
      "outDis" : "50",
      "Id" : "3027",
      "oid" : "3670",
      "districtId" : "1",
      "nameZh" : "清泉醫院",
      "pgp" : "0",
      "terminal" : "0",
      "latitude" : "24.21651",
      "inDis" : "50",
      "routeId" : "63",
      "seqNo" : "27"
   },
   {
      "GoBack" : "1",
      "longitude" : "120.66335",
      "outDis" : "50",
      "Id" : "2895",
      "oid" : "3548",
      "districtId" : "1",
      "nameZh" : "馬岡厝加油站",
      "pgp" : "0",
      "terminal" : "0",
      "latitude" : "24.21897",
      "inDis" : "50",
      "routeId" : "63",
      "seqNo" : "28"
   },
   {
      "GoBack" : "1",
      "longitude" : "120.66069",
      "outDis" : "50",
      "Id" : "3237",
      "oid" : "3549",
      "districtId" : "1",
      "nameZh" : "惠明盲校",
      "pgp" : "0",
      "terminal" : "0",
      "latitude" : "24.21984",
      "inDis" : "50",
      "routeId" : "63",
      "seqNo" : "29"
   },
   {
      "GoBack" : "1",
      "longitude" : "120.65924",
      "outDis" : "50",
      "Id" : "4314",
      "oid" : "308835208",
      "districtId" : "1",
      "nameZh" : "臺電大雅服務所",
      "pgp" : "0",
      "terminal" : "0",
      "latitude" : "24.2202",
      "inDis" : "50",
      "routeId" : "63",
      "seqNo" : "30"
   },
   {
      "GoBack" : "1",
      "longitude" : "120.65662",
      "outDis" : "50",
      "Id" : "2943",
      "oid" : "3666",
      "districtId" : "1",
      "nameZh" : "國際花市",
      "pgp" : "0",
      "terminal" : "0",
      "latitude" : "24.22062",
      "inDis" : "50",
      "routeId" : "63",
      "seqNo" : "31"
   },
   {
      "GoBack" : "1",
      "longitude" : "120.6509",
      "outDis" : "50",
      "Id" : "4944",
      "oid" : "308842468",
      "districtId" : "1",
      "nameZh" : "大雅國小",
      "pgp" : "0",
      "terminal" : "0",
      "latitude" : "24.22149",
      "inDis" : "50",
      "routeId" : "63",
      "seqNo" : "32"
   },
   {
      "GoBack" : "1",
      "longitude" : "120.6475",
      "outDis" : "50",
      "Id" : "4306",
      "oid" : "308835210",
      "districtId" : "1",
      "nameZh" : "中清雅潭路口",
      "pgp" : "0",
      "terminal" : "0",
      "latitude" : "24.22043",
      "inDis" : "50",
      "routeId" : "63",
      "seqNo" : "33"
   },
   {
      "GoBack" : "1",
      "longitude" : "120.64885",
      "outDis" : "50",
      "Id" : "4092",
      "oid" : "D76F25AE554F4169987DC2BF02E6803A",
      "districtId" : "1",
      "nameZh" : "中山中清路口",
      "pgp" : "0",
      "terminal" : "0",
      "latitude" : "24.21801",
      "inDis" : "50",
      "routeId" : "63",
      "seqNo" : "34"
   },
   {
      "GoBack" : "1",
      "longitude" : "120.64543",
      "outDis" : "50",
      "Id" : "3643",
      "oid" : "318862817",
      "districtId" : "1",
      "nameZh" : "福志",
      "pgp" : "0",
      "terminal" : "0",
      "latitude" : "24.21133",
      "inDis" : "50",
      "routeId" : "63",
      "seqNo" : "35"
   },
   {
      "GoBack" : "1",
      "longitude" : "120.64405",
      "outDis" : "50",
      "Id" : "1210",
      "oid" : "5160",
      "districtId" : "1",
      "nameZh" : "下橫山",
      "pgp" : "0",
      "terminal" : "0",
      "latitude" : "24.20829",
      "inDis" : "50",
      "routeId" : "63",
      "seqNo" : "36"
   },
   {
      "GoBack" : "1",
      "longitude" : "120.64447",
      "outDis" : "50",
      "Id" : "5473",
      "oid" : "314251942",
      "districtId" : "1",
      "nameZh" : "中山大同巷口",
      "pgp" : "0",
      "terminal" : "0",
      "latitude" : "24.20528",
      "inDis" : "50",
      "routeId" : "63",
      "seqNo" : "37"
   },
   {
      "GoBack" : "1",
      "longitude" : "120.64442",
      "outDis" : "50",
      "Id" : "4943",
      "oid" : "308835212",
      "districtId" : "1",
      "nameZh" : "廣福中科路口",
      "pgp" : "0",
      "terminal" : "0",
      "latitude" : "24.20287",
      "inDis" : "50",
      "routeId" : "63",
      "seqNo" : "38"
   },
   {
      "GoBack" : "1",
      "longitude" : "120.64286",
      "outDis" : "50",
      "Id" : "1025",
      "oid" : "5045",
      "districtId" : "1",
      "nameZh" : "八張犁",
      "pgp" : "0",
      "terminal" : "0",
      "latitude" : "24.19867",
      "inDis" : "50",
      "routeId" : "63",
      "seqNo" : "39"
   },
   {
      "GoBack" : "1",
      "longitude" : "120.64195",
      "outDis" : "50",
      "Id" : "4723",
      "oid" : "306625606",
      "districtId" : "1",
      "nameZh" : "黎明光明路口",
      "pgp" : "0",
      "terminal" : "0",
      "latitude" : "24.18725",
      "inDis" : "50",
      "routeId" : "63",
      "seqNo" : "40"
   },
   {
      "GoBack" : "1",
      "longitude" : "120.64429",
      "outDis" : "50",
      "Id" : "4327",
      "oid" : "306625607",
      "districtId" : "1",
      "nameZh" : "僑光科技大學",
      "pgp" : "0",
      "terminal" : "0",
      "latitude" : "24.18676",
      "inDis" : "50",
      "routeId" : "63",
      "seqNo" : "41"
   },
   {
      "GoBack" : "1",
      "longitude" : "120.64472",
      "outDis" : "50",
      "Id" : "5658",
      "oid" : "313222695",
      "districtId" : "1",
      "nameZh" : "漢翔公司(星享道)",
      "pgp" : "0",
      "terminal" : "0",
      "latitude" : "24.18421",
      "inDis" : "50",
      "routeId" : "63",
      "seqNo" : "42"
   },
   {
      "GoBack" : "1",
      "longitude" : "120.64504",
      "outDis" : "50",
      "Id" : "4334",
      "oid" : "7743",
      "districtId" : "1",
      "nameZh" : "福星西安街口",
      "pgp" : "0",
      "terminal" : "0",
      "latitude" : "24.18132",
      "inDis" : "50",
      "routeId" : "63",
      "seqNo" : "43"
   },
   {
      "GoBack" : "1",
      "longitude" : "120.64506",
      "outDis" : "50",
      "Id" : "4586",
      "oid" : "F5FD13B420234C028D282560F53F29F3",
      "districtId" : "1",
      "nameZh" : "逢甲大學(福星路)",
      "pgp" : "0",
      "terminal" : "0",
      "latitude" : "24.17941",
      "inDis" : "50",
      "routeId" : "63",
      "seqNo" : "44"
   },
   {
      "GoBack" : "1",
      "longitude" : "120.64597",
      "outDis" : "50",
      "Id" : "0112",
      "oid" : "929D8A30AF4842D6BBDA96C36EBD4DBD",
      "districtId" : "1",
      "nameZh" : "福星停車場",
      "pgp" : "0",
      "terminal" : "0",
      "latitude" : "24.17547",
      "inDis" : "50",
      "routeId" : "63",
      "seqNo" : "45"
   },
   {
      "GoBack" : "1",
      "longitude" : "120.6469",
      "outDis" : "50",
      "Id" : "0113",
      "oid" : "AE82D3813BAC43EDBA3950AAFDCFB6C5",
      "districtId" : "1",
      "nameZh" : "河南崇義街口",
      "pgp" : "0",
      "terminal" : "0",
      "latitude" : "24.17374",
      "inDis" : "50",
      "routeId" : "63",
      "seqNo" : "46"
   },
   {
      "GoBack" : "1",
      "longitude" : "120.64383",
      "outDis" : "50",
      "Id" : "4615",
      "oid" : "43D7C3CFC3724BF6B2BC5D4CA6647133",
      "districtId" : "1",
      "nameZh" : "河南青海路口",
      "pgp" : "0",
      "terminal" : "0",
      "latitude" : "24.17066",
      "inDis" : "50",
      "routeId" : "63",
      "seqNo" : "47"
   },
   {
      "GoBack" : "1",
      "longitude" : "120.64151",
      "outDis" : "50",
      "Id" : "4530",
      "oid" : "2CADF75B955C48E99E2C4E3271D3F461",
      "districtId" : "1",
      "nameZh" : "河南臺灣大道口",
      "pgp" : "0",
      "terminal" : "0",
      "latitude" : "24.16841",
      "inDis" : "50",
      "routeId" : "63",
      "seqNo" : "48"
   },
   {
      "GoBack" : "1",
      "longitude" : "120.63957",
      "outDis" : "50",
      "Id" : "0826",
      "oid" : "13543",
      "districtId" : "1",
      "nameZh" : "秋紅谷(朝陽橋)",
      "pgp" : "0",
      "terminal" : "0",
      "latitude" : "24.16865",
      "inDis" : "50",
      "routeId" : "63",
      "seqNo" : "49"
   },
   {
      "GoBack" : "1",
      "longitude" : "120.63717",
      "outDis" : "50",
      "Id" : "0054",
      "oid" : "313524993",
      "districtId" : "1",
      "nameZh" : "朝馬(臺灣大道)",
      "pgp" : "0",
      "terminal" : "0",
      "latitude" : "24.17059",
      "inDis" : "50",
      "routeId" : "63",
      "seqNo" : "50"
   },
   {
      "GoBack" : "1",
      "longitude" : "120.62485",
      "outDis" : "50",
      "Id" : "5149",
      "oid" : "12822",
      "districtId" : "1",
      "nameZh" : "福安里(臺灣大道)",
      "pgp" : "0",
      "terminal" : "0",
      "latitude" : "24.17849",
      "inDis" : "50",
      "routeId" : "63",
      "seqNo" : "51"
   },
   {
      "GoBack" : "1",
      "longitude" : "120.62203",
      "outDis" : "50",
      "Id" : "3060",
      "oid" : "13533",
      "districtId" : "1",
      "nameZh" : "統聯轉運站",
      "pgp" : "0",
      "terminal" : "0",
      "latitude" : "24.17956",
      "inDis" : "50",
      "routeId" : "63",
      "seqNo" : "52"
   },
   {
      "GoBack" : "1",
      "longitude" : "120.61946",
      "outDis" : "50",
      "Id" : "0008",
      "oid" : "12823",
      "districtId" : "1",
      "nameZh" : "中港新城",
      "pgp" : "0",
      "terminal" : "0",
      "latitude" : "24.18099",
      "inDis" : "50",
      "routeId" : "63",
      "seqNo" : "53"
   },
   {
      "GoBack" : "1",
      "longitude" : "120.61584",
      "outDis" : "50",
      "Id" : "0430",
      "oid" : "13446",
      "districtId" : "1",
      "nameZh" : "中港澄清醫院",
      "pgp" : "0",
      "terminal" : "0",
      "latitude" : "24.18298",
      "inDis" : "50",
      "routeId" : "63",
      "seqNo" : "54"
   },
   {
      "GoBack" : "1",
      "longitude" : "120.61257",
      "outDis" : "50",
      "Id" : "0006",
      "oid" : "DBE69A5F3C4E4869B6BDD9E3B5962756",
      "districtId" : "1",
      "nameZh" : "臺中捐血中心",
      "pgp" : "0",
      "terminal" : "0",
      "latitude" : "24.18426",
      "inDis" : "50",
      "routeId" : "63",
      "seqNo" : "55"
   },
   {
      "GoBack" : "1",
      "longitude" : "120.61007",
      "outDis" : "50",
      "Id" : "4335",
      "oid" : "660A3631F7194E0AB51EC8A533971F31",
      "districtId" : "1",
      "nameZh" : "臺灣大道玉門路口",
      "pgp" : "0",
      "terminal" : "0",
      "latitude" : "24.18432",
      "inDis" : "50",
      "routeId" : "63",
      "seqNo" : "56"
   },
   {
      "GoBack" : "1",
      "longitude" : "120.60821",
      "outDis" : "50",
      "Id" : "0004",
      "oid" : "7474",
      "districtId" : "1",
      "nameZh" : "普濟寺",
      "pgp" : "0",
      "terminal" : "0",
      "latitude" : "24.18422",
      "inDis" : "50",
      "routeId" : "63",
      "seqNo" : "57"
   },
   {
      "GoBack" : "1",
      "longitude" : "120.60645",
      "outDis" : "50",
      "Id" : "2378",
      "oid" : "31948917D9F048CBAC6FFA93129CD69E",
      "districtId" : "1",
      "nameZh" : "東大附中",
      "pgp" : "0",
      "terminal" : "0",
      "latitude" : "24.18384",
      "inDis" : "50",
      "routeId" : "63",
      "seqNo" : "58"
   },
   {
      "GoBack" : "1",
      "longitude" : "120.60491",
      "outDis" : "50",
      "Id" : "5386",
      "oid" : "313588801",
      "districtId" : "1",
      "nameZh" : "臺中榮總(臺灣大道)",
      "pgp" : "0",
      "terminal" : "0",
      "latitude" : "24.18349",
      "inDis" : "50",
      "routeId" : "63",
      "seqNo" : "59"
   },
   {
      "GoBack" : "2",
      "longitude" : "120.60491",
      "outDis" : "50",
      "Id" : "5386",
      "oid" : "5565",
      "districtId" : "1",
      "nameZh" : "臺中榮總(臺灣大道)",
      "pgp" : "0",
      "terminal" : "0",
      "latitude" : "24.18349",
      "inDis" : "50",
      "routeId" : "63",
      "seqNo" : "1"
   },
   {
      "GoBack" : "2",
      "longitude" : "120.60659",
      "outDis" : "50",
      "Id" : "2378",
      "oid" : "B94E18B2305F42E88028AC0928C79EB7",
      "districtId" : "1",
      "nameZh" : "東大附中",
      "pgp" : "0",
      "terminal" : "0",
      "latitude" : "24.18354",
      "inDis" : "50",
      "routeId" : "63",
      "seqNo" : "2"
   },
   {
      "GoBack" : "2",
      "longitude" : "120.60839",
      "outDis" : "50",
      "Id" : "0004",
      "oid" : "7475",
      "districtId" : "1",
      "nameZh" : "普濟寺",
      "pgp" : "0",
      "terminal" : "0",
      "latitude" : "24.18408",
      "inDis" : "50",
      "routeId" : "63",
      "seqNo" : "3"
   },
   {
      "GoBack" : "2",
      "longitude" : "120.61001",
      "outDis" : "50",
      "Id" : "4335",
      "oid" : "12826",
      "districtId" : "1",
      "nameZh" : "臺灣大道玉門路口",
      "pgp" : "0",
      "terminal" : "0",
      "latitude" : "24.18436",
      "inDis" : "50",
      "routeId" : "63",
      "seqNo" : "4"
   },
   {
      "GoBack" : "2",
      "longitude" : "120.6129",
      "outDis" : "50",
      "Id" : "0006",
      "oid" : "E9C67C1F13194539804A8597A3592952",
      "districtId" : "1",
      "nameZh" : "臺中捐血中心",
      "pgp" : "0",
      "terminal" : "0",
      "latitude" : "24.18443",
      "inDis" : "50",
      "routeId" : "63",
      "seqNo" : "5"
   },
   {
      "GoBack" : "2",
      "longitude" : "120.61589",
      "outDis" : "50",
      "Id" : "0430",
      "oid" : "13444",
      "districtId" : "1",
      "nameZh" : "中港澄清醫院",
      "pgp" : "0",
      "terminal" : "0",
      "latitude" : "24.18297",
      "inDis" : "50",
      "routeId" : "63",
      "seqNo" : "6"
   },
   {
      "GoBack" : "2",
      "longitude" : "120.6183",
      "outDis" : "50",
      "Id" : "0008",
      "oid" : "320062561",
      "districtId" : "1",
      "nameZh" : "中港新城",
      "pgp" : "0",
      "terminal" : "0",
      "latitude" : "24.18145",
      "inDis" : "50",
      "routeId" : "63",
      "seqNo" : "7"
   },
   {
      "GoBack" : "2",
      "longitude" : "120.62207",
      "outDis" : "50",
      "Id" : "3060",
      "oid" : "13532",
      "districtId" : "1",
      "nameZh" : "統聯轉運站",
      "pgp" : "0",
      "terminal" : "0",
      "latitude" : "24.17999",
      "inDis" : "50",
      "routeId" : "63",
      "seqNo" : "8"
   },
   {
      "GoBack" : "2",
      "longitude" : "120.62374",
      "outDis" : "50",
      "Id" : "5149",
      "oid" : "319908747",
      "districtId" : "1",
      "nameZh" : "福安里(臺灣大道)",
      "pgp" : "0",
      "terminal" : "0",
      "latitude" : "24.1787",
      "inDis" : "50",
      "routeId" : "63",
      "seqNo" : "9"
   },
   {
      "GoBack" : "2",
      "longitude" : "120.63717",
      "outDis" : "50",
      "Id" : "0054",
      "oid" : "313524993",
      "districtId" : "1",
      "nameZh" : "朝馬(臺灣大道)",
      "pgp" : "0",
      "terminal" : "0",
      "latitude" : "24.17059",
      "inDis" : "50",
      "routeId" : "63",
      "seqNo" : "10"
   },
   {
      "GoBack" : "2",
      "longitude" : "120.64155",
      "outDis" : "50",
      "Id" : "4530",
      "oid" : "E15106E75B3B4A81AB1E9DAC8A958026",
      "districtId" : "1",
      "nameZh" : "河南臺灣大道口",
      "pgp" : "0",
      "terminal" : "0",
      "latitude" : "24.16847",
      "inDis" : "50",
      "routeId" : "63",
      "seqNo" : "11"
   },
   {
      "GoBack" : "2",
      "longitude" : "120.64358",
      "outDis" : "50",
      "Id" : "4615",
      "oid" : "9620897DB82B44B0B74C84243AED5CB5",
      "districtId" : "1",
      "nameZh" : "河南青海路口",
      "pgp" : "0",
      "terminal" : "0",
      "latitude" : "24.17064",
      "inDis" : "50",
      "routeId" : "63",
      "seqNo" : "12"
   },
   {
      "GoBack" : "2",
      "longitude" : "120.64711",
      "outDis" : "50",
      "Id" : "0113",
      "oid" : "38AA9787C04945BB9B52F757893585BF",
      "districtId" : "1",
      "nameZh" : "河南崇義街口",
      "pgp" : "0",
      "terminal" : "0",
      "latitude" : "24.17353",
      "inDis" : "50",
      "routeId" : "63",
      "seqNo" : "13"
   },
   {
      "GoBack" : "2",
      "longitude" : "120.64565",
      "outDis" : "50",
      "Id" : "0112",
      "oid" : "C4B624FDC02043319549BC071867C980",
      "districtId" : "1",
      "nameZh" : "福星停車場",
      "pgp" : "0",
      "terminal" : "0",
      "latitude" : "24.17565",
      "inDis" : "50",
      "routeId" : "63",
      "seqNo" : "14"
   },
   {
      "GoBack" : "2",
      "longitude" : "120.64508",
      "outDis" : "50",
      "Id" : "4586",
      "oid" : "DBBD4456885E4E32B7A849F7709F81B9",
      "districtId" : "1",
      "nameZh" : "逢甲大學(福星路)",
      "pgp" : "0",
      "terminal" : "0",
      "latitude" : "24.17938",
      "inDis" : "50",
      "routeId" : "63",
      "seqNo" : "15"
   },
   {
      "GoBack" : "2",
      "longitude" : "120.64525",
      "outDis" : "50",
      "Id" : "4334",
      "oid" : "7744",
      "districtId" : "1",
      "nameZh" : "福星西安街口",
      "pgp" : "0",
      "terminal" : "0",
      "latitude" : "24.18206",
      "inDis" : "50",
      "routeId" : "63",
      "seqNo" : "16"
   },
   {
      "GoBack" : "2",
      "longitude" : "120.64472",
      "outDis" : "50",
      "Id" : "5658",
      "oid" : "313222695",
      "districtId" : "1",
      "nameZh" : "漢翔公司(星享道)",
      "pgp" : "0",
      "terminal" : "0",
      "latitude" : "24.18421",
      "inDis" : "50",
      "routeId" : "63",
      "seqNo" : "17"
   },
   {
      "GoBack" : "2",
      "longitude" : "120.64429",
      "outDis" : "50",
      "Id" : "4327",
      "oid" : "306625607",
      "districtId" : "1",
      "nameZh" : "僑光科技大學",
      "pgp" : "0",
      "terminal" : "0",
      "latitude" : "24.18676",
      "inDis" : "50",
      "routeId" : "63",
      "seqNo" : "18"
   },
   {
      "GoBack" : "2",
      "longitude" : "120.64195",
      "outDis" : "50",
      "Id" : "4723",
      "oid" : "306625606",
      "districtId" : "1",
      "nameZh" : "黎明光明路口",
      "pgp" : "0",
      "terminal" : "0",
      "latitude" : "24.18725",
      "inDis" : "50",
      "routeId" : "63",
      "seqNo" : "19"
   },
   {
      "GoBack" : "2",
      "longitude" : "120.64286",
      "outDis" : "50",
      "Id" : "1025",
      "oid" : "5045",
      "districtId" : "1",
      "nameZh" : "八張犁",
      "pgp" : "0",
      "terminal" : "0",
      "latitude" : "24.19867",
      "inDis" : "50",
      "routeId" : "63",
      "seqNo" : "20"
   },
   {
      "GoBack" : "2",
      "longitude" : "120.64441",
      "outDis" : "50",
      "Id" : "4943",
      "oid" : "308835213",
      "districtId" : "1",
      "nameZh" : "廣福中科路口",
      "pgp" : "0",
      "terminal" : "0",
      "latitude" : "24.20265",
      "inDis" : "50",
      "routeId" : "63",
      "seqNo" : "21"
   },
   {
      "GoBack" : "2",
      "longitude" : "120.64447",
      "outDis" : "50",
      "Id" : "5473",
      "oid" : "314251942",
      "districtId" : "1",
      "nameZh" : "中山大同巷口",
      "pgp" : "0",
      "terminal" : "0",
      "latitude" : "24.20528",
      "inDis" : "50",
      "routeId" : "63",
      "seqNo" : "22"
   },
   {
      "GoBack" : "2",
      "longitude" : "120.64405",
      "outDis" : "50",
      "Id" : "1210",
      "oid" : "5160",
      "districtId" : "1",
      "nameZh" : "下橫山",
      "pgp" : "0",
      "terminal" : "0",
      "latitude" : "24.20829",
      "inDis" : "50",
      "routeId" : "63",
      "seqNo" : "23"
   },
   {
      "GoBack" : "2",
      "longitude" : "120.64514",
      "outDis" : "50",
      "Id" : "3643",
      "oid" : "318862818",
      "districtId" : "1",
      "nameZh" : "福志",
      "pgp" : "0",
      "terminal" : "0",
      "latitude" : "24.21099",
      "inDis" : "50",
      "routeId" : "63",
      "seqNo" : "24"
   },
   {
      "GoBack" : "2",
      "longitude" : "120.64885",
      "outDis" : "50",
      "Id" : "4092",
      "oid" : "D76F25AE554F4169987DC2BF02E6803A",
      "districtId" : "1",
      "nameZh" : "中山中清路口",
      "pgp" : "0",
      "terminal" : "0",
      "latitude" : "24.21801",
      "inDis" : "50",
      "routeId" : "63",
      "seqNo" : "25"
   },
   {
      "GoBack" : "2",
      "longitude" : "120.64794",
      "outDis" : "50",
      "Id" : "4306",
      "oid" : "308835211",
      "districtId" : "1",
      "nameZh" : "中清雅潭路口",
      "pgp" : "0",
      "terminal" : "0",
      "latitude" : "24.22017",
      "inDis" : "50",
      "routeId" : "63",
      "seqNo" : "26"
   },
   {
      "GoBack" : "2",
      "longitude" : "120.6509",
      "outDis" : "50",
      "Id" : "4944",
      "oid" : "308842468",
      "districtId" : "1",
      "nameZh" : "大雅國小",
      "pgp" : "0",
      "terminal" : "0",
      "latitude" : "24.22149",
      "inDis" : "50",
      "routeId" : "63",
      "seqNo" : "27"
   },
   {
      "GoBack" : "2",
      "longitude" : "120.65669",
      "outDis" : "50",
      "Id" : "2943",
      "oid" : "3551",
      "districtId" : "1",
      "nameZh" : "國際花市",
      "pgp" : "0",
      "terminal" : "0",
      "latitude" : "24.22074",
      "inDis" : "50",
      "routeId" : "63",
      "seqNo" : "28"
   },
   {
      "GoBack" : "2",
      "longitude" : "120.65889",
      "outDis" : "50",
      "Id" : "4314",
      "oid" : "308835209",
      "districtId" : "1",
      "nameZh" : "臺電大雅服務所",
      "pgp" : "0",
      "terminal" : "0",
      "latitude" : "24.22004",
      "inDis" : "50",
      "routeId" : "63",
      "seqNo" : "29"
   },
   {
      "GoBack" : "2",
      "longitude" : "120.66074",
      "outDis" : "50",
      "Id" : "3237",
      "oid" : "3668",
      "districtId" : "1",
      "nameZh" : "惠明盲校",
      "pgp" : "0",
      "terminal" : "0",
      "latitude" : "24.2196",
      "inDis" : "50",
      "routeId" : "63",
      "seqNo" : "30"
   },
   {
      "GoBack" : "2",
      "longitude" : "120.66481",
      "outDis" : "50",
      "Id" : "2895",
      "oid" : "3669",
      "districtId" : "1",
      "nameZh" : "馬岡厝加油站",
      "pgp" : "0",
      "terminal" : "0",
      "latitude" : "24.21778",
      "inDis" : "50",
      "routeId" : "63",
      "seqNo" : "31"
   },
   {
      "GoBack" : "2",
      "longitude" : "120.66657",
      "outDis" : "50",
      "Id" : "3027",
      "oid" : "3547",
      "districtId" : "1",
      "nameZh" : "清泉醫院",
      "pgp" : "0",
      "terminal" : "0",
      "latitude" : "24.21661",
      "inDis" : "50",
      "routeId" : "63",
      "seqNo" : "32"
   },
   {
      "GoBack" : "2",
      "longitude" : "120.66928",
      "outDis" : "50",
      "Id" : "4940",
      "oid" : "308835207",
      "districtId" : "1",
      "nameZh" : "員寶庄福德祠",
      "pgp" : "0",
      "terminal" : "0",
      "latitude" : "24.21593",
      "inDis" : "50",
      "routeId" : "63",
      "seqNo" : "33"
   },
   {
      "GoBack" : "2",
      "longitude" : "120.67223",
      "outDis" : "50",
      "Id" : "5037",
      "oid" : "309736377",
      "districtId" : "1",
      "nameZh" : "西寶里",
      "pgp" : "0",
      "terminal" : "0",
      "latitude" : "24.21548",
      "inDis" : "50",
      "routeId" : "63",
      "seqNo" : "34"
   },
   {
      "GoBack" : "2",
      "longitude" : "120.67859",
      "outDis" : "50",
      "Id" : "4939",
      "oid" : "308835205",
      "districtId" : "1",
      "nameZh" : "雅潭民族路口",
      "pgp" : "0",
      "terminal" : "0",
      "latitude" : "24.21579",
      "inDis" : "50",
      "routeId" : "63",
      "seqNo" : "35"
   },
   {
      "GoBack" : "2",
      "longitude" : "120.68439",
      "outDis" : "50",
      "Id" : "4938",
      "oid" : "308835203",
      "districtId" : "1",
      "nameZh" : "東寶國小",
      "pgp" : "0",
      "terminal" : "0",
      "latitude" : "24.21644",
      "inDis" : "50",
      "routeId" : "63",
      "seqNo" : "36"
   },
   {
      "GoBack" : "2",
      "longitude" : "120.69051",
      "outDis" : "50",
      "Id" : "4303",
      "oid" : "12415",
      "districtId" : "1",
      "nameZh" : "雅潭大豐路口",
      "pgp" : "0",
      "terminal" : "0",
      "latitude" : "24.21589",
      "inDis" : "50",
      "routeId" : "63",
      "seqNo" : "37"
   },
   {
      "GoBack" : "2",
      "longitude" : "120.69192",
      "outDis" : "50",
      "Id" : "5604",
      "oid" : "306695523",
      "districtId" : "1",
      "nameZh" : "大豐路2段110巷口",
      "pgp" : "0",
      "terminal" : "0",
      "latitude" : "24.21873",
      "inDis" : "50",
      "routeId" : "63",
      "seqNo" : "38"
   },
   {
      "GoBack" : "2",
      "longitude" : "120.69221",
      "outDis" : "50",
      "Id" : "0347",
      "oid" : "306695525",
      "districtId" : "1",
      "nameZh" : "土地公廟",
      "pgp" : "0",
      "terminal" : "0",
      "latitude" : "24.22075",
      "inDis" : "50",
      "routeId" : "63",
      "seqNo" : "39"
   },
   {
      "GoBack" : "2",
      "longitude" : "120.69227",
      "outDis" : "50",
      "Id" : "4741",
      "oid" : "306695527",
      "districtId" : "1",
      "nameZh" : "矽品公司",
      "pgp" : "0",
      "terminal" : "0",
      "latitude" : "24.22375",
      "inDis" : "50",
      "routeId" : "63",
      "seqNo" : "40"
   },
   {
      "GoBack" : "2",
      "longitude" : "120.69244",
      "outDis" : "50",
      "Id" : "4742",
      "oid" : "306695528",
      "districtId" : "1",
      "nameZh" : "大豐潭富路口",
      "pgp" : "0",
      "terminal" : "0",
      "latitude" : "24.22527",
      "inDis" : "50",
      "routeId" : "63",
      "seqNo" : "41"
   },
   {
      "GoBack" : "2",
      "longitude" : "120.69276",
      "outDis" : "50",
      "Id" : "5397",
      "oid" : "312960895",
      "districtId" : "1",
      "nameZh" : "大豐路三段230巷口",
      "pgp" : "0",
      "terminal" : "0",
      "latitude" : "24.22868",
      "inDis" : "50",
      "routeId" : "63",
      "seqNo" : "42"
   },
   {
      "GoBack" : "2",
      "longitude" : "120.69437",
      "outDis" : "50",
      "Id" : "0201",
      "oid" : "318253020",
      "districtId" : "1",
      "nameZh" : "潭雅神綠園道(大豐路)",
      "pgp" : "0",
      "terminal" : "0",
      "latitude" : "24.23234",
      "inDis" : "50",
      "routeId" : "63",
      "seqNo" : "43"
   },
   {
      "GoBack" : "2",
      "longitude" : "120.69855",
      "outDis" : "50",
      "Id" : "4937",
      "oid" : "308835201",
      "districtId" : "1",
      "nameZh" : "承德三社東路口",
      "pgp" : "0",
      "terminal" : "0",
      "latitude" : "24.23491",
      "inDis" : "50",
      "routeId" : "63",
      "seqNo" : "44"
   },
   {
      "GoBack" : "2",
      "longitude" : "120.70155",
      "outDis" : "50",
      "Id" : "4936",
      "oid" : "308835199",
      "districtId" : "1",
      "nameZh" : "東龍家電",
      "pgp" : "0",
      "terminal" : "0",
      "latitude" : "24.23742",
      "inDis" : "50",
      "routeId" : "63",
      "seqNo" : "45"
   },
   {
      "GoBack" : "2",
      "longitude" : "120.70453",
      "outDis" : "50",
      "Id" : "4935",
      "oid" : "308835197",
      "districtId" : "1",
      "nameZh" : "合作國小",
      "pgp" : "0",
      "terminal" : "0",
      "latitude" : "24.23976",
      "inDis" : "50",
      "routeId" : "63",
      "seqNo" : "46"
   },
   {
      "GoBack" : "2",
      "longitude" : "120.70586",
      "outDis" : "50",
      "Id" : "4934",
      "oid" : "308835195",
      "districtId" : "1",
      "nameZh" : "三村里",
      "pgp" : "0",
      "terminal" : "0",
      "latitude" : "24.2426",
      "inDis" : "50",
      "routeId" : "63",
      "seqNo" : "47"
   },
   {
      "GoBack" : "2",
      "longitude" : "120.7084",
      "outDis" : "50",
      "Id" : "4933",
      "oid" : "308835193",
      "districtId" : "1",
      "nameZh" : "西勢成功路口",
      "pgp" : "0",
      "terminal" : "0",
      "latitude" : "24.24513",
      "inDis" : "50",
      "routeId" : "63",
      "seqNo" : "48"
   },
   {
      "GoBack" : "2",
      "longitude" : "120.70722",
      "outDis" : "50",
      "Id" : "4932",
      "oid" : "308835191",
      "districtId" : "1",
      "nameZh" : "成功社興路口",
      "pgp" : "0",
      "terminal" : "0",
      "latitude" : "24.24747",
      "inDis" : "50",
      "routeId" : "63",
      "seqNo" : "49"
   },
   {
      "GoBack" : "2",
      "longitude" : "120.70672",
      "outDis" : "50",
      "Id" : "1065",
      "oid" : "5072",
      "districtId" : "1",
      "nameZh" : "三光新村",
      "pgp" : "0",
      "terminal" : "0",
      "latitude" : "24.24999",
      "inDis" : "50",
      "routeId" : "63",
      "seqNo" : "50"
   },
   {
      "GoBack" : "2",
      "longitude" : "120.70963",
      "outDis" : "50",
      "Id" : "4448",
      "oid" : "13809",
      "districtId" : "1",
      "nameZh" : "中正圓環西路口",
      "pgp" : "0",
      "terminal" : "0",
      "latitude" : "24.25039",
      "inDis" : "50",
      "routeId" : "63",
      "seqNo" : "51"
   },
   {
      "GoBack" : "2",
      "longitude" : "120.712",
      "outDis" : "50",
      "Id" : "3357",
      "oid" : "6406",
      "districtId" : "1",
      "nameZh" : "慈龍寺",
      "pgp" : "0",
      "terminal" : "0",
      "latitude" : "24.25079",
      "inDis" : "50",
      "routeId" : "63",
      "seqNo" : "52"
   },
   {
      "GoBack" : "2",
      "longitude" : "120.71552",
      "outDis" : "50",
      "Id" : "3939",
      "oid" : "13244",
      "districtId" : "1",
      "nameZh" : "豐原郵局",
      "pgp" : "0",
      "terminal" : "0",
      "latitude" : "24.2514",
      "inDis" : "50",
      "routeId" : "63",
      "seqNo" : "53"
   },
   {
      "GoBack" : "2",
      "longitude" : "120.71851",
      "outDis" : "50",
      "Id" : "3343",
      "oid" : "13320",
      "districtId" : "1",
      "nameZh" : "媽祖廟",
      "pgp" : "0",
      "terminal" : "0",
      "latitude" : "24.25157",
      "inDis" : "50",
      "routeId" : "63",
      "seqNo" : "54"
   },
   {
      "GoBack" : "2",
      "longitude" : "120.7212",
      "outDis" : "50",
      "Id" : "3157",
      "oid" : "13609",
      "districtId" : "1",
      "nameZh" : "頂街",
      "pgp" : "0",
      "terminal" : "0",
      "latitude" : "24.25229",
      "inDis" : "50",
      "routeId" : "63",
      "seqNo" : "55"
   },
   {
      "GoBack" : "2",
      "longitude" : "120.72239",
      "outDis" : "50",
      "Id" : "4931",
      "oid" : "308835189",
      "districtId" : "1",
      "nameZh" : "豐原火車站",
      "pgp" : "0",
      "terminal" : "0",
      "latitude" : "24.25487",
      "inDis" : "50",
      "routeId" : "63",
      "seqNo" : "56"
   },
   {
      "GoBack" : "2",
      "longitude" : "120.7216",
      "outDis" : "50",
      "Id" : "5632",
      "oid" : "317638566",
      "districtId" : "1",
      "nameZh" : "豐中大順街口",
      "pgp" : "0",
      "terminal" : "0",
      "latitude" : "24.25757",
      "inDis" : "50",
      "routeId" : "63",
      "seqNo" : "57"
   },
   {
      "GoBack" : "2",
      "longitude" : "120.72096",
      "outDis" : "50",
      "Id" : "4451",
      "oid" : "13844",
      "districtId" : "1",
      "nameZh" : "北環福德祠",
      "pgp" : "0",
      "terminal" : "0",
      "latitude" : "24.25953",
      "inDis" : "50",
      "routeId" : "63",
      "seqNo" : "58"
   }
]
