[
   {
      "GoBack" : "1",
      "longitude" : "120.58033",
      "outDis" : "50",
      "Id" : "3531",
      "oid" : "318982352",
      "districtId" : "1",
      "nameZh" : "正英臺灣大道口",
      "pgp" : "0",
      "terminal" : "0",
      "latitude" : "24.20961",
      "inDis" : "50",
      "routeId" : "藍12",
      "seqNo" : "1"
   },
   {
      "GoBack" : "1",
      "longitude" : "120.58096",
      "outDis" : "50",
      "Id" : "4124",
      "oid" : "318982354",
      "districtId" : "1",
      "nameZh" : "頂六路",
      "pgp" : "0",
      "terminal" : "0",
      "latitude" : "24.21314",
      "inDis" : "50",
      "routeId" : "藍12",
      "seqNo" : "2"
   },
   {
      "GoBack" : "1",
      "longitude" : "120.58048",
      "outDis" : "50",
      "Id" : "4386",
      "oid" : "318974085",
      "districtId" : "1",
      "nameZh" : "弘光科技大學",
      "pgp" : "0",
      "terminal" : "0",
      "latitude" : "24.21758",
      "inDis" : "50",
      "routeId" : "藍12",
      "seqNo" : "3"
   },
   {
      "GoBack" : "1",
      "longitude" : "120.5796",
      "outDis" : "50",
      "Id" : "4111",
      "oid" : "318974087",
      "districtId" : "1",
      "nameZh" : "晉江里",
      "pgp" : "0",
      "terminal" : "0",
      "latitude" : "24.22133",
      "inDis" : "50",
      "routeId" : "藍12",
      "seqNo" : "4"
   },
   {
      "GoBack" : "1",
      "longitude" : "120.57834",
      "outDis" : "50",
      "Id" : "4062",
      "oid" : "318974089",
      "districtId" : "1",
      "nameZh" : "下晉江",
      "pgp" : "0",
      "terminal" : "0",
      "latitude" : "24.22331",
      "inDis" : "50",
      "routeId" : "藍12",
      "seqNo" : "5"
   },
   {
      "GoBack" : "1",
      "longitude" : "120.57667",
      "outDis" : "50",
      "Id" : "4147",
      "oid" : "318974091",
      "districtId" : "1",
      "nameZh" : "靜宜大學",
      "pgp" : "0",
      "terminal" : "0",
      "latitude" : "24.22602",
      "inDis" : "50",
      "routeId" : "藍12",
      "seqNo" : "6"
   },
   {
      "GoBack" : "1",
      "longitude" : "120.57408",
      "outDis" : "50",
      "Id" : "4086",
      "oid" : "318974093",
      "districtId" : "1",
      "nameZh" : "臺灣大道北勢路口",
      "pgp" : "0",
      "terminal" : "0",
      "latitude" : "24.2301",
      "inDis" : "50",
      "routeId" : "藍12",
      "seqNo" : "7"
   },
   {
      "GoBack" : "1",
      "longitude" : "120.57197",
      "outDis" : "50",
      "Id" : "4392",
      "oid" : "318974095",
      "districtId" : "1",
      "nameZh" : "紅竹巷",
      "pgp" : "0",
      "terminal" : "0",
      "latitude" : "24.23331",
      "inDis" : "50",
      "routeId" : "藍12",
      "seqNo" : "8"
   },
   {
      "GoBack" : "1",
      "longitude" : "120.57012",
      "outDis" : "50",
      "Id" : "4389",
      "oid" : "318974097",
      "districtId" : "1",
      "nameZh" : "竹林里",
      "pgp" : "0",
      "terminal" : "0",
      "latitude" : "24.23617",
      "inDis" : "50",
      "routeId" : "藍12",
      "seqNo" : "9"
   },
   {
      "GoBack" : "1",
      "longitude" : "120.56769",
      "outDis" : "50",
      "Id" : "2147",
      "oid" : "318974099",
      "districtId" : "1",
      "nameZh" : "竹林國小",
      "pgp" : "0",
      "terminal" : "0",
      "latitude" : "24.23844",
      "inDis" : "50",
      "routeId" : "藍12",
      "seqNo" : "10"
   },
   {
      "GoBack" : "1",
      "longitude" : "120.56535",
      "outDis" : "50",
      "Id" : "0005",
      "oid" : "318974101",
      "districtId" : "1",
      "nameZh" : "沙鹿高工(臺灣大道)",
      "pgp" : "0",
      "terminal" : "0",
      "latitude" : "24.23926",
      "inDis" : "50",
      "routeId" : "藍12",
      "seqNo" : "11"
   },
   {
      "GoBack" : "1",
      "longitude" : "120.565",
      "outDis" : "50",
      "Id" : "0409",
      "oid" : "318862819",
      "districtId" : "1",
      "nameZh" : "光華成功東街口",
      "pgp" : "0",
      "terminal" : "0",
      "latitude" : "24.2414",
      "inDis" : "50",
      "routeId" : "藍12",
      "seqNo" : "12"
   },
   {
      "GoBack" : "1",
      "longitude" : "120.56517",
      "outDis" : "50",
      "Id" : "5730",
      "oid" : "318974103",
      "districtId" : "1",
      "nameZh" : "鹿寮國中(光大路)",
      "pgp" : "0",
      "terminal" : "0",
      "latitude" : "24.24395",
      "inDis" : "50",
      "routeId" : "藍12",
      "seqNo" : "13"
   },
   {
      "GoBack" : "1",
      "longitude" : "120.56281",
      "outDis" : "50",
      "Id" : "4110",
      "oid" : "318974107",
      "districtId" : "1",
      "nameZh" : "家扶中心",
      "pgp" : "0",
      "terminal" : "0",
      "latitude" : "24.2468",
      "inDis" : "50",
      "routeId" : "藍12",
      "seqNo" : "14"
   },
   {
      "GoBack" : "1",
      "longitude" : "120.56484",
      "outDis" : "50",
      "Id" : "5138",
      "oid" : "318974109",
      "districtId" : "1",
      "nameZh" : "鹿寮成衣商圈",
      "pgp" : "0",
      "terminal" : "0",
      "latitude" : "24.2489",
      "inDis" : "50",
      "routeId" : "藍12",
      "seqNo" : "15"
   },
   {
      "GoBack" : "1",
      "longitude" : "120.56679",
      "outDis" : "50",
      "Id" : "4044",
      "oid" : "318974111",
      "districtId" : "1",
      "nameZh" : "鹿寮",
      "pgp" : "0",
      "terminal" : "0",
      "latitude" : "24.25177",
      "inDis" : "50",
      "routeId" : "藍12",
      "seqNo" : "16"
   },
   {
      "GoBack" : "1",
      "longitude" : "120.56786",
      "outDis" : "50",
      "Id" : "5392",
      "oid" : "318974113",
      "districtId" : "1",
      "nameZh" : "中山長春路口",
      "pgp" : "0",
      "terminal" : "0",
      "latitude" : "24.2537",
      "inDis" : "50",
      "routeId" : "藍12",
      "seqNo" : "17"
   },
   {
      "GoBack" : "1",
      "longitude" : "120.56885",
      "outDis" : "50",
      "Id" : "4045",
      "oid" : "318974115",
      "districtId" : "1",
      "nameZh" : "中峰",
      "pgp" : "0",
      "terminal" : "0",
      "latitude" : "24.25542",
      "inDis" : "50",
      "routeId" : "藍12",
      "seqNo" : "18"
   },
   {
      "GoBack" : "1",
      "longitude" : "120.57021",
      "outDis" : "50",
      "Id" : "4471",
      "oid" : "318974117",
      "districtId" : "1",
      "nameZh" : "勞工育樂中心",
      "pgp" : "0",
      "terminal" : "0",
      "latitude" : "24.25775",
      "inDis" : "50",
      "routeId" : "藍12",
      "seqNo" : "19"
   },
   {
      "GoBack" : "1",
      "longitude" : "120.57075",
      "outDis" : "50",
      "Id" : "4129",
      "oid" : "318974119",
      "districtId" : "1",
      "nameZh" : "鹿峰里",
      "pgp" : "0",
      "terminal" : "0",
      "latitude" : "24.25885",
      "inDis" : "50",
      "routeId" : "藍12",
      "seqNo" : "20"
   },
   {
      "GoBack" : "1",
      "longitude" : "120.5714",
      "outDis" : "50",
      "Id" : "4441",
      "oid" : "318974121",
      "districtId" : "1",
      "nameZh" : "中山星河路口",
      "pgp" : "0",
      "terminal" : "0",
      "latitude" : "24.25997",
      "inDis" : "50",
      "routeId" : "藍12",
      "seqNo" : "21"
   },
   {
      "GoBack" : "1",
      "longitude" : "120.57262",
      "outDis" : "50",
      "Id" : "4121",
      "oid" : "318978241",
      "districtId" : "1",
      "nameZh" : "清水電信局",
      "pgp" : "0",
      "terminal" : "0",
      "latitude" : "24.26214",
      "inDis" : "50",
      "routeId" : "藍12",
      "seqNo" : "22"
   },
   {
      "GoBack" : "1",
      "longitude" : "120.5742",
      "outDis" : "50",
      "Id" : "4119",
      "oid" : "318978243",
      "districtId" : "1",
      "nameZh" : "清水高中",
      "pgp" : "0",
      "terminal" : "0",
      "latitude" : "24.2658",
      "inDis" : "50",
      "routeId" : "藍12",
      "seqNo" : "23"
   },
   {
      "GoBack" : "1",
      "longitude" : "120.57515",
      "outDis" : "50",
      "Id" : "5141",
      "oid" : "318978245",
      "districtId" : "1",
      "nameZh" : "華南銀行(清水分行)",
      "pgp" : "0",
      "terminal" : "0",
      "latitude" : "24.2683",
      "inDis" : "50",
      "routeId" : "藍12",
      "seqNo" : "24"
   },
   {
      "GoBack" : "1",
      "longitude" : "120.57531",
      "outDis" : "50",
      "Id" : "1615",
      "oid" : "318978247",
      "districtId" : "1",
      "nameZh" : "分局前",
      "pgp" : "0",
      "terminal" : "0",
      "latitude" : "24.26919",
      "inDis" : "50",
      "routeId" : "藍12",
      "seqNo" : "25"
   },
   {
      "GoBack" : "1",
      "longitude" : "120.57004",
      "outDis" : "50",
      "Id" : "5655",
      "oid" : "318978249",
      "districtId" : "1",
      "nameZh" : "鰲峰西社路口",
      "pgp" : "0",
      "terminal" : "0",
      "latitude" : "24.26923",
      "inDis" : "50",
      "routeId" : "藍12",
      "seqNo" : "26"
   },
   {
      "GoBack" : "1",
      "longitude" : "120.56825",
      "outDis" : "50",
      "Id" : "2486",
      "oid" : "318978251",
      "districtId" : "1",
      "nameZh" : "社口",
      "pgp" : "0",
      "terminal" : "0",
      "latitude" : "24.26845",
      "inDis" : "50",
      "routeId" : "藍12",
      "seqNo" : "27"
   },
   {
      "GoBack" : "1",
      "longitude" : "120.5648",
      "outDis" : "50",
      "Id" : "3700",
      "oid" : "318978253",
      "districtId" : "1",
      "nameZh" : "銀聯二村",
      "pgp" : "0",
      "terminal" : "0",
      "latitude" : "24.26832",
      "inDis" : "50",
      "routeId" : "藍12",
      "seqNo" : "28"
   },
   {
      "GoBack" : "1",
      "longitude" : "120.56271",
      "outDis" : "50",
      "Id" : "3017",
      "oid" : "318978255",
      "districtId" : "1",
      "nameZh" : "清水國中",
      "pgp" : "0",
      "terminal" : "0",
      "latitude" : "24.26778",
      "inDis" : "50",
      "routeId" : "藍12",
      "seqNo" : "29"
   },
   {
      "GoBack" : "1",
      "longitude" : "120.56006",
      "outDis" : "50",
      "Id" : "5723",
      "oid" : "320235334",
      "districtId" : "1",
      "nameZh" : "清水區公所",
      "pgp" : "0",
      "terminal" : "0",
      "latitude" : "24.26859",
      "inDis" : "50",
      "routeId" : "藍12",
      "seqNo" : "30"
   },
   {
      "GoBack" : "1",
      "longitude" : "120.55755",
      "outDis" : "50",
      "Id" : "4904",
      "oid" : "319122067",
      "districtId" : "1",
      "nameZh" : "港區藝術中心",
      "pgp" : "0",
      "terminal" : "0",
      "latitude" : "24.26935",
      "inDis" : "50",
      "routeId" : "藍12",
      "seqNo" : "31"
   },
   {
      "GoBack" : "2",
      "longitude" : "120.55755",
      "outDis" : "50",
      "Id" : "4904",
      "oid" : "319122067",
      "districtId" : "1",
      "nameZh" : "港區藝術中心",
      "pgp" : "0",
      "terminal" : "0",
      "latitude" : "24.26935",
      "inDis" : "50",
      "routeId" : "藍12",
      "seqNo" : "1"
   },
   {
      "GoBack" : "2",
      "longitude" : "120.56006",
      "outDis" : "50",
      "Id" : "5723",
      "oid" : "320235334",
      "districtId" : "1",
      "nameZh" : "清水區公所",
      "pgp" : "0",
      "terminal" : "0",
      "latitude" : "24.26859",
      "inDis" : "50",
      "routeId" : "藍12",
      "seqNo" : "2"
   },
   {
      "GoBack" : "2",
      "longitude" : "120.56271",
      "outDis" : "50",
      "Id" : "3017",
      "oid" : "318978261",
      "districtId" : "1",
      "nameZh" : "清水國中",
      "pgp" : "0",
      "terminal" : "0",
      "latitude" : "24.26778",
      "inDis" : "50",
      "routeId" : "藍12",
      "seqNo" : "3"
   },
   {
      "GoBack" : "2",
      "longitude" : "120.5648",
      "outDis" : "50",
      "Id" : "3700",
      "oid" : "318978263",
      "districtId" : "1",
      "nameZh" : "銀聯二村",
      "pgp" : "0",
      "terminal" : "0",
      "latitude" : "24.26832",
      "inDis" : "50",
      "routeId" : "藍12",
      "seqNo" : "4"
   },
   {
      "GoBack" : "2",
      "longitude" : "120.56825",
      "outDis" : "50",
      "Id" : "2486",
      "oid" : "318978265",
      "districtId" : "1",
      "nameZh" : "社口",
      "pgp" : "0",
      "terminal" : "0",
      "latitude" : "24.26845",
      "inDis" : "50",
      "routeId" : "藍12",
      "seqNo" : "5"
   },
   {
      "GoBack" : "2",
      "longitude" : "120.57004",
      "outDis" : "50",
      "Id" : "5655",
      "oid" : "318978267",
      "districtId" : "1",
      "nameZh" : "鰲峰西社路口",
      "pgp" : "0",
      "terminal" : "0",
      "latitude" : "24.26923",
      "inDis" : "50",
      "routeId" : "藍12",
      "seqNo" : "6"
   },
   {
      "GoBack" : "2",
      "longitude" : "120.57531",
      "outDis" : "50",
      "Id" : "1615",
      "oid" : "318978269",
      "districtId" : "1",
      "nameZh" : "分局前",
      "pgp" : "0",
      "terminal" : "0",
      "latitude" : "24.26919",
      "inDis" : "50",
      "routeId" : "藍12",
      "seqNo" : "7"
   },
   {
      "GoBack" : "2",
      "longitude" : "120.57515",
      "outDis" : "50",
      "Id" : "5141",
      "oid" : "318978271",
      "districtId" : "1",
      "nameZh" : "華南銀行(清水分行)",
      "pgp" : "0",
      "terminal" : "0",
      "latitude" : "24.2683",
      "inDis" : "50",
      "routeId" : "藍12",
      "seqNo" : "8"
   },
   {
      "GoBack" : "2",
      "longitude" : "120.57421",
      "outDis" : "50",
      "Id" : "4119",
      "oid" : "318978273",
      "districtId" : "1",
      "nameZh" : "清水高中",
      "pgp" : "0",
      "terminal" : "0",
      "latitude" : "24.26615",
      "inDis" : "50",
      "routeId" : "藍12",
      "seqNo" : "9"
   },
   {
      "GoBack" : "2",
      "longitude" : "120.57262",
      "outDis" : "50",
      "Id" : "4121",
      "oid" : "318978275",
      "districtId" : "1",
      "nameZh" : "清水電信局",
      "pgp" : "0",
      "terminal" : "0",
      "latitude" : "24.26214",
      "inDis" : "50",
      "routeId" : "藍12",
      "seqNo" : "10"
   },
   {
      "GoBack" : "2",
      "longitude" : "120.5714",
      "outDis" : "50",
      "Id" : "4441",
      "oid" : "318978277",
      "districtId" : "1",
      "nameZh" : "中山星河路口",
      "pgp" : "0",
      "terminal" : "0",
      "latitude" : "24.25997",
      "inDis" : "50",
      "routeId" : "藍12",
      "seqNo" : "11"
   },
   {
      "GoBack" : "2",
      "longitude" : "120.57075",
      "outDis" : "50",
      "Id" : "4129",
      "oid" : "318978279",
      "districtId" : "1",
      "nameZh" : "鹿峰里",
      "pgp" : "0",
      "terminal" : "0",
      "latitude" : "24.25885",
      "inDis" : "50",
      "routeId" : "藍12",
      "seqNo" : "12"
   },
   {
      "GoBack" : "2",
      "longitude" : "120.56993",
      "outDis" : "50",
      "Id" : "4471",
      "oid" : "318978281",
      "districtId" : "1",
      "nameZh" : "勞工育樂中心",
      "pgp" : "0",
      "terminal" : "0",
      "latitude" : "24.25755",
      "inDis" : "50",
      "routeId" : "藍12",
      "seqNo" : "13"
   },
   {
      "GoBack" : "2",
      "longitude" : "120.56873",
      "outDis" : "50",
      "Id" : "4045",
      "oid" : "318978283",
      "districtId" : "1",
      "nameZh" : "中峰",
      "pgp" : "0",
      "terminal" : "0",
      "latitude" : "24.25538",
      "inDis" : "50",
      "routeId" : "藍12",
      "seqNo" : "14"
   },
   {
      "GoBack" : "2",
      "longitude" : "120.56786",
      "outDis" : "50",
      "Id" : "5392",
      "oid" : "318978285",
      "districtId" : "1",
      "nameZh" : "中山長春路口",
      "pgp" : "0",
      "terminal" : "0",
      "latitude" : "24.2537",
      "inDis" : "50",
      "routeId" : "藍12",
      "seqNo" : "15"
   },
   {
      "GoBack" : "2",
      "longitude" : "120.56664",
      "outDis" : "50",
      "Id" : "4044",
      "oid" : "318978287",
      "districtId" : "1",
      "nameZh" : "鹿寮",
      "pgp" : "0",
      "terminal" : "0",
      "latitude" : "24.2515",
      "inDis" : "50",
      "routeId" : "藍12",
      "seqNo" : "16"
   },
   {
      "GoBack" : "2",
      "longitude" : "120.56484",
      "outDis" : "50",
      "Id" : "5138",
      "oid" : "318978289",
      "districtId" : "1",
      "nameZh" : "鹿寮成衣商圈",
      "pgp" : "0",
      "terminal" : "0",
      "latitude" : "24.2489",
      "inDis" : "50",
      "routeId" : "藍12",
      "seqNo" : "17"
   },
   {
      "GoBack" : "2",
      "longitude" : "120.56257",
      "outDis" : "50",
      "Id" : "4110",
      "oid" : "318978291",
      "districtId" : "1",
      "nameZh" : "家扶中心",
      "pgp" : "0",
      "terminal" : "0",
      "latitude" : "24.24659",
      "inDis" : "50",
      "routeId" : "藍12",
      "seqNo" : "18"
   },
   {
      "GoBack" : "2",
      "longitude" : "120.56517",
      "outDis" : "50",
      "Id" : "5730",
      "oid" : "318978295",
      "districtId" : "1",
      "nameZh" : "鹿寮國中(光大路)",
      "pgp" : "0",
      "terminal" : "0",
      "latitude" : "24.24395",
      "inDis" : "50",
      "routeId" : "藍12",
      "seqNo" : "19"
   },
   {
      "GoBack" : "2",
      "longitude" : "120.565",
      "outDis" : "50",
      "Id" : "0409",
      "oid" : "318862819",
      "districtId" : "1",
      "nameZh" : "光華成功東街口",
      "pgp" : "0",
      "terminal" : "0",
      "latitude" : "24.2414",
      "inDis" : "50",
      "routeId" : "藍12",
      "seqNo" : "20"
   },
   {
      "GoBack" : "2",
      "longitude" : "120.56535",
      "outDis" : "50",
      "Id" : "0005",
      "oid" : "318978297",
      "districtId" : "1",
      "nameZh" : "沙鹿高工(臺灣大道)",
      "pgp" : "0",
      "terminal" : "0",
      "latitude" : "24.23926",
      "inDis" : "50",
      "routeId" : "藍12",
      "seqNo" : "21"
   },
   {
      "GoBack" : "2",
      "longitude" : "120.56786",
      "outDis" : "50",
      "Id" : "2147",
      "oid" : "318978299",
      "districtId" : "1",
      "nameZh" : "竹林國小",
      "pgp" : "0",
      "terminal" : "0",
      "latitude" : "24.23839",
      "inDis" : "50",
      "routeId" : "藍12",
      "seqNo" : "22"
   },
   {
      "GoBack" : "2",
      "longitude" : "120.56995",
      "outDis" : "50",
      "Id" : "4389",
      "oid" : "318978301",
      "districtId" : "1",
      "nameZh" : "竹林里",
      "pgp" : "0",
      "terminal" : "0",
      "latitude" : "24.23639",
      "inDis" : "50",
      "routeId" : "藍12",
      "seqNo" : "23"
   },
   {
      "GoBack" : "2",
      "longitude" : "120.57193",
      "outDis" : "50",
      "Id" : "4392",
      "oid" : "318978303",
      "districtId" : "1",
      "nameZh" : "紅竹巷",
      "pgp" : "0",
      "terminal" : "0",
      "latitude" : "24.23331",
      "inDis" : "50",
      "routeId" : "藍12",
      "seqNo" : "24"
   },
   {
      "GoBack" : "2",
      "longitude" : "120.57396",
      "outDis" : "50",
      "Id" : "4086",
      "oid" : "318978305",
      "districtId" : "1",
      "nameZh" : "臺灣大道北勢路口",
      "pgp" : "0",
      "terminal" : "0",
      "latitude" : "24.23011",
      "inDis" : "50",
      "routeId" : "藍12",
      "seqNo" : "25"
   },
   {
      "GoBack" : "2",
      "longitude" : "120.57674",
      "outDis" : "50",
      "Id" : "4147",
      "oid" : "318978307",
      "districtId" : "1",
      "nameZh" : "靜宜大學",
      "pgp" : "0",
      "terminal" : "0",
      "latitude" : "24.22576",
      "inDis" : "50",
      "routeId" : "藍12",
      "seqNo" : "26"
   },
   {
      "GoBack" : "2",
      "longitude" : "120.57823",
      "outDis" : "50",
      "Id" : "4062",
      "oid" : "318978309",
      "districtId" : "1",
      "nameZh" : "下晉江",
      "pgp" : "0",
      "terminal" : "0",
      "latitude" : "24.22346",
      "inDis" : "50",
      "routeId" : "藍12",
      "seqNo" : "27"
   },
   {
      "GoBack" : "2",
      "longitude" : "120.57965",
      "outDis" : "50",
      "Id" : "4111",
      "oid" : "318978311",
      "districtId" : "1",
      "nameZh" : "晉江里",
      "pgp" : "0",
      "terminal" : "0",
      "latitude" : "24.22111",
      "inDis" : "50",
      "routeId" : "藍12",
      "seqNo" : "28"
   },
   {
      "GoBack" : "2",
      "longitude" : "120.58041",
      "outDis" : "50",
      "Id" : "4386",
      "oid" : "318978313",
      "districtId" : "1",
      "nameZh" : "弘光科技大學",
      "pgp" : "0",
      "terminal" : "0",
      "latitude" : "24.21735",
      "inDis" : "50",
      "routeId" : "藍12",
      "seqNo" : "29"
   },
   {
      "GoBack" : "2",
      "longitude" : "120.58096",
      "outDis" : "50",
      "Id" : "4124",
      "oid" : "318982354",
      "districtId" : "1",
      "nameZh" : "頂六路",
      "pgp" : "0",
      "terminal" : "0",
      "latitude" : "24.21314",
      "inDis" : "50",
      "routeId" : "藍12",
      "seqNo" : "30"
   },
   {
      "GoBack" : "2",
      "longitude" : "120.58033",
      "outDis" : "50",
      "Id" : "3531",
      "oid" : "318982352",
      "districtId" : "1",
      "nameZh" : "正英臺灣大道口",
      "pgp" : "0",
      "terminal" : "0",
      "latitude" : "24.20961",
      "inDis" : "50",
      "routeId" : "藍12",
      "seqNo" : "31"
   }
]
