[
   {
      "GoBack" : "1",
      "longitude" : "120.64297",
      "outDis" : "50",
      "Id" : "4141",
      "oid" : "14088",
      "districtId" : "1",
      "nameZh" : "銅安厝",
      "pgp" : "0",
      "terminal" : "0",
      "latitude" : "24.4202",
      "inDis" : "50",
      "routeId" : "97",
      "seqNo" : "1"
   },
   {
      "GoBack" : "1",
      "longitude" : "120.64312",
      "outDis" : "50",
      "Id" : "4103",
      "oid" : "14087",
      "districtId" : "1",
      "nameZh" : "虎尾寮",
      "pgp" : "0",
      "terminal" : "0",
      "latitude" : "24.41422",
      "inDis" : "50",
      "routeId" : "97",
      "seqNo" : "2"
   },
   {
      "GoBack" : "1",
      "longitude" : "120.64347",
      "outDis" : "50",
      "Id" : "4087",
      "oid" : "14086",
      "districtId" : "1",
      "nameZh" : "幼獅工業區",
      "pgp" : "0",
      "terminal" : "0",
      "latitude" : "24.40958",
      "inDis" : "50",
      "routeId" : "97",
      "seqNo" : "3"
   },
   {
      "GoBack" : "1",
      "longitude" : "120.64308",
      "outDis" : "50",
      "Id" : "5548",
      "oid" : "316551171",
      "districtId" : "1",
      "nameZh" : "青年中山路口",
      "pgp" : "0",
      "terminal" : "0",
      "latitude" : "24.40588",
      "inDis" : "50",
      "routeId" : "97",
      "seqNo" : "4"
   },
   {
      "GoBack" : "1",
      "longitude" : "120.64527",
      "outDis" : "50",
      "Id" : "5549",
      "oid" : "316551172",
      "districtId" : "1",
      "nameZh" : "青年幼二路口",
      "pgp" : "0",
      "terminal" : "0",
      "latitude" : "24.40484",
      "inDis" : "50",
      "routeId" : "97",
      "seqNo" : "5"
   },
   {
      "GoBack" : "1",
      "longitude" : "120.64653",
      "outDis" : "50",
      "Id" : "5550",
      "oid" : "316551173",
      "districtId" : "1",
      "nameZh" : "幼二青三路口",
      "pgp" : "0",
      "terminal" : "0",
      "latitude" : "24.40493",
      "inDis" : "50",
      "routeId" : "97",
      "seqNo" : "6"
   },
   {
      "GoBack" : "1",
      "longitude" : "120.64881",
      "outDis" : "50",
      "Id" : "5551",
      "oid" : "316551174",
      "districtId" : "1",
      "nameZh" : "華龍國小",
      "pgp" : "0",
      "terminal" : "0",
      "latitude" : "24.40669",
      "inDis" : "50",
      "routeId" : "97",
      "seqNo" : "7"
   },
   {
      "GoBack" : "1",
      "longitude" : "120.6521",
      "outDis" : "50",
      "Id" : "5552",
      "oid" : "316551175",
      "districtId" : "1",
      "nameZh" : "幼獅工業區服務中心",
      "pgp" : "0",
      "terminal" : "0",
      "latitude" : "24.40498",
      "inDis" : "50",
      "routeId" : "97",
      "seqNo" : "8"
   },
   {
      "GoBack" : "1",
      "longitude" : "120.6544",
      "outDis" : "50",
      "Id" : "5553",
      "oid" : "316551176",
      "districtId" : "1",
      "nameZh" : "幼獅幼六路口",
      "pgp" : "0",
      "terminal" : "0",
      "latitude" : "24.40328",
      "inDis" : "50",
      "routeId" : "97",
      "seqNo" : "9"
   },
   {
      "GoBack" : "1",
      "longitude" : "120.65299",
      "outDis" : "50",
      "Id" : "5554",
      "oid" : "316551177",
      "districtId" : "1",
      "nameZh" : "幼六工四路口",
      "pgp" : "0",
      "terminal" : "0",
      "latitude" : "24.40119",
      "inDis" : "50",
      "routeId" : "97",
      "seqNo" : "10"
   },
   {
      "GoBack" : "1",
      "longitude" : "120.65474",
      "outDis" : "50",
      "Id" : "5555",
      "oid" : "316551178",
      "districtId" : "1",
      "nameZh" : "青年幼七路口",
      "pgp" : "0",
      "terminal" : "0",
      "latitude" : "24.39851",
      "inDis" : "50",
      "routeId" : "97",
      "seqNo" : "11"
   },
   {
      "GoBack" : "1",
      "longitude" : "120.65698",
      "outDis" : "50",
      "Id" : "5556",
      "oid" : "316551179",
      "districtId" : "1",
      "nameZh" : "幼七幼獅路口",
      "pgp" : "0",
      "terminal" : "0",
      "latitude" : "24.40105",
      "inDis" : "50",
      "routeId" : "97",
      "seqNo" : "12"
   },
   {
      "GoBack" : "1",
      "longitude" : "120.65894",
      "outDis" : "50",
      "Id" : "5557",
      "oid" : "316551180",
      "districtId" : "1",
      "nameZh" : "幼獅幼九路口",
      "pgp" : "0",
      "terminal" : "0",
      "latitude" : "24.39928",
      "inDis" : "50",
      "routeId" : "97",
      "seqNo" : "13"
   },
   {
      "GoBack" : "1",
      "longitude" : "120.65762",
      "outDis" : "50",
      "Id" : "5558",
      "oid" : "316551181",
      "districtId" : "1",
      "nameZh" : "日南陸橋",
      "pgp" : "0",
      "terminal" : "0",
      "latitude" : "24.39588",
      "inDis" : "50",
      "routeId" : "97",
      "seqNo" : "14"
   },
   {
      "GoBack" : "1",
      "longitude" : "120.65449",
      "outDis" : "50",
      "Id" : "5559",
      "oid" : "316551182",
      "districtId" : "1",
      "nameZh" : "黎明中山路口",
      "pgp" : "0",
      "terminal" : "0",
      "latitude" : "24.39151",
      "inDis" : "50",
      "routeId" : "97",
      "seqNo" : "15"
   },
   {
      "GoBack" : "1",
      "longitude" : "120.65452",
      "outDis" : "50",
      "Id" : "5560",
      "oid" : "316551183",
      "districtId" : "1",
      "nameZh" : "日南國小",
      "pgp" : "0",
      "terminal" : "0",
      "latitude" : "24.38922",
      "inDis" : "50",
      "routeId" : "97",
      "seqNo" : "16"
   },
   {
      "GoBack" : "1",
      "longitude" : "120.65557",
      "outDis" : "50",
      "Id" : "5561",
      "oid" : "316551184",
      "districtId" : "1",
      "nameZh" : "番社",
      "pgp" : "0",
      "terminal" : "0",
      "latitude" : "24.38821",
      "inDis" : "50",
      "routeId" : "97",
      "seqNo" : "17"
   },
   {
      "GoBack" : "1",
      "longitude" : "120.65567",
      "outDis" : "50",
      "Id" : "5562",
      "oid" : "316551185",
      "districtId" : "1",
      "nameZh" : "日南公園",
      "pgp" : "0",
      "terminal" : "0",
      "latitude" : "24.38205",
      "inDis" : "50",
      "routeId" : "97",
      "seqNo" : "18"
   },
   {
      "GoBack" : "1",
      "longitude" : "120.65412",
      "outDis" : "100",
      "Id" : "5466",
      "oid" : "314169235",
      "districtId" : "1",
      "nameZh" : "日南火車站",
      "pgp" : "0",
      "terminal" : "0",
      "latitude" : "24.37823",
      "inDis" : "100",
      "routeId" : "97",
      "seqNo" : "19"
   },
   {
      "GoBack" : "1",
      "longitude" : "120.64162",
      "outDis" : "50",
      "Id" : "1290",
      "oid" : "14079",
      "districtId" : "1",
      "nameZh" : "大安溪",
      "pgp" : "0",
      "terminal" : "0",
      "latitude" : "24.3661",
      "inDis" : "50",
      "routeId" : "97",
      "seqNo" : "20"
   },
   {
      "GoBack" : "1",
      "longitude" : "120.6383",
      "outDis" : "50",
      "Id" : "5563",
      "oid" : "316551186",
      "districtId" : "1",
      "nameZh" : "經國中山路口",
      "pgp" : "0",
      "terminal" : "0",
      "latitude" : "24.36292",
      "inDis" : "50",
      "routeId" : "97",
      "seqNo" : "21"
   },
   {
      "GoBack" : "1",
      "longitude" : "120.63333",
      "outDis" : "50",
      "Id" : "5564",
      "oid" : "316551187",
      "districtId" : "1",
      "nameZh" : "經國彈正路口",
      "pgp" : "0",
      "terminal" : "0",
      "latitude" : "24.36097",
      "inDis" : "50",
      "routeId" : "97",
      "seqNo" : "22"
   },
   {
      "GoBack" : "1",
      "longitude" : "120.6291",
      "outDis" : "50",
      "Id" : "5565",
      "oid" : "316551188",
      "districtId" : "1",
      "nameZh" : "經國農安路口",
      "pgp" : "0",
      "terminal" : "0",
      "latitude" : "24.35934",
      "inDis" : "50",
      "routeId" : "97",
      "seqNo" : "23"
   },
   {
      "GoBack" : "1",
      "longitude" : "120.62296",
      "outDis" : "50",
      "Id" : "5566",
      "oid" : "316551189",
      "districtId" : "1",
      "nameZh" : "經國和平路口",
      "pgp" : "0",
      "terminal" : "0",
      "latitude" : "24.35697",
      "inDis" : "50",
      "routeId" : "97",
      "seqNo" : "24"
   },
   {
      "GoBack" : "1",
      "longitude" : "120.61955",
      "outDis" : "50",
      "Id" : "5567",
      "oid" : "316551190",
      "districtId" : "1",
      "nameZh" : "育英經國路口",
      "pgp" : "0",
      "terminal" : "0",
      "latitude" : "24.35406",
      "inDis" : "50",
      "routeId" : "97",
      "seqNo" : "25"
   },
   {
      "GoBack" : "1",
      "longitude" : "120.62217",
      "outDis" : "50",
      "Id" : "4069",
      "oid" : "10705",
      "districtId" : "1",
      "nameZh" : "大甲國中",
      "pgp" : "0",
      "terminal" : "0",
      "latitude" : "24.35319",
      "inDis" : "50",
      "routeId" : "97",
      "seqNo" : "26"
   },
   {
      "GoBack" : "1",
      "longitude" : "120.6221",
      "outDis" : "50",
      "Id" : "5437",
      "oid" : "313587895",
      "districtId" : "1",
      "nameZh" : "大甲區公所",
      "pgp" : "0",
      "terminal" : "0",
      "latitude" : "24.34906",
      "inDis" : "50",
      "routeId" : "97",
      "seqNo" : "27"
   },
   {
      "GoBack" : "1",
      "longitude" : "120.62286",
      "outDis" : "50",
      "Id" : "1074",
      "oid" : "5076",
      "districtId" : "1",
      "nameZh" : "文昌祠",
      "pgp" : "0",
      "terminal" : "0",
      "latitude" : "24.34726",
      "inDis" : "50",
      "routeId" : "97",
      "seqNo" : "28"
   },
   {
      "GoBack" : "1",
      "longitude" : "120.62685",
      "outDis" : "50",
      "Id" : "4432",
      "oid" : "310725035",
      "districtId" : "1",
      "nameZh" : "大甲火車站",
      "pgp" : "0",
      "terminal" : "0",
      "latitude" : "24.34507",
      "inDis" : "50",
      "routeId" : "97",
      "seqNo" : "29"
   },
   {
      "GoBack" : "1",
      "longitude" : "120.62553",
      "outDis" : "50",
      "Id" : "5084",
      "oid" : "5214",
      "districtId" : "1",
      "nameZh" : "大甲",
      "pgp" : "0",
      "terminal" : "0",
      "latitude" : "24.34321",
      "inDis" : "50",
      "routeId" : "97",
      "seqNo" : "30"
   },
   {
      "GoBack" : "1",
      "longitude" : "120.62431",
      "outDis" : "50",
      "Id" : "2609",
      "oid" : "6009",
      "districtId" : "1",
      "nameZh" : "南陽里",
      "pgp" : "0",
      "terminal" : "0",
      "latitude" : "24.34272",
      "inDis" : "50",
      "routeId" : "97",
      "seqNo" : "31"
   },
   {
      "GoBack" : "1",
      "longitude" : "120.62143",
      "outDis" : "50",
      "Id" : "5048",
      "oid" : "309863798",
      "districtId" : "1",
      "nameZh" : "大甲高中(中山路)",
      "pgp" : "0",
      "terminal" : "0",
      "latitude" : "24.34212",
      "inDis" : "50",
      "routeId" : "97",
      "seqNo" : "32"
   },
   {
      "GoBack" : "1",
      "longitude" : "120.61874",
      "outDis" : "50",
      "Id" : "5693",
      "oid" : "319916595",
      "districtId" : "1",
      "nameZh" : "水尾橋 ",
      "pgp" : "0",
      "terminal" : "0",
      "latitude" : "24.33972",
      "inDis" : "50",
      "routeId" : "97",
      "seqNo" : "33"
   },
   {
      "GoBack" : "1",
      "longitude" : "120.61723",
      "outDis" : "50",
      "Id" : "1859",
      "oid" : "5584",
      "districtId" : "1",
      "nameZh" : "外水尾",
      "pgp" : "0",
      "terminal" : "0",
      "latitude" : "24.33731",
      "inDis" : "50",
      "routeId" : "97",
      "seqNo" : "34"
   },
   {
      "GoBack" : "1",
      "longitude" : "120.61302",
      "outDis" : "50",
      "Id" : "3264",
      "oid" : "6358",
      "districtId" : "1",
      "nameZh" : "番仔寮",
      "pgp" : "0",
      "terminal" : "0",
      "latitude" : "24.33171",
      "inDis" : "50",
      "routeId" : "97",
      "seqNo" : "35"
   },
   {
      "GoBack" : "1",
      "longitude" : "120.60843",
      "outDis" : "50",
      "Id" : "1705",
      "oid" : "5482",
      "districtId" : "1",
      "nameZh" : "水汴頭",
      "pgp" : "0",
      "terminal" : "0",
      "latitude" : "24.3267",
      "inDis" : "50",
      "routeId" : "97",
      "seqNo" : "36"
   },
   {
      "GoBack" : "1",
      "longitude" : "120.59644",
      "outDis" : "50",
      "Id" : "5384",
      "oid" : "312261777",
      "districtId" : "1",
      "nameZh" : "中華北臨海路口",
      "pgp" : "0",
      "terminal" : "0",
      "latitude" : "24.30337",
      "inDis" : "50",
      "routeId" : "97",
      "seqNo" : "37"
   },
   {
      "GoBack" : "1",
      "longitude" : "120.59315",
      "outDis" : "50",
      "Id" : "4144",
      "oid" : "10903",
      "districtId" : "1",
      "nameZh" : "震陽工廠",
      "pgp" : "0",
      "terminal" : "0",
      "latitude" : "24.29807",
      "inDis" : "50",
      "routeId" : "97",
      "seqNo" : "38"
   },
   {
      "GoBack" : "1",
      "longitude" : "120.59118",
      "outDis" : "50",
      "Id" : "4150",
      "oid" : "10917",
      "districtId" : "1",
      "nameZh" : "轉播站",
      "pgp" : "0",
      "terminal" : "0",
      "latitude" : "24.29611",
      "inDis" : "50",
      "routeId" : "97",
      "seqNo" : "39"
   },
   {
      "GoBack" : "1",
      "longitude" : "120.58798",
      "outDis" : "50",
      "Id" : "4127",
      "oid" : "10861",
      "districtId" : "1",
      "nameZh" : "頂湳子",
      "pgp" : "0",
      "terminal" : "0",
      "latitude" : "24.29194",
      "inDis" : "50",
      "routeId" : "97",
      "seqNo" : "40"
   },
   {
      "GoBack" : "1",
      "longitude" : "120.58698",
      "outDis" : "50",
      "Id" : "4139",
      "oid" : "10893",
      "districtId" : "1",
      "nameZh" : "福元批發",
      "pgp" : "0",
      "terminal" : "0",
      "latitude" : "24.29013",
      "inDis" : "50",
      "routeId" : "97",
      "seqNo" : "41"
   },
   {
      "GoBack" : "1",
      "longitude" : "120.58569",
      "outDis" : "50",
      "Id" : "4058",
      "oid" : "10688",
      "districtId" : "1",
      "nameZh" : "三田國小",
      "pgp" : "0",
      "terminal" : "0",
      "latitude" : "24.2878",
      "inDis" : "50",
      "routeId" : "97",
      "seqNo" : "42"
   },
   {
      "GoBack" : "1",
      "longitude" : "120.58299",
      "outDis" : "50",
      "Id" : "4063",
      "oid" : "10697",
      "districtId" : "1",
      "nameZh" : "下湳子",
      "pgp" : "0",
      "terminal" : "0",
      "latitude" : "24.28316",
      "inDis" : "50",
      "routeId" : "97",
      "seqNo" : "43"
   },
   {
      "GoBack" : "1",
      "longitude" : "120.5807",
      "outDis" : "50",
      "Id" : "4130",
      "oid" : "10870",
      "districtId" : "1",
      "nameZh" : "朝興宮",
      "pgp" : "0",
      "terminal" : "0",
      "latitude" : "24.28013",
      "inDis" : "50",
      "routeId" : "97",
      "seqNo" : "44"
   },
   {
      "GoBack" : "1",
      "longitude" : "120.57983",
      "outDis" : "50",
      "Id" : "4065",
      "oid" : "10699",
      "districtId" : "1",
      "nameZh" : "下湳加油站",
      "pgp" : "0",
      "terminal" : "0",
      "latitude" : "24.27912",
      "inDis" : "50",
      "routeId" : "97",
      "seqNo" : "45"
   },
   {
      "GoBack" : "1",
      "longitude" : "120.57725",
      "outDis" : "50",
      "Id" : "4442",
      "oid" : "10830",
      "districtId" : "1",
      "nameZh" : "中山高美路口",
      "pgp" : "0",
      "terminal" : "0",
      "latitude" : "24.27461",
      "inDis" : "50",
      "routeId" : "97",
      "seqNo" : "46"
   },
   {
      "GoBack" : "1",
      "longitude" : "120.57687",
      "outDis" : "50",
      "Id" : "4521",
      "oid" : "305513525",
      "districtId" : "1",
      "nameZh" : "中山董公街口",
      "pgp" : "0",
      "terminal" : "0",
      "latitude" : "24.27284",
      "inDis" : "50",
      "routeId" : "97",
      "seqNo" : "47"
   },
   {
      "GoBack" : "1",
      "longitude" : "120.57609",
      "outDis" : "50",
      "Id" : "3013",
      "oid" : "6221",
      "districtId" : "1",
      "nameZh" : "清水",
      "pgp" : "0",
      "terminal" : "0",
      "latitude" : "24.27046",
      "inDis" : "50",
      "routeId" : "97",
      "seqNo" : "48"
   },
   {
      "GoBack" : "1",
      "longitude" : "120.57506",
      "outDis" : "50",
      "Id" : "5141",
      "oid" : "10590",
      "districtId" : "1",
      "nameZh" : "華南銀行(清水分行)",
      "pgp" : "0",
      "terminal" : "0",
      "latitude" : "24.2679",
      "inDis" : "50",
      "routeId" : "97",
      "seqNo" : "49"
   },
   {
      "GoBack" : "1",
      "longitude" : "120.57492",
      "outDis" : "50",
      "Id" : "5568",
      "oid" : "316572735",
      "districtId" : "1",
      "nameZh" : "清水高中(學園街)",
      "pgp" : "0",
      "terminal" : "0",
      "latitude" : "24.26615",
      "inDis" : "50",
      "routeId" : "97",
      "seqNo" : "50"
   },
   {
      "GoBack" : "1",
      "longitude" : "120.58243",
      "outDis" : "50",
      "Id" : "4137",
      "oid" : "316572736",
      "districtId" : "1",
      "nameZh" : "嘉陽高中",
      "pgp" : "0",
      "terminal" : "0",
      "latitude" : "24.26583",
      "inDis" : "50",
      "routeId" : "97",
      "seqNo" : "51"
   },
   {
      "GoBack" : "1",
      "longitude" : "120.58725",
      "outDis" : "50",
      "Id" : "5033",
      "oid" : "316572737",
      "districtId" : "1",
      "nameZh" : "國仕加油",
      "pgp" : "0",
      "terminal" : "0",
      "latitude" : "24.26444",
      "inDis" : "50",
      "routeId" : "97",
      "seqNo" : "52"
   },
   {
      "GoBack" : "1",
      "longitude" : "120.59564",
      "outDis" : "50",
      "Id" : "4083",
      "oid" : "10743",
      "districtId" : "1",
      "nameZh" : "公館國小",
      "pgp" : "0",
      "terminal" : "0",
      "latitude" : "24.26075",
      "inDis" : "50",
      "routeId" : "97",
      "seqNo" : "53"
   },
   {
      "GoBack" : "1",
      "longitude" : "120.5987",
      "outDis" : "50",
      "Id" : "4101",
      "oid" : "317773389",
      "districtId" : "1",
      "nameZh" : "西勢里",
      "pgp" : "0",
      "terminal" : "0",
      "latitude" : "24.25982",
      "inDis" : "50",
      "routeId" : "97",
      "seqNo" : "54"
   },
   {
      "GoBack" : "1",
      "longitude" : "120.60137",
      "outDis" : "50",
      "Id" : "5571",
      "oid" : "316572738",
      "districtId" : "1",
      "nameZh" : "西勢一巷口",
      "pgp" : "0",
      "terminal" : "0",
      "latitude" : "24.25857",
      "inDis" : "50",
      "routeId" : "97",
      "seqNo" : "55"
   },
   {
      "GoBack" : "1",
      "longitude" : "120.60003",
      "outDis" : "50",
      "Id" : "5381",
      "oid" : "312172944",
      "districtId" : "1",
      "nameZh" : "西勢十巷口",
      "pgp" : "0",
      "terminal" : "0",
      "latitude" : "24.25557",
      "inDis" : "50",
      "routeId" : "97",
      "seqNo" : "56"
   },
   {
      "GoBack" : "1",
      "longitude" : "120.59881",
      "outDis" : "100",
      "Id" : "0135",
      "oid" : "0330DA750F5A4CCA97EE93A3EA284F5E",
      "districtId" : "1",
      "nameZh" : "臺中航空站",
      "pgp" : "0",
      "terminal" : "0",
      "latitude" : "24.25312",
      "inDis" : "50",
      "routeId" : "97",
      "seqNo" : "57"
   },
   {
      "GoBack" : "2",
      "longitude" : "120.59881",
      "outDis" : "100",
      "Id" : "0135",
      "oid" : "0330DA750F5A4CCA97EE93A3EA284F5E",
      "districtId" : "1",
      "nameZh" : "臺中航空站",
      "pgp" : "0",
      "terminal" : "0",
      "latitude" : "24.25312",
      "inDis" : "50",
      "routeId" : "97",
      "seqNo" : "1"
   },
   {
      "GoBack" : "2",
      "longitude" : "120.60003",
      "outDis" : "50",
      "Id" : "5381",
      "oid" : "312172944",
      "districtId" : "1",
      "nameZh" : "西勢十巷口",
      "pgp" : "0",
      "terminal" : "0",
      "latitude" : "24.25557",
      "inDis" : "50",
      "routeId" : "97",
      "seqNo" : "2"
   },
   {
      "GoBack" : "2",
      "longitude" : "120.60137",
      "outDis" : "50",
      "Id" : "5571",
      "oid" : "316572738",
      "districtId" : "1",
      "nameZh" : "西勢一巷口",
      "pgp" : "0",
      "terminal" : "0",
      "latitude" : "24.25857",
      "inDis" : "50",
      "routeId" : "97",
      "seqNo" : "3"
   },
   {
      "GoBack" : "2",
      "longitude" : "120.5987",
      "outDis" : "50",
      "Id" : "4101",
      "oid" : "317773389",
      "districtId" : "1",
      "nameZh" : "西勢里",
      "pgp" : "0",
      "terminal" : "0",
      "latitude" : "24.25982",
      "inDis" : "50",
      "routeId" : "97",
      "seqNo" : "4"
   },
   {
      "GoBack" : "2",
      "longitude" : "120.59564",
      "outDis" : "50",
      "Id" : "4083",
      "oid" : "10743",
      "districtId" : "1",
      "nameZh" : "公館國小",
      "pgp" : "0",
      "terminal" : "0",
      "latitude" : "24.26075",
      "inDis" : "50",
      "routeId" : "97",
      "seqNo" : "5"
   },
   {
      "GoBack" : "2",
      "longitude" : "120.58725",
      "outDis" : "50",
      "Id" : "5033",
      "oid" : "316572737",
      "districtId" : "1",
      "nameZh" : "國仕加油",
      "pgp" : "0",
      "terminal" : "0",
      "latitude" : "24.26444",
      "inDis" : "50",
      "routeId" : "97",
      "seqNo" : "6"
   },
   {
      "GoBack" : "2",
      "longitude" : "120.58243",
      "outDis" : "50",
      "Id" : "4137",
      "oid" : "316572736",
      "districtId" : "1",
      "nameZh" : "嘉陽高中",
      "pgp" : "0",
      "terminal" : "0",
      "latitude" : "24.26583",
      "inDis" : "50",
      "routeId" : "97",
      "seqNo" : "7"
   },
   {
      "GoBack" : "2",
      "longitude" : "120.57492",
      "outDis" : "50",
      "Id" : "5568",
      "oid" : "316572735",
      "districtId" : "1",
      "nameZh" : "清水高中(學園街)",
      "pgp" : "0",
      "terminal" : "0",
      "latitude" : "24.26615",
      "inDis" : "50",
      "routeId" : "97",
      "seqNo" : "8"
   },
   {
      "GoBack" : "2",
      "longitude" : "120.57506",
      "outDis" : "50",
      "Id" : "5141",
      "oid" : "10590",
      "districtId" : "1",
      "nameZh" : "華南銀行(清水分行)",
      "pgp" : "0",
      "terminal" : "0",
      "latitude" : "24.2679",
      "inDis" : "50",
      "routeId" : "97",
      "seqNo" : "9"
   },
   {
      "GoBack" : "2",
      "longitude" : "120.57609",
      "outDis" : "50",
      "Id" : "3013",
      "oid" : "6221",
      "districtId" : "1",
      "nameZh" : "清水",
      "pgp" : "0",
      "terminal" : "0",
      "latitude" : "24.27046",
      "inDis" : "50",
      "routeId" : "97",
      "seqNo" : "10"
   },
   {
      "GoBack" : "2",
      "longitude" : "120.57687",
      "outDis" : "50",
      "Id" : "4521",
      "oid" : "305513525",
      "districtId" : "1",
      "nameZh" : "中山董公街口",
      "pgp" : "0",
      "terminal" : "0",
      "latitude" : "24.27284",
      "inDis" : "50",
      "routeId" : "97",
      "seqNo" : "11"
   },
   {
      "GoBack" : "2",
      "longitude" : "120.57725",
      "outDis" : "50",
      "Id" : "4442",
      "oid" : "10830",
      "districtId" : "1",
      "nameZh" : "中山高美路口",
      "pgp" : "0",
      "terminal" : "0",
      "latitude" : "24.27461",
      "inDis" : "50",
      "routeId" : "97",
      "seqNo" : "12"
   },
   {
      "GoBack" : "2",
      "longitude" : "120.57983",
      "outDis" : "50",
      "Id" : "4065",
      "oid" : "10699",
      "districtId" : "1",
      "nameZh" : "下湳加油站",
      "pgp" : "0",
      "terminal" : "0",
      "latitude" : "24.27912",
      "inDis" : "50",
      "routeId" : "97",
      "seqNo" : "13"
   },
   {
      "GoBack" : "2",
      "longitude" : "120.5807",
      "outDis" : "50",
      "Id" : "4130",
      "oid" : "10870",
      "districtId" : "1",
      "nameZh" : "朝興宮",
      "pgp" : "0",
      "terminal" : "0",
      "latitude" : "24.28013",
      "inDis" : "50",
      "routeId" : "97",
      "seqNo" : "14"
   },
   {
      "GoBack" : "2",
      "longitude" : "120.58299",
      "outDis" : "50",
      "Id" : "4063",
      "oid" : "10697",
      "districtId" : "1",
      "nameZh" : "下湳子",
      "pgp" : "0",
      "terminal" : "0",
      "latitude" : "24.28316",
      "inDis" : "50",
      "routeId" : "97",
      "seqNo" : "15"
   },
   {
      "GoBack" : "2",
      "longitude" : "120.58569",
      "outDis" : "50",
      "Id" : "4058",
      "oid" : "10688",
      "districtId" : "1",
      "nameZh" : "三田國小",
      "pgp" : "0",
      "terminal" : "0",
      "latitude" : "24.2878",
      "inDis" : "50",
      "routeId" : "97",
      "seqNo" : "16"
   },
   {
      "GoBack" : "2",
      "longitude" : "120.58698",
      "outDis" : "50",
      "Id" : "4139",
      "oid" : "10893",
      "districtId" : "1",
      "nameZh" : "福元批發",
      "pgp" : "0",
      "terminal" : "0",
      "latitude" : "24.29013",
      "inDis" : "50",
      "routeId" : "97",
      "seqNo" : "17"
   },
   {
      "GoBack" : "2",
      "longitude" : "120.58798",
      "outDis" : "50",
      "Id" : "4127",
      "oid" : "10861",
      "districtId" : "1",
      "nameZh" : "頂湳子",
      "pgp" : "0",
      "terminal" : "0",
      "latitude" : "24.29194",
      "inDis" : "50",
      "routeId" : "97",
      "seqNo" : "18"
   },
   {
      "GoBack" : "2",
      "longitude" : "120.59118",
      "outDis" : "50",
      "Id" : "4150",
      "oid" : "10917",
      "districtId" : "1",
      "nameZh" : "轉播站",
      "pgp" : "0",
      "terminal" : "0",
      "latitude" : "24.29611",
      "inDis" : "50",
      "routeId" : "97",
      "seqNo" : "19"
   },
   {
      "GoBack" : "2",
      "longitude" : "120.59315",
      "outDis" : "50",
      "Id" : "4144",
      "oid" : "10903",
      "districtId" : "1",
      "nameZh" : "震陽工廠",
      "pgp" : "0",
      "terminal" : "0",
      "latitude" : "24.29807",
      "inDis" : "50",
      "routeId" : "97",
      "seqNo" : "20"
   },
   {
      "GoBack" : "2",
      "longitude" : "120.59644",
      "outDis" : "50",
      "Id" : "5384",
      "oid" : "312261777",
      "districtId" : "1",
      "nameZh" : "中華北臨海路口",
      "pgp" : "0",
      "terminal" : "0",
      "latitude" : "24.30337",
      "inDis" : "50",
      "routeId" : "97",
      "seqNo" : "21"
   },
   {
      "GoBack" : "2",
      "longitude" : "120.60843",
      "outDis" : "50",
      "Id" : "1705",
      "oid" : "5482",
      "districtId" : "1",
      "nameZh" : "水汴頭",
      "pgp" : "0",
      "terminal" : "0",
      "latitude" : "24.3267",
      "inDis" : "50",
      "routeId" : "97",
      "seqNo" : "22"
   },
   {
      "GoBack" : "2",
      "longitude" : "120.61302",
      "outDis" : "50",
      "Id" : "3264",
      "oid" : "6358",
      "districtId" : "1",
      "nameZh" : "番仔寮",
      "pgp" : "0",
      "terminal" : "0",
      "latitude" : "24.33171",
      "inDis" : "50",
      "routeId" : "97",
      "seqNo" : "23"
   },
   {
      "GoBack" : "2",
      "longitude" : "120.61723",
      "outDis" : "50",
      "Id" : "1859",
      "oid" : "5584",
      "districtId" : "1",
      "nameZh" : "外水尾",
      "pgp" : "0",
      "terminal" : "0",
      "latitude" : "24.33731",
      "inDis" : "50",
      "routeId" : "97",
      "seqNo" : "24"
   },
   {
      "GoBack" : "2",
      "longitude" : "120.61874",
      "outDis" : "50",
      "Id" : "5693",
      "oid" : "319916595",
      "districtId" : "1",
      "nameZh" : "水尾橋 ",
      "pgp" : "0",
      "terminal" : "0",
      "latitude" : "24.33972",
      "inDis" : "50",
      "routeId" : "97",
      "seqNo" : "25"
   },
   {
      "GoBack" : "2",
      "longitude" : "120.62143",
      "outDis" : "50",
      "Id" : "5048",
      "oid" : "309863798",
      "districtId" : "1",
      "nameZh" : "大甲高中(中山路)",
      "pgp" : "0",
      "terminal" : "0",
      "latitude" : "24.34212",
      "inDis" : "50",
      "routeId" : "97",
      "seqNo" : "26"
   },
   {
      "GoBack" : "2",
      "longitude" : "120.62431",
      "outDis" : "50",
      "Id" : "2609",
      "oid" : "6009",
      "districtId" : "1",
      "nameZh" : "南陽里",
      "pgp" : "0",
      "terminal" : "0",
      "latitude" : "24.34272",
      "inDis" : "50",
      "routeId" : "97",
      "seqNo" : "27"
   },
   {
      "GoBack" : "2",
      "longitude" : "120.62553",
      "outDis" : "50",
      "Id" : "5084",
      "oid" : "5214",
      "districtId" : "1",
      "nameZh" : "大甲",
      "pgp" : "0",
      "terminal" : "0",
      "latitude" : "24.34321",
      "inDis" : "50",
      "routeId" : "97",
      "seqNo" : "28"
   },
   {
      "GoBack" : "2",
      "longitude" : "120.62685",
      "outDis" : "50",
      "Id" : "4432",
      "oid" : "310725035",
      "districtId" : "1",
      "nameZh" : "大甲火車站",
      "pgp" : "0",
      "terminal" : "0",
      "latitude" : "24.34507",
      "inDis" : "50",
      "routeId" : "97",
      "seqNo" : "29"
   },
   {
      "GoBack" : "2",
      "longitude" : "120.62286",
      "outDis" : "50",
      "Id" : "1074",
      "oid" : "5076",
      "districtId" : "1",
      "nameZh" : "文昌祠",
      "pgp" : "0",
      "terminal" : "0",
      "latitude" : "24.34726",
      "inDis" : "50",
      "routeId" : "97",
      "seqNo" : "30"
   },
   {
      "GoBack" : "2",
      "longitude" : "120.6221",
      "outDis" : "50",
      "Id" : "5437",
      "oid" : "313587895",
      "districtId" : "1",
      "nameZh" : "大甲區公所",
      "pgp" : "0",
      "terminal" : "0",
      "latitude" : "24.34906",
      "inDis" : "50",
      "routeId" : "97",
      "seqNo" : "31"
   },
   {
      "GoBack" : "2",
      "longitude" : "120.62217",
      "outDis" : "50",
      "Id" : "4069",
      "oid" : "10705",
      "districtId" : "1",
      "nameZh" : "大甲國中",
      "pgp" : "0",
      "terminal" : "0",
      "latitude" : "24.35319",
      "inDis" : "50",
      "routeId" : "97",
      "seqNo" : "32"
   },
   {
      "GoBack" : "2",
      "longitude" : "120.61955",
      "outDis" : "50",
      "Id" : "5567",
      "oid" : "316551190",
      "districtId" : "1",
      "nameZh" : "育英經國路口",
      "pgp" : "0",
      "terminal" : "0",
      "latitude" : "24.35406",
      "inDis" : "50",
      "routeId" : "97",
      "seqNo" : "33"
   },
   {
      "GoBack" : "2",
      "longitude" : "120.62296",
      "outDis" : "50",
      "Id" : "5566",
      "oid" : "316551189",
      "districtId" : "1",
      "nameZh" : "經國和平路口",
      "pgp" : "0",
      "terminal" : "0",
      "latitude" : "24.35697",
      "inDis" : "50",
      "routeId" : "97",
      "seqNo" : "34"
   },
   {
      "GoBack" : "2",
      "longitude" : "120.6291",
      "outDis" : "50",
      "Id" : "5565",
      "oid" : "316551188",
      "districtId" : "1",
      "nameZh" : "經國農安路口",
      "pgp" : "0",
      "terminal" : "0",
      "latitude" : "24.35934",
      "inDis" : "50",
      "routeId" : "97",
      "seqNo" : "35"
   },
   {
      "GoBack" : "2",
      "longitude" : "120.63333",
      "outDis" : "50",
      "Id" : "5564",
      "oid" : "316551187",
      "districtId" : "1",
      "nameZh" : "經國彈正路口",
      "pgp" : "0",
      "terminal" : "0",
      "latitude" : "24.36097",
      "inDis" : "50",
      "routeId" : "97",
      "seqNo" : "36"
   },
   {
      "GoBack" : "2",
      "longitude" : "120.6383",
      "outDis" : "50",
      "Id" : "5563",
      "oid" : "316551186",
      "districtId" : "1",
      "nameZh" : "經國中山路口",
      "pgp" : "0",
      "terminal" : "0",
      "latitude" : "24.36292",
      "inDis" : "50",
      "routeId" : "97",
      "seqNo" : "37"
   },
   {
      "GoBack" : "2",
      "longitude" : "120.64162",
      "outDis" : "50",
      "Id" : "1290",
      "oid" : "14079",
      "districtId" : "1",
      "nameZh" : "大安溪",
      "pgp" : "0",
      "terminal" : "0",
      "latitude" : "24.3661",
      "inDis" : "50",
      "routeId" : "97",
      "seqNo" : "38"
   },
   {
      "GoBack" : "2",
      "longitude" : "120.65412",
      "outDis" : "100",
      "Id" : "5466",
      "oid" : "314169235",
      "districtId" : "1",
      "nameZh" : "日南火車站",
      "pgp" : "0",
      "terminal" : "0",
      "latitude" : "24.37823",
      "inDis" : "100",
      "routeId" : "97",
      "seqNo" : "39"
   },
   {
      "GoBack" : "2",
      "longitude" : "120.65567",
      "outDis" : "50",
      "Id" : "5562",
      "oid" : "316551185",
      "districtId" : "1",
      "nameZh" : "日南公園",
      "pgp" : "0",
      "terminal" : "0",
      "latitude" : "24.38205",
      "inDis" : "50",
      "routeId" : "97",
      "seqNo" : "40"
   },
   {
      "GoBack" : "2",
      "longitude" : "120.65557",
      "outDis" : "50",
      "Id" : "5561",
      "oid" : "316551184",
      "districtId" : "1",
      "nameZh" : "番社",
      "pgp" : "0",
      "terminal" : "0",
      "latitude" : "24.38821",
      "inDis" : "50",
      "routeId" : "97",
      "seqNo" : "41"
   },
   {
      "GoBack" : "2",
      "longitude" : "120.65452",
      "outDis" : "50",
      "Id" : "5560",
      "oid" : "316551183",
      "districtId" : "1",
      "nameZh" : "日南國小",
      "pgp" : "0",
      "terminal" : "0",
      "latitude" : "24.38922",
      "inDis" : "50",
      "routeId" : "97",
      "seqNo" : "42"
   },
   {
      "GoBack" : "2",
      "longitude" : "120.65449",
      "outDis" : "50",
      "Id" : "5559",
      "oid" : "316551182",
      "districtId" : "1",
      "nameZh" : "黎明中山路口",
      "pgp" : "0",
      "terminal" : "0",
      "latitude" : "24.39151",
      "inDis" : "50",
      "routeId" : "97",
      "seqNo" : "43"
   },
   {
      "GoBack" : "2",
      "longitude" : "120.65762",
      "outDis" : "50",
      "Id" : "5558",
      "oid" : "316551181",
      "districtId" : "1",
      "nameZh" : "日南陸橋",
      "pgp" : "0",
      "terminal" : "0",
      "latitude" : "24.39588",
      "inDis" : "50",
      "routeId" : "97",
      "seqNo" : "44"
   },
   {
      "GoBack" : "2",
      "longitude" : "120.65894",
      "outDis" : "50",
      "Id" : "5557",
      "oid" : "316551180",
      "districtId" : "1",
      "nameZh" : "幼獅幼九路口",
      "pgp" : "0",
      "terminal" : "0",
      "latitude" : "24.39928",
      "inDis" : "50",
      "routeId" : "97",
      "seqNo" : "45"
   },
   {
      "GoBack" : "2",
      "longitude" : "120.65698",
      "outDis" : "50",
      "Id" : "5556",
      "oid" : "316551179",
      "districtId" : "1",
      "nameZh" : "幼七幼獅路口",
      "pgp" : "0",
      "terminal" : "0",
      "latitude" : "24.40105",
      "inDis" : "50",
      "routeId" : "97",
      "seqNo" : "46"
   },
   {
      "GoBack" : "2",
      "longitude" : "120.65474",
      "outDis" : "50",
      "Id" : "5555",
      "oid" : "316551178",
      "districtId" : "1",
      "nameZh" : "青年幼七路口",
      "pgp" : "0",
      "terminal" : "0",
      "latitude" : "24.39851",
      "inDis" : "50",
      "routeId" : "97",
      "seqNo" : "47"
   },
   {
      "GoBack" : "2",
      "longitude" : "120.65299",
      "outDis" : "50",
      "Id" : "5554",
      "oid" : "316551177",
      "districtId" : "1",
      "nameZh" : "幼六工四路口",
      "pgp" : "0",
      "terminal" : "0",
      "latitude" : "24.40119",
      "inDis" : "50",
      "routeId" : "97",
      "seqNo" : "48"
   },
   {
      "GoBack" : "2",
      "longitude" : "120.6544",
      "outDis" : "50",
      "Id" : "5553",
      "oid" : "316551176",
      "districtId" : "1",
      "nameZh" : "幼獅幼六路口",
      "pgp" : "0",
      "terminal" : "0",
      "latitude" : "24.40328",
      "inDis" : "50",
      "routeId" : "97",
      "seqNo" : "49"
   },
   {
      "GoBack" : "2",
      "longitude" : "120.6521",
      "outDis" : "50",
      "Id" : "5552",
      "oid" : "316551175",
      "districtId" : "1",
      "nameZh" : "幼獅工業區服務中心",
      "pgp" : "0",
      "terminal" : "0",
      "latitude" : "24.40498",
      "inDis" : "50",
      "routeId" : "97",
      "seqNo" : "50"
   },
   {
      "GoBack" : "2",
      "longitude" : "120.64881",
      "outDis" : "50",
      "Id" : "5551",
      "oid" : "316551174",
      "districtId" : "1",
      "nameZh" : "華龍國小",
      "pgp" : "0",
      "terminal" : "0",
      "latitude" : "24.40669",
      "inDis" : "50",
      "routeId" : "97",
      "seqNo" : "51"
   },
   {
      "GoBack" : "2",
      "longitude" : "120.64653",
      "outDis" : "50",
      "Id" : "5550",
      "oid" : "316551173",
      "districtId" : "1",
      "nameZh" : "幼二青三路口",
      "pgp" : "0",
      "terminal" : "0",
      "latitude" : "24.40493",
      "inDis" : "50",
      "routeId" : "97",
      "seqNo" : "52"
   },
   {
      "GoBack" : "2",
      "longitude" : "120.64527",
      "outDis" : "50",
      "Id" : "5549",
      "oid" : "316551172",
      "districtId" : "1",
      "nameZh" : "青年幼二路口",
      "pgp" : "0",
      "terminal" : "0",
      "latitude" : "24.40484",
      "inDis" : "50",
      "routeId" : "97",
      "seqNo" : "53"
   },
   {
      "GoBack" : "2",
      "longitude" : "120.64308",
      "outDis" : "50",
      "Id" : "5548",
      "oid" : "316551171",
      "districtId" : "1",
      "nameZh" : "青年中山路口",
      "pgp" : "0",
      "terminal" : "0",
      "latitude" : "24.40588",
      "inDis" : "50",
      "routeId" : "97",
      "seqNo" : "54"
   },
   {
      "GoBack" : "2",
      "longitude" : "120.64347",
      "outDis" : "50",
      "Id" : "4087",
      "oid" : "14086",
      "districtId" : "1",
      "nameZh" : "幼獅工業區",
      "pgp" : "0",
      "terminal" : "0",
      "latitude" : "24.40958",
      "inDis" : "50",
      "routeId" : "97",
      "seqNo" : "55"
   },
   {
      "GoBack" : "2",
      "longitude" : "120.64312",
      "outDis" : "50",
      "Id" : "4103",
      "oid" : "14087",
      "districtId" : "1",
      "nameZh" : "虎尾寮",
      "pgp" : "0",
      "terminal" : "0",
      "latitude" : "24.41422",
      "inDis" : "50",
      "routeId" : "97",
      "seqNo" : "56"
   },
   {
      "GoBack" : "2",
      "longitude" : "120.64297",
      "outDis" : "50",
      "Id" : "4141",
      "oid" : "14088",
      "districtId" : "1",
      "nameZh" : "銅安厝",
      "pgp" : "0",
      "terminal" : "0",
      "latitude" : "24.4202",
      "inDis" : "50",
      "routeId" : "97",
      "seqNo" : "57"
   }
]
