[
   {
      "GoBack" : "1",
      "longitude" : "120.68823",
      "outDis" : "75",
      "Id" : "4399",
      "oid" : "11136",
      "districtId" : "1",
      "nameZh" : "新民高中(三民路)",
      "pgp" : "0",
      "terminal" : "0",
      "latitude" : "24.1564",
      "inDis" : "75",
      "routeId" : "59",
      "seqNo" : "1"
   },
   {
      "GoBack" : "1",
      "longitude" : "120.68941",
      "outDis" : "50",
      "Id" : "4520",
      "oid" : "305458530",
      "districtId" : "1",
      "nameZh" : "文英兒童公園",
      "pgp" : "0",
      "terminal" : "0",
      "latitude" : "24.15652",
      "inDis" : "50",
      "routeId" : "59",
      "seqNo" : "2"
   },
   {
      "GoBack" : "1",
      "longitude" : "120.68866",
      "outDis" : "50",
      "Id" : "4694",
      "oid" : "303563766",
      "districtId" : "1",
      "nameZh" : "臺灣體大體育場",
      "pgp" : "0",
      "terminal" : "0",
      "latitude" : "24.15269",
      "inDis" : "50",
      "routeId" : "59",
      "seqNo" : "3"
   },
   {
      "GoBack" : "1",
      "longitude" : "120.68736",
      "outDis" : "50",
      "Id" : "0149",
      "oid" : "10661",
      "districtId" : "1",
      "nameZh" : "臺中一中",
      "pgp" : "0",
      "terminal" : "0",
      "latitude" : "24.14955",
      "inDis" : "50",
      "routeId" : "59",
      "seqNo" : "4"
   },
   {
      "GoBack" : "1",
      "longitude" : "120.68624",
      "outDis" : "50",
      "Id" : "4695",
      "oid" : "303563767",
      "districtId" : "1",
      "nameZh" : "臺灣體大游泳池",
      "pgp" : "0",
      "terminal" : "0",
      "latitude" : "24.1466",
      "inDis" : "50",
      "routeId" : "59",
      "seqNo" : "5"
   },
   {
      "GoBack" : "1",
      "longitude" : "120.68617",
      "outDis" : "50",
      "Id" : "4544",
      "oid" : "303563768",
      "districtId" : "1",
      "nameZh" : "臺中公園(雙十路)",
      "pgp" : "0",
      "terminal" : "0",
      "latitude" : "24.14466",
      "inDis" : "50",
      "routeId" : "59",
      "seqNo" : "6"
   },
   {
      "GoBack" : "1",
      "longitude" : "120.68567",
      "outDis" : "50",
      "Id" : "0402",
      "oid" : "13087",
      "districtId" : "1",
      "nameZh" : "干城站",
      "pgp" : "0",
      "terminal" : "0",
      "latitude" : "24.14253",
      "inDis" : "50",
      "routeId" : "59",
      "seqNo" : "7"
   },
   {
      "GoBack" : "1",
      "longitude" : "120.6855",
      "outDis" : "50",
      "Id" : "1824",
      "oid" : "13136",
      "districtId" : "1",
      "nameZh" : "臺中火車站",
      "pgp" : "0",
      "terminal" : "0",
      "latitude" : "24.13818",
      "inDis" : "50",
      "routeId" : "59",
      "seqNo" : "8"
   },
   {
      "GoBack" : "1",
      "longitude" : "120.68087",
      "outDis" : "50",
      "Id" : "4284",
      "oid" : "13146",
      "districtId" : "1",
      "nameZh" : "民權繼光街口",
      "pgp" : "0",
      "terminal" : "0",
      "latitude" : "24.13702",
      "inDis" : "50",
      "routeId" : "59",
      "seqNo" : "9"
   },
   {
      "GoBack" : "1",
      "longitude" : "120.67793",
      "outDis" : "50",
      "Id" : "0071",
      "oid" : "13134",
      "districtId" : "1",
      "nameZh" : "臺中女中",
      "pgp" : "0",
      "terminal" : "0",
      "latitude" : "24.13595",
      "inDis" : "50",
      "routeId" : "59",
      "seqNo" : "10"
   },
   {
      "GoBack" : "1",
      "longitude" : "120.67675",
      "outDis" : "50",
      "Id" : "0070",
      "oid" : "13160",
      "districtId" : "1",
      "nameZh" : "地方法院",
      "pgp" : "0",
      "terminal" : "0",
      "latitude" : "24.13487",
      "inDis" : "50",
      "routeId" : "59",
      "seqNo" : "11"
   },
   {
      "GoBack" : "1",
      "longitude" : "120.67687",
      "outDis" : "50",
      "Id" : "4313",
      "oid" : "13240",
      "districtId" : "1",
      "nameZh" : "醒修宮",
      "pgp" : "0",
      "terminal" : "0",
      "latitude" : "24.13078",
      "inDis" : "50",
      "routeId" : "59",
      "seqNo" : "12"
   },
   {
      "GoBack" : "1",
      "longitude" : "120.67862",
      "outDis" : "50",
      "Id" : "0735",
      "oid" : "13190",
      "districtId" : "1",
      "nameZh" : "恩光堂",
      "pgp" : "0",
      "terminal" : "0",
      "latitude" : "24.12747",
      "inDis" : "50",
      "routeId" : "59",
      "seqNo" : "13"
   },
   {
      "GoBack" : "1",
      "longitude" : "120.67903",
      "outDis" : "50",
      "Id" : "0038",
      "oid" : "13212",
      "districtId" : "1",
      "nameZh" : "國光國小",
      "pgp" : "0",
      "terminal" : "0",
      "latitude" : "24.12588",
      "inDis" : "50",
      "routeId" : "59",
      "seqNo" : "14"
   },
   {
      "GoBack" : "1",
      "longitude" : "120.6794",
      "outDis" : "50",
      "Id" : "4347",
      "oid" : "DE2C6BA3BE8942E79BA0CABF1CF65AE0",
      "districtId" : "1",
      "nameZh" : "中興大學(國光路)",
      "pgp" : "0",
      "terminal" : "0",
      "latitude" : "24.12133",
      "inDis" : "50",
      "routeId" : "59",
      "seqNo" : "15"
   },
   {
      "GoBack" : "1",
      "longitude" : "120.67915",
      "outDis" : "50",
      "Id" : "4292",
      "oid" : "13206",
      "districtId" : "1",
      "nameZh" : "國光忠明南路口",
      "pgp" : "0",
      "terminal" : "0",
      "latitude" : "24.1183",
      "inDis" : "50",
      "routeId" : "59",
      "seqNo" : "16"
   },
   {
      "GoBack" : "1",
      "longitude" : "120.67918",
      "outDis" : "50",
      "Id" : "2930",
      "oid" : "13216",
      "districtId" : "1",
      "nameZh" : "國光橋",
      "pgp" : "0",
      "terminal" : "0",
      "latitude" : "24.11585",
      "inDis" : "50",
      "routeId" : "59",
      "seqNo" : "17"
   },
   {
      "GoBack" : "1",
      "longitude" : "120.67894",
      "outDis" : "50",
      "Id" : "4293",
      "oid" : "13208",
      "districtId" : "1",
      "nameZh" : "國光東興路口",
      "pgp" : "0",
      "terminal" : "0",
      "latitude" : "24.11363",
      "inDis" : "50",
      "routeId" : "59",
      "seqNo" : "18"
   },
   {
      "GoBack" : "1",
      "longitude" : "120.67987",
      "outDis" : "50",
      "Id" : "1558",
      "oid" : "13104",
      "districtId" : "1",
      "nameZh" : "大里仁愛醫院",
      "pgp" : "0",
      "terminal" : "0",
      "latitude" : "24.10855",
      "inDis" : "50",
      "routeId" : "59",
      "seqNo" : "19"
   },
   {
      "GoBack" : "1",
      "longitude" : "120.68087",
      "outDis" : "50",
      "Id" : "4294",
      "oid" : "13214",
      "districtId" : "1",
      "nameZh" : "國光德芳路口",
      "pgp" : "0",
      "terminal" : "0",
      "latitude" : "24.10532",
      "inDis" : "50",
      "routeId" : "59",
      "seqNo" : "20"
   },
   {
      "GoBack" : "1",
      "longitude" : "120.68128",
      "outDis" : "50",
      "Id" : "2928",
      "oid" : "13210",
      "districtId" : "1",
      "nameZh" : "國光花市",
      "pgp" : "0",
      "terminal" : "0",
      "latitude" : "24.10348",
      "inDis" : "50",
      "routeId" : "59",
      "seqNo" : "21"
   },
   {
      "GoBack" : "1",
      "longitude" : "120.68268",
      "outDis" : "80",
      "Id" : "5128",
      "oid" : "13074",
      "districtId" : "1",
      "nameZh" : "國光大里路口",
      "pgp" : "0",
      "terminal" : "0",
      "latitude" : "24.10003",
      "inDis" : "80",
      "routeId" : "59",
      "seqNo" : "22"
   },
   {
      "GoBack" : "1",
      "longitude" : "120.67953",
      "outDis" : "50",
      "Id" : "4920",
      "oid" : "308835165",
      "districtId" : "1",
      "nameZh" : "大里區公所",
      "pgp" : "0",
      "terminal" : "0",
      "latitude" : "24.09933",
      "inDis" : "50",
      "routeId" : "59",
      "seqNo" : "23"
   },
   {
      "GoBack" : "1",
      "longitude" : "120.6792",
      "outDis" : "50",
      "Id" : "4921",
      "oid" : "308835167",
      "districtId" : "1",
      "nameZh" : "東里國中路口",
      "pgp" : "0",
      "terminal" : "0",
      "latitude" : "24.09567",
      "inDis" : "50",
      "routeId" : "59",
      "seqNo" : "24"
   },
   {
      "GoBack" : "1",
      "longitude" : "120.68049",
      "outDis" : "110",
      "Id" : "4922",
      "oid" : "308835169",
      "districtId" : "1",
      "nameZh" : "市立大里高中",
      "pgp" : "0",
      "terminal" : "0",
      "latitude" : "24.09573",
      "inDis" : "110",
      "routeId" : "59",
      "seqNo" : "25"
   },
   {
      "GoBack" : "1",
      "longitude" : "120.68196",
      "outDis" : "50",
      "Id" : "4923",
      "oid" : "308835171",
      "districtId" : "1",
      "nameZh" : "臺電大里服務所",
      "pgp" : "0",
      "terminal" : "0",
      "latitude" : "24.09608",
      "inDis" : "50",
      "routeId" : "59",
      "seqNo" : "26"
   },
   {
      "GoBack" : "1",
      "longitude" : "120.68529",
      "outDis" : "50",
      "Id" : "5087",
      "oid" : "7225",
      "districtId" : "1",
      "nameZh" : "大突寮(國中路)",
      "pgp" : "0",
      "terminal" : "0",
      "latitude" : "24.09539",
      "inDis" : "50",
      "routeId" : "59",
      "seqNo" : "27"
   },
   {
      "GoBack" : "1",
      "longitude" : "120.69139",
      "outDis" : "50",
      "Id" : "4950",
      "oid" : "304725405",
      "districtId" : "1",
      "nameZh" : "仁化中興路口",
      "pgp" : "0",
      "terminal" : "0",
      "latitude" : "24.09196",
      "inDis" : "50",
      "routeId" : "59",
      "seqNo" : "28"
   },
   {
      "GoBack" : "1",
      "longitude" : "120.69039",
      "outDis" : "50",
      "Id" : "4924",
      "oid" : "308835173",
      "districtId" : "1",
      "nameZh" : "仁化垂統街口",
      "pgp" : "0",
      "terminal" : "0",
      "latitude" : "24.0899",
      "inDis" : "50",
      "routeId" : "59",
      "seqNo" : "29"
   },
   {
      "GoBack" : "1",
      "longitude" : "120.68773",
      "outDis" : "50",
      "Id" : "4925",
      "oid" : "308835175",
      "districtId" : "1",
      "nameZh" : "大峰長春路口",
      "pgp" : "0",
      "terminal" : "0",
      "latitude" : "24.08557",
      "inDis" : "50",
      "routeId" : "59",
      "seqNo" : "30"
   },
   {
      "GoBack" : "1",
      "longitude" : "120.6882",
      "outDis" : "50",
      "Id" : "4926",
      "oid" : "308835177",
      "districtId" : "1",
      "nameZh" : "大峰景庄街口",
      "pgp" : "0",
      "terminal" : "0",
      "latitude" : "24.08285",
      "inDis" : "50",
      "routeId" : "59",
      "seqNo" : "31"
   },
   {
      "GoBack" : "1",
      "longitude" : "120.68896",
      "outDis" : "50",
      "Id" : "4927",
      "oid" : "308835179",
      "districtId" : "1",
      "nameZh" : "大峰西湖路口",
      "pgp" : "0",
      "terminal" : "0",
      "latitude" : "24.07834",
      "inDis" : "50",
      "routeId" : "59",
      "seqNo" : "32"
   },
   {
      "GoBack" : "1",
      "longitude" : "120.69401",
      "outDis" : "50",
      "Id" : "4928",
      "oid" : "308835181",
      "districtId" : "1",
      "nameZh" : "甲寅福德正神廟",
      "pgp" : "0",
      "terminal" : "0",
      "latitude" : "24.07275",
      "inDis" : "50",
      "routeId" : "59",
      "seqNo" : "33"
   },
   {
      "GoBack" : "1",
      "longitude" : "120.69621",
      "outDis" : "50",
      "Id" : "4929",
      "oid" : "308835183",
      "districtId" : "1",
      "nameZh" : "草湖林森路口",
      "pgp" : "0",
      "terminal" : "0",
      "latitude" : "24.07076",
      "inDis" : "50",
      "routeId" : "59",
      "seqNo" : "34"
   },
   {
      "GoBack" : "1",
      "longitude" : "120.6958",
      "outDis" : "50",
      "Id" : "3512",
      "oid" : "6496",
      "districtId" : "1",
      "nameZh" : "聖賢宮",
      "pgp" : "0",
      "terminal" : "0",
      "latitude" : "24.06585",
      "inDis" : "50",
      "routeId" : "59",
      "seqNo" : "35"
   },
   {
      "GoBack" : "1",
      "longitude" : "120.69797",
      "outDis" : "50",
      "Id" : "4930",
      "oid" : "308835185",
      "districtId" : "1",
      "nameZh" : "霧峰農會",
      "pgp" : "0",
      "terminal" : "0",
      "latitude" : "24.06471",
      "inDis" : "50",
      "routeId" : "59",
      "seqNo" : "36"
   },
   {
      "GoBack" : "1",
      "longitude" : "120.69852",
      "outDis" : "50",
      "Id" : "3972",
      "oid" : "13245",
      "districtId" : "1",
      "nameZh" : "霧峰",
      "pgp" : "0",
      "terminal" : "0",
      "latitude" : "24.06383",
      "inDis" : "50",
      "routeId" : "59",
      "seqNo" : "37"
   },
   {
      "GoBack" : "1",
      "longitude" : "120.69829",
      "outDis" : "50",
      "Id" : "3978",
      "oid" : "8108",
      "districtId" : "1",
      "nameZh" : "霧峰郵局",
      "pgp" : "0",
      "terminal" : "0",
      "latitude" : "24.06197",
      "inDis" : "50",
      "routeId" : "59",
      "seqNo" : "38"
   },
   {
      "GoBack" : "1",
      "longitude" : "120.69799",
      "outDis" : "50",
      "Id" : "5546",
      "oid" : "316462697",
      "districtId" : "1",
      "nameZh" : "教育部國教署",
      "pgp" : "0",
      "terminal" : "0",
      "latitude" : "24.05932",
      "inDis" : "50",
      "routeId" : "59",
      "seqNo" : "39"
   },
   {
      "GoBack" : "1",
      "longitude" : "120.6977",
      "outDis" : "50",
      "Id" : "3976",
      "oid" : "13247",
      "districtId" : "1",
      "nameZh" : "霧峰國小",
      "pgp" : "0",
      "terminal" : "0",
      "latitude" : "24.05745",
      "inDis" : "50",
      "routeId" : "59",
      "seqNo" : "40"
   },
   {
      "GoBack" : "1",
      "longitude" : "120.69688",
      "outDis" : "50",
      "Id" : "2692",
      "oid" : "13185",
      "districtId" : "1",
      "nameZh" : "省議會",
      "pgp" : "0",
      "terminal" : "0",
      "latitude" : "24.05527",
      "inDis" : "50",
      "routeId" : "59",
      "seqNo" : "41"
   },
   {
      "GoBack" : "1",
      "longitude" : "120.6942",
      "outDis" : "50",
      "Id" : "1026",
      "oid" : "13057",
      "districtId" : "1",
      "nameZh" : "八德橋",
      "pgp" : "0",
      "terminal" : "0",
      "latitude" : "24.05028",
      "inDis" : "50",
      "routeId" : "59",
      "seqNo" : "42"
   },
   {
      "GoBack" : "1",
      "longitude" : "120.69213",
      "outDis" : "50",
      "Id" : "2048",
      "oid" : "13153",
      "districtId" : "1",
      "nameZh" : "光復新村",
      "pgp" : "0",
      "terminal" : "0",
      "latitude" : "24.04513",
      "inDis" : "50",
      "routeId" : "59",
      "seqNo" : "43"
   },
   {
      "GoBack" : "1",
      "longitude" : "120.69187",
      "outDis" : "50",
      "Id" : "1588",
      "oid" : "5403",
      "districtId" : "1",
      "nameZh" : "六股",
      "pgp" : "0",
      "terminal" : "0",
      "latitude" : "24.04164",
      "inDis" : "50",
      "routeId" : "59",
      "seqNo" : "44"
   },
   {
      "GoBack" : "1",
      "longitude" : "120.69304",
      "outDis" : "50",
      "Id" : "1400",
      "oid" : "5295",
      "districtId" : "1",
      "nameZh" : "山腳巷",
      "pgp" : "0",
      "terminal" : "0",
      "latitude" : "24.03852",
      "inDis" : "50",
      "routeId" : "59",
      "seqNo" : "45"
   },
   {
      "GoBack" : "1",
      "longitude" : "120.69372",
      "outDis" : "50",
      "Id" : "2304",
      "oid" : "5828",
      "districtId" : "1",
      "nameZh" : "味全工廠",
      "pgp" : "0",
      "terminal" : "0",
      "latitude" : "24.0347",
      "inDis" : "50",
      "routeId" : "59",
      "seqNo" : "46"
   },
   {
      "GoBack" : "1",
      "longitude" : "120.6968",
      "outDis" : "50",
      "Id" : "3533",
      "oid" : "6504",
      "districtId" : "1",
      "nameZh" : "農試所",
      "pgp" : "0",
      "terminal" : "0",
      "latitude" : "24.02934",
      "inDis" : "50",
      "routeId" : "59",
      "seqNo" : "47"
   },
   {
      "GoBack" : "1",
      "longitude" : "120.69683",
      "outDis" : "50",
      "Id" : "3504",
      "oid" : "6493",
      "districtId" : "1",
      "nameZh" : "萬豐",
      "pgp" : "0",
      "terminal" : "0",
      "latitude" : "24.02653",
      "inDis" : "50",
      "routeId" : "59",
      "seqNo" : "48"
   },
   {
      "GoBack" : "1",
      "longitude" : "120.69662",
      "outDis" : "50",
      "Id" : "4410",
      "oid" : "304286678",
      "districtId" : "1",
      "nameZh" : "全家福社區",
      "pgp" : "0",
      "terminal" : "0",
      "latitude" : "24.0241",
      "inDis" : "50",
      "routeId" : "59",
      "seqNo" : "49"
   },
   {
      "GoBack" : "1",
      "longitude" : "120.69632",
      "outDis" : "50",
      "Id" : "3944",
      "oid" : "311348105",
      "districtId" : "1",
      "nameZh" : "豐營",
      "pgp" : "0",
      "terminal" : "0",
      "latitude" : "24.02091",
      "inDis" : "50",
      "routeId" : "59",
      "seqNo" : "50"
   },
   {
      "GoBack" : "1",
      "longitude" : "120.69604",
      "outDis" : "50",
      "Id" : "3534",
      "oid" : "6505",
      "districtId" : "1",
      "nameZh" : "農試所宿舍",
      "pgp" : "0",
      "terminal" : "0",
      "latitude" : "24.0173",
      "inDis" : "50",
      "routeId" : "59",
      "seqNo" : "51"
   },
   {
      "GoBack" : "1",
      "longitude" : "120.69571",
      "outDis" : "50",
      "Id" : "3911",
      "oid" : "6681",
      "districtId" : "1",
      "nameZh" : "舊正(烏溪橋頭)",
      "pgp" : "0",
      "terminal" : "0",
      "latitude" : "24.01448",
      "inDis" : "50",
      "routeId" : "59",
      "seqNo" : "52"
   },
   {
      "GoBack" : "2",
      "longitude" : "120.6957",
      "outDis" : "50",
      "Id" : "3911",
      "oid" : "6682",
      "districtId" : "1",
      "nameZh" : "舊正(烏溪橋頭)",
      "pgp" : "0",
      "terminal" : "0",
      "latitude" : "24.01476",
      "inDis" : "50",
      "routeId" : "59",
      "seqNo" : "1"
   },
   {
      "GoBack" : "2",
      "longitude" : "120.69601",
      "outDis" : "50",
      "Id" : "3534",
      "oid" : "8079",
      "districtId" : "1",
      "nameZh" : "農試所宿舍",
      "pgp" : "0",
      "terminal" : "0",
      "latitude" : "24.01868",
      "inDis" : "50",
      "routeId" : "59",
      "seqNo" : "2"
   },
   {
      "GoBack" : "2",
      "longitude" : "120.69632",
      "outDis" : "50",
      "Id" : "3944",
      "oid" : "311348105",
      "districtId" : "1",
      "nameZh" : "豐營",
      "pgp" : "0",
      "terminal" : "0",
      "latitude" : "24.02091",
      "inDis" : "50",
      "routeId" : "59",
      "seqNo" : "3"
   },
   {
      "GoBack" : "2",
      "longitude" : "120.69653",
      "outDis" : "50",
      "Id" : "4410",
      "oid" : "304286679",
      "districtId" : "1",
      "nameZh" : "全家福社區",
      "pgp" : "0",
      "terminal" : "0",
      "latitude" : "24.02414",
      "inDis" : "50",
      "routeId" : "59",
      "seqNo" : "4"
   },
   {
      "GoBack" : "2",
      "longitude" : "120.6967",
      "outDis" : "50",
      "Id" : "3504",
      "oid" : "6494",
      "districtId" : "1",
      "nameZh" : "萬豐",
      "pgp" : "0",
      "terminal" : "0",
      "latitude" : "24.0259",
      "inDis" : "50",
      "routeId" : "59",
      "seqNo" : "5"
   },
   {
      "GoBack" : "2",
      "longitude" : "120.69681",
      "outDis" : "50",
      "Id" : "3533",
      "oid" : "9898",
      "districtId" : "1",
      "nameZh" : "農試所",
      "pgp" : "0",
      "terminal" : "0",
      "latitude" : "24.02948",
      "inDis" : "50",
      "routeId" : "59",
      "seqNo" : "6"
   },
   {
      "GoBack" : "2",
      "longitude" : "120.69407",
      "outDis" : "50",
      "Id" : "2304",
      "oid" : "7101",
      "districtId" : "1",
      "nameZh" : "味全工廠",
      "pgp" : "0",
      "terminal" : "0",
      "latitude" : "24.0341",
      "inDis" : "50",
      "routeId" : "59",
      "seqNo" : "7"
   },
   {
      "GoBack" : "2",
      "longitude" : "120.69304",
      "outDis" : "50",
      "Id" : "1400",
      "oid" : "7929",
      "districtId" : "1",
      "nameZh" : "山腳巷",
      "pgp" : "0",
      "terminal" : "0",
      "latitude" : "24.03852",
      "inDis" : "50",
      "routeId" : "59",
      "seqNo" : "8"
   },
   {
      "GoBack" : "2",
      "longitude" : "120.69181",
      "outDis" : "50",
      "Id" : "1588",
      "oid" : "5404",
      "districtId" : "1",
      "nameZh" : "六股",
      "pgp" : "0",
      "terminal" : "0",
      "latitude" : "24.04138",
      "inDis" : "50",
      "routeId" : "59",
      "seqNo" : "9"
   },
   {
      "GoBack" : "2",
      "longitude" : "120.6924",
      "outDis" : "50",
      "Id" : "2048",
      "oid" : "13154",
      "districtId" : "1",
      "nameZh" : "光復新村",
      "pgp" : "0",
      "terminal" : "0",
      "latitude" : "24.04548",
      "inDis" : "50",
      "routeId" : "59",
      "seqNo" : "10"
   },
   {
      "GoBack" : "2",
      "longitude" : "120.69462",
      "outDis" : "50",
      "Id" : "1026",
      "oid" : "13058",
      "districtId" : "1",
      "nameZh" : "八德橋",
      "pgp" : "0",
      "terminal" : "0",
      "latitude" : "24.05077",
      "inDis" : "50",
      "routeId" : "59",
      "seqNo" : "11"
   },
   {
      "GoBack" : "2",
      "longitude" : "120.69683",
      "outDis" : "50",
      "Id" : "2692",
      "oid" : "13186",
      "districtId" : "1",
      "nameZh" : "省議會",
      "pgp" : "0",
      "terminal" : "0",
      "latitude" : "24.05493",
      "inDis" : "50",
      "routeId" : "59",
      "seqNo" : "12"
   },
   {
      "GoBack" : "2",
      "longitude" : "120.6979",
      "outDis" : "50",
      "Id" : "3976",
      "oid" : "13248",
      "districtId" : "1",
      "nameZh" : "霧峰國小",
      "pgp" : "0",
      "terminal" : "0",
      "latitude" : "24.05787",
      "inDis" : "50",
      "routeId" : "59",
      "seqNo" : "13"
   },
   {
      "GoBack" : "2",
      "longitude" : "120.69807",
      "outDis" : "50",
      "Id" : "5546",
      "oid" : "316462698",
      "districtId" : "1",
      "nameZh" : "教育部國教署",
      "pgp" : "0",
      "terminal" : "0",
      "latitude" : "24.05974",
      "inDis" : "50",
      "routeId" : "59",
      "seqNo" : "14"
   },
   {
      "GoBack" : "2",
      "longitude" : "120.69829",
      "outDis" : "50",
      "Id" : "3978",
      "oid" : "8108",
      "districtId" : "1",
      "nameZh" : "霧峰郵局",
      "pgp" : "0",
      "terminal" : "0",
      "latitude" : "24.06197",
      "inDis" : "50",
      "routeId" : "59",
      "seqNo" : "15"
   },
   {
      "GoBack" : "2",
      "longitude" : "120.69862",
      "outDis" : "50",
      "Id" : "3972",
      "oid" : "13246",
      "districtId" : "1",
      "nameZh" : "霧峰",
      "pgp" : "0",
      "terminal" : "0",
      "latitude" : "24.0635",
      "inDis" : "50",
      "routeId" : "59",
      "seqNo" : "16"
   },
   {
      "GoBack" : "2",
      "longitude" : "120.69791",
      "outDis" : "50",
      "Id" : "4930",
      "oid" : "308835186",
      "districtId" : "1",
      "nameZh" : "霧峰農會",
      "pgp" : "0",
      "terminal" : "0",
      "latitude" : "24.06465",
      "inDis" : "50",
      "routeId" : "59",
      "seqNo" : "17"
   },
   {
      "GoBack" : "2",
      "longitude" : "120.6958",
      "outDis" : "50",
      "Id" : "3512",
      "oid" : "6496",
      "districtId" : "1",
      "nameZh" : "聖賢宮",
      "pgp" : "0",
      "terminal" : "0",
      "latitude" : "24.06585",
      "inDis" : "50",
      "routeId" : "59",
      "seqNo" : "18"
   },
   {
      "GoBack" : "2",
      "longitude" : "120.69621",
      "outDis" : "50",
      "Id" : "4929",
      "oid" : "308835184",
      "districtId" : "1",
      "nameZh" : "草湖林森路口",
      "pgp" : "0",
      "terminal" : "0",
      "latitude" : "24.07076",
      "inDis" : "50",
      "routeId" : "59",
      "seqNo" : "19"
   },
   {
      "GoBack" : "2",
      "longitude" : "120.69481",
      "outDis" : "50",
      "Id" : "4928",
      "oid" : "308835182",
      "districtId" : "1",
      "nameZh" : "甲寅福德正神廟",
      "pgp" : "0",
      "terminal" : "0",
      "latitude" : "24.0725",
      "inDis" : "50",
      "routeId" : "59",
      "seqNo" : "20"
   },
   {
      "GoBack" : "2",
      "longitude" : "120.68926",
      "outDis" : "50",
      "Id" : "4927",
      "oid" : "308835180",
      "districtId" : "1",
      "nameZh" : "大峰西湖路口",
      "pgp" : "0",
      "terminal" : "0",
      "latitude" : "24.07746",
      "inDis" : "50",
      "routeId" : "59",
      "seqNo" : "21"
   },
   {
      "GoBack" : "2",
      "longitude" : "120.68833",
      "outDis" : "50",
      "Id" : "4926",
      "oid" : "308835178",
      "districtId" : "1",
      "nameZh" : "大峰景庄街口",
      "pgp" : "0",
      "terminal" : "0",
      "latitude" : "24.08289",
      "inDis" : "50",
      "routeId" : "59",
      "seqNo" : "22"
   },
   {
      "GoBack" : "2",
      "longitude" : "120.68775",
      "outDis" : "50",
      "Id" : "4925",
      "oid" : "308835176",
      "districtId" : "1",
      "nameZh" : "大峰長春路口",
      "pgp" : "0",
      "terminal" : "0",
      "latitude" : "24.0856",
      "inDis" : "50",
      "routeId" : "59",
      "seqNo" : "23"
   },
   {
      "GoBack" : "2",
      "longitude" : "120.69052",
      "outDis" : "50",
      "Id" : "4924",
      "oid" : "308835174",
      "districtId" : "1",
      "nameZh" : "仁化垂統街口",
      "pgp" : "0",
      "terminal" : "0",
      "latitude" : "24.08979",
      "inDis" : "50",
      "routeId" : "59",
      "seqNo" : "24"
   },
   {
      "GoBack" : "2",
      "longitude" : "120.69132",
      "outDis" : "50",
      "Id" : "4950",
      "oid" : "304725406",
      "districtId" : "1",
      "nameZh" : "仁化中興路口",
      "pgp" : "0",
      "terminal" : "0",
      "latitude" : "24.09201",
      "inDis" : "50",
      "routeId" : "59",
      "seqNo" : "25"
   },
   {
      "GoBack" : "2",
      "longitude" : "120.68529",
      "outDis" : "50",
      "Id" : "5087",
      "oid" : "7225",
      "districtId" : "1",
      "nameZh" : "大突寮(國中路)",
      "pgp" : "0",
      "terminal" : "0",
      "latitude" : "24.09539",
      "inDis" : "50",
      "routeId" : "59",
      "seqNo" : "26"
   },
   {
      "GoBack" : "2",
      "longitude" : "120.68183",
      "outDis" : "50",
      "Id" : "4923",
      "oid" : "308835172",
      "districtId" : "1",
      "nameZh" : "臺電大里服務所",
      "pgp" : "0",
      "terminal" : "0",
      "latitude" : "24.09608",
      "inDis" : "50",
      "routeId" : "59",
      "seqNo" : "27"
   },
   {
      "GoBack" : "2",
      "longitude" : "120.68032",
      "outDis" : "50",
      "Id" : "4922",
      "oid" : "308835170",
      "districtId" : "1",
      "nameZh" : "市立大里高中",
      "pgp" : "0",
      "terminal" : "0",
      "latitude" : "24.09565",
      "inDis" : "50",
      "routeId" : "59",
      "seqNo" : "28"
   },
   {
      "GoBack" : "2",
      "longitude" : "120.6788",
      "outDis" : "50",
      "Id" : "4921",
      "oid" : "308835168",
      "districtId" : "1",
      "nameZh" : "東里國中路口",
      "pgp" : "0",
      "terminal" : "0",
      "latitude" : "24.09683",
      "inDis" : "50",
      "routeId" : "59",
      "seqNo" : "29"
   },
   {
      "GoBack" : "2",
      "longitude" : "120.67951",
      "outDis" : "50",
      "Id" : "4920",
      "oid" : "308835166",
      "districtId" : "1",
      "nameZh" : "大里區公所",
      "pgp" : "0",
      "terminal" : "0",
      "latitude" : "24.09931",
      "inDis" : "50",
      "routeId" : "59",
      "seqNo" : "30"
   },
   {
      "GoBack" : "2",
      "longitude" : "120.68277",
      "outDis" : "50",
      "Id" : "5128",
      "oid" : "13073",
      "districtId" : "1",
      "nameZh" : "國光大里路口",
      "pgp" : "0",
      "terminal" : "0",
      "latitude" : "24.09991",
      "inDis" : "50",
      "routeId" : "59",
      "seqNo" : "31"
   },
   {
      "GoBack" : "2",
      "longitude" : "120.68185",
      "outDis" : "50",
      "Id" : "2928",
      "oid" : "13209",
      "districtId" : "1",
      "nameZh" : "國光花市",
      "pgp" : "0",
      "terminal" : "0",
      "latitude" : "24.10312",
      "inDis" : "50",
      "routeId" : "59",
      "seqNo" : "32"
   },
   {
      "GoBack" : "2",
      "longitude" : "120.68123",
      "outDis" : "50",
      "Id" : "4294",
      "oid" : "13213",
      "districtId" : "1",
      "nameZh" : "國光德芳路口",
      "pgp" : "0",
      "terminal" : "0",
      "latitude" : "24.10522",
      "inDis" : "50",
      "routeId" : "59",
      "seqNo" : "33"
   },
   {
      "GoBack" : "2",
      "longitude" : "120.67988",
      "outDis" : "50",
      "Id" : "1558",
      "oid" : "13103",
      "districtId" : "1",
      "nameZh" : "大里仁愛醫院",
      "pgp" : "0",
      "terminal" : "0",
      "latitude" : "24.10967",
      "inDis" : "50",
      "routeId" : "59",
      "seqNo" : "34"
   },
   {
      "GoBack" : "2",
      "longitude" : "120.67929",
      "outDis" : "50",
      "Id" : "4293",
      "oid" : "13207",
      "districtId" : "1",
      "nameZh" : "國光東興路口",
      "pgp" : "0",
      "terminal" : "0",
      "latitude" : "24.11463",
      "inDis" : "50",
      "routeId" : "59",
      "seqNo" : "35"
   },
   {
      "GoBack" : "2",
      "longitude" : "120.67947",
      "outDis" : "50",
      "Id" : "2930",
      "oid" : "13215",
      "districtId" : "1",
      "nameZh" : "國光橋",
      "pgp" : "0",
      "terminal" : "0",
      "latitude" : "24.11588",
      "inDis" : "50",
      "routeId" : "59",
      "seqNo" : "36"
   },
   {
      "GoBack" : "2",
      "longitude" : "120.67943",
      "outDis" : "50",
      "Id" : "4292",
      "oid" : "13205",
      "districtId" : "1",
      "nameZh" : "國光忠明南路口",
      "pgp" : "0",
      "terminal" : "0",
      "latitude" : "24.11823",
      "inDis" : "50",
      "routeId" : "59",
      "seqNo" : "37"
   },
   {
      "GoBack" : "2",
      "longitude" : "120.67925",
      "outDis" : "50",
      "Id" : "4347",
      "oid" : "FFADDB58C7DD4E5C9DF0726DEE651794",
      "districtId" : "1",
      "nameZh" : "中興大學(國光路)",
      "pgp" : "0",
      "terminal" : "0",
      "latitude" : "24.12135",
      "inDis" : "50",
      "routeId" : "59",
      "seqNo" : "38"
   },
   {
      "GoBack" : "2",
      "longitude" : "120.67947",
      "outDis" : "50",
      "Id" : "0038",
      "oid" : "13211",
      "districtId" : "1",
      "nameZh" : "國光國小",
      "pgp" : "0",
      "terminal" : "0",
      "latitude" : "24.1259",
      "inDis" : "50",
      "routeId" : "59",
      "seqNo" : "39"
   },
   {
      "GoBack" : "2",
      "longitude" : "120.67897",
      "outDis" : "50",
      "Id" : "0735",
      "oid" : "13189",
      "districtId" : "1",
      "nameZh" : "恩光堂",
      "pgp" : "0",
      "terminal" : "0",
      "latitude" : "24.12747",
      "inDis" : "50",
      "routeId" : "59",
      "seqNo" : "40"
   },
   {
      "GoBack" : "2",
      "longitude" : "120.67757",
      "outDis" : "50",
      "Id" : "4313",
      "oid" : "13239",
      "districtId" : "1",
      "nameZh" : "醒修宮",
      "pgp" : "0",
      "terminal" : "0",
      "latitude" : "24.13018",
      "inDis" : "50",
      "routeId" : "59",
      "seqNo" : "41"
   },
   {
      "GoBack" : "2",
      "longitude" : "120.67605",
      "outDis" : "50",
      "Id" : "0070",
      "oid" : "13159",
      "districtId" : "1",
      "nameZh" : "地方法院",
      "pgp" : "0",
      "terminal" : "0",
      "latitude" : "24.13407",
      "inDis" : "50",
      "routeId" : "59",
      "seqNo" : "42"
   },
   {
      "GoBack" : "2",
      "longitude" : "120.67802",
      "outDis" : "50",
      "Id" : "0071",
      "oid" : "13133",
      "districtId" : "1",
      "nameZh" : "臺中女中",
      "pgp" : "0",
      "terminal" : "0",
      "latitude" : "24.13593",
      "inDis" : "50",
      "routeId" : "59",
      "seqNo" : "43"
   },
   {
      "GoBack" : "2",
      "longitude" : "120.68105",
      "outDis" : "50",
      "Id" : "4284",
      "oid" : "13145",
      "districtId" : "1",
      "nameZh" : "民權繼光街口",
      "pgp" : "0",
      "terminal" : "0",
      "latitude" : "24.1369",
      "inDis" : "50",
      "routeId" : "59",
      "seqNo" : "44"
   },
   {
      "GoBack" : "2",
      "longitude" : "120.6848",
      "outDis" : "50",
      "Id" : "1824",
      "oid" : "13135",
      "districtId" : "1",
      "nameZh" : "臺中火車站",
      "pgp" : "0",
      "terminal" : "0",
      "latitude" : "24.1374",
      "inDis" : "50",
      "routeId" : "59",
      "seqNo" : "45"
   },
   {
      "GoBack" : "2",
      "longitude" : "120.68613",
      "outDis" : "50",
      "Id" : "0402",
      "oid" : "13088",
      "districtId" : "1",
      "nameZh" : "干城站",
      "pgp" : "0",
      "terminal" : "0",
      "latitude" : "24.1408",
      "inDis" : "50",
      "routeId" : "59",
      "seqNo" : "46"
   },
   {
      "GoBack" : "2",
      "longitude" : "120.68617",
      "outDis" : "50",
      "Id" : "4544",
      "oid" : "303563768",
      "districtId" : "1",
      "nameZh" : "臺中公園(雙十路)",
      "pgp" : "0",
      "terminal" : "0",
      "latitude" : "24.14466",
      "inDis" : "50",
      "routeId" : "59",
      "seqNo" : "47"
   },
   {
      "GoBack" : "2",
      "longitude" : "120.68624",
      "outDis" : "50",
      "Id" : "4695",
      "oid" : "303563767",
      "districtId" : "1",
      "nameZh" : "臺灣體大游泳池",
      "pgp" : "0",
      "terminal" : "0",
      "latitude" : "24.1466",
      "inDis" : "50",
      "routeId" : "59",
      "seqNo" : "48"
   },
   {
      "GoBack" : "2",
      "longitude" : "120.68753",
      "outDis" : "50",
      "Id" : "0149",
      "oid" : "10662",
      "districtId" : "1",
      "nameZh" : "臺中一中",
      "pgp" : "0",
      "terminal" : "0",
      "latitude" : "24.14943",
      "inDis" : "50",
      "routeId" : "59",
      "seqNo" : "49"
   },
   {
      "GoBack" : "2",
      "longitude" : "120.68866",
      "outDis" : "50",
      "Id" : "4694",
      "oid" : "303563766",
      "districtId" : "1",
      "nameZh" : "臺灣體大體育場",
      "pgp" : "0",
      "terminal" : "0",
      "latitude" : "24.15269",
      "inDis" : "50",
      "routeId" : "59",
      "seqNo" : "50"
   },
   {
      "GoBack" : "2",
      "longitude" : "120.68797",
      "outDis" : "50",
      "Id" : "0048",
      "oid" : "12624",
      "districtId" : "1",
      "nameZh" : "莒光新城",
      "pgp" : "0",
      "terminal" : "0",
      "latitude" : "24.15401",
      "inDis" : "50",
      "routeId" : "59",
      "seqNo" : "51"
   },
   {
      "GoBack" : "2",
      "longitude" : "120.68819",
      "outDis" : "50",
      "Id" : "4399",
      "oid" : "6AC85734A6F54FBCA2759A51E0CE31BE",
      "districtId" : "1",
      "nameZh" : "新民高中(三民路)",
      "pgp" : "0",
      "terminal" : "0",
      "latitude" : "24.15636",
      "inDis" : "50",
      "routeId" : "59",
      "seqNo" : "52"
   }
]
