[
   {
      "GoBack" : "1",
      "longitude" : "120.77399",
      "outDis" : "50",
      "Id" : "5042",
      "oid" : "309854241",
      "districtId" : "1",
      "nameZh" : "石岡國小",
      "pgp" : "0",
      "terminal" : "0",
      "latitude" : "24.27668",
      "inDis" : "50",
      "routeId" : "219",
      "seqNo" : "1"
   },
   {
      "GoBack" : "1",
      "longitude" : "120.77635",
      "outDis" : "50",
      "Id" : "2004",
      "oid" : "5657",
      "districtId" : "1",
      "nameZh" : "石岡",
      "pgp" : "0",
      "terminal" : "0",
      "latitude" : "24.27653",
      "inDis" : "50",
      "routeId" : "219",
      "seqNo" : "2"
   },
   {
      "GoBack" : "1",
      "longitude" : "120.78075",
      "outDis" : "50",
      "Id" : "4456",
      "oid" : "5659",
      "districtId" : "1",
      "nameZh" : "石岡區公所",
      "pgp" : "0",
      "terminal" : "0",
      "latitude" : "24.27492",
      "inDis" : "50",
      "routeId" : "219",
      "seqNo" : "3"
   },
   {
      "GoBack" : "1",
      "longitude" : "120.78428",
      "outDis" : "50",
      "Id" : "0992",
      "oid" : "5029",
      "districtId" : "1",
      "nameZh" : "九房厝",
      "pgp" : "0",
      "terminal" : "0",
      "latitude" : "24.27447",
      "inDis" : "50",
      "routeId" : "219",
      "seqNo" : "4"
   },
   {
      "GoBack" : "1",
      "longitude" : "120.78874",
      "outDis" : "50",
      "Id" : "2983",
      "oid" : "6194",
      "districtId" : "1",
      "nameZh" : "情人木橋",
      "pgp" : "0",
      "terminal" : "0",
      "latitude" : "24.27386",
      "inDis" : "50",
      "routeId" : "219",
      "seqNo" : "5"
   },
   {
      "GoBack" : "1",
      "longitude" : "120.79089",
      "outDis" : "50",
      "Id" : "4495",
      "oid" : "13822",
      "districtId" : "1",
      "nameZh" : "萬仙萬華街口",
      "pgp" : "0",
      "terminal" : "0",
      "latitude" : "24.27123",
      "inDis" : "50",
      "routeId" : "219",
      "seqNo" : "6"
   },
   {
      "GoBack" : "1",
      "longitude" : "120.79161",
      "outDis" : "50",
      "Id" : "3746",
      "oid" : "6606",
      "districtId" : "1",
      "nameZh" : "盤安橋",
      "pgp" : "0",
      "terminal" : "0",
      "latitude" : "24.26919",
      "inDis" : "50",
      "routeId" : "219",
      "seqNo" : "7"
   },
   {
      "GoBack" : "1",
      "longitude" : "120.79168",
      "outDis" : "50",
      "Id" : "5044",
      "oid" : "309863794",
      "districtId" : "1",
      "nameZh" : "下盤安橋",
      "pgp" : "0",
      "terminal" : "0",
      "latitude" : "24.26723",
      "inDis" : "50",
      "routeId" : "219",
      "seqNo" : "8"
   },
   {
      "GoBack" : "1",
      "longitude" : "120.79081",
      "outDis" : "50",
      "Id" : "3965",
      "oid" : "6713",
      "districtId" : "1",
      "nameZh" : "羅厝",
      "pgp" : "0",
      "terminal" : "0",
      "latitude" : "24.26408",
      "inDis" : "50",
      "routeId" : "219",
      "seqNo" : "9"
   },
   {
      "GoBack" : "1",
      "longitude" : "120.78872",
      "outDis" : "50",
      "Id" : "2829",
      "oid" : "6136",
      "districtId" : "1",
      "nameZh" : "神木",
      "pgp" : "0",
      "terminal" : "0",
      "latitude" : "24.26152",
      "inDis" : "50",
      "routeId" : "219",
      "seqNo" : "10"
   },
   {
      "GoBack" : "1",
      "longitude" : "120.79007",
      "outDis" : "50",
      "Id" : "3082",
      "oid" : "6272",
      "districtId" : "1",
      "nameZh" : "陳厝",
      "pgp" : "0",
      "terminal" : "0",
      "latitude" : "24.25873",
      "inDis" : "50",
      "routeId" : "219",
      "seqNo" : "11"
   },
   {
      "GoBack" : "1",
      "longitude" : "120.78909",
      "outDis" : "50",
      "Id" : "5648",
      "oid" : "6662",
      "districtId" : "1",
      "nameZh" : "龍興里",
      "pgp" : "0",
      "terminal" : "0",
      "latitude" : "24.2564",
      "inDis" : "50",
      "routeId" : "219",
      "seqNo" : "12"
   },
   {
      "GoBack" : "2",
      "longitude" : "120.78909",
      "outDis" : "50",
      "Id" : "5648",
      "oid" : "6662",
      "districtId" : "1",
      "nameZh" : "龍興里",
      "pgp" : "0",
      "terminal" : "0",
      "latitude" : "24.2564",
      "inDis" : "50",
      "routeId" : "219",
      "seqNo" : "1"
   },
   {
      "GoBack" : "2",
      "longitude" : "120.79007",
      "outDis" : "50",
      "Id" : "3082",
      "oid" : "6272",
      "districtId" : "1",
      "nameZh" : "陳厝",
      "pgp" : "0",
      "terminal" : "0",
      "latitude" : "24.25873",
      "inDis" : "50",
      "routeId" : "219",
      "seqNo" : "2"
   },
   {
      "GoBack" : "2",
      "longitude" : "120.78872",
      "outDis" : "50",
      "Id" : "2829",
      "oid" : "6136",
      "districtId" : "1",
      "nameZh" : "神木",
      "pgp" : "0",
      "terminal" : "0",
      "latitude" : "24.26152",
      "inDis" : "50",
      "routeId" : "219",
      "seqNo" : "3"
   },
   {
      "GoBack" : "2",
      "longitude" : "120.79081",
      "outDis" : "50",
      "Id" : "3965",
      "oid" : "6713",
      "districtId" : "1",
      "nameZh" : "羅厝",
      "pgp" : "0",
      "terminal" : "0",
      "latitude" : "24.26408",
      "inDis" : "50",
      "routeId" : "219",
      "seqNo" : "4"
   },
   {
      "GoBack" : "2",
      "longitude" : "120.79168",
      "outDis" : "50",
      "Id" : "5044",
      "oid" : "309863794",
      "districtId" : "1",
      "nameZh" : "下盤安橋",
      "pgp" : "0",
      "terminal" : "0",
      "latitude" : "24.26723",
      "inDis" : "50",
      "routeId" : "219",
      "seqNo" : "5"
   },
   {
      "GoBack" : "2",
      "longitude" : "120.79161",
      "outDis" : "50",
      "Id" : "3746",
      "oid" : "6606",
      "districtId" : "1",
      "nameZh" : "盤安橋",
      "pgp" : "0",
      "terminal" : "0",
      "latitude" : "24.26919",
      "inDis" : "50",
      "routeId" : "219",
      "seqNo" : "6"
   },
   {
      "GoBack" : "2",
      "longitude" : "120.79089",
      "outDis" : "50",
      "Id" : "4495",
      "oid" : "13822",
      "districtId" : "1",
      "nameZh" : "萬仙萬華街口",
      "pgp" : "0",
      "terminal" : "0",
      "latitude" : "24.27123",
      "inDis" : "50",
      "routeId" : "219",
      "seqNo" : "7"
   },
   {
      "GoBack" : "2",
      "longitude" : "120.78874",
      "outDis" : "50",
      "Id" : "2983",
      "oid" : "6194",
      "districtId" : "1",
      "nameZh" : "情人木橋",
      "pgp" : "0",
      "terminal" : "0",
      "latitude" : "24.27386",
      "inDis" : "50",
      "routeId" : "219",
      "seqNo" : "8"
   },
   {
      "GoBack" : "2",
      "longitude" : "120.78428",
      "outDis" : "50",
      "Id" : "0992",
      "oid" : "5029",
      "districtId" : "1",
      "nameZh" : "九房厝",
      "pgp" : "0",
      "terminal" : "0",
      "latitude" : "24.27447",
      "inDis" : "50",
      "routeId" : "219",
      "seqNo" : "9"
   },
   {
      "GoBack" : "2",
      "longitude" : "120.78075",
      "outDis" : "50",
      "Id" : "4456",
      "oid" : "5659",
      "districtId" : "1",
      "nameZh" : "石岡區公所",
      "pgp" : "0",
      "terminal" : "0",
      "latitude" : "24.27492",
      "inDis" : "50",
      "routeId" : "219",
      "seqNo" : "10"
   },
   {
      "GoBack" : "2",
      "longitude" : "120.77635",
      "outDis" : "50",
      "Id" : "2004",
      "oid" : "5657",
      "districtId" : "1",
      "nameZh" : "石岡",
      "pgp" : "0",
      "terminal" : "0",
      "latitude" : "24.27653",
      "inDis" : "50",
      "routeId" : "219",
      "seqNo" : "11"
   },
   {
      "GoBack" : "2",
      "longitude" : "120.77399",
      "outDis" : "50",
      "Id" : "5042",
      "oid" : "309854241",
      "districtId" : "1",
      "nameZh" : "石岡國小",
      "pgp" : "0",
      "terminal" : "0",
      "latitude" : "24.27668",
      "inDis" : "50",
      "routeId" : "219",
      "seqNo" : "12"
   }
]
