[
   {
      "GoBack" : "1",
      "longitude" : "120.69728",
      "outDis" : "50",
      "Id" : "2866",
      "oid" : "6154",
      "districtId" : "1",
      "nameZh" : "草湖",
      "pgp" : "0",
      "terminal" : "0",
      "latitude" : "24.08337",
      "inDis" : "50",
      "routeId" : "17",
      "seqNo" : "1"
   },
   {
      "GoBack" : "1",
      "longitude" : "120.69827",
      "outDis" : "50",
      "Id" : "4349",
      "oid" : "7386",
      "districtId" : "1",
      "nameZh" : "中興東南路口",
      "pgp" : "0",
      "terminal" : "0",
      "latitude" : "24.08061",
      "inDis" : "50",
      "routeId" : "17",
      "seqNo" : "2"
   },
   {
      "GoBack" : "1",
      "longitude" : "120.69972",
      "outDis" : "50",
      "Id" : "2062",
      "oid" : "313679539",
      "districtId" : "1",
      "nameZh" : "中正吉峰路口",
      "pgp" : "0",
      "terminal" : "0",
      "latitude" : "24.07591",
      "inDis" : "50",
      "routeId" : "17",
      "seqNo" : "3"
   },
   {
      "GoBack" : "1",
      "longitude" : "120.69981",
      "outDis" : "50",
      "Id" : "3980",
      "oid" : "7631",
      "districtId" : "1",
      "nameZh" : "霧峰農工",
      "pgp" : "0",
      "terminal" : "0",
      "latitude" : "24.07378",
      "inDis" : "50",
      "routeId" : "17",
      "seqNo" : "4"
   },
   {
      "GoBack" : "1",
      "longitude" : "120.69939",
      "outDis" : "50",
      "Id" : "1994",
      "oid" : "7048",
      "districtId" : "1",
      "nameZh" : "甲寅",
      "pgp" : "0",
      "terminal" : "0",
      "latitude" : "24.07032",
      "inDis" : "50",
      "routeId" : "17",
      "seqNo" : "5"
   },
   {
      "GoBack" : "1",
      "longitude" : "120.6989",
      "outDis" : "50",
      "Id" : "4972",
      "oid" : "7027",
      "districtId" : "1",
      "nameZh" : "中正草湖路口",
      "pgp" : "0",
      "terminal" : "0",
      "latitude" : "24.067",
      "inDis" : "50",
      "routeId" : "17",
      "seqNo" : "6"
   },
   {
      "GoBack" : "1",
      "longitude" : "120.69872",
      "outDis" : "50",
      "Id" : "3972",
      "oid" : "6718",
      "districtId" : "1",
      "nameZh" : "霧峰",
      "pgp" : "0",
      "terminal" : "0",
      "latitude" : "24.06418",
      "inDis" : "50",
      "routeId" : "17",
      "seqNo" : "7"
   },
   {
      "GoBack" : "1",
      "longitude" : "120.69829",
      "outDis" : "50",
      "Id" : "3978",
      "oid" : "6724",
      "districtId" : "1",
      "nameZh" : "霧峰郵局",
      "pgp" : "0",
      "terminal" : "0",
      "latitude" : "24.06197",
      "inDis" : "50",
      "routeId" : "17",
      "seqNo" : "8"
   },
   {
      "GoBack" : "1",
      "longitude" : "120.69799",
      "outDis" : "50",
      "Id" : "5546",
      "oid" : "316462697",
      "districtId" : "1",
      "nameZh" : "教育部國教署",
      "pgp" : "0",
      "terminal" : "0",
      "latitude" : "24.05932",
      "inDis" : "50",
      "routeId" : "17",
      "seqNo" : "9"
   },
   {
      "GoBack" : "1",
      "longitude" : "120.69778",
      "outDis" : "50",
      "Id" : "3976",
      "oid" : "7629",
      "districtId" : "1",
      "nameZh" : "霧峰國小",
      "pgp" : "0",
      "terminal" : "0",
      "latitude" : "24.05761",
      "inDis" : "50",
      "routeId" : "17",
      "seqNo" : "10"
   },
   {
      "GoBack" : "1",
      "longitude" : "120.69701",
      "outDis" : "50",
      "Id" : "2692",
      "oid" : "7175",
      "districtId" : "1",
      "nameZh" : "省議會",
      "pgp" : "0",
      "terminal" : "0",
      "latitude" : "24.05533",
      "inDis" : "50",
      "routeId" : "17",
      "seqNo" : "11"
   },
   {
      "GoBack" : "1",
      "longitude" : "120.69425",
      "outDis" : "50",
      "Id" : "1026",
      "oid" : "5046",
      "districtId" : "1",
      "nameZh" : "八德橋",
      "pgp" : "0",
      "terminal" : "0",
      "latitude" : "24.05045",
      "inDis" : "50",
      "routeId" : "17",
      "seqNo" : "12"
   },
   {
      "GoBack" : "1",
      "longitude" : "120.69236",
      "outDis" : "50",
      "Id" : "2048",
      "oid" : "7058",
      "districtId" : "1",
      "nameZh" : "光復新村",
      "pgp" : "0",
      "terminal" : "0",
      "latitude" : "24.04592",
      "inDis" : "50",
      "routeId" : "17",
      "seqNo" : "13"
   },
   {
      "GoBack" : "1",
      "longitude" : "120.69398",
      "outDis" : "50",
      "Id" : "0468",
      "oid" : "319245218",
      "districtId" : "1",
      "nameZh" : "六股(峰谷路)",
      "pgp" : "0",
      "terminal" : "0",
      "latitude" : "24.04086",
      "inDis" : "50",
      "routeId" : "17",
      "seqNo" : "14"
   },
   {
      "GoBack" : "1",
      "longitude" : "120.69509",
      "outDis" : "50",
      "Id" : "5445",
      "oid" : "313679527",
      "districtId" : "1",
      "nameZh" : "六股里新活動中心",
      "pgp" : "0",
      "terminal" : "0",
      "latitude" : "24.04053",
      "inDis" : "50",
      "routeId" : "17",
      "seqNo" : "15"
   },
   {
      "GoBack" : "1",
      "longitude" : "120.69795",
      "outDis" : "50",
      "Id" : "1396",
      "oid" : "313679528",
      "districtId" : "1",
      "nameZh" : "山腳",
      "pgp" : "0",
      "terminal" : "0",
      "latitude" : "24.03972",
      "inDis" : "50",
      "routeId" : "17",
      "seqNo" : "16"
   },
   {
      "GoBack" : "1",
      "longitude" : "120.70044",
      "outDis" : "50",
      "Id" : "5446",
      "oid" : "313679529",
      "districtId" : "1",
      "nameZh" : "峰谷里一鄰",
      "pgp" : "0",
      "terminal" : "0",
      "latitude" : "24.03939",
      "inDis" : "50",
      "routeId" : "17",
      "seqNo" : "17"
   },
   {
      "GoBack" : "1",
      "longitude" : "120.7031",
      "outDis" : "50",
      "Id" : "5447",
      "oid" : "313679530",
      "districtId" : "1",
      "nameZh" : "峰谷社區",
      "pgp" : "0",
      "terminal" : "0",
      "latitude" : "24.03996",
      "inDis" : "50",
      "routeId" : "17",
      "seqNo" : "18"
   },
   {
      "GoBack" : "1",
      "longitude" : "120.70638",
      "outDis" : "50",
      "Id" : "5448",
      "oid" : "313679531",
      "districtId" : "1",
      "nameZh" : "峰谷里三鄰",
      "pgp" : "0",
      "terminal" : "0",
      "latitude" : "24.0417",
      "inDis" : "50",
      "routeId" : "17",
      "seqNo" : "19"
   },
   {
      "GoBack" : "1",
      "longitude" : "120.70977",
      "outDis" : "50",
      "Id" : "5449",
      "oid" : "313679532",
      "districtId" : "1",
      "nameZh" : "仙峰宮",
      "pgp" : "0",
      "terminal" : "0",
      "latitude" : "24.03833",
      "inDis" : "50",
      "routeId" : "17",
      "seqNo" : "20"
   },
   {
      "GoBack" : "1",
      "longitude" : "120.71389",
      "outDis" : "50",
      "Id" : "5450",
      "oid" : "313679533",
      "districtId" : "1",
      "nameZh" : "瑪利亞霧峰家園",
      "pgp" : "0",
      "terminal" : "0",
      "latitude" : "24.0399",
      "inDis" : "50",
      "routeId" : "17",
      "seqNo" : "21"
   },
   {
      "GoBack" : "1",
      "longitude" : "120.71887",
      "outDis" : "50",
      "Id" : "5451",
      "oid" : "313679534",
      "districtId" : "1",
      "nameZh" : "峰谷里活動中心",
      "pgp" : "0",
      "terminal" : "0",
      "latitude" : "24.03953",
      "inDis" : "50",
      "routeId" : "17",
      "seqNo" : "22"
   },
   {
      "GoBack" : "1",
      "longitude" : "120.72004",
      "outDis" : "50",
      "Id" : "5452",
      "oid" : "313679535",
      "districtId" : "1",
      "nameZh" : "峰谷里六鄰",
      "pgp" : "0",
      "terminal" : "0",
      "latitude" : "24.03791",
      "inDis" : "50",
      "routeId" : "17",
      "seqNo" : "23"
   },
   {
      "GoBack" : "1",
      "longitude" : "120.72267",
      "outDis" : "50",
      "Id" : "5453",
      "oid" : "313679536",
      "districtId" : "1",
      "nameZh" : "峰谷國小",
      "pgp" : "0",
      "terminal" : "0",
      "latitude" : "24.03629",
      "inDis" : "50",
      "routeId" : "17",
      "seqNo" : "24"
   },
   {
      "GoBack" : "1",
      "longitude" : "120.72205",
      "outDis" : "50",
      "Id" : "5454",
      "oid" : "313679537",
      "districtId" : "1",
      "nameZh" : "福天宮",
      "pgp" : "0",
      "terminal" : "0",
      "latitude" : "24.03783",
      "inDis" : "50",
      "routeId" : "17",
      "seqNo" : "25"
   },
   {
      "GoBack" : "1",
      "longitude" : "120.7241",
      "outDis" : "50",
      "Id" : "5455",
      "oid" : "313679538",
      "districtId" : "1",
      "nameZh" : "大臺中山莊",
      "pgp" : "0",
      "terminal" : "0",
      "latitude" : "24.03761",
      "inDis" : "50",
      "routeId" : "17",
      "seqNo" : "26"
   },
   {
      "GoBack" : "1",
      "longitude" : "120.72717",
      "outDis" : "50",
      "Id" : "5682",
      "oid" : "319623315",
      "districtId" : "1",
      "nameZh" : "復興六街口",
      "pgp" : "0",
      "terminal" : "0",
      "latitude" : "24.03848",
      "inDis" : "50",
      "routeId" : "17",
      "seqNo" : "27"
   },
   {
      "GoBack" : "1",
      "longitude" : "120.73014",
      "outDis" : "50",
      "Id" : "5683",
      "oid" : "319623316",
      "districtId" : "1",
      "nameZh" : "復興八街口",
      "pgp" : "0",
      "terminal" : "0",
      "latitude" : "24.03869",
      "inDis" : "50",
      "routeId" : "17",
      "seqNo" : "28"
   },
   {
      "GoBack" : "2",
      "longitude" : "120.73014",
      "outDis" : "50",
      "Id" : "5683",
      "oid" : "319623316",
      "districtId" : "1",
      "nameZh" : "復興八街口",
      "pgp" : "0",
      "terminal" : "0",
      "latitude" : "24.03869",
      "inDis" : "50",
      "routeId" : "17",
      "seqNo" : "1"
   },
   {
      "GoBack" : "2",
      "longitude" : "120.72717",
      "outDis" : "50",
      "Id" : "5682",
      "oid" : "319623315",
      "districtId" : "1",
      "nameZh" : "復興六街口",
      "pgp" : "0",
      "terminal" : "0",
      "latitude" : "24.03848",
      "inDis" : "50",
      "routeId" : "17",
      "seqNo" : "2"
   },
   {
      "GoBack" : "2",
      "longitude" : "120.7241",
      "outDis" : "50",
      "Id" : "5455",
      "oid" : "313679538",
      "districtId" : "1",
      "nameZh" : "大臺中山莊",
      "pgp" : "0",
      "terminal" : "0",
      "latitude" : "24.03761",
      "inDis" : "50",
      "routeId" : "17",
      "seqNo" : "3"
   },
   {
      "GoBack" : "2",
      "longitude" : "120.72205",
      "outDis" : "50",
      "Id" : "5454",
      "oid" : "313679537",
      "districtId" : "1",
      "nameZh" : "福天宮",
      "pgp" : "0",
      "terminal" : "0",
      "latitude" : "24.03783",
      "inDis" : "50",
      "routeId" : "17",
      "seqNo" : "4"
   },
   {
      "GoBack" : "2",
      "longitude" : "120.72267",
      "outDis" : "50",
      "Id" : "5453",
      "oid" : "313679536",
      "districtId" : "1",
      "nameZh" : "峰谷國小",
      "pgp" : "0",
      "terminal" : "0",
      "latitude" : "24.03629",
      "inDis" : "50",
      "routeId" : "17",
      "seqNo" : "5"
   },
   {
      "GoBack" : "2",
      "longitude" : "120.72004",
      "outDis" : "50",
      "Id" : "5452",
      "oid" : "313679535",
      "districtId" : "1",
      "nameZh" : "峰谷里六鄰",
      "pgp" : "0",
      "terminal" : "0",
      "latitude" : "24.03791",
      "inDis" : "50",
      "routeId" : "17",
      "seqNo" : "6"
   },
   {
      "GoBack" : "2",
      "longitude" : "120.71887",
      "outDis" : "50",
      "Id" : "5451",
      "oid" : "313679534",
      "districtId" : "1",
      "nameZh" : "峰谷里活動中心",
      "pgp" : "0",
      "terminal" : "0",
      "latitude" : "24.03953",
      "inDis" : "50",
      "routeId" : "17",
      "seqNo" : "7"
   },
   {
      "GoBack" : "2",
      "longitude" : "120.71389",
      "outDis" : "50",
      "Id" : "5450",
      "oid" : "313679533",
      "districtId" : "1",
      "nameZh" : "瑪利亞霧峰家園",
      "pgp" : "0",
      "terminal" : "0",
      "latitude" : "24.0399",
      "inDis" : "50",
      "routeId" : "17",
      "seqNo" : "8"
   },
   {
      "GoBack" : "2",
      "longitude" : "120.70977",
      "outDis" : "50",
      "Id" : "5449",
      "oid" : "313679532",
      "districtId" : "1",
      "nameZh" : "仙峰宮",
      "pgp" : "0",
      "terminal" : "0",
      "latitude" : "24.03833",
      "inDis" : "50",
      "routeId" : "17",
      "seqNo" : "9"
   },
   {
      "GoBack" : "2",
      "longitude" : "120.70638",
      "outDis" : "50",
      "Id" : "5448",
      "oid" : "313679531",
      "districtId" : "1",
      "nameZh" : "峰谷里三鄰",
      "pgp" : "0",
      "terminal" : "0",
      "latitude" : "24.0417",
      "inDis" : "50",
      "routeId" : "17",
      "seqNo" : "10"
   },
   {
      "GoBack" : "2",
      "longitude" : "120.7031",
      "outDis" : "50",
      "Id" : "5447",
      "oid" : "313679530",
      "districtId" : "1",
      "nameZh" : "峰谷社區",
      "pgp" : "0",
      "terminal" : "0",
      "latitude" : "24.03996",
      "inDis" : "50",
      "routeId" : "17",
      "seqNo" : "11"
   },
   {
      "GoBack" : "2",
      "longitude" : "120.70044",
      "outDis" : "50",
      "Id" : "5446",
      "oid" : "313679529",
      "districtId" : "1",
      "nameZh" : "峰谷里一鄰",
      "pgp" : "0",
      "terminal" : "0",
      "latitude" : "24.03939",
      "inDis" : "50",
      "routeId" : "17",
      "seqNo" : "12"
   },
   {
      "GoBack" : "2",
      "longitude" : "120.69795",
      "outDis" : "50",
      "Id" : "1396",
      "oid" : "313679528",
      "districtId" : "1",
      "nameZh" : "山腳",
      "pgp" : "0",
      "terminal" : "0",
      "latitude" : "24.03972",
      "inDis" : "50",
      "routeId" : "17",
      "seqNo" : "13"
   },
   {
      "GoBack" : "2",
      "longitude" : "120.69509",
      "outDis" : "50",
      "Id" : "5445",
      "oid" : "313679527",
      "districtId" : "1",
      "nameZh" : "六股里新活動中心",
      "pgp" : "0",
      "terminal" : "0",
      "latitude" : "24.04053",
      "inDis" : "50",
      "routeId" : "17",
      "seqNo" : "14"
   },
   {
      "GoBack" : "2",
      "longitude" : "120.69398",
      "outDis" : "50",
      "Id" : "0468",
      "oid" : "319245218",
      "districtId" : "1",
      "nameZh" : "六股(峰谷路)",
      "pgp" : "0",
      "terminal" : "0",
      "latitude" : "24.04086",
      "inDis" : "50",
      "routeId" : "17",
      "seqNo" : "15"
   },
   {
      "GoBack" : "2",
      "longitude" : "120.69236",
      "outDis" : "50",
      "Id" : "2048",
      "oid" : "7641",
      "districtId" : "1",
      "nameZh" : "光復新村",
      "pgp" : "0",
      "terminal" : "0",
      "latitude" : "24.04592",
      "inDis" : "50",
      "routeId" : "17",
      "seqNo" : "16"
   },
   {
      "GoBack" : "2",
      "longitude" : "120.69403",
      "outDis" : "50",
      "Id" : "1026",
      "oid" : "7190",
      "districtId" : "1",
      "nameZh" : "八德橋",
      "pgp" : "0",
      "terminal" : "0",
      "latitude" : "24.0495",
      "inDis" : "50",
      "routeId" : "17",
      "seqNo" : "17"
   },
   {
      "GoBack" : "2",
      "longitude" : "120.69721",
      "outDis" : "50",
      "Id" : "2692",
      "oid" : "7176",
      "districtId" : "1",
      "nameZh" : "省議會",
      "pgp" : "0",
      "terminal" : "0",
      "latitude" : "24.05548",
      "inDis" : "50",
      "routeId" : "17",
      "seqNo" : "18"
   },
   {
      "GoBack" : "2",
      "longitude" : "120.69793",
      "outDis" : "50",
      "Id" : "3976",
      "oid" : "7630",
      "districtId" : "1",
      "nameZh" : "霧峰國小",
      "pgp" : "0",
      "terminal" : "0",
      "latitude" : "24.05764",
      "inDis" : "50",
      "routeId" : "17",
      "seqNo" : "19"
   },
   {
      "GoBack" : "2",
      "longitude" : "120.69807",
      "outDis" : "50",
      "Id" : "5546",
      "oid" : "316462698",
      "districtId" : "1",
      "nameZh" : "教育部國教署",
      "pgp" : "0",
      "terminal" : "0",
      "latitude" : "24.05974",
      "inDis" : "50",
      "routeId" : "17",
      "seqNo" : "20"
   },
   {
      "GoBack" : "2",
      "longitude" : "120.69829",
      "outDis" : "50",
      "Id" : "3978",
      "oid" : "8108",
      "districtId" : "1",
      "nameZh" : "霧峰郵局",
      "pgp" : "0",
      "terminal" : "0",
      "latitude" : "24.06197",
      "inDis" : "50",
      "routeId" : "17",
      "seqNo" : "21"
   },
   {
      "GoBack" : "2",
      "longitude" : "120.69856",
      "outDis" : "50",
      "Id" : "3972",
      "oid" : "6719",
      "districtId" : "1",
      "nameZh" : "霧峰",
      "pgp" : "0",
      "terminal" : "0",
      "latitude" : "24.06366",
      "inDis" : "50",
      "routeId" : "17",
      "seqNo" : "22"
   },
   {
      "GoBack" : "2",
      "longitude" : "120.6993",
      "outDis" : "50",
      "Id" : "4972",
      "oid" : "7029",
      "districtId" : "1",
      "nameZh" : "中正草湖路口",
      "pgp" : "0",
      "terminal" : "0",
      "latitude" : "24.06829",
      "inDis" : "50",
      "routeId" : "17",
      "seqNo" : "23"
   },
   {
      "GoBack" : "2",
      "longitude" : "120.69951",
      "outDis" : "50",
      "Id" : "1994",
      "oid" : "7049",
      "districtId" : "1",
      "nameZh" : "甲寅",
      "pgp" : "0",
      "terminal" : "0",
      "latitude" : "24.06987",
      "inDis" : "50",
      "routeId" : "17",
      "seqNo" : "24"
   },
   {
      "GoBack" : "2",
      "longitude" : "120.69986",
      "outDis" : "50",
      "Id" : "3980",
      "oid" : "7632",
      "districtId" : "1",
      "nameZh" : "霧峰農工",
      "pgp" : "0",
      "terminal" : "0",
      "latitude" : "24.07332",
      "inDis" : "50",
      "routeId" : "17",
      "seqNo" : "25"
   },
   {
      "GoBack" : "2",
      "longitude" : "120.69972",
      "outDis" : "50",
      "Id" : "2062",
      "oid" : "313679539",
      "districtId" : "1",
      "nameZh" : "中正吉峰路口",
      "pgp" : "0",
      "terminal" : "0",
      "latitude" : "24.07591",
      "inDis" : "50",
      "routeId" : "17",
      "seqNo" : "26"
   },
   {
      "GoBack" : "2",
      "longitude" : "120.69835",
      "outDis" : "50",
      "Id" : "4349",
      "oid" : "7387",
      "districtId" : "1",
      "nameZh" : "中興東南路口",
      "pgp" : "0",
      "terminal" : "0",
      "latitude" : "24.08056",
      "inDis" : "50",
      "routeId" : "17",
      "seqNo" : "27"
   },
   {
      "GoBack" : "2",
      "longitude" : "120.69728",
      "outDis" : "50",
      "Id" : "2866",
      "oid" : "6155",
      "districtId" : "1",
      "nameZh" : "草湖",
      "pgp" : "0",
      "terminal" : "0",
      "latitude" : "24.08357",
      "inDis" : "50",
      "routeId" : "17",
      "seqNo" : "28"
   }
]
