[
   {
      "GoBack" : "1",
      "longitude" : "120.61803",
      "outDis" : "50",
      "Id" : "2907",
      "oid" : "312664215",
      "districtId" : "1",
      "nameZh" : "高鐵臺中站(17月台)",
      "pgp" : "0",
      "terminal" : "0",
      "latitude" : "24.11128",
      "inDis" : "50",
      "routeId" : "133",
      "seqNo" : "1"
   },
   {
      "GoBack" : "1",
      "longitude" : "120.61784",
      "outDis" : "50",
      "Id" : "5126",
      "oid" : "308843479",
      "districtId" : "1",
      "nameZh" : "烏日國中(新興路)",
      "pgp" : "0",
      "terminal" : "0",
      "latitude" : "24.10581",
      "inDis" : "50",
      "routeId" : "133",
      "seqNo" : "2"
   },
   {
      "GoBack" : "1",
      "longitude" : "120.62169",
      "outDis" : "50",
      "Id" : "5124",
      "oid" : "308843477",
      "districtId" : "1",
      "nameZh" : "烏日(新興路)",
      "pgp" : "0",
      "terminal" : "0",
      "latitude" : "24.10511",
      "inDis" : "50",
      "routeId" : "133",
      "seqNo" : "3"
   },
   {
      "GoBack" : "1",
      "longitude" : "120.62445",
      "outDis" : "50",
      "Id" : "5125",
      "oid" : "308843475",
      "districtId" : "1",
      "nameZh" : "烏日區公所(新興路)",
      "pgp" : "0",
      "terminal" : "0",
      "latitude" : "24.10429",
      "inDis" : "50",
      "routeId" : "133",
      "seqNo" : "4"
   },
   {
      "GoBack" : "1",
      "longitude" : "120.62715",
      "outDis" : "50",
      "Id" : "4916",
      "oid" : "308843529",
      "districtId" : "1",
      "nameZh" : "新興五光路口",
      "pgp" : "0",
      "terminal" : "0",
      "latitude" : "24.10414",
      "inDis" : "50",
      "routeId" : "133",
      "seqNo" : "5"
   },
   {
      "GoBack" : "1",
      "longitude" : "120.63287",
      "outDis" : "50",
      "Id" : "2821",
      "oid" : "8218",
      "districtId" : "1",
      "nameZh" : "烏日橋",
      "pgp" : "0",
      "terminal" : "0",
      "latitude" : "24.10578",
      "inDis" : "50",
      "routeId" : "133",
      "seqNo" : "6"
   },
   {
      "GoBack" : "1",
      "longitude" : "120.63707",
      "outDis" : "50",
      "Id" : "2365",
      "oid" : "3742",
      "districtId" : "1",
      "nameZh" : "明道中學",
      "pgp" : "0",
      "terminal" : "0",
      "latitude" : "24.10751",
      "inDis" : "50",
      "routeId" : "133",
      "seqNo" : "7"
   },
   {
      "GoBack" : "1",
      "longitude" : "120.63859",
      "outDis" : "50",
      "Id" : "2366",
      "oid" : "3729",
      "districtId" : "1",
      "nameZh" : "明道花園城",
      "pgp" : "0",
      "terminal" : "0",
      "latitude" : "24.10799",
      "inDis" : "50",
      "routeId" : "133",
      "seqNo" : "8"
   },
   {
      "GoBack" : "1",
      "longitude" : "120.64137",
      "outDis" : "50",
      "Id" : "0994",
      "oid" : "92B24BAC1ECA49FB9D5A2EA1F2F516C7",
      "districtId" : "1",
      "nameZh" : "九張犁",
      "pgp" : "0",
      "terminal" : "0",
      "latitude" : "24.10873",
      "inDis" : "50",
      "routeId" : "133",
      "seqNo" : "9"
   },
   {
      "GoBack" : "1",
      "longitude" : "120.64555",
      "outDis" : "50",
      "Id" : "3790",
      "oid" : "14DAE3F6EB4D48678FD2DE1F0A5668F6",
      "districtId" : "1",
      "nameZh" : "樹仔腳",
      "pgp" : "0",
      "terminal" : "0",
      "latitude" : "24.11009",
      "inDis" : "50",
      "routeId" : "133",
      "seqNo" : "11"
   },
   {
      "GoBack" : "1",
      "longitude" : "120.64791",
      "outDis" : "50",
      "Id" : "5195",
      "oid" : "1986DF669E5243AE890B41EF8E56E7DC",
      "districtId" : "1",
      "nameZh" : "復興環中路口",
      "pgp" : "0",
      "terminal" : "0",
      "latitude" : "24.11084",
      "inDis" : "50",
      "routeId" : "133",
      "seqNo" : "12"
   },
   {
      "GoBack" : "1",
      "longitude" : "120.64969",
      "outDis" : "50",
      "Id" : "3330",
      "oid" : "B04F63665E7B40B9A474793C439BD590",
      "districtId" : "1",
      "nameZh" : "勤工派出所",
      "pgp" : "0",
      "terminal" : "0",
      "latitude" : "24.11149",
      "inDis" : "50",
      "routeId" : "133",
      "seqNo" : "13"
   },
   {
      "GoBack" : "1",
      "longitude" : "120.65307",
      "outDis" : "50",
      "Id" : "4536",
      "oid" : "602727BFE39B4A2BA256A52BF9D2D1BD",
      "districtId" : "1",
      "nameZh" : "復興大慶街口",
      "pgp" : "0",
      "terminal" : "0",
      "latitude" : "24.11335",
      "inDis" : "50",
      "routeId" : "133",
      "seqNo" : "14"
   },
   {
      "GoBack" : "1",
      "longitude" : "120.656",
      "outDis" : "50",
      "Id" : "4354",
      "oid" : "13123",
      "districtId" : "1",
      "nameZh" : "文心南大慶街口",
      "pgp" : "0",
      "terminal" : "0",
      "latitude" : "24.11419",
      "inDis" : "50",
      "routeId" : "133",
      "seqNo" : "15"
   },
   {
      "GoBack" : "1",
      "longitude" : "120.65769",
      "outDis" : "50",
      "Id" : "5696",
      "oid" : "319895973",
      "districtId" : "1",
      "nameZh" : "樹義國小",
      "pgp" : "0",
      "terminal" : "0",
      "latitude" : "24.11268",
      "inDis" : "50",
      "routeId" : "133",
      "seqNo" : "16"
   },
   {
      "GoBack" : "1",
      "longitude" : "120.65981",
      "outDis" : "50",
      "Id" : "5697",
      "oid" : "319895974",
      "districtId" : "1",
      "nameZh" : "福田水資源廠",
      "pgp" : "0",
      "terminal" : "0",
      "latitude" : "24.1107",
      "inDis" : "50",
      "routeId" : "133",
      "seqNo" : "17"
   },
   {
      "GoBack" : "1",
      "longitude" : "120.66461",
      "outDis" : "50",
      "Id" : "5698",
      "oid" : "319895975",
      "districtId" : "1",
      "nameZh" : "清海化學 ",
      "pgp" : "0",
      "terminal" : "0",
      "latitude" : "24.10696",
      "inDis" : "50",
      "routeId" : "133",
      "seqNo" : "18"
   },
   {
      "GoBack" : "1",
      "longitude" : "120.67206",
      "outDis" : "50",
      "Id" : "5727",
      "oid" : "319895976",
      "districtId" : "1",
      "nameZh" : "德芳中投路口",
      "pgp" : "0",
      "terminal" : "0",
      "latitude" : "24.10211",
      "inDis" : "50",
      "routeId" : "133",
      "seqNo" : "19"
   },
   {
      "GoBack" : "1",
      "longitude" : "120.67511",
      "outDis" : "50",
      "Id" : "0506",
      "oid" : "319895977",
      "districtId" : "1",
      "nameZh" : "進士公園",
      "pgp" : "0",
      "terminal" : "0",
      "latitude" : "24.10285",
      "inDis" : "50",
      "routeId" : "133",
      "seqNo" : "20"
   },
   {
      "GoBack" : "1",
      "longitude" : "120.67913",
      "outDis" : "50",
      "Id" : "0508",
      "oid" : "319895978",
      "districtId" : "1",
      "nameZh" : "環保公園",
      "pgp" : "0",
      "terminal" : "0",
      "latitude" : "24.10416",
      "inDis" : "50",
      "routeId" : "133",
      "seqNo" : "21"
   },
   {
      "GoBack" : "1",
      "longitude" : "120.68342",
      "outDis" : "50",
      "Id" : "5699",
      "oid" : "319895980",
      "districtId" : "1",
      "nameZh" : "德芳兒童公園 ",
      "pgp" : "0",
      "terminal" : "0",
      "latitude" : "24.10401",
      "inDis" : "50",
      "routeId" : "133",
      "seqNo" : "22"
   },
   {
      "GoBack" : "1",
      "longitude" : "120.69019",
      "outDis" : "50",
      "Id" : "0479",
      "oid" : "319895981",
      "districtId" : "1",
      "nameZh" : "大元國小 ",
      "pgp" : "0",
      "terminal" : "0",
      "latitude" : "24.10076",
      "inDis" : "50",
      "routeId" : "133",
      "seqNo" : "23"
   },
   {
      "GoBack" : "1",
      "longitude" : "120.69507",
      "outDis" : "50",
      "Id" : "5701",
      "oid" : "319895982",
      "districtId" : "1",
      "nameZh" : "十九甲健康公園 ",
      "pgp" : "0",
      "terminal" : "0",
      "latitude" : "24.09984",
      "inDis" : "50",
      "routeId" : "133",
      "seqNo" : "24"
   },
   {
      "GoBack" : "1",
      "longitude" : "120.69875",
      "outDis" : "50",
      "Id" : "5016",
      "oid" : "319895983",
      "districtId" : "1",
      "nameZh" : "仁化慈德路口 ",
      "pgp" : "0",
      "terminal" : "0",
      "latitude" : "24.09652",
      "inDis" : "50",
      "routeId" : "133",
      "seqNo" : "25"
   },
   {
      "GoBack" : "1",
      "longitude" : "120.70091",
      "outDis" : "50",
      "Id" : "4420",
      "oid" : "319895984",
      "districtId" : "1",
      "nameZh" : "仁化里",
      "pgp" : "0",
      "terminal" : "0",
      "latitude" : "24.09617",
      "inDis" : "50",
      "routeId" : "133",
      "seqNo" : "26"
   },
   {
      "GoBack" : "1",
      "longitude" : "120.70342",
      "outDis" : "50",
      "Id" : "5015",
      "oid" : "319895985",
      "districtId" : "1",
      "nameZh" : "仁化仁愛路口 ",
      "pgp" : "0",
      "terminal" : "0",
      "latitude" : "24.09601",
      "inDis" : "50",
      "routeId" : "133",
      "seqNo" : "27"
   },
   {
      "GoBack" : "1",
      "longitude" : "120.70372",
      "outDis" : "50",
      "Id" : "5702",
      "oid" : "319895987",
      "districtId" : "1",
      "nameZh" : "成功二吉祥街口 ",
      "pgp" : "0",
      "terminal" : "0",
      "latitude" : "24.09386",
      "inDis" : "50",
      "routeId" : "133",
      "seqNo" : "28"
   },
   {
      "GoBack" : "1",
      "longitude" : "120.70286",
      "outDis" : "50",
      "Id" : "2114",
      "oid" : "319895988",
      "districtId" : "1",
      "nameZh" : "成功",
      "pgp" : "0",
      "terminal" : "0",
      "latitude" : "24.08896",
      "inDis" : "50",
      "routeId" : "133",
      "seqNo" : "29"
   },
   {
      "GoBack" : "1",
      "longitude" : "120.70276",
      "outDis" : "50",
      "Id" : "1196",
      "oid" : "7208",
      "districtId" : "1",
      "nameZh" : "下塗城",
      "pgp" : "0",
      "terminal" : "0",
      "latitude" : "24.08818",
      "inDis" : "50",
      "routeId" : "133",
      "seqNo" : "30"
   },
   {
      "GoBack" : "1",
      "longitude" : "120.70503",
      "outDis" : "50",
      "Id" : "2148",
      "oid" : "7080",
      "districtId" : "1",
      "nameZh" : "竹圍",
      "pgp" : "0",
      "terminal" : "0",
      "latitude" : "24.08782",
      "inDis" : "50",
      "routeId" : "133",
      "seqNo" : "31"
   },
   {
      "GoBack" : "1",
      "longitude" : "120.70787",
      "outDis" : "50",
      "Id" : "3057",
      "oid" : "7451",
      "districtId" : "1",
      "nameZh" : "統一化學",
      "pgp" : "0",
      "terminal" : "0",
      "latitude" : "24.08698",
      "inDis" : "50",
      "routeId" : "133",
      "seqNo" : "32"
   },
   {
      "GoBack" : "1",
      "longitude" : "120.70866",
      "outDis" : "50",
      "Id" : "5703",
      "oid" : "319895989",
      "districtId" : "1",
      "nameZh" : "美群國小",
      "pgp" : "0",
      "terminal" : "0",
      "latitude" : "24.08397",
      "inDis" : "50",
      "routeId" : "133",
      "seqNo" : "33"
   },
   {
      "GoBack" : "1",
      "longitude" : "120.70879",
      "outDis" : "50",
      "Id" : "5704",
      "oid" : "319895990",
      "districtId" : "1",
      "nameZh" : "錦洲吉峰西路口 ",
      "pgp" : "0",
      "terminal" : "0",
      "latitude" : "24.07811",
      "inDis" : "50",
      "routeId" : "133",
      "seqNo" : "34"
   },
   {
      "GoBack" : "1",
      "longitude" : "120.71098",
      "outDis" : "50",
      "Id" : "2061",
      "oid" : "7064",
      "districtId" : "1",
      "nameZh" : "吉峰社區",
      "pgp" : "0",
      "terminal" : "0",
      "latitude" : "24.07694",
      "inDis" : "50",
      "routeId" : "133",
      "seqNo" : "35"
   },
   {
      "GoBack" : "1",
      "longitude" : "120.71508",
      "outDis" : "50",
      "Id" : "1844",
      "oid" : "7015",
      "districtId" : "1",
      "nameZh" : "台影文化城",
      "pgp" : "0",
      "terminal" : "0",
      "latitude" : "24.07707",
      "inDis" : "50",
      "routeId" : "133",
      "seqNo" : "36"
   },
   {
      "GoBack" : "1",
      "longitude" : "120.71533",
      "outDis" : "50",
      "Id" : "2059",
      "oid" : "7061",
      "districtId" : "1",
      "nameZh" : "吉峰里",
      "pgp" : "0",
      "terminal" : "0",
      "latitude" : "24.07632",
      "inDis" : "50",
      "routeId" : "133",
      "seqNo" : "37"
   },
   {
      "GoBack" : "1",
      "longitude" : "120.71458",
      "outDis" : "50",
      "Id" : "2060",
      "oid" : "7063",
      "districtId" : "1",
      "nameZh" : "吉峰東路口",
      "pgp" : "0",
      "terminal" : "0",
      "latitude" : "24.07505",
      "inDis" : "50",
      "routeId" : "133",
      "seqNo" : "38"
   },
   {
      "GoBack" : "1",
      "longitude" : "120.71551",
      "outDis" : "50",
      "Id" : "3246",
      "oid" : "7481",
      "districtId" : "1",
      "nameZh" : "朝陽科技大學",
      "pgp" : "0",
      "terminal" : "0",
      "latitude" : "24.07041",
      "inDis" : "50",
      "routeId" : "133",
      "seqNo" : "39"
   },
   {
      "GoBack" : "2",
      "longitude" : "120.71551",
      "outDis" : "50",
      "Id" : "3246",
      "oid" : "247271488",
      "districtId" : "1",
      "nameZh" : "朝陽科技大學",
      "pgp" : "0",
      "terminal" : "0",
      "latitude" : "24.07041",
      "inDis" : "50",
      "routeId" : "133",
      "seqNo" : "1"
   },
   {
      "GoBack" : "2",
      "longitude" : "120.71455",
      "outDis" : "50",
      "Id" : "2060",
      "oid" : "7062",
      "districtId" : "1",
      "nameZh" : "吉峰東路口",
      "pgp" : "0",
      "terminal" : "0",
      "latitude" : "24.07503",
      "inDis" : "50",
      "routeId" : "133",
      "seqNo" : "2"
   },
   {
      "GoBack" : "2",
      "longitude" : "120.71533",
      "outDis" : "50",
      "Id" : "2059",
      "oid" : "7061",
      "districtId" : "1",
      "nameZh" : "吉峰里",
      "pgp" : "0",
      "terminal" : "0",
      "latitude" : "24.07632",
      "inDis" : "50",
      "routeId" : "133",
      "seqNo" : "3"
   },
   {
      "GoBack" : "2",
      "longitude" : "120.71483",
      "outDis" : "50",
      "Id" : "1844",
      "oid" : "7016",
      "districtId" : "1",
      "nameZh" : "台影文化城",
      "pgp" : "0",
      "terminal" : "0",
      "latitude" : "24.07721",
      "inDis" : "50",
      "routeId" : "133",
      "seqNo" : "4"
   },
   {
      "GoBack" : "2",
      "longitude" : "120.71098",
      "outDis" : "50",
      "Id" : "2061",
      "oid" : "7064",
      "districtId" : "1",
      "nameZh" : "吉峰社區",
      "pgp" : "0",
      "terminal" : "0",
      "latitude" : "24.07694",
      "inDis" : "50",
      "routeId" : "133",
      "seqNo" : "5"
   },
   {
      "GoBack" : "2",
      "longitude" : "120.7088",
      "outDis" : "50",
      "Id" : "5704",
      "oid" : "319897217",
      "districtId" : "1",
      "nameZh" : "錦洲吉峰西路口",
      "pgp" : "0",
      "terminal" : "0",
      "latitude" : "24.0781",
      "inDis" : "50",
      "routeId" : "133",
      "seqNo" : "6"
   },
   {
      "GoBack" : "2",
      "longitude" : "120.7087",
      "outDis" : "50",
      "Id" : "5703",
      "oid" : "319897216",
      "districtId" : "1",
      "nameZh" : "美群國小",
      "pgp" : "0",
      "terminal" : "0",
      "latitude" : "24.08395",
      "inDis" : "50",
      "routeId" : "133",
      "seqNo" : "7"
   },
   {
      "GoBack" : "2",
      "longitude" : "120.70787",
      "outDis" : "50",
      "Id" : "3057",
      "oid" : "7451",
      "districtId" : "1",
      "nameZh" : "統一化學",
      "pgp" : "0",
      "terminal" : "0",
      "latitude" : "24.08698",
      "inDis" : "50",
      "routeId" : "133",
      "seqNo" : "8"
   },
   {
      "GoBack" : "2",
      "longitude" : "120.70503",
      "outDis" : "50",
      "Id" : "2148",
      "oid" : "7080",
      "districtId" : "1",
      "nameZh" : "竹圍",
      "pgp" : "0",
      "terminal" : "0",
      "latitude" : "24.08782",
      "inDis" : "50",
      "routeId" : "133",
      "seqNo" : "9"
   },
   {
      "GoBack" : "2",
      "longitude" : "120.70288",
      "outDis" : "50",
      "Id" : "2114",
      "oid" : "319897215",
      "districtId" : "1",
      "nameZh" : "成功 ",
      "pgp" : "0",
      "terminal" : "0",
      "latitude" : "24.08895",
      "inDis" : "50",
      "routeId" : "133",
      "seqNo" : "10"
   },
   {
      "GoBack" : "2",
      "longitude" : "120.70374",
      "outDis" : "50",
      "Id" : "5702",
      "oid" : "319897214",
      "districtId" : "1",
      "nameZh" : "成功二吉祥街口",
      "pgp" : "0",
      "terminal" : "0",
      "latitude" : "24.09388",
      "inDis" : "50",
      "routeId" : "133",
      "seqNo" : "11"
   },
   {
      "GoBack" : "2",
      "longitude" : "120.70332",
      "outDis" : "50",
      "Id" : "5015",
      "oid" : "319897213",
      "districtId" : "1",
      "nameZh" : "仁化仁愛路口",
      "pgp" : "0",
      "terminal" : "0",
      "latitude" : "24.09614",
      "inDis" : "50",
      "routeId" : "133",
      "seqNo" : "12"
   },
   {
      "GoBack" : "2",
      "longitude" : "120.70079",
      "outDis" : "50",
      "Id" : "4420",
      "oid" : "319896002",
      "districtId" : "1",
      "nameZh" : "仁化里 ",
      "pgp" : "0",
      "terminal" : "0",
      "latitude" : "24.09627",
      "inDis" : "50",
      "routeId" : "133",
      "seqNo" : "13"
   },
   {
      "GoBack" : "2",
      "longitude" : "120.69819",
      "outDis" : "50",
      "Id" : "5016",
      "oid" : "319896001",
      "districtId" : "1",
      "nameZh" : "仁化慈德路口",
      "pgp" : "0",
      "terminal" : "0",
      "latitude" : "24.09668",
      "inDis" : "50",
      "routeId" : "133",
      "seqNo" : "14"
   },
   {
      "GoBack" : "2",
      "longitude" : "120.69509",
      "outDis" : "50",
      "Id" : "5701",
      "oid" : "319896000",
      "districtId" : "1",
      "nameZh" : "十九甲健康公園 ",
      "pgp" : "0",
      "terminal" : "0",
      "latitude" : "24.09989",
      "inDis" : "50",
      "routeId" : "133",
      "seqNo" : "15"
   },
   {
      "GoBack" : "2",
      "longitude" : "120.69029",
      "outDis" : "50",
      "Id" : "0479",
      "oid" : "319895998",
      "districtId" : "1",
      "nameZh" : "大元國小",
      "pgp" : "0",
      "terminal" : "0",
      "latitude" : "24.10098",
      "inDis" : "50",
      "routeId" : "133",
      "seqNo" : "16"
   },
   {
      "GoBack" : "2",
      "longitude" : "120.68697",
      "outDis" : "50",
      "Id" : "5700",
      "oid" : "319895997",
      "districtId" : "1",
      "nameZh" : "德芳南中興路口",
      "pgp" : "0",
      "terminal" : "0",
      "latitude" : "24.1026",
      "inDis" : "50",
      "routeId" : "133",
      "seqNo" : "17"
   },
   {
      "GoBack" : "2",
      "longitude" : "120.6843",
      "outDis" : "50",
      "Id" : "5699",
      "oid" : "319895996",
      "districtId" : "1",
      "nameZh" : "德芳兒童公園 ",
      "pgp" : "0",
      "terminal" : "0",
      "latitude" : "24.10375",
      "inDis" : "50",
      "routeId" : "133",
      "seqNo" : "18"
   },
   {
      "GoBack" : "2",
      "longitude" : "120.67901",
      "outDis" : "50",
      "Id" : "0508",
      "oid" : "319895995",
      "districtId" : "1",
      "nameZh" : "環保公園 ",
      "pgp" : "0",
      "terminal" : "0",
      "latitude" : "24.10437",
      "inDis" : "50",
      "routeId" : "133",
      "seqNo" : "19"
   },
   {
      "GoBack" : "2",
      "longitude" : "120.67569",
      "outDis" : "50",
      "Id" : "0506",
      "oid" : "319895994",
      "districtId" : "1",
      "nameZh" : "進士公園 ",
      "pgp" : "0",
      "terminal" : "0",
      "latitude" : "24.10325",
      "inDis" : "50",
      "routeId" : "133",
      "seqNo" : "20"
   },
   {
      "GoBack" : "2",
      "longitude" : "120.66474",
      "outDis" : "50",
      "Id" : "5698",
      "oid" : "319895993",
      "districtId" : "1",
      "nameZh" : "清海化學 ",
      "pgp" : "0",
      "terminal" : "0",
      "latitude" : "24.10709",
      "inDis" : "50",
      "routeId" : "133",
      "seqNo" : "21"
   },
   {
      "GoBack" : "2",
      "longitude" : "120.66",
      "outDis" : "50",
      "Id" : "5697",
      "oid" : "319895992",
      "districtId" : "1",
      "nameZh" : "福田水資源廠",
      "pgp" : "0",
      "terminal" : "0",
      "latitude" : "24.11082",
      "inDis" : "50",
      "routeId" : "133",
      "seqNo" : "22"
   },
   {
      "GoBack" : "2",
      "longitude" : "120.65784",
      "outDis" : "50",
      "Id" : "5696",
      "oid" : "319895991",
      "districtId" : "1",
      "nameZh" : "樹義國小",
      "pgp" : "0",
      "terminal" : "0",
      "latitude" : "24.11285",
      "inDis" : "50",
      "routeId" : "133",
      "seqNo" : "23"
   },
   {
      "GoBack" : "2",
      "longitude" : "120.65422",
      "outDis" : "50",
      "Id" : "4536",
      "oid" : "7670",
      "districtId" : "1",
      "nameZh" : "復興大慶街口",
      "pgp" : "0",
      "terminal" : "0",
      "latitude" : "24.11444",
      "inDis" : "50",
      "routeId" : "133",
      "seqNo" : "24"
   },
   {
      "GoBack" : "2",
      "longitude" : "120.65076",
      "outDis" : "50",
      "Id" : "3330",
      "oid" : "33E51C31CDAF4F988F38F610E423009A",
      "districtId" : "1",
      "nameZh" : "勤工派出所",
      "pgp" : "0",
      "terminal" : "0",
      "latitude" : "24.11193",
      "inDis" : "50",
      "routeId" : "133",
      "seqNo" : "25"
   },
   {
      "GoBack" : "2",
      "longitude" : "120.64738",
      "outDis" : "50",
      "Id" : "5195",
      "oid" : "8DDA808125F84A61B1381FFE1CBBC528",
      "districtId" : "1",
      "nameZh" : "復興環中路口",
      "pgp" : "0",
      "terminal" : "0",
      "latitude" : "24.11079",
      "inDis" : "50",
      "routeId" : "133",
      "seqNo" : "26"
   },
   {
      "GoBack" : "2",
      "longitude" : "120.645",
      "outDis" : "50",
      "Id" : "3790",
      "oid" : "48E7A99515244AF48EB3E238DC9CE30E",
      "districtId" : "1",
      "nameZh" : "樹仔腳",
      "pgp" : "0",
      "terminal" : "0",
      "latitude" : "24.11004",
      "inDis" : "50",
      "routeId" : "133",
      "seqNo" : "27"
   },
   {
      "GoBack" : "2",
      "longitude" : "120.64138",
      "outDis" : "50",
      "Id" : "0994",
      "oid" : "6F8F8A7DF94A4D2E94A4C2662D22B76F",
      "districtId" : "1",
      "nameZh" : "九張犁",
      "pgp" : "0",
      "terminal" : "0",
      "latitude" : "24.10887",
      "inDis" : "50",
      "routeId" : "133",
      "seqNo" : "28"
   },
   {
      "GoBack" : "2",
      "longitude" : "120.6384",
      "outDis" : "50",
      "Id" : "2366",
      "oid" : "CAB262DF731B446CAFBF21C0AC89C11F",
      "districtId" : "1",
      "nameZh" : "明道花園城",
      "pgp" : "0",
      "terminal" : "0",
      "latitude" : "24.10795",
      "inDis" : "50",
      "routeId" : "133",
      "seqNo" : "29"
   },
   {
      "GoBack" : "2",
      "longitude" : "120.63665",
      "outDis" : "50",
      "Id" : "2365",
      "oid" : "342B228353A0458CB9C2D6C4AD2CE094",
      "districtId" : "1",
      "nameZh" : "明道中學",
      "pgp" : "0",
      "terminal" : "0",
      "latitude" : "24.10731",
      "inDis" : "50",
      "routeId" : "133",
      "seqNo" : "30"
   },
   {
      "GoBack" : "2",
      "longitude" : "120.63294",
      "outDis" : "50",
      "Id" : "2821",
      "oid" : "7377",
      "districtId" : "1",
      "nameZh" : "烏日橋",
      "pgp" : "0",
      "terminal" : "0",
      "latitude" : "24.10581",
      "inDis" : "50",
      "routeId" : "133",
      "seqNo" : "31"
   },
   {
      "GoBack" : "2",
      "longitude" : "120.62763",
      "outDis" : "50",
      "Id" : "4916",
      "oid" : "307333052",
      "districtId" : "1",
      "nameZh" : "新興五光路口",
      "pgp" : "0",
      "terminal" : "0",
      "latitude" : "24.10415",
      "inDis" : "50",
      "routeId" : "133",
      "seqNo" : "32"
   },
   {
      "GoBack" : "2",
      "longitude" : "120.62445",
      "outDis" : "50",
      "Id" : "5125",
      "oid" : "308843474",
      "districtId" : "1",
      "nameZh" : "烏日區公所(新興路)",
      "pgp" : "0",
      "terminal" : "0",
      "latitude" : "24.10429",
      "inDis" : "50",
      "routeId" : "133",
      "seqNo" : "33"
   },
   {
      "GoBack" : "2",
      "longitude" : "120.62169",
      "outDis" : "50",
      "Id" : "5124",
      "oid" : "308843476",
      "districtId" : "1",
      "nameZh" : "烏日(新興路)",
      "pgp" : "0",
      "terminal" : "0",
      "latitude" : "24.10511",
      "inDis" : "50",
      "routeId" : "133",
      "seqNo" : "34"
   },
   {
      "GoBack" : "2",
      "longitude" : "120.61784",
      "outDis" : "50",
      "Id" : "5126",
      "oid" : "308843478",
      "districtId" : "1",
      "nameZh" : "烏日國中(新興路)",
      "pgp" : "0",
      "terminal" : "0",
      "latitude" : "24.10581",
      "inDis" : "50",
      "routeId" : "133",
      "seqNo" : "35"
   },
   {
      "GoBack" : "2",
      "longitude" : "120.61715",
      "outDis" : "50",
      "Id" : "2907",
      "oid" : "9DBBAA82F4F84B2D8468B499C7CCCF87",
      "districtId" : "1",
      "nameZh" : "高鐵臺中站(17月台)",
      "pgp" : "0",
      "terminal" : "0",
      "latitude" : "24.11181",
      "inDis" : "50",
      "routeId" : "133",
      "seqNo" : "36"
   }
]
