[
   {
      "GoBack" : "1",
      "longitude" : "120.62008",
      "outDis" : "50",
      "Id" : "2907",
      "oid" : "310692260",
      "districtId" : "1",
      "nameZh" : "高鐵臺中站(13月台)",
      "pgp" : "0",
      "terminal" : "0",
      "latitude" : "24.10974",
      "inDis" : "50",
      "routeId" : "159",
      "seqNo" : "1"
   },
   {
      "GoBack" : "1",
      "longitude" : "120.64889",
      "outDis" : "50",
      "Id" : "4034",
      "oid" : "10634",
      "districtId" : "1",
      "nameZh" : "中山醫學大學",
      "pgp" : "0",
      "terminal" : "0",
      "latitude" : "24.12249",
      "inDis" : "50",
      "routeId" : "159",
      "seqNo" : "9"
   },
   {
      "GoBack" : "1",
      "longitude" : "120.64633",
      "outDis" : "50",
      "Id" : "5097",
      "oid" : "13121",
      "districtId" : "1",
      "nameZh" : "文心南永春東路口",
      "pgp" : "0",
      "terminal" : "0",
      "latitude" : "24.13441",
      "inDis" : "50",
      "routeId" : "159",
      "seqNo" : "12"
   },
   {
      "GoBack" : "1",
      "longitude" : "120.65072",
      "outDis" : "50",
      "Id" : "4594",
      "oid" : "12489",
      "districtId" : "1",
      "nameZh" : "五權西大墩路口",
      "pgp" : "0",
      "terminal" : "0",
      "latitude" : "24.14014",
      "inDis" : "50",
      "routeId" : "159",
      "seqNo" : "15"
   },
   {
      "GoBack" : "1",
      "longitude" : "120.6574",
      "outDis" : "50",
      "Id" : "0205",
      "oid" : "10628",
      "districtId" : "1",
      "nameZh" : "土庫停車場(國美館)",
      "pgp" : "0",
      "terminal" : "0",
      "latitude" : "24.1411",
      "inDis" : "50",
      "routeId" : "159",
      "seqNo" : "18"
   },
   {
      "GoBack" : "1",
      "longitude" : "120.65723",
      "outDis" : "50",
      "Id" : "4589",
      "oid" : "12698",
      "districtId" : "1",
      "nameZh" : "忠明南向上路口",
      "pgp" : "0",
      "terminal" : "0",
      "latitude" : "24.14625",
      "inDis" : "50",
      "routeId" : "159",
      "seqNo" : "20"
   },
   {
      "GoBack" : "1",
      "longitude" : "120.65722",
      "outDis" : "50",
      "Id" : "4588",
      "oid" : "A307CE445D434E508245C71B827661DD",
      "districtId" : "1",
      "nameZh" : "公益公園(忠明南路)",
      "pgp" : "0",
      "terminal" : "0",
      "latitude" : "24.15041",
      "inDis" : "50",
      "routeId" : "159",
      "seqNo" : "22"
   },
   {
      "GoBack" : "1",
      "longitude" : "120.66313",
      "outDis" : "50",
      "Id" : "0320",
      "oid" : "319472665",
      "districtId" : "1",
      "nameZh" : "科學博物館(臺灣大道)",
      "pgp" : "0",
      "terminal" : "0",
      "latitude" : "24.1552",
      "inDis" : "50",
      "routeId" : "159",
      "seqNo" : "25"
   },
   {
      "GoBack" : "1",
      "longitude" : "120.66858",
      "outDis" : "50",
      "Id" : "4634",
      "oid" : "13161",
      "districtId" : "1",
      "nameZh" : "英才西屯路口",
      "pgp" : "0",
      "terminal" : "0",
      "latitude" : "24.15469",
      "inDis" : "50",
      "routeId" : "159",
      "seqNo" : "27"
   },
   {
      "GoBack" : "1",
      "longitude" : "120.68174",
      "outDis" : "50",
      "Id" : "0406",
      "oid" : "10631",
      "districtId" : "1",
      "nameZh" : "中山堂",
      "pgp" : "0",
      "terminal" : "0",
      "latitude" : "24.15516",
      "inDis" : "50",
      "routeId" : "159",
      "seqNo" : "32"
   },
   {
      "GoBack" : "1",
      "longitude" : "120.68788",
      "outDis" : "75",
      "Id" : "0048",
      "oid" : "11114",
      "districtId" : "1",
      "nameZh" : "莒光新城",
      "pgp" : "0",
      "terminal" : "0",
      "latitude" : "24.15413",
      "inDis" : "75",
      "routeId" : "159",
      "seqNo" : "35"
   },
   {
      "GoBack" : "1",
      "longitude" : "120.68736",
      "outDis" : "50",
      "Id" : "0149",
      "oid" : "10661",
      "districtId" : "1",
      "nameZh" : "臺中一中",
      "pgp" : "0",
      "terminal" : "0",
      "latitude" : "24.14955",
      "inDis" : "50",
      "routeId" : "159",
      "seqNo" : "37"
   },
   {
      "GoBack" : "1",
      "longitude" : "120.68587",
      "outDis" : "50",
      "Id" : "4544",
      "oid" : "10663",
      "districtId" : "1",
      "nameZh" : "臺中公園(雙十路)",
      "pgp" : "0",
      "terminal" : "0",
      "latitude" : "24.14419",
      "inDis" : "50",
      "routeId" : "159",
      "seqNo" : "39"
   },
   {
      "GoBack" : "2",
      "longitude" : "120.68587",
      "outDis" : "50",
      "Id" : "4544",
      "oid" : "10663",
      "districtId" : "1",
      "nameZh" : "臺中公園(雙十路)",
      "pgp" : "0",
      "terminal" : "0",
      "latitude" : "24.14419",
      "inDis" : "50",
      "routeId" : "159",
      "seqNo" : "1"
   },
   {
      "GoBack" : "2",
      "longitude" : "120.68753",
      "outDis" : "50",
      "Id" : "0149",
      "oid" : "10662",
      "districtId" : "1",
      "nameZh" : "臺中一中",
      "pgp" : "0",
      "terminal" : "0",
      "latitude" : "24.14943",
      "inDis" : "50",
      "routeId" : "159",
      "seqNo" : "6"
   },
   {
      "GoBack" : "2",
      "longitude" : "120.68824",
      "outDis" : "75",
      "Id" : "0048",
      "oid" : "11116",
      "districtId" : "1",
      "nameZh" : "莒光新城",
      "pgp" : "0",
      "terminal" : "0",
      "latitude" : "24.15391",
      "inDis" : "75",
      "routeId" : "159",
      "seqNo" : "8"
   },
   {
      "GoBack" : "2",
      "longitude" : "120.68189",
      "outDis" : "50",
      "Id" : "0406",
      "oid" : "10632",
      "districtId" : "1",
      "nameZh" : "中山堂",
      "pgp" : "0",
      "terminal" : "0",
      "latitude" : "24.15513",
      "inDis" : "50",
      "routeId" : "159",
      "seqNo" : "11"
   },
   {
      "GoBack" : "2",
      "longitude" : "120.66858",
      "outDis" : "50",
      "Id" : "4634",
      "oid" : "13161",
      "districtId" : "1",
      "nameZh" : "英才西屯路口",
      "pgp" : "0",
      "terminal" : "0",
      "latitude" : "24.15469",
      "inDis" : "50",
      "routeId" : "159",
      "seqNo" : "15"
   },
   {
      "GoBack" : "2",
      "longitude" : "120.66313",
      "outDis" : "50",
      "Id" : "0320",
      "oid" : "319472665",
      "districtId" : "1",
      "nameZh" : "科學博物館(臺灣大道)",
      "pgp" : "0",
      "terminal" : "0",
      "latitude" : "24.1552",
      "inDis" : "50",
      "routeId" : "159",
      "seqNo" : "17"
   },
   {
      "GoBack" : "2",
      "longitude" : "120.65722",
      "outDis" : "50",
      "Id" : "4588",
      "oid" : "A307CE445D434E508245C71B827661DD",
      "districtId" : "1",
      "nameZh" : "公益公園(忠明南路)",
      "pgp" : "0",
      "terminal" : "0",
      "latitude" : "24.15041",
      "inDis" : "50",
      "routeId" : "159",
      "seqNo" : "20"
   },
   {
      "GoBack" : "2",
      "longitude" : "120.65742",
      "outDis" : "75",
      "Id" : "4589",
      "oid" : "11052",
      "districtId" : "1",
      "nameZh" : "忠明南向上路口",
      "pgp" : "0",
      "terminal" : "0",
      "latitude" : "24.14623",
      "inDis" : "75",
      "routeId" : "159",
      "seqNo" : "22"
   },
   {
      "GoBack" : "2",
      "longitude" : "120.65724",
      "outDis" : "50",
      "Id" : "0205",
      "oid" : "10627",
      "districtId" : "1",
      "nameZh" : "土庫停車場(國美館)",
      "pgp" : "0",
      "terminal" : "0",
      "latitude" : "24.14095",
      "inDis" : "50",
      "routeId" : "159",
      "seqNo" : "24"
   },
   {
      "GoBack" : "2",
      "longitude" : "120.65069",
      "outDis" : "50",
      "Id" : "4594",
      "oid" : "12488",
      "districtId" : "1",
      "nameZh" : "五權西大墩路口",
      "pgp" : "0",
      "terminal" : "0",
      "latitude" : "24.14006",
      "inDis" : "50",
      "routeId" : "159",
      "seqNo" : "26"
   },
   {
      "GoBack" : "2",
      "longitude" : "120.64633",
      "outDis" : "50",
      "Id" : "5097",
      "oid" : "13121",
      "districtId" : "1",
      "nameZh" : "文心南永春東路口",
      "pgp" : "0",
      "terminal" : "0",
      "latitude" : "24.13441",
      "inDis" : "50",
      "routeId" : "159",
      "seqNo" : "29"
   },
   {
      "GoBack" : "2",
      "longitude" : "120.64861",
      "outDis" : "50",
      "Id" : "4034",
      "oid" : "10633",
      "districtId" : "1",
      "nameZh" : "中山醫學大學",
      "pgp" : "0",
      "terminal" : "0",
      "latitude" : "24.12238",
      "inDis" : "50",
      "routeId" : "159",
      "seqNo" : "32"
   },
   {
      "GoBack" : "2",
      "longitude" : "120.61872",
      "outDis" : "50",
      "Id" : "2907",
      "oid" : "310692261",
      "districtId" : "1",
      "nameZh" : "高鐵臺中站(13月台)",
      "pgp" : "0",
      "terminal" : "0",
      "latitude" : "24.11117",
      "inDis" : "50",
      "routeId" : "159",
      "seqNo" : "40"
   }
]
