[
   {
      "GoBack" : "1",
      "longitude" : "120.64462",
      "outDis" : "50",
      "Id" : "3062",
      "oid" : "6262",
      "districtId" : "1",
      "nameZh" : "庄尾",
      "pgp" : "0",
      "terminal" : "0",
      "latitude" : "24.28459",
      "inDis" : "50",
      "routeId" : "98",
      "seqNo" : "1"
   },
   {
      "GoBack" : "1",
      "longitude" : "120.65244",
      "outDis" : "50",
      "Id" : "3418",
      "oid" : "6446",
      "districtId" : "1",
      "nameZh" : "新庄車庫",
      "pgp" : "0",
      "terminal" : "0",
      "latitude" : "24.28102",
      "inDis" : "50",
      "routeId" : "98",
      "seqNo" : "2"
   },
   {
      "GoBack" : "1",
      "longitude" : "120.65311",
      "outDis" : "50",
      "Id" : "3415",
      "oid" : "12268",
      "districtId" : "1",
      "nameZh" : "新庄",
      "pgp" : "0",
      "terminal" : "0",
      "latitude" : "24.28071",
      "inDis" : "50",
      "routeId" : "98",
      "seqNo" : "3"
   },
   {
      "GoBack" : "1",
      "longitude" : "120.6566",
      "outDis" : "50",
      "Id" : "3660",
      "oid" : "6556",
      "districtId" : "1",
      "nameZh" : "福德祠",
      "pgp" : "0",
      "terminal" : "0",
      "latitude" : "24.27887",
      "inDis" : "50",
      "routeId" : "98",
      "seqNo" : "4"
   },
   {
      "GoBack" : "1",
      "longitude" : "120.65903",
      "outDis" : "50",
      "Id" : "3121",
      "oid" : "6295",
      "districtId" : "1",
      "nameZh" : "頂車站",
      "pgp" : "0",
      "terminal" : "0",
      "latitude" : "24.27418",
      "inDis" : "50",
      "routeId" : "98",
      "seqNo" : "5"
   },
   {
      "GoBack" : "1",
      "longitude" : "120.66033",
      "outDis" : "50",
      "Id" : "5378",
      "oid" : "311929348",
      "districtId" : "1",
      "nameZh" : "圳堵三民橋頭",
      "pgp" : "0",
      "terminal" : "0",
      "latitude" : "24.27179",
      "inDis" : "50",
      "routeId" : "98",
      "seqNo" : "6"
   },
   {
      "GoBack" : "1",
      "longitude" : "120.66054",
      "outDis" : "50",
      "Id" : "5022",
      "oid" : "309414110",
      "districtId" : "1",
      "nameZh" : "三民路口",
      "pgp" : "0",
      "terminal" : "0",
      "latitude" : "24.27047",
      "inDis" : "50",
      "routeId" : "98",
      "seqNo" : "7"
   },
   {
      "GoBack" : "1",
      "longitude" : "120.65851",
      "outDis" : "50",
      "Id" : "5023",
      "oid" : "309477455",
      "districtId" : "1",
      "nameZh" : "圳前活動中心",
      "pgp" : "0",
      "terminal" : "0",
      "latitude" : "24.26694",
      "inDis" : "50",
      "routeId" : "98",
      "seqNo" : "8"
   },
   {
      "GoBack" : "1",
      "longitude" : "120.65694",
      "outDis" : "50",
      "Id" : "5168",
      "oid" : "310199034",
      "districtId" : "1",
      "nameZh" : "三民神清路口",
      "pgp" : "0",
      "terminal" : "0",
      "latitude" : "24.26414",
      "inDis" : "50",
      "routeId" : "98",
      "seqNo" : "9"
   },
   {
      "GoBack" : "1",
      "longitude" : "120.65605",
      "outDis" : "50",
      "Id" : "4445",
      "oid" : "13808",
      "districtId" : "1",
      "nameZh" : "中正中山路口",
      "pgp" : "0",
      "terminal" : "0",
      "latitude" : "24.25842",
      "inDis" : "50",
      "routeId" : "98",
      "seqNo" : "10"
   },
   {
      "GoBack" : "1",
      "longitude" : "120.66088",
      "outDis" : "50",
      "Id" : "5644",
      "oid" : "317432116",
      "districtId" : "1",
      "nameZh" : "神岡圖書館",
      "pgp" : "0",
      "terminal" : "0",
      "latitude" : "24.25898",
      "inDis" : "50",
      "routeId" : "98",
      "seqNo" : "11"
   },
   {
      "GoBack" : "1",
      "longitude" : "120.66294",
      "outDis" : "50",
      "Id" : "3066",
      "oid" : "6265",
      "districtId" : "1",
      "nameZh" : "庄頭",
      "pgp" : "0",
      "terminal" : "0",
      "latitude" : "24.25812",
      "inDis" : "50",
      "routeId" : "98",
      "seqNo" : "12"
   },
   {
      "GoBack" : "1",
      "longitude" : "120.66141",
      "outDis" : "50",
      "Id" : "2837",
      "oid" : "6141",
      "districtId" : "1",
      "nameZh" : "神岡區公所",
      "pgp" : "0",
      "terminal" : "0",
      "latitude" : "24.25771",
      "inDis" : "50",
      "routeId" : "98",
      "seqNo" : "13"
   },
   {
      "GoBack" : "1",
      "longitude" : "120.6593",
      "outDis" : "50",
      "Id" : "2835",
      "oid" : "6139",
      "districtId" : "1",
      "nameZh" : "神岡",
      "pgp" : "0",
      "terminal" : "0",
      "latitude" : "24.25703",
      "inDis" : "50",
      "routeId" : "98",
      "seqNo" : "14"
   },
   {
      "GoBack" : "1",
      "longitude" : "120.66047",
      "outDis" : "50",
      "Id" : "3311",
      "oid" : "6383",
      "districtId" : "1",
      "nameZh" : "集會所",
      "pgp" : "0",
      "terminal" : "0",
      "latitude" : "24.25459",
      "inDis" : "50",
      "routeId" : "98",
      "seqNo" : "15"
   },
   {
      "GoBack" : "1",
      "longitude" : "120.65828",
      "outDis" : "50",
      "Id" : "4194",
      "oid" : "12269",
      "districtId" : "1",
      "nameZh" : "庄前",
      "pgp" : "0",
      "terminal" : "0",
      "latitude" : "24.25202",
      "inDis" : "50",
      "routeId" : "98",
      "seqNo" : "16"
   },
   {
      "GoBack" : "1",
      "longitude" : "120.65592",
      "outDis" : "50",
      "Id" : "5167",
      "oid" : "310199033",
      "districtId" : "1",
      "nameZh" : "神林大林路口",
      "pgp" : "0",
      "terminal" : "0",
      "latitude" : "24.24951",
      "inDis" : "50",
      "routeId" : "98",
      "seqNo" : "17"
   },
   {
      "GoBack" : "1",
      "longitude" : "120.65756",
      "outDis" : "50",
      "Id" : "2746",
      "oid" : "310394047",
      "districtId" : "1",
      "nameZh" : "員林里",
      "pgp" : "0",
      "terminal" : "0",
      "latitude" : "24.24562",
      "inDis" : "50",
      "routeId" : "98",
      "seqNo" : "18"
   },
   {
      "GoBack" : "1",
      "longitude" : "120.65713",
      "outDis" : "50",
      "Id" : "5533",
      "oid" : "316278449",
      "districtId" : "1",
      "nameZh" : "員林里二站",
      "pgp" : "0",
      "terminal" : "0",
      "latitude" : "24.24066",
      "inDis" : "50",
      "routeId" : "98",
      "seqNo" : "19"
   },
   {
      "GoBack" : "1",
      "longitude" : "120.65583",
      "outDis" : "50",
      "Id" : "5024",
      "oid" : "309477457",
      "districtId" : "1",
      "nameZh" : "綠點公司",
      "pgp" : "0",
      "terminal" : "0",
      "latitude" : "24.23853",
      "inDis" : "50",
      "routeId" : "98",
      "seqNo" : "20"
   },
   {
      "GoBack" : "1",
      "longitude" : "120.6538",
      "outDis" : "50",
      "Id" : "1173",
      "oid" : "5134",
      "districtId" : "1",
      "nameZh" : "下員林",
      "pgp" : "0",
      "terminal" : "0",
      "latitude" : "24.23237",
      "inDis" : "50",
      "routeId" : "98",
      "seqNo" : "21"
   },
   {
      "GoBack" : "1",
      "longitude" : "120.654",
      "outDis" : "50",
      "Id" : "1058",
      "oid" : "5066",
      "districtId" : "1",
      "nameZh" : "三叉路口",
      "pgp" : "0",
      "terminal" : "0",
      "latitude" : "24.23019",
      "inDis" : "50",
      "routeId" : "98",
      "seqNo" : "22"
   },
   {
      "GoBack" : "1",
      "longitude" : "120.65154",
      "outDis" : "50",
      "Id" : "4307",
      "oid" : "313332278",
      "districtId" : "1",
      "nameZh" : "雅環民生路口",
      "pgp" : "0",
      "terminal" : "0",
      "latitude" : "24.22836",
      "inDis" : "50",
      "routeId" : "98",
      "seqNo" : "23"
   },
   {
      "GoBack" : "1",
      "longitude" : "120.64856",
      "outDis" : "50",
      "Id" : "1351",
      "oid" : "313332277",
      "districtId" : "1",
      "nameZh" : "大雅區公所",
      "pgp" : "0",
      "terminal" : "0",
      "latitude" : "24.22932",
      "inDis" : "50",
      "routeId" : "98",
      "seqNo" : "24"
   },
   {
      "GoBack" : "1",
      "longitude" : "120.64376",
      "outDis" : "50",
      "Id" : "4652",
      "oid" : "51754508",
      "districtId" : "1",
      "nameZh" : "大明國小(雅環路)",
      "pgp" : "0",
      "terminal" : "0",
      "latitude" : "24.22799",
      "inDis" : "50",
      "routeId" : "98",
      "seqNo" : "25"
   },
   {
      "GoBack" : "1",
      "longitude" : "120.64088",
      "outDis" : "50",
      "Id" : "2253",
      "oid" : "2BEF1238D3C34B9B9432A0D166A06B86",
      "districtId" : "1",
      "nameZh" : "秀山里",
      "pgp" : "0",
      "terminal" : "0",
      "latitude" : "24.2305",
      "inDis" : "50",
      "routeId" : "98",
      "seqNo" : "26"
   },
   {
      "GoBack" : "1",
      "longitude" : "120.63847",
      "outDis" : "50",
      "Id" : "2798",
      "oid" : "1FD6637206FE4B609239D89232100EA6",
      "districtId" : "1",
      "nameZh" : "泰聯公司",
      "pgp" : "0",
      "terminal" : "0",
      "latitude" : "24.2331",
      "inDis" : "50",
      "routeId" : "98",
      "seqNo" : "27"
   },
   {
      "GoBack" : "1",
      "longitude" : "120.63556",
      "outDis" : "50",
      "Id" : "4688",
      "oid" : "305768954",
      "districtId" : "1",
      "nameZh" : "科雅中清路口",
      "pgp" : "0",
      "terminal" : "0",
      "latitude" : "24.23434",
      "inDis" : "50",
      "routeId" : "98",
      "seqNo" : "28"
   },
   {
      "GoBack" : "1",
      "longitude" : "120.63126",
      "outDis" : "50",
      "Id" : "5025",
      "oid" : "309477459",
      "districtId" : "1",
      "nameZh" : "科雅平和路口",
      "pgp" : "0",
      "terminal" : "0",
      "latitude" : "24.22923",
      "inDis" : "50",
      "routeId" : "98",
      "seqNo" : "29"
   },
   {
      "GoBack" : "1",
      "longitude" : "120.6297",
      "outDis" : "50",
      "Id" : "1682",
      "oid" : "0BEB5CD227DC4119AB28C7FD02853281",
      "districtId" : "1",
      "nameZh" : "日僑學校",
      "pgp" : "0",
      "terminal" : "0",
      "latitude" : "24.22655",
      "inDis" : "50",
      "routeId" : "98",
      "seqNo" : "30"
   },
   {
      "GoBack" : "1",
      "longitude" : "120.62835",
      "outDis" : "50",
      "Id" : "4687",
      "oid" : "305768951",
      "districtId" : "1",
      "nameZh" : "二期標準廠房",
      "pgp" : "0",
      "terminal" : "0",
      "latitude" : "24.22445",
      "inDis" : "50",
      "routeId" : "98",
      "seqNo" : "31"
   },
   {
      "GoBack" : "1",
      "longitude" : "120.62789",
      "outDis" : "50",
      "Id" : "4686",
      "oid" : "305768949",
      "districtId" : "1",
      "nameZh" : "科雅東科雅四路口",
      "pgp" : "0",
      "terminal" : "0",
      "latitude" : "24.22182",
      "inDis" : "50",
      "routeId" : "98",
      "seqNo" : "32"
   },
   {
      "GoBack" : "1",
      "longitude" : "120.6243",
      "outDis" : "50",
      "Id" : "4685",
      "oid" : "305768947",
      "districtId" : "1",
      "nameZh" : "科雅三科雅路口",
      "pgp" : "0",
      "terminal" : "0",
      "latitude" : "24.21918",
      "inDis" : "50",
      "routeId" : "98",
      "seqNo" : "33"
   },
   {
      "GoBack" : "1",
      "longitude" : "120.62036",
      "outDis" : "50",
      "Id" : "4684",
      "oid" : "305768945",
      "districtId" : "1",
      "nameZh" : "科雅西科雅七路口",
      "pgp" : "0",
      "terminal" : "0",
      "latitude" : "24.21722",
      "inDis" : "50",
      "routeId" : "98",
      "seqNo" : "34"
   },
   {
      "GoBack" : "1",
      "longitude" : "120.61583",
      "outDis" : "50",
      "Id" : "4054",
      "oid" : "305914756",
      "districtId" : "1",
      "nameZh" : "中科管理局",
      "pgp" : "0",
      "terminal" : "0",
      "latitude" : "24.20871",
      "inDis" : "50",
      "routeId" : "98",
      "seqNo" : "35"
   },
   {
      "GoBack" : "1",
      "longitude" : "120.61095",
      "outDis" : "50",
      "Id" : "4720",
      "oid" : "306613476",
      "districtId" : "1",
      "nameZh" : "格網中心",
      "pgp" : "0",
      "terminal" : "0",
      "latitude" : "24.20384",
      "inDis" : "50",
      "routeId" : "98",
      "seqNo" : "36"
   },
   {
      "GoBack" : "1",
      "longitude" : "120.60963",
      "outDis" : "80",
      "Id" : "1461",
      "oid" : "305768943",
      "districtId" : "1",
      "nameZh" : "中科站",
      "pgp" : "0",
      "terminal" : "0",
      "latitude" : "24.20042",
      "inDis" : "50",
      "routeId" : "98",
      "seqNo" : "37"
   },
   {
      "GoBack" : "1",
      "longitude" : "120.60662",
      "outDis" : "50",
      "Id" : "5130",
      "oid" : "10650",
      "districtId" : "1",
      "nameZh" : "國安國宅",
      "pgp" : "0",
      "terminal" : "0",
      "latitude" : "24.19322",
      "inDis" : "50",
      "routeId" : "98",
      "seqNo" : "38"
   },
   {
      "GoBack" : "1",
      "longitude" : "120.60558",
      "outDis" : "50",
      "Id" : "3609",
      "oid" : "F082EAAB61CD4AE8A214BBE9330D85D8",
      "districtId" : "1",
      "nameZh" : "榮總北院",
      "pgp" : "0",
      "terminal" : "0",
      "latitude" : "24.18933",
      "inDis" : "50",
      "routeId" : "98",
      "seqNo" : "39"
   },
   {
      "GoBack" : "1",
      "longitude" : "120.60496",
      "outDis" : "50",
      "Id" : "1544",
      "oid" : "314570243",
      "districtId" : "1",
      "nameZh" : "五龍公園",
      "pgp" : "0",
      "terminal" : "0",
      "latitude" : "24.18794",
      "inDis" : "50",
      "routeId" : "98",
      "seqNo" : "40"
   },
   {
      "GoBack" : "1",
      "longitude" : "120.6042",
      "outDis" : "50",
      "Id" : "0868",
      "oid" : "6A867A5202444249954C17D90A5C6AFD",
      "districtId" : "1",
      "nameZh" : "瑞聯天地",
      "pgp" : "0",
      "terminal" : "0",
      "latitude" : "24.18677",
      "inDis" : "50",
      "routeId" : "98",
      "seqNo" : "41"
   },
   {
      "GoBack" : "1",
      "longitude" : "120.60253",
      "outDis" : "50",
      "Id" : "0884",
      "oid" : "64A1A3591BC949B2A716F8BCDF6DA2B6",
      "districtId" : "1",
      "nameZh" : "臺中榮總(東大路)",
      "pgp" : "0",
      "terminal" : "0",
      "latitude" : "24.18343",
      "inDis" : "50",
      "routeId" : "98",
      "seqNo" : "42"
   },
   {
      "GoBack" : "1",
      "longitude" : "120.60491",
      "outDis" : "50",
      "Id" : "5386",
      "oid" : "312513342",
      "districtId" : "1",
      "nameZh" : "臺中榮總(臺灣大道)",
      "pgp" : "0",
      "terminal" : "0",
      "latitude" : "24.18349",
      "inDis" : "50",
      "routeId" : "98",
      "seqNo" : "43"
   },
   {
      "GoBack" : "1",
      "longitude" : "120.60643",
      "outDis" : "50",
      "Id" : "2378",
      "oid" : "12828",
      "districtId" : "1",
      "nameZh" : "東大附中",
      "pgp" : "0",
      "terminal" : "0",
      "latitude" : "24.18351",
      "inDis" : "50",
      "routeId" : "98",
      "seqNo" : "44"
   },
   {
      "GoBack" : "1",
      "longitude" : "120.60821",
      "outDis" : "50",
      "Id" : "0004",
      "oid" : "7474",
      "districtId" : "1",
      "nameZh" : "普濟寺",
      "pgp" : "0",
      "terminal" : "0",
      "latitude" : "24.18422",
      "inDis" : "50",
      "routeId" : "98",
      "seqNo" : "45"
   },
   {
      "GoBack" : "2",
      "longitude" : "120.60821",
      "outDis" : "50",
      "Id" : "0004",
      "oid" : "7474",
      "districtId" : "1",
      "nameZh" : "普濟寺",
      "pgp" : "0",
      "terminal" : "0",
      "latitude" : "24.18422",
      "inDis" : "50",
      "routeId" : "98",
      "seqNo" : "1"
   },
   {
      "GoBack" : "2",
      "longitude" : "120.60643",
      "outDis" : "50",
      "Id" : "2378",
      "oid" : "12828",
      "districtId" : "1",
      "nameZh" : "東大附中",
      "pgp" : "0",
      "terminal" : "0",
      "latitude" : "24.18351",
      "inDis" : "50",
      "routeId" : "98",
      "seqNo" : "2"
   },
   {
      "GoBack" : "2",
      "longitude" : "120.60491",
      "outDis" : "50",
      "Id" : "5386",
      "oid" : "313588801",
      "districtId" : "1",
      "nameZh" : "臺中榮總(臺灣大道)",
      "pgp" : "0",
      "terminal" : "0",
      "latitude" : "24.18349",
      "inDis" : "50",
      "routeId" : "98",
      "seqNo" : "3"
   },
   {
      "GoBack" : "2",
      "longitude" : "120.60269",
      "outDis" : "50",
      "Id" : "0884",
      "oid" : "A620EB6442CC46AE8DF6D17666DED57F",
      "districtId" : "1",
      "nameZh" : "臺中榮總(東大路)",
      "pgp" : "0",
      "terminal" : "0",
      "latitude" : "24.1834",
      "inDis" : "50",
      "routeId" : "98",
      "seqNo" : "4"
   },
   {
      "GoBack" : "2",
      "longitude" : "120.60435",
      "outDis" : "50",
      "Id" : "0868",
      "oid" : "01E91CD5B2604033A67B44FE1C51BF6B",
      "districtId" : "1",
      "nameZh" : "瑞聯天地",
      "pgp" : "0",
      "terminal" : "0",
      "latitude" : "24.18676",
      "inDis" : "50",
      "routeId" : "98",
      "seqNo" : "5"
   },
   {
      "GoBack" : "2",
      "longitude" : "120.60496",
      "outDis" : "50",
      "Id" : "1544",
      "oid" : "314570243",
      "districtId" : "1",
      "nameZh" : "五龍公園",
      "pgp" : "0",
      "terminal" : "0",
      "latitude" : "24.18794",
      "inDis" : "50",
      "routeId" : "98",
      "seqNo" : "6"
   },
   {
      "GoBack" : "2",
      "longitude" : "120.60573",
      "outDis" : "50",
      "Id" : "3609",
      "oid" : "48E2EE22E2BA4448ADA2027546C8EA6E",
      "districtId" : "1",
      "nameZh" : "榮總北院",
      "pgp" : "0",
      "terminal" : "0",
      "latitude" : "24.18939",
      "inDis" : "50",
      "routeId" : "98",
      "seqNo" : "7"
   },
   {
      "GoBack" : "2",
      "longitude" : "120.60678",
      "outDis" : "50",
      "Id" : "5130",
      "oid" : "10651",
      "districtId" : "1",
      "nameZh" : "國安國宅",
      "pgp" : "0",
      "terminal" : "0",
      "latitude" : "24.19326",
      "inDis" : "50",
      "routeId" : "98",
      "seqNo" : "8"
   },
   {
      "GoBack" : "2",
      "longitude" : "120.60963",
      "outDis" : "80",
      "Id" : "1461",
      "oid" : "305768943",
      "districtId" : "1",
      "nameZh" : "中科站",
      "pgp" : "0",
      "terminal" : "0",
      "latitude" : "24.20042",
      "inDis" : "50",
      "routeId" : "98",
      "seqNo" : "9"
   },
   {
      "GoBack" : "2",
      "longitude" : "120.61095",
      "outDis" : "50",
      "Id" : "4720",
      "oid" : "306613476",
      "districtId" : "1",
      "nameZh" : "格網中心",
      "pgp" : "0",
      "terminal" : "0",
      "latitude" : "24.20384",
      "inDis" : "50",
      "routeId" : "98",
      "seqNo" : "10"
   },
   {
      "GoBack" : "2",
      "longitude" : "120.61583",
      "outDis" : "50",
      "Id" : "4054",
      "oid" : "305914756",
      "districtId" : "1",
      "nameZh" : "中科管理局",
      "pgp" : "0",
      "terminal" : "0",
      "latitude" : "24.20871",
      "inDis" : "50",
      "routeId" : "98",
      "seqNo" : "11"
   },
   {
      "GoBack" : "2",
      "longitude" : "120.62036",
      "outDis" : "50",
      "Id" : "4684",
      "oid" : "305768945",
      "districtId" : "1",
      "nameZh" : "科雅西科雅七路口",
      "pgp" : "0",
      "terminal" : "0",
      "latitude" : "24.21722",
      "inDis" : "50",
      "routeId" : "98",
      "seqNo" : "12"
   },
   {
      "GoBack" : "2",
      "longitude" : "120.6243",
      "outDis" : "50",
      "Id" : "4685",
      "oid" : "305768947",
      "districtId" : "1",
      "nameZh" : "科雅三科雅路口",
      "pgp" : "0",
      "terminal" : "0",
      "latitude" : "24.21918",
      "inDis" : "50",
      "routeId" : "98",
      "seqNo" : "13"
   },
   {
      "GoBack" : "2",
      "longitude" : "120.62789",
      "outDis" : "50",
      "Id" : "4686",
      "oid" : "305768949",
      "districtId" : "1",
      "nameZh" : "科雅東科雅四路口",
      "pgp" : "0",
      "terminal" : "0",
      "latitude" : "24.22182",
      "inDis" : "50",
      "routeId" : "98",
      "seqNo" : "14"
   },
   {
      "GoBack" : "2",
      "longitude" : "120.62835",
      "outDis" : "50",
      "Id" : "4687",
      "oid" : "305768951",
      "districtId" : "1",
      "nameZh" : "二期標準廠房",
      "pgp" : "0",
      "terminal" : "0",
      "latitude" : "24.22445",
      "inDis" : "50",
      "routeId" : "98",
      "seqNo" : "15"
   },
   {
      "GoBack" : "2",
      "longitude" : "120.62985",
      "outDis" : "50",
      "Id" : "1682",
      "oid" : "B7AF7CE4AA8A4EB1A30B030E07E2F65C",
      "districtId" : "1",
      "nameZh" : "日僑學校",
      "pgp" : "0",
      "terminal" : "0",
      "latitude" : "24.22643",
      "inDis" : "50",
      "routeId" : "98",
      "seqNo" : "16"
   },
   {
      "GoBack" : "2",
      "longitude" : "120.63135",
      "outDis" : "50",
      "Id" : "5025",
      "oid" : "309477460",
      "districtId" : "1",
      "nameZh" : "科雅平和路口",
      "pgp" : "0",
      "terminal" : "0",
      "latitude" : "24.22901",
      "inDis" : "50",
      "routeId" : "98",
      "seqNo" : "17"
   },
   {
      "GoBack" : "2",
      "longitude" : "120.63556",
      "outDis" : "50",
      "Id" : "4688",
      "oid" : "305768953",
      "districtId" : "1",
      "nameZh" : "科雅中清路口",
      "pgp" : "0",
      "terminal" : "0",
      "latitude" : "24.23434",
      "inDis" : "50",
      "routeId" : "98",
      "seqNo" : "18"
   },
   {
      "GoBack" : "2",
      "longitude" : "120.63847",
      "outDis" : "50",
      "Id" : "2798",
      "oid" : "27214FDE7184410ABF972E795AF52CDC",
      "districtId" : "1",
      "nameZh" : "泰聯公司",
      "pgp" : "0",
      "terminal" : "0",
      "latitude" : "24.2331",
      "inDis" : "50",
      "routeId" : "98",
      "seqNo" : "19"
   },
   {
      "GoBack" : "2",
      "longitude" : "120.64131",
      "outDis" : "50",
      "Id" : "2253",
      "oid" : "7CF5A582E68D4FC6A7DCEF938B35031F",
      "districtId" : "1",
      "nameZh" : "秀山里",
      "pgp" : "0",
      "terminal" : "0",
      "latitude" : "24.23034",
      "inDis" : "50",
      "routeId" : "98",
      "seqNo" : "20"
   },
   {
      "GoBack" : "2",
      "longitude" : "120.64376",
      "outDis" : "50",
      "Id" : "4652",
      "oid" : "51754535",
      "districtId" : "1",
      "nameZh" : "大明國小(雅環路)",
      "pgp" : "0",
      "terminal" : "0",
      "latitude" : "24.22799",
      "inDis" : "50",
      "routeId" : "98",
      "seqNo" : "21"
   },
   {
      "GoBack" : "2",
      "longitude" : "120.6474",
      "outDis" : "40",
      "Id" : "1351",
      "oid" : "3658",
      "districtId" : "1",
      "nameZh" : "大雅區公所",
      "pgp" : "0",
      "terminal" : "0",
      "latitude" : "24.22924",
      "inDis" : "40",
      "routeId" : "98",
      "seqNo" : "22"
   },
   {
      "GoBack" : "2",
      "longitude" : "120.65163",
      "outDis" : "50",
      "Id" : "4307",
      "oid" : "51754510",
      "districtId" : "1",
      "nameZh" : "雅環民生路口",
      "pgp" : "0",
      "terminal" : "0",
      "latitude" : "24.22792",
      "inDis" : "50",
      "routeId" : "98",
      "seqNo" : "23"
   },
   {
      "GoBack" : "2",
      "longitude" : "120.654",
      "outDis" : "50",
      "Id" : "1058",
      "oid" : "5066",
      "districtId" : "1",
      "nameZh" : "三叉路口",
      "pgp" : "0",
      "terminal" : "0",
      "latitude" : "24.23019",
      "inDis" : "50",
      "routeId" : "98",
      "seqNo" : "24"
   },
   {
      "GoBack" : "2",
      "longitude" : "120.65521",
      "outDis" : "50",
      "Id" : "1173",
      "oid" : "310394449",
      "districtId" : "1",
      "nameZh" : "下員林",
      "pgp" : "0",
      "terminal" : "0",
      "latitude" : "24.23521",
      "inDis" : "50",
      "routeId" : "98",
      "seqNo" : "25"
   },
   {
      "GoBack" : "2",
      "longitude" : "120.65574",
      "outDis" : "50",
      "Id" : "5024",
      "oid" : "309477458",
      "districtId" : "1",
      "nameZh" : "綠點公司",
      "pgp" : "0",
      "terminal" : "0",
      "latitude" : "24.23828",
      "inDis" : "50",
      "routeId" : "98",
      "seqNo" : "26"
   },
   {
      "GoBack" : "2",
      "longitude" : "120.65713",
      "outDis" : "50",
      "Id" : "5533",
      "oid" : "316278449",
      "districtId" : "1",
      "nameZh" : "員林里二站",
      "pgp" : "0",
      "terminal" : "0",
      "latitude" : "24.24066",
      "inDis" : "50",
      "routeId" : "98",
      "seqNo" : "27"
   },
   {
      "GoBack" : "2",
      "longitude" : "120.65785",
      "outDis" : "50",
      "Id" : "2746",
      "oid" : "6088",
      "districtId" : "1",
      "nameZh" : "員林里",
      "pgp" : "0",
      "terminal" : "0",
      "latitude" : "24.24427",
      "inDis" : "50",
      "routeId" : "98",
      "seqNo" : "28"
   },
   {
      "GoBack" : "2",
      "longitude" : "120.65654",
      "outDis" : "50",
      "Id" : "5167",
      "oid" : "310394450",
      "districtId" : "1",
      "nameZh" : "神林大林路口",
      "pgp" : "0",
      "terminal" : "0",
      "latitude" : "24.24816",
      "inDis" : "50",
      "routeId" : "98",
      "seqNo" : "29"
   },
   {
      "GoBack" : "2",
      "longitude" : "120.65828",
      "outDis" : "50",
      "Id" : "4194",
      "oid" : "12269",
      "districtId" : "1",
      "nameZh" : "庄前",
      "pgp" : "0",
      "terminal" : "0",
      "latitude" : "24.25202",
      "inDis" : "50",
      "routeId" : "98",
      "seqNo" : "30"
   },
   {
      "GoBack" : "2",
      "longitude" : "120.66047",
      "outDis" : "50",
      "Id" : "3311",
      "oid" : "6383",
      "districtId" : "1",
      "nameZh" : "集會所",
      "pgp" : "0",
      "terminal" : "0",
      "latitude" : "24.25459",
      "inDis" : "50",
      "routeId" : "98",
      "seqNo" : "31"
   },
   {
      "GoBack" : "2",
      "longitude" : "120.6593",
      "outDis" : "50",
      "Id" : "2835",
      "oid" : "6139",
      "districtId" : "1",
      "nameZh" : "神岡",
      "pgp" : "0",
      "terminal" : "0",
      "latitude" : "24.25703",
      "inDis" : "50",
      "routeId" : "98",
      "seqNo" : "32"
   },
   {
      "GoBack" : "2",
      "longitude" : "120.66141",
      "outDis" : "50",
      "Id" : "2837",
      "oid" : "6141",
      "districtId" : "1",
      "nameZh" : "神岡區公所",
      "pgp" : "0",
      "terminal" : "0",
      "latitude" : "24.25771",
      "inDis" : "50",
      "routeId" : "98",
      "seqNo" : "33"
   },
   {
      "GoBack" : "2",
      "longitude" : "120.66294",
      "outDis" : "50",
      "Id" : "3066",
      "oid" : "6265",
      "districtId" : "1",
      "nameZh" : "庄頭",
      "pgp" : "0",
      "terminal" : "0",
      "latitude" : "24.25812",
      "inDis" : "50",
      "routeId" : "98",
      "seqNo" : "34"
   },
   {
      "GoBack" : "2",
      "longitude" : "120.66088",
      "outDis" : "50",
      "Id" : "5644",
      "oid" : "317432116",
      "districtId" : "1",
      "nameZh" : "神岡圖書館",
      "pgp" : "0",
      "terminal" : "0",
      "latitude" : "24.25898",
      "inDis" : "50",
      "routeId" : "98",
      "seqNo" : "35"
   },
   {
      "GoBack" : "2",
      "longitude" : "120.65605",
      "outDis" : "50",
      "Id" : "4445",
      "oid" : "13808",
      "districtId" : "1",
      "nameZh" : "中正中山路口",
      "pgp" : "0",
      "terminal" : "0",
      "latitude" : "24.25842",
      "inDis" : "50",
      "routeId" : "98",
      "seqNo" : "36"
   },
   {
      "GoBack" : "2",
      "longitude" : "120.65704",
      "outDis" : "50",
      "Id" : "5168",
      "oid" : "310394451",
      "districtId" : "1",
      "nameZh" : "三民神清路口",
      "pgp" : "0",
      "terminal" : "0",
      "latitude" : "24.26443",
      "inDis" : "50",
      "routeId" : "98",
      "seqNo" : "37"
   },
   {
      "GoBack" : "2",
      "longitude" : "120.65824",
      "outDis" : "50",
      "Id" : "5023",
      "oid" : "309477456",
      "districtId" : "1",
      "nameZh" : "圳前活動中心",
      "pgp" : "0",
      "terminal" : "0",
      "latitude" : "24.26675",
      "inDis" : "50",
      "routeId" : "98",
      "seqNo" : "38"
   },
   {
      "GoBack" : "2",
      "longitude" : "120.66058",
      "outDis" : "50",
      "Id" : "5022",
      "oid" : "309414111",
      "districtId" : "1",
      "nameZh" : "三民路口",
      "pgp" : "0",
      "terminal" : "0",
      "latitude" : "24.27021",
      "inDis" : "50",
      "routeId" : "98",
      "seqNo" : "39"
   },
   {
      "GoBack" : "2",
      "longitude" : "120.66033",
      "outDis" : "50",
      "Id" : "5378",
      "oid" : "311929348",
      "districtId" : "1",
      "nameZh" : "圳堵三民橋頭",
      "pgp" : "0",
      "terminal" : "0",
      "latitude" : "24.27179",
      "inDis" : "50",
      "routeId" : "98",
      "seqNo" : "40"
   },
   {
      "GoBack" : "2",
      "longitude" : "120.65903",
      "outDis" : "50",
      "Id" : "3121",
      "oid" : "6295",
      "districtId" : "1",
      "nameZh" : "頂車站",
      "pgp" : "0",
      "terminal" : "0",
      "latitude" : "24.27418",
      "inDis" : "50",
      "routeId" : "98",
      "seqNo" : "41"
   },
   {
      "GoBack" : "2",
      "longitude" : "120.6566",
      "outDis" : "50",
      "Id" : "3660",
      "oid" : "6556",
      "districtId" : "1",
      "nameZh" : "福德祠",
      "pgp" : "0",
      "terminal" : "0",
      "latitude" : "24.27887",
      "inDis" : "50",
      "routeId" : "98",
      "seqNo" : "42"
   },
   {
      "GoBack" : "2",
      "longitude" : "120.65311",
      "outDis" : "50",
      "Id" : "3415",
      "oid" : "12268",
      "districtId" : "1",
      "nameZh" : "新庄",
      "pgp" : "0",
      "terminal" : "0",
      "latitude" : "24.28071",
      "inDis" : "50",
      "routeId" : "98",
      "seqNo" : "43"
   },
   {
      "GoBack" : "2",
      "longitude" : "120.65244",
      "outDis" : "50",
      "Id" : "3418",
      "oid" : "6446",
      "districtId" : "1",
      "nameZh" : "新庄車庫",
      "pgp" : "0",
      "terminal" : "0",
      "latitude" : "24.28102",
      "inDis" : "50",
      "routeId" : "98",
      "seqNo" : "44"
   },
   {
      "GoBack" : "2",
      "longitude" : "120.64462",
      "outDis" : "50",
      "Id" : "3062",
      "oid" : "6262",
      "districtId" : "1",
      "nameZh" : "庄尾",
      "pgp" : "0",
      "terminal" : "0",
      "latitude" : "24.28459",
      "inDis" : "50",
      "routeId" : "98",
      "seqNo" : "45"
   }
]
