[
   {
      "GoBack" : "1",
      "longitude" : "120.56106",
      "outDis" : "50",
      "Id" : "2248",
      "oid" : "10784",
      "districtId" : "1",
      "nameZh" : "沙鹿站",
      "pgp" : "0",
      "terminal" : "0",
      "latitude" : "24.23783",
      "inDis" : "50",
      "routeId" : "177",
      "seqNo" : "1"
   },
   {
      "GoBack" : "1",
      "longitude" : "120.55967",
      "outDis" : "50",
      "Id" : "4681",
      "oid" : "313348322",
      "districtId" : "1",
      "nameZh" : "沙鹿市場",
      "pgp" : "0",
      "terminal" : "0",
      "latitude" : "24.23731",
      "inDis" : "50",
      "routeId" : "177",
      "seqNo" : "2"
   },
   {
      "GoBack" : "1",
      "longitude" : "120.55923",
      "outDis" : "50",
      "Id" : "4815",
      "oid" : "313348309",
      "districtId" : "1",
      "nameZh" : "沙鹿火車站",
      "pgp" : "0",
      "terminal" : "0",
      "latitude" : "24.23612",
      "inDis" : "50",
      "routeId" : "177",
      "seqNo" : "3"
   },
   {
      "GoBack" : "1",
      "longitude" : "120.55882",
      "outDis" : "50",
      "Id" : "4816",
      "oid" : "313222697",
      "districtId" : "1",
      "nameZh" : "沙鹿光田醫院",
      "pgp" : "0",
      "terminal" : "0",
      "latitude" : "24.23492",
      "inDis" : "50",
      "routeId" : "177",
      "seqNo" : "4"
   },
   {
      "GoBack" : "1",
      "longitude" : "120.5588",
      "outDis" : "50",
      "Id" : "3809",
      "oid" : "14458",
      "districtId" : "1",
      "nameZh" : "興仁里",
      "pgp" : "0",
      "terminal" : "0",
      "latitude" : "24.23027",
      "inDis" : "50",
      "routeId" : "177",
      "seqNo" : "5"
   },
   {
      "GoBack" : "1",
      "longitude" : "120.55734",
      "outDis" : "50",
      "Id" : "1664",
      "oid" : "313575203",
      "districtId" : "1",
      "nameZh" : "文光國小",
      "pgp" : "0",
      "terminal" : "0",
      "latitude" : "24.2242",
      "inDis" : "50",
      "routeId" : "177",
      "seqNo" : "6"
   },
   {
      "GoBack" : "1",
      "longitude" : "120.55692",
      "outDis" : "50",
      "Id" : "4458",
      "oid" : "311330176",
      "districtId" : "1",
      "nameZh" : "沙田天仁街口",
      "pgp" : "0",
      "terminal" : "0",
      "latitude" : "24.22316",
      "inDis" : "50",
      "routeId" : "177",
      "seqNo" : "7"
   },
   {
      "GoBack" : "1",
      "longitude" : "120.55613",
      "outDis" : "50",
      "Id" : "2613",
      "oid" : "14460",
      "districtId" : "1",
      "nameZh" : "南勢里",
      "pgp" : "0",
      "terminal" : "0",
      "latitude" : "24.22126",
      "inDis" : "50",
      "routeId" : "177",
      "seqNo" : "8"
   },
   {
      "GoBack" : "1",
      "longitude" : "120.55287",
      "outDis" : "50",
      "Id" : "4459",
      "oid" : "14461",
      "districtId" : "1",
      "nameZh" : "沙田太平路口",
      "pgp" : "0",
      "terminal" : "0",
      "latitude" : "24.21671",
      "inDis" : "50",
      "routeId" : "177",
      "seqNo" : "9"
   },
   {
      "GoBack" : "1",
      "longitude" : "120.55164",
      "outDis" : "50",
      "Id" : "5159",
      "oid" : "313575192",
      "districtId" : "1",
      "nameZh" : "龍山國小(山腳里)",
      "pgp" : "0",
      "terminal" : "0",
      "latitude" : "24.21345",
      "inDis" : "50",
      "routeId" : "177",
      "seqNo" : "10"
   },
   {
      "GoBack" : "1",
      "longitude" : "120.55056",
      "outDis" : "50",
      "Id" : "2559",
      "oid" : "14463",
      "districtId" : "1",
      "nameZh" : "南山腳",
      "pgp" : "0",
      "terminal" : "0",
      "latitude" : "24.21022",
      "inDis" : "50",
      "routeId" : "177",
      "seqNo" : "11"
   },
   {
      "GoBack" : "1",
      "longitude" : "120.54923",
      "outDis" : "50",
      "Id" : "4010",
      "oid" : "14464",
      "districtId" : "1",
      "nameZh" : "鷺山",
      "pgp" : "0",
      "terminal" : "0",
      "latitude" : "24.20743",
      "inDis" : "50",
      "routeId" : "177",
      "seqNo" : "12"
   },
   {
      "GoBack" : "1",
      "longitude" : "120.54798",
      "outDis" : "50",
      "Id" : "3850",
      "oid" : "14465",
      "districtId" : "1",
      "nameZh" : "龍目井",
      "pgp" : "0",
      "terminal" : "0",
      "latitude" : "24.20249",
      "inDis" : "50",
      "routeId" : "177",
      "seqNo" : "13"
   },
   {
      "GoBack" : "1",
      "longitude" : "120.54687",
      "outDis" : "50",
      "Id" : "3855",
      "oid" : "14466",
      "districtId" : "1",
      "nameZh" : "龍泉",
      "pgp" : "0",
      "terminal" : "0",
      "latitude" : "24.19911",
      "inDis" : "50",
      "routeId" : "177",
      "seqNo" : "14"
   },
   {
      "GoBack" : "1",
      "longitude" : "120.54659",
      "outDis" : "50",
      "Id" : "3846",
      "oid" : "14467",
      "districtId" : "1",
      "nameZh" : "龍井火車站",
      "pgp" : "0",
      "terminal" : "0",
      "latitude" : "24.19687",
      "inDis" : "50",
      "routeId" : "177",
      "seqNo" : "15"
   },
   {
      "GoBack" : "1",
      "longitude" : "120.54608",
      "outDis" : "50",
      "Id" : "5160",
      "oid" : "14468",
      "districtId" : "1",
      "nameZh" : "龍井區公所",
      "pgp" : "0",
      "terminal" : "0",
      "latitude" : "24.19246",
      "inDis" : "50",
      "routeId" : "177",
      "seqNo" : "16"
   },
   {
      "GoBack" : "1",
      "longitude" : "120.54574",
      "outDis" : "50",
      "Id" : "3847",
      "oid" : "14469",
      "districtId" : "1",
      "nameZh" : "龍井加油站",
      "pgp" : "0",
      "terminal" : "0",
      "latitude" : "24.18898",
      "inDis" : "50",
      "routeId" : "177",
      "seqNo" : "17"
   },
   {
      "GoBack" : "1",
      "longitude" : "120.54549",
      "outDis" : "50",
      "Id" : "3853",
      "oid" : "14470",
      "districtId" : "1",
      "nameZh" : "龍崗",
      "pgp" : "0",
      "terminal" : "0",
      "latitude" : "24.18642",
      "inDis" : "50",
      "routeId" : "177",
      "seqNo" : "18"
   },
   {
      "GoBack" : "1",
      "longitude" : "120.54554",
      "outDis" : "50",
      "Id" : "3031",
      "oid" : "14471",
      "districtId" : "1",
      "nameZh" : "深水",
      "pgp" : "0",
      "terminal" : "0",
      "latitude" : "24.18257",
      "inDis" : "50",
      "routeId" : "177",
      "seqNo" : "19"
   },
   {
      "GoBack" : "1",
      "longitude" : "120.54457",
      "outDis" : "50",
      "Id" : "2242",
      "oid" : "129902015",
      "districtId" : "1",
      "nameZh" : "村內入口",
      "pgp" : "0",
      "terminal" : "0",
      "latitude" : "24.179",
      "inDis" : "50",
      "routeId" : "177",
      "seqNo" : "20"
   },
   {
      "GoBack" : "1",
      "longitude" : "120.54379",
      "outDis" : "50",
      "Id" : "2144",
      "oid" : "14473",
      "districtId" : "1",
      "nameZh" : "竹坑口",
      "pgp" : "0",
      "terminal" : "0",
      "latitude" : "24.17549",
      "inDis" : "50",
      "routeId" : "177",
      "seqNo" : "21"
   },
   {
      "GoBack" : "1",
      "longitude" : "120.53667",
      "outDis" : "50",
      "Id" : "5136",
      "oid" : "14474",
      "districtId" : "1",
      "nameZh" : "莊頭",
      "pgp" : "0",
      "terminal" : "0",
      "latitude" : "24.1769",
      "inDis" : "50",
      "routeId" : "177",
      "seqNo" : "22"
   },
   {
      "GoBack" : "1",
      "longitude" : "120.53499",
      "outDis" : "50",
      "Id" : "4784",
      "oid" : "14475",
      "districtId" : "1",
      "nameZh" : "上莊頭",
      "pgp" : "0",
      "terminal" : "0",
      "latitude" : "24.17724",
      "inDis" : "50",
      "routeId" : "177",
      "seqNo" : "23"
   },
   {
      "GoBack" : "1",
      "longitude" : "120.53036",
      "outDis" : "50",
      "Id" : "4868",
      "oid" : "14476",
      "districtId" : "1",
      "nameZh" : "龍東派出所",
      "pgp" : "0",
      "terminal" : "0",
      "latitude" : "24.17841",
      "inDis" : "50",
      "routeId" : "177",
      "seqNo" : "24"
   },
   {
      "GoBack" : "2",
      "longitude" : "120.53036",
      "outDis" : "50",
      "Id" : "4868",
      "oid" : "14477",
      "districtId" : "1",
      "nameZh" : "龍東派出所",
      "pgp" : "0",
      "terminal" : "0",
      "latitude" : "24.17841",
      "inDis" : "50",
      "routeId" : "177",
      "seqNo" : "1"
   },
   {
      "GoBack" : "2",
      "longitude" : "120.53499",
      "outDis" : "50",
      "Id" : "4784",
      "oid" : "14478",
      "districtId" : "1",
      "nameZh" : "上莊頭",
      "pgp" : "0",
      "terminal" : "0",
      "latitude" : "24.17724",
      "inDis" : "50",
      "routeId" : "177",
      "seqNo" : "2"
   },
   {
      "GoBack" : "2",
      "longitude" : "120.53668",
      "outDis" : "50",
      "Id" : "5136",
      "oid" : "14479",
      "districtId" : "1",
      "nameZh" : "莊頭",
      "pgp" : "0",
      "terminal" : "0",
      "latitude" : "24.17694",
      "inDis" : "50",
      "routeId" : "177",
      "seqNo" : "3"
   },
   {
      "GoBack" : "2",
      "longitude" : "120.54379",
      "outDis" : "50",
      "Id" : "2144",
      "oid" : "14480",
      "districtId" : "1",
      "nameZh" : "竹坑口",
      "pgp" : "0",
      "terminal" : "0",
      "latitude" : "24.17549",
      "inDis" : "50",
      "routeId" : "177",
      "seqNo" : "4"
   },
   {
      "GoBack" : "2",
      "longitude" : "120.54457",
      "outDis" : "50",
      "Id" : "2242",
      "oid" : "129902015",
      "districtId" : "1",
      "nameZh" : "村內入口",
      "pgp" : "0",
      "terminal" : "0",
      "latitude" : "24.179",
      "inDis" : "50",
      "routeId" : "177",
      "seqNo" : "5"
   },
   {
      "GoBack" : "2",
      "longitude" : "120.54554",
      "outDis" : "50",
      "Id" : "3031",
      "oid" : "14482",
      "districtId" : "1",
      "nameZh" : "深水",
      "pgp" : "0",
      "terminal" : "0",
      "latitude" : "24.18257",
      "inDis" : "50",
      "routeId" : "177",
      "seqNo" : "6"
   },
   {
      "GoBack" : "2",
      "longitude" : "120.54549",
      "outDis" : "50",
      "Id" : "3853",
      "oid" : "14483",
      "districtId" : "1",
      "nameZh" : "龍崗",
      "pgp" : "0",
      "terminal" : "0",
      "latitude" : "24.18642",
      "inDis" : "50",
      "routeId" : "177",
      "seqNo" : "7"
   },
   {
      "GoBack" : "2",
      "longitude" : "120.54574",
      "outDis" : "50",
      "Id" : "3847",
      "oid" : "14484",
      "districtId" : "1",
      "nameZh" : "龍井加油站",
      "pgp" : "0",
      "terminal" : "0",
      "latitude" : "24.18898",
      "inDis" : "50",
      "routeId" : "177",
      "seqNo" : "8"
   },
   {
      "GoBack" : "2",
      "longitude" : "120.54608",
      "outDis" : "50",
      "Id" : "5160",
      "oid" : "14485",
      "districtId" : "1",
      "nameZh" : "龍井區公所",
      "pgp" : "0",
      "terminal" : "0",
      "latitude" : "24.19246",
      "inDis" : "50",
      "routeId" : "177",
      "seqNo" : "9"
   },
   {
      "GoBack" : "2",
      "longitude" : "120.54659",
      "outDis" : "50",
      "Id" : "3846",
      "oid" : "14486",
      "districtId" : "1",
      "nameZh" : "龍井火車站",
      "pgp" : "0",
      "terminal" : "0",
      "latitude" : "24.19687",
      "inDis" : "50",
      "routeId" : "177",
      "seqNo" : "10"
   },
   {
      "GoBack" : "2",
      "longitude" : "120.54693",
      "outDis" : "50",
      "Id" : "3855",
      "oid" : "14487",
      "districtId" : "1",
      "nameZh" : "龍泉",
      "pgp" : "0",
      "terminal" : "0",
      "latitude" : "24.1991",
      "inDis" : "50",
      "routeId" : "177",
      "seqNo" : "11"
   },
   {
      "GoBack" : "2",
      "longitude" : "120.54798",
      "outDis" : "50",
      "Id" : "3850",
      "oid" : "14488",
      "districtId" : "1",
      "nameZh" : "龍目井",
      "pgp" : "0",
      "terminal" : "0",
      "latitude" : "24.20249",
      "inDis" : "50",
      "routeId" : "177",
      "seqNo" : "12"
   },
   {
      "GoBack" : "2",
      "longitude" : "120.54923",
      "outDis" : "50",
      "Id" : "4010",
      "oid" : "14489",
      "districtId" : "1",
      "nameZh" : "鷺山",
      "pgp" : "0",
      "terminal" : "0",
      "latitude" : "24.20743",
      "inDis" : "50",
      "routeId" : "177",
      "seqNo" : "13"
   },
   {
      "GoBack" : "2",
      "longitude" : "120.55056",
      "outDis" : "50",
      "Id" : "2559",
      "oid" : "14490",
      "districtId" : "1",
      "nameZh" : "南山腳",
      "pgp" : "0",
      "terminal" : "0",
      "latitude" : "24.21022",
      "inDis" : "50",
      "routeId" : "177",
      "seqNo" : "14"
   },
   {
      "GoBack" : "2",
      "longitude" : "120.55183",
      "outDis" : "50",
      "Id" : "5159",
      "oid" : "313575193",
      "districtId" : "1",
      "nameZh" : "龍山國小(山腳里)",
      "pgp" : "0",
      "terminal" : "0",
      "latitude" : "24.21378",
      "inDis" : "50",
      "routeId" : "177",
      "seqNo" : "15"
   },
   {
      "GoBack" : "2",
      "longitude" : "120.55287",
      "outDis" : "50",
      "Id" : "4459",
      "oid" : "14492",
      "districtId" : "1",
      "nameZh" : "沙田太平路口",
      "pgp" : "0",
      "terminal" : "0",
      "latitude" : "24.21671",
      "inDis" : "50",
      "routeId" : "177",
      "seqNo" : "16"
   },
   {
      "GoBack" : "2",
      "longitude" : "120.55613",
      "outDis" : "50",
      "Id" : "2613",
      "oid" : "14493",
      "districtId" : "1",
      "nameZh" : "南勢里",
      "pgp" : "0",
      "terminal" : "0",
      "latitude" : "24.22126",
      "inDis" : "50",
      "routeId" : "177",
      "seqNo" : "17"
   },
   {
      "GoBack" : "2",
      "longitude" : "120.55692",
      "outDis" : "50",
      "Id" : "4458",
      "oid" : "311330176",
      "districtId" : "1",
      "nameZh" : "沙田天仁街口",
      "pgp" : "0",
      "terminal" : "0",
      "latitude" : "24.22316",
      "inDis" : "50",
      "routeId" : "177",
      "seqNo" : "18"
   },
   {
      "GoBack" : "2",
      "longitude" : "120.55759",
      "outDis" : "50",
      "Id" : "1664",
      "oid" : "313575204",
      "districtId" : "1",
      "nameZh" : "文光國小",
      "pgp" : "0",
      "terminal" : "0",
      "latitude" : "24.22451",
      "inDis" : "50",
      "routeId" : "177",
      "seqNo" : "19"
   },
   {
      "GoBack" : "2",
      "longitude" : "120.5588",
      "outDis" : "50",
      "Id" : "3809",
      "oid" : "14495",
      "districtId" : "1",
      "nameZh" : "興仁里",
      "pgp" : "0",
      "terminal" : "0",
      "latitude" : "24.23027",
      "inDis" : "50",
      "routeId" : "177",
      "seqNo" : "20"
   },
   {
      "GoBack" : "2",
      "longitude" : "120.55897",
      "outDis" : "50",
      "Id" : "4816",
      "oid" : "313348300",
      "districtId" : "1",
      "nameZh" : "沙鹿光田醫院",
      "pgp" : "0",
      "terminal" : "0",
      "latitude" : "24.235",
      "inDis" : "50",
      "routeId" : "177",
      "seqNo" : "21"
   },
   {
      "GoBack" : "2",
      "longitude" : "120.55923",
      "outDis" : "50",
      "Id" : "4815",
      "oid" : "313348309",
      "districtId" : "1",
      "nameZh" : "沙鹿火車站",
      "pgp" : "0",
      "terminal" : "0",
      "latitude" : "24.23612",
      "inDis" : "50",
      "routeId" : "177",
      "seqNo" : "22"
   },
   {
      "GoBack" : "2",
      "longitude" : "120.55967",
      "outDis" : "50",
      "Id" : "4681",
      "oid" : "313348322",
      "districtId" : "1",
      "nameZh" : "沙鹿市場",
      "pgp" : "0",
      "terminal" : "0",
      "latitude" : "24.23731",
      "inDis" : "50",
      "routeId" : "177",
      "seqNo" : "23"
   },
   {
      "GoBack" : "2",
      "longitude" : "120.56103",
      "outDis" : "50",
      "Id" : "2248",
      "oid" : "7094",
      "districtId" : "1",
      "nameZh" : "沙鹿站",
      "pgp" : "0",
      "terminal" : "0",
      "latitude" : "24.23783",
      "inDis" : "50",
      "routeId" : "177",
      "seqNo" : "24"
   }
]
