[
   {
      "GoBack" : "1",
      "longitude" : "120.6846",
      "outDis" : "50",
      "Id" : "1824",
      "oid" : "7358",
      "districtId" : "1",
      "nameZh" : "臺中火車站",
      "pgp" : "0",
      "terminal" : "0",
      "latitude" : "24.13726",
      "inDis" : "50",
      "routeId" : "27",
      "seqNo" : "1"
   },
   {
      "GoBack" : "1",
      "longitude" : "120.68095",
      "outDis" : "50",
      "Id" : "4284",
      "oid" : "10258",
      "districtId" : "1",
      "nameZh" : "民權繼光街口",
      "pgp" : "0",
      "terminal" : "0",
      "latitude" : "24.13706",
      "inDis" : "50",
      "routeId" : "27",
      "seqNo" : "2"
   },
   {
      "GoBack" : "1",
      "longitude" : "120.67842",
      "outDis" : "50",
      "Id" : "4416",
      "oid" : "7024",
      "districtId" : "1",
      "nameZh" : "臺中州廳",
      "pgp" : "0",
      "terminal" : "0",
      "latitude" : "24.13896",
      "inDis" : "50",
      "routeId" : "27",
      "seqNo" : "3"
   },
   {
      "GoBack" : "1",
      "longitude" : "120.6765",
      "outDis" : "50",
      "Id" : "0208",
      "oid" : "8157",
      "districtId" : "1",
      "nameZh" : "臺中醫院",
      "pgp" : "0",
      "terminal" : "0",
      "latitude" : "24.14097",
      "inDis" : "50",
      "routeId" : "27",
      "seqNo" : "4"
   },
   {
      "GoBack" : "1",
      "longitude" : "120.67464",
      "outDis" : "50",
      "Id" : "4623",
      "oid" : "772FFD21B46D4E16AAC6A8B3CCE38713",
      "districtId" : "1",
      "nameZh" : "民權中華路口",
      "pgp" : "0",
      "terminal" : "0",
      "latitude" : "24.14257",
      "inDis" : "50",
      "routeId" : "27",
      "seqNo" : "5"
   },
   {
      "GoBack" : "1",
      "longitude" : "120.67153",
      "outDis" : "50",
      "Id" : "0513",
      "oid" : "8155",
      "districtId" : "1",
      "nameZh" : "臺中教育大學",
      "pgp" : "0",
      "terminal" : "0",
      "latitude" : "24.14517",
      "inDis" : "50",
      "routeId" : "27",
      "seqNo" : "6"
   },
   {
      "GoBack" : "1",
      "longitude" : "120.66934",
      "outDis" : "50",
      "Id" : "5235",
      "oid" : "312172220",
      "districtId" : "1",
      "nameZh" : "向上民權路口",
      "pgp" : "0",
      "terminal" : "0",
      "latitude" : "24.14673",
      "inDis" : "50",
      "routeId" : "27",
      "seqNo" : "7"
   },
   {
      "GoBack" : "1",
      "longitude" : "120.66607",
      "outDis" : "50",
      "Id" : "0725",
      "oid" : "10248",
      "districtId" : "1",
      "nameZh" : "向上英才路口",
      "pgp" : "0",
      "terminal" : "0",
      "latitude" : "24.14675",
      "inDis" : "50",
      "routeId" : "27",
      "seqNo" : "8"
   },
   {
      "GoBack" : "1",
      "longitude" : "120.66539",
      "outDis" : "50",
      "Id" : "2077",
      "oid" : "10244",
      "districtId" : "1",
      "nameZh" : "英才向上北路口",
      "pgp" : "0",
      "terminal" : "0",
      "latitude" : "24.14789",
      "inDis" : "50",
      "routeId" : "27",
      "seqNo" : "9"
   },
   {
      "GoBack" : "1",
      "longitude" : "120.66452",
      "outDis" : "50",
      "Id" : "0276",
      "oid" : "4F2E759BF74D4FACBB506B5534004E99",
      "districtId" : "1",
      "nameZh" : "草悟道(市民廣場)",
      "pgp" : "0",
      "terminal" : "0",
      "latitude" : "24.15085",
      "inDis" : "50",
      "routeId" : "27",
      "seqNo" : "10"
   },
   {
      "GoBack" : "1",
      "longitude" : "120.66065",
      "outDis" : "50",
      "Id" : "0141",
      "oid" : "7263",
      "districtId" : "1",
      "nameZh" : "公益中美街口",
      "pgp" : "0",
      "terminal" : "0",
      "latitude" : "24.15081",
      "inDis" : "50",
      "routeId" : "27",
      "seqNo" : "11"
   },
   {
      "GoBack" : "1",
      "longitude" : "120.65786",
      "outDis" : "50",
      "Id" : "4587",
      "oid" : "7310",
      "districtId" : "1",
      "nameZh" : "公益公園(公益路)",
      "pgp" : "0",
      "terminal" : "0",
      "latitude" : "24.15086",
      "inDis" : "50",
      "routeId" : "27",
      "seqNo" : "12"
   },
   {
      "GoBack" : "1",
      "longitude" : "120.65592",
      "outDis" : "50",
      "Id" : "0140",
      "oid" : "7571",
      "districtId" : "1",
      "nameZh" : "公益精誠路口",
      "pgp" : "0",
      "terminal" : "0",
      "latitude" : "24.15091",
      "inDis" : "50",
      "routeId" : "27",
      "seqNo" : "13"
   },
   {
      "GoBack" : "1",
      "longitude" : "120.65296",
      "outDis" : "50",
      "Id" : "4553",
      "oid" : "7130",
      "districtId" : "1",
      "nameZh" : "公益東興路口",
      "pgp" : "0",
      "terminal" : "0",
      "latitude" : "24.15087",
      "inDis" : "50",
      "routeId" : "27",
      "seqNo" : "14"
   },
   {
      "GoBack" : "1",
      "longitude" : "120.64982",
      "outDis" : "50",
      "Id" : "0456",
      "oid" : "7309",
      "districtId" : "1",
      "nameZh" : "公益大墩路口",
      "pgp" : "0",
      "terminal" : "0",
      "latitude" : "24.1509",
      "inDis" : "50",
      "routeId" : "27",
      "seqNo" : "15"
   },
   {
      "GoBack" : "1",
      "longitude" : "120.64673",
      "outDis" : "50",
      "Id" : "1607",
      "oid" : "7311",
      "districtId" : "1",
      "nameZh" : "公益文心路口",
      "pgp" : "0",
      "terminal" : "0",
      "latitude" : "24.15084",
      "inDis" : "50",
      "routeId" : "27",
      "seqNo" : "16"
   },
   {
      "GoBack" : "1",
      "longitude" : "120.6433",
      "outDis" : "50",
      "Id" : "5476",
      "oid" : "7312",
      "districtId" : "1",
      "nameZh" : "臺中特殊教育學校",
      "pgp" : "0",
      "terminal" : "0",
      "latitude" : "24.15109",
      "inDis" : "50",
      "routeId" : "27",
      "seqNo" : "17"
   },
   {
      "GoBack" : "1",
      "longitude" : "120.64007",
      "outDis" : "50",
      "Id" : "0814",
      "oid" : "7471",
      "districtId" : "1",
      "nameZh" : "惠文高中(公益路)",
      "pgp" : "0",
      "terminal" : "0",
      "latitude" : "24.15129",
      "inDis" : "50",
      "routeId" : "27",
      "seqNo" : "18"
   },
   {
      "GoBack" : "1",
      "longitude" : "120.63788",
      "outDis" : "50",
      "Id" : "0815",
      "oid" : "B37E755C1663481898CD64F989220E3C",
      "districtId" : "1",
      "nameZh" : "惠文國小",
      "pgp" : "0",
      "terminal" : "0",
      "latitude" : "24.1514",
      "inDis" : "50",
      "routeId" : "27",
      "seqNo" : "19"
   },
   {
      "GoBack" : "1",
      "longitude" : "120.63702",
      "outDis" : "50",
      "Id" : "1356",
      "oid" : "10233",
      "districtId" : "1",
      "nameZh" : "河南大業路口",
      "pgp" : "0",
      "terminal" : "0",
      "latitude" : "24.15362",
      "inDis" : "50",
      "routeId" : "27",
      "seqNo" : "20"
   },
   {
      "GoBack" : "1",
      "longitude" : "120.63661",
      "outDis" : "50",
      "Id" : "1883",
      "oid" : "10242",
      "districtId" : "1",
      "nameZh" : "河南市政南二路口",
      "pgp" : "0",
      "terminal" : "0",
      "latitude" : "24.15599",
      "inDis" : "50",
      "routeId" : "27",
      "seqNo" : "21"
   },
   {
      "GoBack" : "1",
      "longitude" : "120.63644",
      "outDis" : "50",
      "Id" : "0021",
      "oid" : "10243",
      "districtId" : "1",
      "nameZh" : "河南市政路口",
      "pgp" : "0",
      "terminal" : "0",
      "latitude" : "24.16059",
      "inDis" : "50",
      "routeId" : "27",
      "seqNo" : "22"
   },
   {
      "GoBack" : "1",
      "longitude" : "120.63785",
      "outDis" : "50",
      "Id" : "1881",
      "oid" : "10241",
      "districtId" : "1",
      "nameZh" : "河南市政北二路口",
      "pgp" : "0",
      "terminal" : "0",
      "latitude" : "24.16296",
      "inDis" : "50",
      "routeId" : "27",
      "seqNo" : "23"
   },
   {
      "GoBack" : "1",
      "longitude" : "120.63933",
      "outDis" : "50",
      "Id" : "1880",
      "oid" : "10240",
      "districtId" : "1",
      "nameZh" : "河南市政北七路口",
      "pgp" : "0",
      "terminal" : "0",
      "latitude" : "24.16527",
      "inDis" : "50",
      "routeId" : "27",
      "seqNo" : "24"
   },
   {
      "GoBack" : "1",
      "longitude" : "120.63951",
      "outDis" : "50",
      "Id" : "0826",
      "oid" : "578A4A7407F241F291B08DCED3F32D07",
      "districtId" : "1",
      "nameZh" : "秋紅谷(朝陽橋)",
      "pgp" : "0",
      "terminal" : "0",
      "latitude" : "24.16882",
      "inDis" : "50",
      "routeId" : "27",
      "seqNo" : "25"
   },
   {
      "GoBack" : "1",
      "longitude" : "120.63717",
      "outDis" : "50",
      "Id" : "0054",
      "oid" : "313524993",
      "districtId" : "1",
      "nameZh" : "朝馬(臺灣大道)",
      "pgp" : "0",
      "terminal" : "0",
      "latitude" : "24.17059",
      "inDis" : "50",
      "routeId" : "27",
      "seqNo" : "26"
   },
   {
      "GoBack" : "1",
      "longitude" : "120.62438",
      "outDis" : "50",
      "Id" : "1481",
      "oid" : "10235",
      "districtId" : "1",
      "nameZh" : "安和臺灣大道口",
      "pgp" : "0",
      "terminal" : "0",
      "latitude" : "24.17838",
      "inDis" : "50",
      "routeId" : "27",
      "seqNo" : "28"
   },
   {
      "GoBack" : "1",
      "longitude" : "120.623",
      "outDis" : "50",
      "Id" : "0285",
      "oid" : "319311017",
      "districtId" : "1",
      "nameZh" : "安和福玄路口",
      "pgp" : "0",
      "terminal" : "0",
      "latitude" : "24.1768",
      "inDis" : "50",
      "routeId" : "27",
      "seqNo" : "29"
   },
   {
      "GoBack" : "1",
      "longitude" : "120.62225",
      "outDis" : "50",
      "Id" : "5106",
      "oid" : "312172221",
      "districtId" : "1",
      "nameZh" : "安和朝馬路口",
      "pgp" : "0",
      "terminal" : "0",
      "latitude" : "24.17457",
      "inDis" : "50",
      "routeId" : "27",
      "seqNo" : "30"
   },
   {
      "GoBack" : "1",
      "longitude" : "120.62001",
      "outDis" : "50",
      "Id" : "0629",
      "oid" : "10245",
      "districtId" : "1",
      "nameZh" : "協和國小",
      "pgp" : "0",
      "terminal" : "0",
      "latitude" : "24.17012",
      "inDis" : "50",
      "routeId" : "27",
      "seqNo" : "31"
   },
   {
      "GoBack" : "1",
      "longitude" : "120.61848",
      "outDis" : "50",
      "Id" : "0329",
      "oid" : "10230",
      "districtId" : "1",
      "nameZh" : "下七張犁",
      "pgp" : "0",
      "terminal" : "0",
      "latitude" : "24.16461",
      "inDis" : "50",
      "routeId" : "27",
      "seqNo" : "32"
   },
   {
      "GoBack" : "1",
      "longitude" : "120.61786",
      "outDis" : "50",
      "Id" : "0765",
      "oid" : "10249",
      "districtId" : "1",
      "nameZh" : "啟聰學校",
      "pgp" : "0",
      "terminal" : "0",
      "latitude" : "24.1615",
      "inDis" : "50",
      "routeId" : "27",
      "seqNo" : "33"
   },
   {
      "GoBack" : "1",
      "longitude" : "120.61713",
      "outDis" : "50",
      "Id" : "3985",
      "oid" : "303068250",
      "districtId" : "1",
      "nameZh" : "寶山里",
      "pgp" : "0",
      "terminal" : "0",
      "latitude" : "24.15748",
      "inDis" : "50",
      "routeId" : "27",
      "seqNo" : "34"
   },
   {
      "GoBack" : "1",
      "longitude" : "120.61664",
      "outDis" : "50",
      "Id" : "5494",
      "oid" : "314683530",
      "districtId" : "1",
      "nameZh" : "忠勇五權西路口",
      "pgp" : "0",
      "terminal" : "0",
      "latitude" : "24.15434",
      "inDis" : "50",
      "routeId" : "27",
      "seqNo" : "35"
   },
   {
      "GoBack" : "1",
      "longitude" : "120.61641",
      "outDis" : "50",
      "Id" : "5488",
      "oid" : "B749E9C5251843EF9B30E5D3BA0A4B92",
      "districtId" : "1",
      "nameZh" : "忠勇寶山東二街口",
      "pgp" : "0",
      "terminal" : "0",
      "latitude" : "24.15269",
      "inDis" : "50",
      "routeId" : "27",
      "seqNo" : "36"
   },
   {
      "GoBack" : "1",
      "longitude" : "120.6157",
      "outDis" : "50",
      "Id" : "5489",
      "oid" : "12627",
      "districtId" : "1",
      "nameZh" : "寶山里土地公",
      "pgp" : "0",
      "terminal" : "0",
      "latitude" : "24.15073",
      "inDis" : "50",
      "routeId" : "27",
      "seqNo" : "37"
   },
   {
      "GoBack" : "1",
      "longitude" : "120.61561",
      "outDis" : "50",
      "Id" : "0165",
      "oid" : "4B90641C67CE406BB199990BA5C02BF6",
      "districtId" : "1",
      "nameZh" : "文山國小(忠勇路)",
      "pgp" : "0",
      "terminal" : "0",
      "latitude" : "24.14961",
      "inDis" : "50",
      "routeId" : "27",
      "seqNo" : "38"
   },
   {
      "GoBack" : "1",
      "longitude" : "120.61502",
      "outDis" : "50",
      "Id" : "0160",
      "oid" : "10238",
      "districtId" : "1",
      "nameZh" : "文山里",
      "pgp" : "0",
      "terminal" : "0",
      "latitude" : "24.14655",
      "inDis" : "50",
      "routeId" : "27",
      "seqNo" : "39"
   },
   {
      "GoBack" : "1",
      "longitude" : "120.61473",
      "outDis" : "50",
      "Id" : "0159",
      "oid" : "8B7E1216EDAB4225A53875CE28AD9D10",
      "districtId" : "1",
      "nameZh" : "一善堂",
      "pgp" : "0",
      "terminal" : "0",
      "latitude" : "24.14489",
      "inDis" : "50",
      "routeId" : "27",
      "seqNo" : "40"
   },
   {
      "GoBack" : "1",
      "longitude" : "120.61372",
      "outDis" : "50",
      "Id" : "0158",
      "oid" : "10232",
      "districtId" : "1",
      "nameZh" : "下文山",
      "pgp" : "0",
      "terminal" : "0",
      "latitude" : "24.14275",
      "inDis" : "50",
      "routeId" : "27",
      "seqNo" : "41"
   },
   {
      "GoBack" : "1",
      "longitude" : "120.61318",
      "outDis" : "50",
      "Id" : "0157",
      "oid" : "10229",
      "districtId" : "1",
      "nameZh" : "七星橋",
      "pgp" : "0",
      "terminal" : "0",
      "latitude" : "24.14074",
      "inDis" : "50",
      "routeId" : "27",
      "seqNo" : "42"
   },
   {
      "GoBack" : "1",
      "longitude" : "120.61287",
      "outDis" : "50",
      "Id" : "4599",
      "oid" : "5F65E406123E4647A5674D01E93E5A06",
      "districtId" : "1",
      "nameZh" : "春社里(忠勇路)",
      "pgp" : "0",
      "terminal" : "0",
      "latitude" : "24.13912",
      "inDis" : "50",
      "routeId" : "27",
      "seqNo" : "43"
   },
   {
      "GoBack" : "1",
      "longitude" : "120.61119",
      "outDis" : "50",
      "Id" : "3874",
      "oid" : "F2B6FDAAB4C54E57A9C29D90DDEF4F16",
      "districtId" : "1",
      "nameZh" : "嶺東高中",
      "pgp" : "0",
      "terminal" : "0",
      "latitude" : "24.1385",
      "inDis" : "50",
      "routeId" : "27",
      "seqNo" : "44"
   },
   {
      "GoBack" : "1",
      "longitude" : "120.61016",
      "outDis" : "50",
      "Id" : "5319",
      "oid" : "10253",
      "districtId" : "1",
      "nameZh" : "嶺東科技大學(嶺東路)",
      "pgp" : "0",
      "terminal" : "0",
      "latitude" : "24.13701",
      "inDis" : "50",
      "routeId" : "27",
      "seqNo" : "45"
   },
   {
      "GoBack" : "1",
      "longitude" : "120.60964",
      "outDis" : "50",
      "Id" : "1411",
      "oid" : "10234",
      "districtId" : "1",
      "nameZh" : "干城六村",
      "pgp" : "0",
      "terminal" : "0",
      "latitude" : "24.13668",
      "inDis" : "50",
      "routeId" : "27",
      "seqNo" : "46"
   },
   {
      "GoBack" : "1",
      "longitude" : "120.60739",
      "outDis" : "50",
      "Id" : "0941",
      "oid" : "10254",
      "districtId" : "1",
      "nameZh" : "嶺東三站",
      "pgp" : "0",
      "terminal" : "0",
      "latitude" : "24.13657",
      "inDis" : "50",
      "routeId" : "27",
      "seqNo" : "47"
   },
   {
      "GoBack" : "1",
      "longitude" : "120.60918",
      "outDis" : "50",
      "Id" : "5162",
      "oid" : "10256",
      "districtId" : "1",
      "nameZh" : "嶺東科技大學(永春南路)",
      "pgp" : "0",
      "terminal" : "0",
      "latitude" : "24.13853",
      "inDis" : "30",
      "routeId" : "27",
      "seqNo" : "48"
   },
   {
      "GoBack" : "2",
      "longitude" : "120.60918",
      "outDis" : "50",
      "Id" : "5162",
      "oid" : "10256",
      "districtId" : "1",
      "nameZh" : "嶺東科技大學(永春南路)",
      "pgp" : "0",
      "terminal" : "0",
      "latitude" : "24.13853",
      "inDis" : "30",
      "routeId" : "27",
      "seqNo" : "1"
   },
   {
      "GoBack" : "2",
      "longitude" : "120.61119",
      "outDis" : "50",
      "Id" : "3874",
      "oid" : "F2B6FDAAB4C54E57A9C29D90DDEF4F16",
      "districtId" : "1",
      "nameZh" : "嶺東高中",
      "pgp" : "0",
      "terminal" : "0",
      "latitude" : "24.1385",
      "inDis" : "50",
      "routeId" : "27",
      "seqNo" : "2"
   },
   {
      "GoBack" : "2",
      "longitude" : "120.61287",
      "outDis" : "50",
      "Id" : "4599",
      "oid" : "5F65E406123E4647A5674D01E93E5A06",
      "districtId" : "1",
      "nameZh" : "春社里(忠勇路)",
      "pgp" : "0",
      "terminal" : "0",
      "latitude" : "24.13912",
      "inDis" : "50",
      "routeId" : "27",
      "seqNo" : "3"
   },
   {
      "GoBack" : "2",
      "longitude" : "120.61318",
      "outDis" : "50",
      "Id" : "0157",
      "oid" : "10229",
      "districtId" : "1",
      "nameZh" : "七星橋",
      "pgp" : "0",
      "terminal" : "0",
      "latitude" : "24.14074",
      "inDis" : "50",
      "routeId" : "27",
      "seqNo" : "4"
   },
   {
      "GoBack" : "2",
      "longitude" : "120.61372",
      "outDis" : "50",
      "Id" : "0158",
      "oid" : "10232",
      "districtId" : "1",
      "nameZh" : "下文山",
      "pgp" : "0",
      "terminal" : "0",
      "latitude" : "24.14275",
      "inDis" : "50",
      "routeId" : "27",
      "seqNo" : "5"
   },
   {
      "GoBack" : "2",
      "longitude" : "120.61474",
      "outDis" : "50",
      "Id" : "0159",
      "oid" : "F5FF689F60CF4445930F71E09E0BD7C6",
      "districtId" : "1",
      "nameZh" : "一善堂",
      "pgp" : "0",
      "terminal" : "0",
      "latitude" : "24.14496",
      "inDis" : "50",
      "routeId" : "27",
      "seqNo" : "6"
   },
   {
      "GoBack" : "2",
      "longitude" : "120.61497",
      "outDis" : "50",
      "Id" : "0160",
      "oid" : "10237",
      "districtId" : "1",
      "nameZh" : "文山里",
      "pgp" : "0",
      "terminal" : "0",
      "latitude" : "24.14588",
      "inDis" : "50",
      "routeId" : "27",
      "seqNo" : "7"
   },
   {
      "GoBack" : "2",
      "longitude" : "120.6156",
      "outDis" : "50",
      "Id" : "0165",
      "oid" : "7CFC43E343584124A6201DA976758821",
      "districtId" : "1",
      "nameZh" : "文山國小(忠勇路)",
      "pgp" : "0",
      "terminal" : "0",
      "latitude" : "24.14938",
      "inDis" : "50",
      "routeId" : "27",
      "seqNo" : "8"
   },
   {
      "GoBack" : "2",
      "longitude" : "120.6157",
      "outDis" : "50",
      "Id" : "5489",
      "oid" : "12627",
      "districtId" : "1",
      "nameZh" : "寶山里土地公",
      "pgp" : "0",
      "terminal" : "0",
      "latitude" : "24.15073",
      "inDis" : "50",
      "routeId" : "27",
      "seqNo" : "9"
   },
   {
      "GoBack" : "2",
      "longitude" : "120.61629",
      "outDis" : "50",
      "Id" : "5488",
      "oid" : "C0EF86DDE2FE4F9691725663784DE5BE",
      "districtId" : "1",
      "nameZh" : "忠勇寶山東二街口",
      "pgp" : "0",
      "terminal" : "0",
      "latitude" : "24.15275",
      "inDis" : "50",
      "routeId" : "27",
      "seqNo" : "10"
   },
   {
      "GoBack" : "2",
      "longitude" : "120.61664",
      "outDis" : "50",
      "Id" : "5494",
      "oid" : "314683530",
      "districtId" : "1",
      "nameZh" : "忠勇五權西路口",
      "pgp" : "0",
      "terminal" : "0",
      "latitude" : "24.15434",
      "inDis" : "50",
      "routeId" : "27",
      "seqNo" : "11"
   },
   {
      "GoBack" : "2",
      "longitude" : "120.61713",
      "outDis" : "50",
      "Id" : "3985",
      "oid" : "303068252",
      "districtId" : "1",
      "nameZh" : "寶山里",
      "pgp" : "0",
      "terminal" : "0",
      "latitude" : "24.15748",
      "inDis" : "50",
      "routeId" : "27",
      "seqNo" : "12"
   },
   {
      "GoBack" : "2",
      "longitude" : "120.61786",
      "outDis" : "50",
      "Id" : "0765",
      "oid" : "10249",
      "districtId" : "1",
      "nameZh" : "啟聰學校",
      "pgp" : "0",
      "terminal" : "0",
      "latitude" : "24.1615",
      "inDis" : "50",
      "routeId" : "27",
      "seqNo" : "13"
   },
   {
      "GoBack" : "2",
      "longitude" : "120.61848",
      "outDis" : "50",
      "Id" : "0329",
      "oid" : "10230",
      "districtId" : "1",
      "nameZh" : "下七張犁",
      "pgp" : "0",
      "terminal" : "0",
      "latitude" : "24.16461",
      "inDis" : "50",
      "routeId" : "27",
      "seqNo" : "14"
   },
   {
      "GoBack" : "2",
      "longitude" : "120.62001",
      "outDis" : "50",
      "Id" : "0629",
      "oid" : "10245",
      "districtId" : "1",
      "nameZh" : "協和國小",
      "pgp" : "0",
      "terminal" : "0",
      "latitude" : "24.17012",
      "inDis" : "50",
      "routeId" : "27",
      "seqNo" : "15"
   },
   {
      "GoBack" : "2",
      "longitude" : "120.62225",
      "outDis" : "50",
      "Id" : "5106",
      "oid" : "312172221",
      "districtId" : "1",
      "nameZh" : "安和朝馬路口",
      "pgp" : "0",
      "terminal" : "0",
      "latitude" : "24.17457",
      "inDis" : "50",
      "routeId" : "27",
      "seqNo" : "16"
   },
   {
      "GoBack" : "2",
      "longitude" : "120.62353",
      "outDis" : "50",
      "Id" : "0285",
      "oid" : "319311016",
      "districtId" : "1",
      "nameZh" : "安和福玄路口",
      "pgp" : "0",
      "terminal" : "0",
      "latitude" : "24.1767",
      "inDis" : "50",
      "routeId" : "27",
      "seqNo" : "17"
   },
   {
      "GoBack" : "2",
      "longitude" : "120.62438",
      "outDis" : "50",
      "Id" : "1481",
      "oid" : "10235",
      "districtId" : "1",
      "nameZh" : "安和臺灣大道口",
      "pgp" : "0",
      "terminal" : "0",
      "latitude" : "24.17838",
      "inDis" : "50",
      "routeId" : "27",
      "seqNo" : "18"
   },
   {
      "GoBack" : "2",
      "longitude" : "120.63717",
      "outDis" : "50",
      "Id" : "0054",
      "oid" : "313524993",
      "districtId" : "1",
      "nameZh" : "朝馬(臺灣大道)",
      "pgp" : "0",
      "terminal" : "0",
      "latitude" : "24.17059",
      "inDis" : "50",
      "routeId" : "27",
      "seqNo" : "20"
   },
   {
      "GoBack" : "2",
      "longitude" : "120.63972",
      "outDis" : "50",
      "Id" : "0826",
      "oid" : "33DDB5EE821B4E73B3A83FC35522CADE",
      "districtId" : "1",
      "nameZh" : "秋紅谷(朝陽橋)",
      "pgp" : "0",
      "terminal" : "0",
      "latitude" : "24.16843",
      "inDis" : "50",
      "routeId" : "27",
      "seqNo" : "21"
   },
   {
      "GoBack" : "2",
      "longitude" : "120.64049",
      "outDis" : "50",
      "Id" : "4530",
      "oid" : "5207E1CA0C5548B59073BF4D1BC5C04A",
      "districtId" : "1",
      "nameZh" : "河南臺灣大道口",
      "pgp" : "0",
      "terminal" : "0",
      "latitude" : "24.16724",
      "inDis" : "50",
      "routeId" : "27",
      "seqNo" : "22"
   },
   {
      "GoBack" : "2",
      "longitude" : "120.63933",
      "outDis" : "50",
      "Id" : "1880",
      "oid" : "10240",
      "districtId" : "1",
      "nameZh" : "河南市政北七路口",
      "pgp" : "0",
      "terminal" : "0",
      "latitude" : "24.16527",
      "inDis" : "50",
      "routeId" : "27",
      "seqNo" : "23"
   },
   {
      "GoBack" : "2",
      "longitude" : "120.63785",
      "outDis" : "50",
      "Id" : "1881",
      "oid" : "10241",
      "districtId" : "1",
      "nameZh" : "河南市政北二路口",
      "pgp" : "0",
      "terminal" : "0",
      "latitude" : "24.16296",
      "inDis" : "50",
      "routeId" : "27",
      "seqNo" : "24"
   },
   {
      "GoBack" : "2",
      "longitude" : "120.63644",
      "outDis" : "50",
      "Id" : "0021",
      "oid" : "10243",
      "districtId" : "1",
      "nameZh" : "河南市政路口",
      "pgp" : "0",
      "terminal" : "0",
      "latitude" : "24.16059",
      "inDis" : "50",
      "routeId" : "27",
      "seqNo" : "25"
   },
   {
      "GoBack" : "2",
      "longitude" : "120.63661",
      "outDis" : "50",
      "Id" : "1883",
      "oid" : "10242",
      "districtId" : "1",
      "nameZh" : "河南市政南二路口",
      "pgp" : "0",
      "terminal" : "0",
      "latitude" : "24.15599",
      "inDis" : "50",
      "routeId" : "27",
      "seqNo" : "26"
   },
   {
      "GoBack" : "2",
      "longitude" : "120.63702",
      "outDis" : "50",
      "Id" : "1356",
      "oid" : "10233",
      "districtId" : "1",
      "nameZh" : "河南大業路口",
      "pgp" : "0",
      "terminal" : "0",
      "latitude" : "24.15362",
      "inDis" : "50",
      "routeId" : "27",
      "seqNo" : "27"
   },
   {
      "GoBack" : "2",
      "longitude" : "120.63779",
      "outDis" : "50",
      "Id" : "0815",
      "oid" : "8ABE6D33AFA440CFB23CDA40D5C9AAB8",
      "districtId" : "1",
      "nameZh" : "惠文國小",
      "pgp" : "0",
      "terminal" : "0",
      "latitude" : "24.15154",
      "inDis" : "50",
      "routeId" : "27",
      "seqNo" : "28"
   },
   {
      "GoBack" : "2",
      "longitude" : "120.64007",
      "outDis" : "50",
      "Id" : "0814",
      "oid" : "7471",
      "districtId" : "1",
      "nameZh" : "惠文高中(公益路)",
      "pgp" : "0",
      "terminal" : "0",
      "latitude" : "24.15129",
      "inDis" : "50",
      "routeId" : "27",
      "seqNo" : "29"
   },
   {
      "GoBack" : "2",
      "longitude" : "120.6433",
      "outDis" : "50",
      "Id" : "5476",
      "oid" : "7312",
      "districtId" : "1",
      "nameZh" : "臺中特殊教育學校",
      "pgp" : "0",
      "terminal" : "0",
      "latitude" : "24.15109",
      "inDis" : "50",
      "routeId" : "27",
      "seqNo" : "30"
   },
   {
      "GoBack" : "2",
      "longitude" : "120.64673",
      "outDis" : "50",
      "Id" : "1607",
      "oid" : "7311",
      "districtId" : "1",
      "nameZh" : "公益文心路口",
      "pgp" : "0",
      "terminal" : "0",
      "latitude" : "24.15084",
      "inDis" : "50",
      "routeId" : "27",
      "seqNo" : "31"
   },
   {
      "GoBack" : "2",
      "longitude" : "120.64982",
      "outDis" : "50",
      "Id" : "0456",
      "oid" : "7309",
      "districtId" : "1",
      "nameZh" : "公益大墩路口",
      "pgp" : "0",
      "terminal" : "0",
      "latitude" : "24.1509",
      "inDis" : "50",
      "routeId" : "27",
      "seqNo" : "32"
   },
   {
      "GoBack" : "2",
      "longitude" : "120.65296",
      "outDis" : "50",
      "Id" : "4553",
      "oid" : "7130",
      "districtId" : "1",
      "nameZh" : "公益東興路口",
      "pgp" : "0",
      "terminal" : "0",
      "latitude" : "24.15087",
      "inDis" : "50",
      "routeId" : "27",
      "seqNo" : "33"
   },
   {
      "GoBack" : "2",
      "longitude" : "120.65592",
      "outDis" : "50",
      "Id" : "0140",
      "oid" : "7571",
      "districtId" : "1",
      "nameZh" : "公益精誠路口",
      "pgp" : "0",
      "terminal" : "0",
      "latitude" : "24.15091",
      "inDis" : "50",
      "routeId" : "27",
      "seqNo" : "34"
   },
   {
      "GoBack" : "2",
      "longitude" : "120.65786",
      "outDis" : "50",
      "Id" : "4587",
      "oid" : "7310",
      "districtId" : "1",
      "nameZh" : "公益公園(公益路)",
      "pgp" : "0",
      "terminal" : "0",
      "latitude" : "24.15086",
      "inDis" : "50",
      "routeId" : "27",
      "seqNo" : "35"
   },
   {
      "GoBack" : "2",
      "longitude" : "120.66065",
      "outDis" : "50",
      "Id" : "0141",
      "oid" : "7263",
      "districtId" : "1",
      "nameZh" : "公益中美街口",
      "pgp" : "0",
      "terminal" : "0",
      "latitude" : "24.15081",
      "inDis" : "50",
      "routeId" : "27",
      "seqNo" : "36"
   },
   {
      "GoBack" : "2",
      "longitude" : "120.66452",
      "outDis" : "50",
      "Id" : "0276",
      "oid" : "4F2E759BF74D4FACBB506B5534004E99",
      "districtId" : "1",
      "nameZh" : "草悟道(市民廣場)",
      "pgp" : "0",
      "terminal" : "0",
      "latitude" : "24.15085",
      "inDis" : "50",
      "routeId" : "27",
      "seqNo" : "37"
   },
   {
      "GoBack" : "2",
      "longitude" : "120.66539",
      "outDis" : "50",
      "Id" : "2077",
      "oid" : "10244",
      "districtId" : "1",
      "nameZh" : "英才向上北路口",
      "pgp" : "0",
      "terminal" : "0",
      "latitude" : "24.14789",
      "inDis" : "50",
      "routeId" : "27",
      "seqNo" : "38"
   },
   {
      "GoBack" : "2",
      "longitude" : "120.66607",
      "outDis" : "50",
      "Id" : "0725",
      "oid" : "10248",
      "districtId" : "1",
      "nameZh" : "向上英才路口",
      "pgp" : "0",
      "terminal" : "0",
      "latitude" : "24.14675",
      "inDis" : "50",
      "routeId" : "27",
      "seqNo" : "39"
   },
   {
      "GoBack" : "2",
      "longitude" : "120.66934",
      "outDis" : "50",
      "Id" : "5235",
      "oid" : "312172220",
      "districtId" : "1",
      "nameZh" : "向上民權路口",
      "pgp" : "0",
      "terminal" : "0",
      "latitude" : "24.14673",
      "inDis" : "50",
      "routeId" : "27",
      "seqNo" : "40"
   },
   {
      "GoBack" : "2",
      "longitude" : "120.67153",
      "outDis" : "50",
      "Id" : "0513",
      "oid" : "8155",
      "districtId" : "1",
      "nameZh" : "臺中教育大學",
      "pgp" : "0",
      "terminal" : "0",
      "latitude" : "24.14517",
      "inDis" : "50",
      "routeId" : "27",
      "seqNo" : "41"
   },
   {
      "GoBack" : "2",
      "longitude" : "120.67464",
      "outDis" : "50",
      "Id" : "4623",
      "oid" : "772FFD21B46D4E16AAC6A8B3CCE38713",
      "districtId" : "1",
      "nameZh" : "民權中華路口",
      "pgp" : "0",
      "terminal" : "0",
      "latitude" : "24.14257",
      "inDis" : "50",
      "routeId" : "27",
      "seqNo" : "42"
   },
   {
      "GoBack" : "2",
      "longitude" : "120.6765",
      "outDis" : "50",
      "Id" : "0208",
      "oid" : "8157",
      "districtId" : "1",
      "nameZh" : "臺中醫院",
      "pgp" : "0",
      "terminal" : "0",
      "latitude" : "24.14097",
      "inDis" : "50",
      "routeId" : "27",
      "seqNo" : "43"
   },
   {
      "GoBack" : "2",
      "longitude" : "120.67847",
      "outDis" : "50",
      "Id" : "4416",
      "oid" : "8158",
      "districtId" : "1",
      "nameZh" : "臺中州廳",
      "pgp" : "0",
      "terminal" : "0",
      "latitude" : "24.13918",
      "inDis" : "50",
      "routeId" : "27",
      "seqNo" : "44"
   },
   {
      "GoBack" : "2",
      "longitude" : "120.68037",
      "outDis" : "50",
      "Id" : "0215",
      "oid" : "7068",
      "districtId" : "1",
      "nameZh" : "合作金庫",
      "pgp" : "0",
      "terminal" : "0",
      "latitude" : "24.13808",
      "inDis" : "50",
      "routeId" : "27",
      "seqNo" : "45"
   },
   {
      "GoBack" : "2",
      "longitude" : "120.68183",
      "outDis" : "50",
      "Id" : "0216",
      "oid" : "7548",
      "districtId" : "1",
      "nameZh" : "彰化銀行(自由路)",
      "pgp" : "0",
      "terminal" : "0",
      "latitude" : "24.13972",
      "inDis" : "50",
      "routeId" : "27",
      "seqNo" : "46"
   },
   {
      "GoBack" : "2",
      "longitude" : "120.68358",
      "outDis" : "50",
      "Id" : "0151",
      "oid" : "7436",
      "districtId" : "1",
      "nameZh" : "第一廣場",
      "pgp" : "0",
      "terminal" : "0",
      "latitude" : "24.13897",
      "inDis" : "50",
      "routeId" : "27",
      "seqNo" : "47"
   },
   {
      "GoBack" : "2",
      "longitude" : "120.6846",
      "outDis" : "50",
      "Id" : "1824",
      "oid" : "7358",
      "districtId" : "1",
      "nameZh" : "臺中火車站",
      "pgp" : "0",
      "terminal" : "0",
      "latitude" : "24.13726",
      "inDis" : "50",
      "routeId" : "27",
      "seqNo" : "48"
   }
]
