[
   {
      "GoBack" : "1",
      "longitude" : "120.56106",
      "outDis" : "50",
      "Id" : "2248",
      "oid" : "10784",
      "districtId" : "1",
      "nameZh" : "沙鹿站",
      "pgp" : "0",
      "terminal" : "0",
      "latitude" : "24.23783",
      "inDis" : "50",
      "routeId" : "176",
      "seqNo" : "1"
   },
   {
      "GoBack" : "1",
      "longitude" : "120.55967",
      "outDis" : "50",
      "Id" : "4681",
      "oid" : "313348322",
      "districtId" : "1",
      "nameZh" : "沙鹿市場",
      "pgp" : "0",
      "terminal" : "0",
      "latitude" : "24.23731",
      "inDis" : "50",
      "routeId" : "176",
      "seqNo" : "2"
   },
   {
      "GoBack" : "1",
      "longitude" : "120.55923",
      "outDis" : "50",
      "Id" : "4815",
      "oid" : "313348309",
      "districtId" : "1",
      "nameZh" : "沙鹿火車站",
      "pgp" : "0",
      "terminal" : "0",
      "latitude" : "24.23612",
      "inDis" : "50",
      "routeId" : "176",
      "seqNo" : "3"
   },
   {
      "GoBack" : "1",
      "longitude" : "120.55882",
      "outDis" : "50",
      "Id" : "4816",
      "oid" : "313222697",
      "districtId" : "1",
      "nameZh" : "沙鹿光田醫院",
      "pgp" : "0",
      "terminal" : "0",
      "latitude" : "24.23492",
      "inDis" : "50",
      "routeId" : "176",
      "seqNo" : "4"
   },
   {
      "GoBack" : "1",
      "longitude" : "120.5588",
      "outDis" : "50",
      "Id" : "3809",
      "oid" : "14416",
      "districtId" : "1",
      "nameZh" : "興仁里",
      "pgp" : "0",
      "terminal" : "0",
      "latitude" : "24.23027",
      "inDis" : "50",
      "routeId" : "176",
      "seqNo" : "5"
   },
   {
      "GoBack" : "1",
      "longitude" : "120.55734",
      "outDis" : "50",
      "Id" : "1664",
      "oid" : "313575203",
      "districtId" : "1",
      "nameZh" : "文光國小",
      "pgp" : "0",
      "terminal" : "0",
      "latitude" : "24.2242",
      "inDis" : "50",
      "routeId" : "176",
      "seqNo" : "6"
   },
   {
      "GoBack" : "1",
      "longitude" : "120.55692",
      "outDis" : "50",
      "Id" : "4458",
      "oid" : "311330176",
      "districtId" : "1",
      "nameZh" : "沙田天仁街口",
      "pgp" : "0",
      "terminal" : "0",
      "latitude" : "24.22316",
      "inDis" : "50",
      "routeId" : "176",
      "seqNo" : "7"
   },
   {
      "GoBack" : "1",
      "longitude" : "120.55613",
      "outDis" : "50",
      "Id" : "2613",
      "oid" : "14418",
      "districtId" : "1",
      "nameZh" : "南勢里",
      "pgp" : "0",
      "terminal" : "0",
      "latitude" : "24.22126",
      "inDis" : "50",
      "routeId" : "176",
      "seqNo" : "8"
   },
   {
      "GoBack" : "1",
      "longitude" : "120.55287",
      "outDis" : "50",
      "Id" : "4459",
      "oid" : "14419",
      "districtId" : "1",
      "nameZh" : "沙田太平路口",
      "pgp" : "0",
      "terminal" : "0",
      "latitude" : "24.21671",
      "inDis" : "50",
      "routeId" : "176",
      "seqNo" : "9"
   },
   {
      "GoBack" : "1",
      "longitude" : "120.55174",
      "outDis" : "50",
      "Id" : "5159",
      "oid" : "311330174",
      "districtId" : "1",
      "nameZh" : "龍山國小(山腳里)",
      "pgp" : "0",
      "terminal" : "0",
      "latitude" : "24.21341",
      "inDis" : "50",
      "routeId" : "176",
      "seqNo" : "10"
   },
   {
      "GoBack" : "1",
      "longitude" : "120.55056",
      "outDis" : "50",
      "Id" : "2559",
      "oid" : "14421",
      "districtId" : "1",
      "nameZh" : "南山腳",
      "pgp" : "0",
      "terminal" : "0",
      "latitude" : "24.21022",
      "inDis" : "50",
      "routeId" : "176",
      "seqNo" : "11"
   },
   {
      "GoBack" : "1",
      "longitude" : "120.54923",
      "outDis" : "50",
      "Id" : "4010",
      "oid" : "14422",
      "districtId" : "1",
      "nameZh" : "鷺山",
      "pgp" : "0",
      "terminal" : "0",
      "latitude" : "24.20743",
      "inDis" : "50",
      "routeId" : "176",
      "seqNo" : "12"
   },
   {
      "GoBack" : "1",
      "longitude" : "120.54798",
      "outDis" : "50",
      "Id" : "3850",
      "oid" : "14423",
      "districtId" : "1",
      "nameZh" : "龍目井",
      "pgp" : "0",
      "terminal" : "0",
      "latitude" : "24.20249",
      "inDis" : "50",
      "routeId" : "176",
      "seqNo" : "13"
   },
   {
      "GoBack" : "1",
      "longitude" : "120.54697",
      "outDis" : "50",
      "Id" : "3855",
      "oid" : "14424",
      "districtId" : "1",
      "nameZh" : "龍泉",
      "pgp" : "0",
      "terminal" : "0",
      "latitude" : "24.19924",
      "inDis" : "50",
      "routeId" : "176",
      "seqNo" : "14"
   },
   {
      "GoBack" : "1",
      "longitude" : "120.54659",
      "outDis" : "50",
      "Id" : "3846",
      "oid" : "14425",
      "districtId" : "1",
      "nameZh" : "龍井火車站",
      "pgp" : "0",
      "terminal" : "0",
      "latitude" : "24.19687",
      "inDis" : "50",
      "routeId" : "176",
      "seqNo" : "15"
   },
   {
      "GoBack" : "1",
      "longitude" : "120.54608",
      "outDis" : "50",
      "Id" : "5160",
      "oid" : "14426",
      "districtId" : "1",
      "nameZh" : "龍井區公所",
      "pgp" : "0",
      "terminal" : "0",
      "latitude" : "24.19246",
      "inDis" : "50",
      "routeId" : "176",
      "seqNo" : "16"
   },
   {
      "GoBack" : "1",
      "longitude" : "120.5309",
      "outDis" : "50",
      "Id" : "4807",
      "oid" : "14427",
      "districtId" : "1",
      "nameZh" : "田中社區",
      "pgp" : "0",
      "terminal" : "0",
      "latitude" : "24.19375",
      "inDis" : "50",
      "routeId" : "176",
      "seqNo" : "17"
   },
   {
      "GoBack" : "1",
      "longitude" : "120.5305",
      "outDis" : "50",
      "Id" : "4806",
      "oid" : "14429",
      "districtId" : "1",
      "nameZh" : "田中村",
      "pgp" : "0",
      "terminal" : "0",
      "latitude" : "24.19083",
      "inDis" : "50",
      "routeId" : "176",
      "seqNo" : "18"
   },
   {
      "GoBack" : "1",
      "longitude" : "120.52976",
      "outDis" : "50",
      "Id" : "4826",
      "oid" : "14430",
      "districtId" : "1",
      "nameZh" : "南田中",
      "pgp" : "0",
      "terminal" : "0",
      "latitude" : "24.18709",
      "inDis" : "50",
      "routeId" : "176",
      "seqNo" : "19"
   },
   {
      "GoBack" : "1",
      "longitude" : "120.5303",
      "outDis" : "50",
      "Id" : "4866",
      "oid" : "14431",
      "districtId" : "1",
      "nameZh" : "龍井國小",
      "pgp" : "0",
      "terminal" : "0",
      "latitude" : "24.18417",
      "inDis" : "50",
      "routeId" : "176",
      "seqNo" : "20"
   },
   {
      "GoBack" : "1",
      "longitude" : "120.5301",
      "outDis" : "50",
      "Id" : "2713",
      "oid" : "311330175",
      "districtId" : "1",
      "nameZh" : "茄投(龍井奉天宮)",
      "pgp" : "0",
      "terminal" : "0",
      "latitude" : "24.17865",
      "inDis" : "50",
      "routeId" : "176",
      "seqNo" : "21"
   },
   {
      "GoBack" : "2",
      "longitude" : "120.5301",
      "outDis" : "50",
      "Id" : "2713",
      "oid" : "311330175",
      "districtId" : "1",
      "nameZh" : "茄投(龍井奉天宮)",
      "pgp" : "0",
      "terminal" : "0",
      "latitude" : "24.17865",
      "inDis" : "50",
      "routeId" : "176",
      "seqNo" : "1"
   },
   {
      "GoBack" : "2",
      "longitude" : "120.5303",
      "outDis" : "50",
      "Id" : "4866",
      "oid" : "14434",
      "districtId" : "1",
      "nameZh" : "龍井國小",
      "pgp" : "0",
      "terminal" : "0",
      "latitude" : "24.18417",
      "inDis" : "50",
      "routeId" : "176",
      "seqNo" : "2"
   },
   {
      "GoBack" : "2",
      "longitude" : "120.52976",
      "outDis" : "50",
      "Id" : "4826",
      "oid" : "14435",
      "districtId" : "1",
      "nameZh" : "南田中",
      "pgp" : "0",
      "terminal" : "0",
      "latitude" : "24.18709",
      "inDis" : "50",
      "routeId" : "176",
      "seqNo" : "3"
   },
   {
      "GoBack" : "2",
      "longitude" : "120.5305",
      "outDis" : "50",
      "Id" : "4806",
      "oid" : "14436",
      "districtId" : "1",
      "nameZh" : "田中村",
      "pgp" : "0",
      "terminal" : "0",
      "latitude" : "24.19083",
      "inDis" : "50",
      "routeId" : "176",
      "seqNo" : "4"
   },
   {
      "GoBack" : "2",
      "longitude" : "120.5309",
      "outDis" : "50",
      "Id" : "4807",
      "oid" : "14438",
      "districtId" : "1",
      "nameZh" : "田中社區",
      "pgp" : "0",
      "terminal" : "0",
      "latitude" : "24.19375",
      "inDis" : "50",
      "routeId" : "176",
      "seqNo" : "5"
   },
   {
      "GoBack" : "2",
      "longitude" : "120.54608",
      "outDis" : "50",
      "Id" : "5160",
      "oid" : "14439",
      "districtId" : "1",
      "nameZh" : "龍井區公所",
      "pgp" : "0",
      "terminal" : "0",
      "latitude" : "24.19246",
      "inDis" : "50",
      "routeId" : "176",
      "seqNo" : "6"
   },
   {
      "GoBack" : "2",
      "longitude" : "120.54659",
      "outDis" : "50",
      "Id" : "3846",
      "oid" : "14440",
      "districtId" : "1",
      "nameZh" : "龍井火車站",
      "pgp" : "0",
      "terminal" : "0",
      "latitude" : "24.19687",
      "inDis" : "50",
      "routeId" : "176",
      "seqNo" : "7"
   },
   {
      "GoBack" : "2",
      "longitude" : "120.54692",
      "outDis" : "50",
      "Id" : "3855",
      "oid" : "14441",
      "districtId" : "1",
      "nameZh" : "龍泉",
      "pgp" : "0",
      "terminal" : "0",
      "latitude" : "24.19917",
      "inDis" : "50",
      "routeId" : "176",
      "seqNo" : "8"
   },
   {
      "GoBack" : "2",
      "longitude" : "120.54798",
      "outDis" : "50",
      "Id" : "3850",
      "oid" : "14442",
      "districtId" : "1",
      "nameZh" : "龍目井",
      "pgp" : "0",
      "terminal" : "0",
      "latitude" : "24.20249",
      "inDis" : "50",
      "routeId" : "176",
      "seqNo" : "9"
   },
   {
      "GoBack" : "2",
      "longitude" : "120.54923",
      "outDis" : "50",
      "Id" : "4010",
      "oid" : "14443",
      "districtId" : "1",
      "nameZh" : "鷺山",
      "pgp" : "0",
      "terminal" : "0",
      "latitude" : "24.20743",
      "inDis" : "50",
      "routeId" : "176",
      "seqNo" : "10"
   },
   {
      "GoBack" : "2",
      "longitude" : "120.55056",
      "outDis" : "50",
      "Id" : "2559",
      "oid" : "14444",
      "districtId" : "1",
      "nameZh" : "南山腳",
      "pgp" : "0",
      "terminal" : "0",
      "latitude" : "24.21022",
      "inDis" : "50",
      "routeId" : "176",
      "seqNo" : "11"
   },
   {
      "GoBack" : "2",
      "longitude" : "120.55174",
      "outDis" : "50",
      "Id" : "5159",
      "oid" : "311330174",
      "districtId" : "1",
      "nameZh" : "龍山國小(山腳里)",
      "pgp" : "0",
      "terminal" : "0",
      "latitude" : "24.21341",
      "inDis" : "50",
      "routeId" : "176",
      "seqNo" : "12"
   },
   {
      "GoBack" : "2",
      "longitude" : "120.55287",
      "outDis" : "50",
      "Id" : "4459",
      "oid" : "14446",
      "districtId" : "1",
      "nameZh" : "沙田太平路口",
      "pgp" : "0",
      "terminal" : "0",
      "latitude" : "24.21671",
      "inDis" : "50",
      "routeId" : "176",
      "seqNo" : "13"
   },
   {
      "GoBack" : "2",
      "longitude" : "120.55613",
      "outDis" : "50",
      "Id" : "2613",
      "oid" : "14447",
      "districtId" : "1",
      "nameZh" : "南勢里",
      "pgp" : "0",
      "terminal" : "0",
      "latitude" : "24.22126",
      "inDis" : "50",
      "routeId" : "176",
      "seqNo" : "14"
   },
   {
      "GoBack" : "2",
      "longitude" : "120.55692",
      "outDis" : "50",
      "Id" : "4458",
      "oid" : "311330176",
      "districtId" : "1",
      "nameZh" : "沙田天仁街口",
      "pgp" : "0",
      "terminal" : "0",
      "latitude" : "24.22316",
      "inDis" : "50",
      "routeId" : "176",
      "seqNo" : "15"
   },
   {
      "GoBack" : "2",
      "longitude" : "120.55759",
      "outDis" : "50",
      "Id" : "1664",
      "oid" : "313575204",
      "districtId" : "1",
      "nameZh" : "文光國小",
      "pgp" : "0",
      "terminal" : "0",
      "latitude" : "24.22451",
      "inDis" : "50",
      "routeId" : "176",
      "seqNo" : "16"
   },
   {
      "GoBack" : "2",
      "longitude" : "120.5588",
      "outDis" : "50",
      "Id" : "3809",
      "oid" : "14449",
      "districtId" : "1",
      "nameZh" : "興仁里",
      "pgp" : "0",
      "terminal" : "0",
      "latitude" : "24.23027",
      "inDis" : "50",
      "routeId" : "176",
      "seqNo" : "17"
   },
   {
      "GoBack" : "2",
      "longitude" : "120.55897",
      "outDis" : "50",
      "Id" : "4816",
      "oid" : "313348300",
      "districtId" : "1",
      "nameZh" : "沙鹿光田醫院",
      "pgp" : "0",
      "terminal" : "0",
      "latitude" : "24.235",
      "inDis" : "50",
      "routeId" : "176",
      "seqNo" : "18"
   },
   {
      "GoBack" : "2",
      "longitude" : "120.55923",
      "outDis" : "50",
      "Id" : "4815",
      "oid" : "313348309",
      "districtId" : "1",
      "nameZh" : "沙鹿火車站",
      "pgp" : "0",
      "terminal" : "0",
      "latitude" : "24.23612",
      "inDis" : "50",
      "routeId" : "176",
      "seqNo" : "19"
   },
   {
      "GoBack" : "2",
      "longitude" : "120.55967",
      "outDis" : "50",
      "Id" : "4681",
      "oid" : "313348322",
      "districtId" : "1",
      "nameZh" : "沙鹿市場",
      "pgp" : "0",
      "terminal" : "0",
      "latitude" : "24.23731",
      "inDis" : "50",
      "routeId" : "176",
      "seqNo" : "20"
   },
   {
      "GoBack" : "2",
      "longitude" : "120.56103",
      "outDis" : "50",
      "Id" : "2248",
      "oid" : "7094",
      "districtId" : "1",
      "nameZh" : "沙鹿站",
      "pgp" : "0",
      "terminal" : "0",
      "latitude" : "24.23783",
      "inDis" : "50",
      "routeId" : "176",
      "seqNo" : "21"
   }
]
