[
   {
      "GoBack" : "1",
      "longitude" : "120.72164",
      "outDis" : "50",
      "Id" : "1169",
      "oid" : "5132",
      "districtId" : "1",
      "nameZh" : "下后里",
      "pgp" : "0",
      "terminal" : "0",
      "latitude" : "24.30903",
      "inDis" : "50",
      "routeId" : "226",
      "seqNo" : "1"
   },
   {
      "GoBack" : "1",
      "longitude" : "120.71765",
      "outDis" : "50",
      "Id" : "2651",
      "oid" : "6026",
      "districtId" : "1",
      "nameZh" : "后里電信局",
      "pgp" : "0",
      "terminal" : "0",
      "latitude" : "24.30969",
      "inDis" : "50",
      "routeId" : "226",
      "seqNo" : "2"
   },
   {
      "GoBack" : "1",
      "longitude" : "120.71645",
      "outDis" : "50",
      "Id" : "4453",
      "oid" : "5459",
      "districtId" : "1",
      "nameZh" : "民生文明路口",
      "pgp" : "0",
      "terminal" : "0",
      "latitude" : "24.30747",
      "inDis" : "50",
      "routeId" : "226",
      "seqNo" : "3"
   },
   {
      "GoBack" : "1",
      "longitude" : "120.7133",
      "outDis" : "50",
      "Id" : "1571",
      "oid" : "5393",
      "districtId" : "1",
      "nameZh" : "內埔市場",
      "pgp" : "0",
      "terminal" : "0",
      "latitude" : "24.30633",
      "inDis" : "50",
      "routeId" : "226",
      "seqNo" : "4"
   },
   {
      "GoBack" : "1",
      "longitude" : "120.7107",
      "outDis" : "50",
      "Id" : "4504",
      "oid" : "303690762",
      "districtId" : "1",
      "nameZh" : "后里區公所",
      "pgp" : "0",
      "terminal" : "0",
      "latitude" : "24.30482",
      "inDis" : "50",
      "routeId" : "226",
      "seqNo" : "5"
   },
   {
      "GoBack" : "1",
      "longitude" : "120.70917",
      "outDis" : "50",
      "Id" : "4449",
      "oid" : "5504",
      "districtId" : "1",
      "nameZh" : "公安主和路口",
      "pgp" : "0",
      "terminal" : "0",
      "latitude" : "24.30554",
      "inDis" : "50",
      "routeId" : "226",
      "seqNo" : "6"
   },
   {
      "GoBack" : "1",
      "longitude" : "120.70587",
      "outDis" : "50",
      "Id" : "3309",
      "oid" : "6381",
      "districtId" : "1",
      "nameZh" : "雅藝公司",
      "pgp" : "0",
      "terminal" : "0",
      "latitude" : "24.30699",
      "inDis" : "50",
      "routeId" : "226",
      "seqNo" : "7"
   },
   {
      "GoBack" : "1",
      "longitude" : "120.69814",
      "outDis" : "50",
      "Id" : "0421",
      "oid" : "5326",
      "districtId" : "1",
      "nameZh" : "中和",
      "pgp" : "0",
      "terminal" : "0",
      "latitude" : "24.31041",
      "inDis" : "50",
      "routeId" : "226",
      "seqNo" : "8"
   },
   {
      "GoBack" : "1",
      "longitude" : "120.69621",
      "outDis" : "50",
      "Id" : "2469",
      "oid" : "5928",
      "districtId" : "1",
      "nameZh" : "松鶴酒莊",
      "pgp" : "0",
      "terminal" : "0",
      "latitude" : "24.31178",
      "inDis" : "50",
      "routeId" : "226",
      "seqNo" : "9"
   },
   {
      "GoBack" : "1",
      "longitude" : "120.6951",
      "outDis" : "50",
      "Id" : "1689",
      "oid" : "5468",
      "districtId" : "1",
      "nameZh" : "月眉糖廠",
      "pgp" : "0",
      "terminal" : "0",
      "latitude" : "24.31351",
      "inDis" : "50",
      "routeId" : "226",
      "seqNo" : "10"
   },
   {
      "GoBack" : "1",
      "longitude" : "120.69262",
      "outDis" : "50",
      "Id" : "1683",
      "oid" : "5466",
      "districtId" : "1",
      "nameZh" : "月眉",
      "pgp" : "0",
      "terminal" : "0",
      "latitude" : "24.31389",
      "inDis" : "50",
      "routeId" : "226",
      "seqNo" : "11"
   },
   {
      "GoBack" : "1",
      "longitude" : "120.68729",
      "outDis" : "50",
      "Id" : "4455",
      "oid" : "5442",
      "districtId" : "1",
      "nameZh" : "甲后四月路口",
      "pgp" : "0",
      "terminal" : "0",
      "latitude" : "24.31224",
      "inDis" : "50",
      "routeId" : "226",
      "seqNo" : "12"
   },
   {
      "GoBack" : "1",
      "longitude" : "120.6846",
      "outDis" : "50",
      "Id" : "1778",
      "oid" : "5519",
      "districtId" : "1",
      "nameZh" : "四月水門路口",
      "pgp" : "0",
      "terminal" : "0",
      "latitude" : "24.31136",
      "inDis" : "50",
      "routeId" : "226",
      "seqNo" : "13"
   },
   {
      "GoBack" : "1",
      "longitude" : "120.68074",
      "outDis" : "50",
      "Id" : "2266",
      "oid" : "5800",
      "districtId" : "1",
      "nameZh" : "育英國小",
      "pgp" : "0",
      "terminal" : "0",
      "latitude" : "24.3113",
      "inDis" : "50",
      "routeId" : "226",
      "seqNo" : "14"
   },
   {
      "GoBack" : "1",
      "longitude" : "120.67728",
      "outDis" : "50",
      "Id" : "3093",
      "oid" : "12273",
      "districtId" : "1",
      "nameZh" : "頂口庄",
      "pgp" : "0",
      "terminal" : "0",
      "latitude" : "24.31046",
      "inDis" : "50",
      "routeId" : "226",
      "seqNo" : "15"
   },
   {
      "GoBack" : "1",
      "longitude" : "120.67292",
      "outDis" : "50",
      "Id" : "3102",
      "oid" : "6285",
      "districtId" : "1",
      "nameZh" : "頂太平　",
      "pgp" : "0",
      "terminal" : "0",
      "latitude" : "24.31004",
      "inDis" : "50",
      "routeId" : "226",
      "seqNo" : "16"
   },
   {
      "GoBack" : "1",
      "longitude" : "120.66874",
      "outDis" : "50",
      "Id" : "1848",
      "oid" : "5570",
      "districtId" : "1",
      "nameZh" : "五哩",
      "pgp" : "0",
      "terminal" : "0",
      "latitude" : "24.31041",
      "inDis" : "50",
      "routeId" : "226",
      "seqNo" : "17"
   },
   {
      "GoBack" : "1",
      "longitude" : "120.66434",
      "outDis" : "50",
      "Id" : "1613",
      "oid" : "5422",
      "districtId" : "1",
      "nameZh" : "公館仔",
      "pgp" : "0",
      "terminal" : "0",
      "latitude" : "24.31197",
      "inDis" : "50",
      "routeId" : "226",
      "seqNo" : "18"
   },
   {
      "GoBack" : "1",
      "longitude" : "120.65928",
      "outDis" : "50",
      "Id" : "1639",
      "oid" : "5441",
      "districtId" : "1",
      "nameZh" : "太平里",
      "pgp" : "0",
      "terminal" : "0",
      "latitude" : "24.31385",
      "inDis" : "50",
      "routeId" : "226",
      "seqNo" : "19"
   },
   {
      "GoBack" : "2",
      "longitude" : "120.65928",
      "outDis" : "50",
      "Id" : "1639",
      "oid" : "5441",
      "districtId" : "1",
      "nameZh" : "太平里",
      "pgp" : "0",
      "terminal" : "0",
      "latitude" : "24.31385",
      "inDis" : "50",
      "routeId" : "226",
      "seqNo" : "1"
   },
   {
      "GoBack" : "2",
      "longitude" : "120.66434",
      "outDis" : "50",
      "Id" : "1613",
      "oid" : "5422",
      "districtId" : "1",
      "nameZh" : "公館仔",
      "pgp" : "0",
      "terminal" : "0",
      "latitude" : "24.31197",
      "inDis" : "50",
      "routeId" : "226",
      "seqNo" : "2"
   },
   {
      "GoBack" : "2",
      "longitude" : "120.66874",
      "outDis" : "50",
      "Id" : "1848",
      "oid" : "5570",
      "districtId" : "1",
      "nameZh" : "五哩",
      "pgp" : "0",
      "terminal" : "0",
      "latitude" : "24.31041",
      "inDis" : "50",
      "routeId" : "226",
      "seqNo" : "3"
   },
   {
      "GoBack" : "2",
      "longitude" : "120.67292",
      "outDis" : "50",
      "Id" : "3102",
      "oid" : "6285",
      "districtId" : "1",
      "nameZh" : "頂太平　",
      "pgp" : "0",
      "terminal" : "0",
      "latitude" : "24.31004",
      "inDis" : "50",
      "routeId" : "226",
      "seqNo" : "4"
   },
   {
      "GoBack" : "2",
      "longitude" : "120.67728",
      "outDis" : "50",
      "Id" : "3093",
      "oid" : "12273",
      "districtId" : "1",
      "nameZh" : "頂口庄",
      "pgp" : "0",
      "terminal" : "0",
      "latitude" : "24.31046",
      "inDis" : "50",
      "routeId" : "226",
      "seqNo" : "5"
   },
   {
      "GoBack" : "2",
      "longitude" : "120.68074",
      "outDis" : "50",
      "Id" : "2266",
      "oid" : "5800",
      "districtId" : "1",
      "nameZh" : "育英國小",
      "pgp" : "0",
      "terminal" : "0",
      "latitude" : "24.3113",
      "inDis" : "50",
      "routeId" : "226",
      "seqNo" : "6"
   },
   {
      "GoBack" : "2",
      "longitude" : "120.6846",
      "outDis" : "50",
      "Id" : "1778",
      "oid" : "5519",
      "districtId" : "1",
      "nameZh" : "四月水門路口",
      "pgp" : "0",
      "terminal" : "0",
      "latitude" : "24.31136",
      "inDis" : "50",
      "routeId" : "226",
      "seqNo" : "7"
   },
   {
      "GoBack" : "2",
      "longitude" : "120.68729",
      "outDis" : "50",
      "Id" : "4455",
      "oid" : "5442",
      "districtId" : "1",
      "nameZh" : "甲后四月路口",
      "pgp" : "0",
      "terminal" : "0",
      "latitude" : "24.31224",
      "inDis" : "50",
      "routeId" : "226",
      "seqNo" : "8"
   },
   {
      "GoBack" : "2",
      "longitude" : "120.69262",
      "outDis" : "50",
      "Id" : "1683",
      "oid" : "5466",
      "districtId" : "1",
      "nameZh" : "月眉",
      "pgp" : "0",
      "terminal" : "0",
      "latitude" : "24.31389",
      "inDis" : "50",
      "routeId" : "226",
      "seqNo" : "9"
   },
   {
      "GoBack" : "2",
      "longitude" : "120.6951",
      "outDis" : "50",
      "Id" : "1689",
      "oid" : "5468",
      "districtId" : "1",
      "nameZh" : "月眉糖廠",
      "pgp" : "0",
      "terminal" : "0",
      "latitude" : "24.31351",
      "inDis" : "50",
      "routeId" : "226",
      "seqNo" : "10"
   },
   {
      "GoBack" : "2",
      "longitude" : "120.69621",
      "outDis" : "50",
      "Id" : "2469",
      "oid" : "5928",
      "districtId" : "1",
      "nameZh" : "松鶴酒莊",
      "pgp" : "0",
      "terminal" : "0",
      "latitude" : "24.31178",
      "inDis" : "50",
      "routeId" : "226",
      "seqNo" : "11"
   },
   {
      "GoBack" : "2",
      "longitude" : "120.69814",
      "outDis" : "50",
      "Id" : "0421",
      "oid" : "5326",
      "districtId" : "1",
      "nameZh" : "中和",
      "pgp" : "0",
      "terminal" : "0",
      "latitude" : "24.31041",
      "inDis" : "50",
      "routeId" : "226",
      "seqNo" : "12"
   },
   {
      "GoBack" : "2",
      "longitude" : "120.70587",
      "outDis" : "50",
      "Id" : "3309",
      "oid" : "6381",
      "districtId" : "1",
      "nameZh" : "雅藝公司",
      "pgp" : "0",
      "terminal" : "0",
      "latitude" : "24.30699",
      "inDis" : "50",
      "routeId" : "226",
      "seqNo" : "13"
   },
   {
      "GoBack" : "2",
      "longitude" : "120.70917",
      "outDis" : "50",
      "Id" : "4449",
      "oid" : "5504",
      "districtId" : "1",
      "nameZh" : "公安主和路口",
      "pgp" : "0",
      "terminal" : "0",
      "latitude" : "24.30554",
      "inDis" : "50",
      "routeId" : "226",
      "seqNo" : "14"
   },
   {
      "GoBack" : "2",
      "longitude" : "120.7107",
      "outDis" : "50",
      "Id" : "4504",
      "oid" : "303690762",
      "districtId" : "1",
      "nameZh" : "后里區公所",
      "pgp" : "0",
      "terminal" : "0",
      "latitude" : "24.30482",
      "inDis" : "50",
      "routeId" : "226",
      "seqNo" : "15"
   },
   {
      "GoBack" : "2",
      "longitude" : "120.7133",
      "outDis" : "50",
      "Id" : "1571",
      "oid" : "5393",
      "districtId" : "1",
      "nameZh" : "內埔市場",
      "pgp" : "0",
      "terminal" : "0",
      "latitude" : "24.30633",
      "inDis" : "50",
      "routeId" : "226",
      "seqNo" : "16"
   },
   {
      "GoBack" : "2",
      "longitude" : "120.71645",
      "outDis" : "50",
      "Id" : "4453",
      "oid" : "5459",
      "districtId" : "1",
      "nameZh" : "民生文明路口",
      "pgp" : "0",
      "terminal" : "0",
      "latitude" : "24.30747",
      "inDis" : "50",
      "routeId" : "226",
      "seqNo" : "17"
   },
   {
      "GoBack" : "2",
      "longitude" : "120.71765",
      "outDis" : "50",
      "Id" : "2651",
      "oid" : "6026",
      "districtId" : "1",
      "nameZh" : "后里電信局",
      "pgp" : "0",
      "terminal" : "0",
      "latitude" : "24.30969",
      "inDis" : "50",
      "routeId" : "226",
      "seqNo" : "18"
   },
   {
      "GoBack" : "2",
      "longitude" : "120.72164",
      "outDis" : "50",
      "Id" : "1169",
      "oid" : "5132",
      "districtId" : "1",
      "nameZh" : "下后里",
      "pgp" : "0",
      "terminal" : "0",
      "latitude" : "24.30903",
      "inDis" : "50",
      "routeId" : "226",
      "seqNo" : "19"
   }
]
