[
   {
      "GoBack" : "1",
      "longitude" : "120.72154",
      "outDis" : "70",
      "Id" : "3935",
      "oid" : "6693",
      "districtId" : "1",
      "nameZh" : "豐原",
      "pgp" : "0",
      "terminal" : "0",
      "latitude" : "24.2538",
      "inDis" : "70",
      "routeId" : "237",
      "seqNo" : "1"
   },
   {
      "GoBack" : "1",
      "longitude" : "120.71851",
      "outDis" : "50",
      "Id" : "3343",
      "oid" : "6397",
      "districtId" : "1",
      "nameZh" : "媽祖廟",
      "pgp" : "0",
      "terminal" : "0",
      "latitude" : "24.25157",
      "inDis" : "50",
      "routeId" : "237",
      "seqNo" : "2"
   },
   {
      "GoBack" : "1",
      "longitude" : "120.71526",
      "outDis" : "50",
      "Id" : "3939",
      "oid" : "6698",
      "districtId" : "1",
      "nameZh" : "豐原郵局",
      "pgp" : "0",
      "terminal" : "0",
      "latitude" : "24.25136",
      "inDis" : "50",
      "routeId" : "237",
      "seqNo" : "3"
   },
   {
      "GoBack" : "1",
      "longitude" : "120.712",
      "outDis" : "50",
      "Id" : "3357",
      "oid" : "6406",
      "districtId" : "1",
      "nameZh" : "慈龍寺",
      "pgp" : "0",
      "terminal" : "0",
      "latitude" : "24.25079",
      "inDis" : "50",
      "routeId" : "237",
      "seqNo" : "4"
   },
   {
      "GoBack" : "1",
      "longitude" : "120.70963",
      "outDis" : "50",
      "Id" : "4448",
      "oid" : "6688",
      "districtId" : "1",
      "nameZh" : "中正圓環西路口",
      "pgp" : "0",
      "terminal" : "0",
      "latitude" : "24.25039",
      "inDis" : "50",
      "routeId" : "237",
      "seqNo" : "5"
   },
   {
      "GoBack" : "1",
      "longitude" : "120.70672",
      "outDis" : "50",
      "Id" : "1065",
      "oid" : "5072",
      "districtId" : "1",
      "nameZh" : "三光新村",
      "pgp" : "0",
      "terminal" : "0",
      "latitude" : "24.24999",
      "inDis" : "50",
      "routeId" : "237",
      "seqNo" : "6"
   },
   {
      "GoBack" : "1",
      "longitude" : "120.70434",
      "outDis" : "50",
      "Id" : "2349",
      "oid" : "5856",
      "districtId" : "1",
      "nameZh" : "忠勤新村",
      "pgp" : "0",
      "terminal" : "0",
      "latitude" : "24.24962",
      "inDis" : "50",
      "routeId" : "237",
      "seqNo" : "7"
   },
   {
      "GoBack" : "1",
      "longitude" : "120.70229",
      "outDis" : "50",
      "Id" : "2489",
      "oid" : "5943",
      "districtId" : "1",
      "nameZh" : "社皮鐵路巷",
      "pgp" : "0",
      "terminal" : "0",
      "latitude" : "24.24951",
      "inDis" : "50",
      "routeId" : "237",
      "seqNo" : "8"
   },
   {
      "GoBack" : "1",
      "longitude" : "120.70003",
      "outDis" : "50",
      "Id" : "4498",
      "oid" : "13826",
      "districtId" : "1",
      "nameZh" : "臺豐社區",
      "pgp" : "0",
      "terminal" : "0",
      "latitude" : "24.249",
      "inDis" : "50",
      "routeId" : "237",
      "seqNo" : "9"
   },
   {
      "GoBack" : "1",
      "longitude" : "120.69799",
      "outDis" : "50",
      "Id" : "5438",
      "oid" : "5237",
      "districtId" : "1",
      "nameZh" : "岸裡國小",
      "pgp" : "0",
      "terminal" : "0",
      "latitude" : "24.2487",
      "inDis" : "50",
      "routeId" : "237",
      "seqNo" : "10"
   },
   {
      "GoBack" : "1",
      "longitude" : "120.69323",
      "outDis" : "50",
      "Id" : "2993",
      "oid" : "6203",
      "districtId" : "1",
      "nameZh" : "望寮",
      "pgp" : "0",
      "terminal" : "0",
      "latitude" : "24.24841",
      "inDis" : "50",
      "routeId" : "237",
      "seqNo" : "11"
   },
   {
      "GoBack" : "1",
      "longitude" : "120.6896",
      "outDis" : "50",
      "Id" : "2700",
      "oid" : "6056",
      "districtId" : "1",
      "nameZh" : "紅瓦厝口",
      "pgp" : "0",
      "terminal" : "0",
      "latitude" : "24.2476",
      "inDis" : "50",
      "routeId" : "237",
      "seqNo" : "12"
   },
   {
      "GoBack" : "1",
      "longitude" : "120.68563",
      "outDis" : "50",
      "Id" : "2486",
      "oid" : "5941",
      "districtId" : "1",
      "nameZh" : "社口",
      "pgp" : "0",
      "terminal" : "0",
      "latitude" : "24.24668",
      "inDis" : "50",
      "routeId" : "237",
      "seqNo" : "13"
   },
   {
      "GoBack" : "1",
      "longitude" : "120.68146",
      "outDis" : "50",
      "Id" : "2836",
      "oid" : "6140",
      "districtId" : "1",
      "nameZh" : "神岡國中",
      "pgp" : "0",
      "terminal" : "0",
      "latitude" : "24.24731",
      "inDis" : "50",
      "routeId" : "237",
      "seqNo" : "14"
   },
   {
      "GoBack" : "1",
      "longitude" : "120.67946",
      "outDis" : "50",
      "Id" : "3656",
      "oid" : "6553",
      "districtId" : "1",
      "nameZh" : "福隆新村",
      "pgp" : "0",
      "terminal" : "0",
      "latitude" : "24.24901",
      "inDis" : "50",
      "routeId" : "237",
      "seqNo" : "15"
   },
   {
      "GoBack" : "1",
      "longitude" : "120.67622",
      "outDis" : "50",
      "Id" : "3655",
      "oid" : "6552",
      "districtId" : "1",
      "nameZh" : "福華公司",
      "pgp" : "0",
      "terminal" : "0",
      "latitude" : "24.25099",
      "inDis" : "50",
      "routeId" : "237",
      "seqNo" : "16"
   },
   {
      "GoBack" : "1",
      "longitude" : "120.67368",
      "outDis" : "50",
      "Id" : "3556",
      "oid" : "13823",
      "districtId" : "1",
      "nameZh" : "電信局",
      "pgp" : "0",
      "terminal" : "0",
      "latitude" : "24.25317",
      "inDis" : "50",
      "routeId" : "237",
      "seqNo" : "17"
   },
   {
      "GoBack" : "1",
      "longitude" : "120.67224",
      "outDis" : "50",
      "Id" : "3460",
      "oid" : "6474",
      "districtId" : "1",
      "nameZh" : "中山溝心路口",
      "pgp" : "0",
      "terminal" : "0",
      "latitude" : "24.25521",
      "inDis" : "50",
      "routeId" : "237",
      "seqNo" : "18"
   },
   {
      "GoBack" : "1",
      "longitude" : "120.66832",
      "outDis" : "50",
      "Id" : "1783",
      "oid" : "5526",
      "districtId" : "1",
      "nameZh" : "北庄",
      "pgp" : "0",
      "terminal" : "0",
      "latitude" : "24.25732",
      "inDis" : "50",
      "routeId" : "237",
      "seqNo" : "19"
   },
   {
      "GoBack" : "1",
      "longitude" : "120.66294",
      "outDis" : "50",
      "Id" : "3066",
      "oid" : "6265",
      "districtId" : "1",
      "nameZh" : "庄頭",
      "pgp" : "0",
      "terminal" : "0",
      "latitude" : "24.25812",
      "inDis" : "50",
      "routeId" : "237",
      "seqNo" : "20"
   },
   {
      "GoBack" : "1",
      "longitude" : "120.66141",
      "outDis" : "50",
      "Id" : "2837",
      "oid" : "6141",
      "districtId" : "1",
      "nameZh" : "神岡區公所",
      "pgp" : "0",
      "terminal" : "0",
      "latitude" : "24.25771",
      "inDis" : "50",
      "routeId" : "237",
      "seqNo" : "21"
   },
   {
      "GoBack" : "1",
      "longitude" : "120.6593",
      "outDis" : "50",
      "Id" : "2835",
      "oid" : "6139",
      "districtId" : "1",
      "nameZh" : "神岡",
      "pgp" : "0",
      "terminal" : "0",
      "latitude" : "24.25703",
      "inDis" : "50",
      "routeId" : "237",
      "seqNo" : "22"
   },
   {
      "GoBack" : "1",
      "longitude" : "120.65605",
      "outDis" : "50",
      "Id" : "4445",
      "oid" : "13808",
      "districtId" : "1",
      "nameZh" : "中正中山路口",
      "pgp" : "0",
      "terminal" : "0",
      "latitude" : "24.25842",
      "inDis" : "50",
      "routeId" : "237",
      "seqNo" : "23"
   },
   {
      "GoBack" : "1",
      "longitude" : "120.6531",
      "outDis" : "50",
      "Id" : "3654",
      "oid" : "6551",
      "districtId" : "1",
      "nameZh" : "福連公司",
      "pgp" : "0",
      "terminal" : "0",
      "latitude" : "24.25852",
      "inDis" : "50",
      "routeId" : "237",
      "seqNo" : "24"
   },
   {
      "GoBack" : "1",
      "longitude" : "120.64935",
      "outDis" : "50",
      "Id" : "1392",
      "oid" : "5286",
      "districtId" : "1",
      "nameZh" : "山皮",
      "pgp" : "0",
      "terminal" : "0",
      "latitude" : "24.25824",
      "inDis" : "50",
      "routeId" : "237",
      "seqNo" : "25"
   },
   {
      "GoBack" : "1",
      "longitude" : "120.64411",
      "outDis" : "50",
      "Id" : "2282",
      "oid" : "5810",
      "districtId" : "1",
      "nameZh" : "車站前",
      "pgp" : "0",
      "terminal" : "0",
      "latitude" : "24.25339",
      "inDis" : "50",
      "routeId" : "237",
      "seqNo" : "26"
   },
   {
      "GoBack" : "1",
      "longitude" : "120.63801",
      "outDis" : "50",
      "Id" : "1118",
      "oid" : "5104",
      "districtId" : "1",
      "nameZh" : "下山皮",
      "pgp" : "0",
      "terminal" : "0",
      "latitude" : "24.24622",
      "inDis" : "50",
      "routeId" : "237",
      "seqNo" : "27"
   },
   {
      "GoBack" : "1",
      "longitude" : "120.63456",
      "outDis" : "50",
      "Id" : "5242",
      "oid" : "310787792",
      "districtId" : "1",
      "nameZh" : "和平清陽一路口",
      "pgp" : "0",
      "terminal" : "0",
      "latitude" : "24.24309",
      "inDis" : "50",
      "routeId" : "237",
      "seqNo" : "28"
   },
   {
      "GoBack" : "1",
      "longitude" : "120.63102",
      "outDis" : "50",
      "Id" : "4188",
      "oid" : "12263",
      "districtId" : "1",
      "nameZh" : "埔仔墘",
      "pgp" : "0",
      "terminal" : "0",
      "latitude" : "24.24095",
      "inDis" : "50",
      "routeId" : "237",
      "seqNo" : "29"
   },
   {
      "GoBack" : "1",
      "longitude" : "120.62673",
      "outDis" : "50",
      "Id" : "3663",
      "oid" : "00F44A45672A4A16994A287A6E61763B",
      "districtId" : "1",
      "nameZh" : "福樂新城",
      "pgp" : "0",
      "terminal" : "0",
      "latitude" : "24.24248",
      "inDis" : "50",
      "routeId" : "237",
      "seqNo" : "30"
   },
   {
      "GoBack" : "1",
      "longitude" : "120.6204",
      "outDis" : "50",
      "Id" : "4669",
      "oid" : "7425",
      "districtId" : "1",
      "nameZh" : "中清信義路口",
      "pgp" : "0",
      "terminal" : "0",
      "latitude" : "24.2425",
      "inDis" : "50",
      "routeId" : "237",
      "seqNo" : "31"
   },
   {
      "GoBack" : "1",
      "longitude" : "120.61466",
      "outDis" : "50",
      "Id" : "3023",
      "oid" : "6230",
      "districtId" : "1",
      "nameZh" : "清泉里",
      "pgp" : "0",
      "terminal" : "0",
      "latitude" : "24.24409",
      "inDis" : "50",
      "routeId" : "237",
      "seqNo" : "32"
   },
   {
      "GoBack" : "1",
      "longitude" : "120.61048",
      "outDis" : "50",
      "Id" : "0169",
      "oid" : "318241812",
      "districtId" : "1",
      "nameZh" : "清泉派出所",
      "pgp" : "0",
      "terminal" : "0",
      "latitude" : "24.24561",
      "inDis" : "50",
      "routeId" : "237",
      "seqNo" : "33"
   },
   {
      "GoBack" : "1",
      "longitude" : "120.60824",
      "outDis" : "50",
      "Id" : "1604",
      "oid" : "3E8D6863D7C6417AB4B68003C95F12DE",
      "districtId" : "1",
      "nameZh" : "公明里",
      "pgp" : "0",
      "terminal" : "0",
      "latitude" : "24.24655",
      "inDis" : "50",
      "routeId" : "237",
      "seqNo" : "34"
   },
   {
      "GoBack" : "1",
      "longitude" : "120.60567",
      "outDis" : "50",
      "Id" : "3738",
      "oid" : "5D3D303824DE44588FF28F594C522805",
      "districtId" : "1",
      "nameZh" : "樂群二村",
      "pgp" : "0",
      "terminal" : "0",
      "latitude" : "24.24772",
      "inDis" : "50",
      "routeId" : "237",
      "seqNo" : "35"
   },
   {
      "GoBack" : "1",
      "longitude" : "120.6018",
      "outDis" : "50",
      "Id" : "1556",
      "oid" : "0032883D9F1A4E049568D5607D04A15E",
      "districtId" : "1",
      "nameZh" : "中清仁愛巷口",
      "pgp" : "0",
      "terminal" : "0",
      "latitude" : "24.24946",
      "inDis" : "50",
      "routeId" : "237",
      "seqNo" : "36"
   },
   {
      "GoBack" : "1",
      "longitude" : "120.59881",
      "outDis" : "50",
      "Id" : "4713",
      "oid" : "310614301",
      "districtId" : "1",
      "nameZh" : "公明國中",
      "pgp" : "0",
      "terminal" : "0",
      "latitude" : "24.2501",
      "inDis" : "50",
      "routeId" : "237",
      "seqNo" : "37"
   },
   {
      "GoBack" : "1",
      "longitude" : "120.5984",
      "outDis" : "50",
      "Id" : "4982",
      "oid" : "306167896",
      "districtId" : "1",
      "nameZh" : "漢翔複材中心",
      "pgp" : "0",
      "terminal" : "0",
      "latitude" : "24.25234",
      "inDis" : "50",
      "routeId" : "237",
      "seqNo" : "38"
   },
   {
      "GoBack" : "1",
      "longitude" : "120.59899",
      "outDis" : "50",
      "Id" : "0135",
      "oid" : "312174380",
      "districtId" : "1",
      "nameZh" : "臺中航空站",
      "pgp" : "0",
      "terminal" : "0",
      "latitude" : "24.25348",
      "inDis" : "50",
      "routeId" : "237",
      "seqNo" : "39"
   },
   {
      "GoBack" : "1",
      "longitude" : "120.59608",
      "outDis" : "50",
      "Id" : "3116",
      "oid" : "6293",
      "districtId" : "1",
      "nameZh" : "頂西勢寮",
      "pgp" : "0",
      "terminal" : "0",
      "latitude" : "24.24892",
      "inDis" : "50",
      "routeId" : "237",
      "seqNo" : "41"
   },
   {
      "GoBack" : "1",
      "longitude" : "120.58236",
      "outDis" : "50",
      "Id" : "3352",
      "oid" : "6403",
      "districtId" : "1",
      "nameZh" : "慈惠堂",
      "pgp" : "0",
      "terminal" : "0",
      "latitude" : "24.2437",
      "inDis" : "50",
      "routeId" : "237",
      "seqNo" : "42"
   },
   {
      "GoBack" : "1",
      "longitude" : "120.57728",
      "outDis" : "50",
      "Id" : "5299",
      "oid" : "311033706",
      "districtId" : "1",
      "nameZh" : "頂犁份",
      "pgp" : "0",
      "terminal" : "0",
      "latitude" : "24.24151",
      "inDis" : "50",
      "routeId" : "237",
      "seqNo" : "43"
   },
   {
      "GoBack" : "1",
      "longitude" : "120.5718",
      "outDis" : "50",
      "Id" : "2145",
      "oid" : "5738",
      "districtId" : "1",
      "nameZh" : "竹林",
      "pgp" : "0",
      "terminal" : "0",
      "latitude" : "24.23853",
      "inDis" : "50",
      "routeId" : "237",
      "seqNo" : "44"
   },
   {
      "GoBack" : "1",
      "longitude" : "120.56918",
      "outDis" : "50",
      "Id" : "5221",
      "oid" : "310787748",
      "districtId" : "1",
      "nameZh" : "中山臺灣大道口",
      "pgp" : "0",
      "terminal" : "0",
      "latitude" : "24.2371",
      "inDis" : "50",
      "routeId" : "237",
      "seqNo" : "45"
   },
   {
      "GoBack" : "1",
      "longitude" : "120.56673",
      "outDis" : "50",
      "Id" : "5222",
      "oid" : "310787750",
      "districtId" : "1",
      "nameZh" : "中山鎮政路口",
      "pgp" : "0",
      "terminal" : "0",
      "latitude" : "24.23698",
      "inDis" : "50",
      "routeId" : "237",
      "seqNo" : "46"
   },
   {
      "GoBack" : "1",
      "longitude" : "120.56491",
      "outDis" : "50",
      "Id" : "4390",
      "oid" : "17385",
      "districtId" : "1",
      "nameZh" : "沙鹿高工(中山路)",
      "pgp" : "0",
      "terminal" : "0",
      "latitude" : "24.23726",
      "inDis" : "50",
      "routeId" : "237",
      "seqNo" : "47"
   },
   {
      "GoBack" : "1",
      "longitude" : "120.56252",
      "outDis" : "50",
      "Id" : "2682",
      "oid" : "6041",
      "districtId" : "1",
      "nameZh" : "洛泉里",
      "pgp" : "0",
      "terminal" : "0",
      "latitude" : "24.2376",
      "inDis" : "50",
      "routeId" : "237",
      "seqNo" : "48"
   },
   {
      "GoBack" : "1",
      "longitude" : "120.55967",
      "outDis" : "50",
      "Id" : "4681",
      "oid" : "14045",
      "districtId" : "1",
      "nameZh" : "沙鹿市場",
      "pgp" : "0",
      "terminal" : "0",
      "latitude" : "24.23737",
      "inDis" : "50",
      "routeId" : "237",
      "seqNo" : "49"
   },
   {
      "GoBack" : "1",
      "longitude" : "120.55931",
      "outDis" : "50",
      "Id" : "4815",
      "oid" : "15238",
      "districtId" : "1",
      "nameZh" : "沙鹿火車站",
      "pgp" : "0",
      "terminal" : "0",
      "latitude" : "24.23602",
      "inDis" : "50",
      "routeId" : "237",
      "seqNo" : "50"
   },
   {
      "GoBack" : "1",
      "longitude" : "120.55882",
      "outDis" : "50",
      "Id" : "4816",
      "oid" : "313222697",
      "districtId" : "1",
      "nameZh" : "沙鹿光田醫院",
      "pgp" : "0",
      "terminal" : "0",
      "latitude" : "24.23492",
      "inDis" : "50",
      "routeId" : "237",
      "seqNo" : "51"
   },
   {
      "GoBack" : "1",
      "longitude" : "120.55689",
      "outDis" : "50",
      "Id" : "3809",
      "oid" : "6632",
      "districtId" : "1",
      "nameZh" : "興仁里",
      "pgp" : "0",
      "terminal" : "0",
      "latitude" : "24.23263",
      "inDis" : "50",
      "routeId" : "237",
      "seqNo" : "52"
   },
   {
      "GoBack" : "1",
      "longitude" : "120.55221",
      "outDis" : "50",
      "Id" : "2303",
      "oid" : "5827",
      "districtId" : "1",
      "nameZh" : "味丹公司",
      "pgp" : "0",
      "terminal" : "0",
      "latitude" : "24.23031",
      "inDis" : "50",
      "routeId" : "237",
      "seqNo" : "53"
   },
   {
      "GoBack" : "1",
      "longitude" : "120.54221",
      "outDis" : "50",
      "Id" : "2036",
      "oid" : "5675",
      "districtId" : "1",
      "nameZh" : "份頭",
      "pgp" : "0",
      "terminal" : "0",
      "latitude" : "24.22635",
      "inDis" : "50",
      "routeId" : "237",
      "seqNo" : "54"
   },
   {
      "GoBack" : "1",
      "longitude" : "120.53929",
      "outDis" : "50",
      "Id" : "4180",
      "oid" : "12255",
      "districtId" : "1",
      "nameZh" : "永興橋",
      "pgp" : "0",
      "terminal" : "0",
      "latitude" : "24.22587",
      "inDis" : "50",
      "routeId" : "237",
      "seqNo" : "55"
   },
   {
      "GoBack" : "1",
      "longitude" : "120.53626",
      "outDis" : "50",
      "Id" : "1136",
      "oid" : "5116",
      "districtId" : "1",
      "nameZh" : "下永安里",
      "pgp" : "0",
      "terminal" : "0",
      "latitude" : "24.22552",
      "inDis" : "50",
      "routeId" : "237",
      "seqNo" : "56"
   },
   {
      "GoBack" : "1",
      "longitude" : "120.5345",
      "outDis" : "50",
      "Id" : "0563",
      "oid" : "5615",
      "districtId" : "1",
      "nameZh" : "永安里",
      "pgp" : "0",
      "terminal" : "0",
      "latitude" : "24.22527",
      "inDis" : "50",
      "routeId" : "237",
      "seqNo" : "57"
   },
   {
      "GoBack" : "1",
      "longitude" : "120.53204",
      "outDis" : "50",
      "Id" : "5301",
      "oid" : "311033708",
      "districtId" : "1",
      "nameZh" : "中央永興路口",
      "pgp" : "0",
      "terminal" : "0",
      "latitude" : "24.2256",
      "inDis" : "50",
      "routeId" : "237",
      "seqNo" : "58"
   },
   {
      "GoBack" : "1",
      "longitude" : "120.52966",
      "outDis" : "50",
      "Id" : "2133",
      "oid" : "5733",
      "districtId" : "1",
      "nameZh" : "百姓公",
      "pgp" : "0",
      "terminal" : "0",
      "latitude" : "24.22415",
      "inDis" : "50",
      "routeId" : "237",
      "seqNo" : "59"
   },
   {
      "GoBack" : "1",
      "longitude" : "120.52826",
      "outDis" : "50",
      "Id" : "2110",
      "oid" : "5722",
      "districtId" : "1",
      "nameZh" : "安良港",
      "pgp" : "0",
      "terminal" : "0",
      "latitude" : "24.22165",
      "inDis" : "50",
      "routeId" : "237",
      "seqNo" : "60"
   },
   {
      "GoBack" : "1",
      "longitude" : "120.52702",
      "outDis" : "50",
      "Id" : "2802",
      "oid" : "6119",
      "districtId" : "1",
      "nameZh" : "海尾巷",
      "pgp" : "0",
      "terminal" : "0",
      "latitude" : "24.21845",
      "inDis" : "50",
      "routeId" : "237",
      "seqNo" : "61"
   },
   {
      "GoBack" : "1",
      "longitude" : "120.52587",
      "outDis" : "50",
      "Id" : "2906",
      "oid" : "6171",
      "districtId" : "1",
      "nameZh" : "高圓仔",
      "pgp" : "0",
      "terminal" : "0",
      "latitude" : "24.21472",
      "inDis" : "50",
      "routeId" : "237",
      "seqNo" : "62"
   },
   {
      "GoBack" : "1",
      "longitude" : "120.52499",
      "outDis" : "50",
      "Id" : "2346",
      "oid" : "5851",
      "districtId" : "1",
      "nameZh" : "忠和",
      "pgp" : "0",
      "terminal" : "0",
      "latitude" : "24.21186",
      "inDis" : "50",
      "routeId" : "237",
      "seqNo" : "63"
   },
   {
      "GoBack" : "1",
      "longitude" : "120.52353",
      "outDis" : "50",
      "Id" : "1102",
      "oid" : "5095",
      "districtId" : "1",
      "nameZh" : "三德",
      "pgp" : "0",
      "terminal" : "0",
      "latitude" : "24.20646",
      "inDis" : "50",
      "routeId" : "237",
      "seqNo" : "64"
   },
   {
      "GoBack" : "1",
      "longitude" : "120.52338",
      "outDis" : "50",
      "Id" : "3848",
      "oid" : "6654",
      "districtId" : "1",
      "nameZh" : "龍井市場",
      "pgp" : "0",
      "terminal" : "0",
      "latitude" : "24.20372",
      "inDis" : "50",
      "routeId" : "237",
      "seqNo" : "65"
   },
   {
      "GoBack" : "1",
      "longitude" : "120.5234",
      "outDis" : "50",
      "Id" : "4183",
      "oid" : "12258",
      "districtId" : "1",
      "nameZh" : "海埔厝庄頭",
      "pgp" : "0",
      "terminal" : "0",
      "latitude" : "24.20259",
      "inDis" : "50",
      "routeId" : "237",
      "seqNo" : "66"
   },
   {
      "GoBack" : "1",
      "longitude" : "120.5235",
      "outDis" : "50",
      "Id" : "3858",
      "oid" : "6658",
      "districtId" : "1",
      "nameZh" : "龍津",
      "pgp" : "0",
      "terminal" : "0",
      "latitude" : "24.19989",
      "inDis" : "50",
      "routeId" : "237",
      "seqNo" : "67"
   },
   {
      "GoBack" : "1",
      "longitude" : "120.52263",
      "outDis" : "50",
      "Id" : "3842",
      "oid" : "6652",
      "districtId" : "1",
      "nameZh" : "龍二橋",
      "pgp" : "0",
      "terminal" : "0",
      "latitude" : "24.19667",
      "inDis" : "50",
      "routeId" : "237",
      "seqNo" : "68"
   },
   {
      "GoBack" : "1",
      "longitude" : "120.51922",
      "outDis" : "50",
      "Id" : "5262",
      "oid" : "310787832",
      "districtId" : "1",
      "nameZh" : "福田社區",
      "pgp" : "0",
      "terminal" : "0",
      "latitude" : "24.19743",
      "inDis" : "50",
      "routeId" : "237",
      "seqNo" : "69"
   },
   {
      "GoBack" : "1",
      "longitude" : "120.51646",
      "outDis" : "50",
      "Id" : "5291",
      "oid" : "311033698",
      "districtId" : "1",
      "nameZh" : "臨港東西濱路口",
      "pgp" : "0",
      "terminal" : "0",
      "latitude" : "24.19804",
      "inDis" : "50",
      "routeId" : "237",
      "seqNo" : "70"
   },
   {
      "GoBack" : "1",
      "longitude" : "120.50874",
      "outDis" : "50",
      "Id" : "1983",
      "oid" : "5637",
      "districtId" : "1",
      "nameZh" : "田仔內",
      "pgp" : "0",
      "terminal" : "0",
      "latitude" : "24.19974",
      "inDis" : "50",
      "routeId" : "237",
      "seqNo" : "71"
   },
   {
      "GoBack" : "1",
      "longitude" : "120.50436",
      "outDis" : "50",
      "Id" : "5297",
      "oid" : "311033704",
      "districtId" : "1",
      "nameZh" : "三港護岸路口",
      "pgp" : "0",
      "terminal" : "0",
      "latitude" : "24.19759",
      "inDis" : "50",
      "routeId" : "237",
      "seqNo" : "72"
   },
   {
      "GoBack" : "1",
      "longitude" : "120.50025",
      "outDis" : "100",
      "Id" : "3862",
      "oid" : "6660",
      "districtId" : "1",
      "nameZh" : "龍港國小",
      "pgp" : "0",
      "terminal" : "0",
      "latitude" : "24.19867",
      "inDis" : "50",
      "routeId" : "237",
      "seqNo" : "73"
   },
   {
      "GoBack" : "1",
      "longitude" : "120.49841",
      "outDis" : "50",
      "Id" : "3982",
      "oid" : "6726",
      "districtId" : "1",
      "nameZh" : "麗水",
      "pgp" : "0",
      "terminal" : "0",
      "latitude" : "24.20074",
      "inDis" : "50",
      "routeId" : "237",
      "seqNo" : "74"
   },
   {
      "GoBack" : "1",
      "longitude" : "120.49991",
      "outDis" : "100",
      "Id" : "3862",
      "oid" : "6762",
      "districtId" : "1",
      "nameZh" : "龍港國小",
      "pgp" : "0",
      "terminal" : "0",
      "latitude" : "24.19867",
      "inDis" : "50",
      "routeId" : "237",
      "seqNo" : "75"
   },
   {
      "GoBack" : "1",
      "longitude" : "120.51261",
      "outDis" : "50",
      "Id" : "2808",
      "oid" : "6126",
      "districtId" : "1",
      "nameZh" : "海埔仔",
      "pgp" : "0",
      "terminal" : "0",
      "latitude" : "24.19329",
      "inDis" : "50",
      "routeId" : "237",
      "seqNo" : "76"
   },
   {
      "GoBack" : "1",
      "longitude" : "120.51645",
      "outDis" : "50",
      "Id" : "5261",
      "oid" : "310787830",
      "districtId" : "1",
      "nameZh" : "福田里",
      "pgp" : "0",
      "terminal" : "0",
      "latitude" : "24.18982",
      "inDis" : "50",
      "routeId" : "237",
      "seqNo" : "77"
   },
   {
      "GoBack" : "1",
      "longitude" : "120.52201",
      "outDis" : "50",
      "Id" : "1987",
      "oid" : "5638",
      "districtId" : "1",
      "nameZh" : "田尾厝",
      "pgp" : "0",
      "terminal" : "0",
      "latitude" : "24.18298",
      "inDis" : "50",
      "routeId" : "237",
      "seqNo" : "78"
   },
   {
      "GoBack" : "1",
      "longitude" : "120.5247",
      "outDis" : "50",
      "Id" : "2711",
      "oid" : "6066",
      "districtId" : "1",
      "nameZh" : "茄投尾",
      "pgp" : "0",
      "terminal" : "0",
      "latitude" : "24.18006",
      "inDis" : "50",
      "routeId" : "237",
      "seqNo" : "79"
   },
   {
      "GoBack" : "1",
      "longitude" : "120.52889",
      "outDis" : "50",
      "Id" : "2710",
      "oid" : "6065",
      "districtId" : "1",
      "nameZh" : "茄投",
      "pgp" : "0",
      "terminal" : "0",
      "latitude" : "24.17891",
      "inDis" : "50",
      "routeId" : "237",
      "seqNo" : "80"
   },
   {
      "GoBack" : "1",
      "longitude" : "120.53072",
      "outDis" : "50",
      "Id" : "5236",
      "oid" : "310787778",
      "districtId" : "1",
      "nameZh" : "成功里",
      "pgp" : "0",
      "terminal" : "0",
      "latitude" : "24.17307",
      "inDis" : "50",
      "routeId" : "237",
      "seqNo" : "81"
   },
   {
      "GoBack" : "1",
      "longitude" : "120.53113",
      "outDis" : "50",
      "Id" : "2035",
      "oid" : "5674",
      "districtId" : "1",
      "nameZh" : "份仔",
      "pgp" : "0",
      "terminal" : "0",
      "latitude" : "24.16617",
      "inDis" : "50",
      "routeId" : "237",
      "seqNo" : "82"
   },
   {
      "GoBack" : "1",
      "longitude" : "120.5318",
      "outDis" : "50",
      "Id" : "1950",
      "oid" : "5620",
      "districtId" : "1",
      "nameZh" : "永順",
      "pgp" : "0",
      "terminal" : "0",
      "latitude" : "24.1612",
      "inDis" : "50",
      "routeId" : "237",
      "seqNo" : "83"
   },
   {
      "GoBack" : "1",
      "longitude" : "120.53225",
      "outDis" : "50",
      "Id" : "1951",
      "oid" : "5621",
      "districtId" : "1",
      "nameZh" : "永順國小",
      "pgp" : "0",
      "terminal" : "0",
      "latitude" : "24.15853",
      "inDis" : "50",
      "routeId" : "237",
      "seqNo" : "84"
   },
   {
      "GoBack" : "1",
      "longitude" : "120.53137",
      "outDis" : "50",
      "Id" : "2250",
      "oid" : "5793",
      "districtId" : "1",
      "nameZh" : "汴子頭",
      "pgp" : "0",
      "terminal" : "0",
      "latitude" : "24.15491",
      "inDis" : "50",
      "routeId" : "237",
      "seqNo" : "85"
   },
   {
      "GoBack" : "1",
      "longitude" : "120.53282",
      "outDis" : "50",
      "Id" : "5537",
      "oid" : "316349773",
      "districtId" : "1",
      "nameZh" : "汴子頭尾",
      "pgp" : "0",
      "terminal" : "0",
      "latitude" : "24.15306",
      "inDis" : "50",
      "routeId" : "237",
      "seqNo" : "86"
   },
   {
      "GoBack" : "1",
      "longitude" : "120.53832",
      "outDis" : "50",
      "Id" : "5273",
      "oid" : "310787854",
      "districtId" : "1",
      "nameZh" : "磺溪里",
      "pgp" : "0",
      "terminal" : "0",
      "latitude" : "24.15132",
      "inDis" : "50",
      "routeId" : "237",
      "seqNo" : "87"
   },
   {
      "GoBack" : "1",
      "longitude" : "120.54478",
      "outDis" : "50",
      "Id" : "5229",
      "oid" : "310787764",
      "districtId" : "1",
      "nameZh" : "文昌沙田路口",
      "pgp" : "0",
      "terminal" : "0",
      "latitude" : "24.15107",
      "inDis" : "50",
      "routeId" : "237",
      "seqNo" : "88"
   },
   {
      "GoBack" : "1",
      "longitude" : "120.54284",
      "outDis" : "50",
      "Id" : "1303",
      "oid" : "7219",
      "districtId" : "1",
      "nameZh" : "大肚火車站",
      "pgp" : "0",
      "terminal" : "0",
      "latitude" : "24.15404",
      "inDis" : "50",
      "routeId" : "237",
      "seqNo" : "89"
   },
   {
      "GoBack" : "2",
      "longitude" : "120.54284",
      "outDis" : "50",
      "Id" : "1303",
      "oid" : "7219",
      "districtId" : "1",
      "nameZh" : "大肚火車站",
      "pgp" : "0",
      "terminal" : "0",
      "latitude" : "24.15404",
      "inDis" : "50",
      "routeId" : "237",
      "seqNo" : "1"
   },
   {
      "GoBack" : "2",
      "longitude" : "120.54478",
      "outDis" : "50",
      "Id" : "5229",
      "oid" : "310787764",
      "districtId" : "1",
      "nameZh" : "文昌沙田路口",
      "pgp" : "0",
      "terminal" : "0",
      "latitude" : "24.15107",
      "inDis" : "50",
      "routeId" : "237",
      "seqNo" : "2"
   },
   {
      "GoBack" : "2",
      "longitude" : "120.53832",
      "outDis" : "50",
      "Id" : "5273",
      "oid" : "310787854",
      "districtId" : "1",
      "nameZh" : "磺溪里",
      "pgp" : "0",
      "terminal" : "0",
      "latitude" : "24.15132",
      "inDis" : "50",
      "routeId" : "237",
      "seqNo" : "3"
   },
   {
      "GoBack" : "2",
      "longitude" : "120.53282",
      "outDis" : "50",
      "Id" : "5537",
      "oid" : "316349773",
      "districtId" : "1",
      "nameZh" : "汴子頭尾",
      "pgp" : "0",
      "terminal" : "0",
      "latitude" : "24.15306",
      "inDis" : "50",
      "routeId" : "237",
      "seqNo" : "4"
   },
   {
      "GoBack" : "2",
      "longitude" : "120.53137",
      "outDis" : "50",
      "Id" : "2250",
      "oid" : "5793",
      "districtId" : "1",
      "nameZh" : "汴子頭",
      "pgp" : "0",
      "terminal" : "0",
      "latitude" : "24.15491",
      "inDis" : "50",
      "routeId" : "237",
      "seqNo" : "5"
   },
   {
      "GoBack" : "2",
      "longitude" : "120.53225",
      "outDis" : "50",
      "Id" : "1951",
      "oid" : "5621",
      "districtId" : "1",
      "nameZh" : "永順國小",
      "pgp" : "0",
      "terminal" : "0",
      "latitude" : "24.15853",
      "inDis" : "50",
      "routeId" : "237",
      "seqNo" : "6"
   },
   {
      "GoBack" : "2",
      "longitude" : "120.5318",
      "outDis" : "50",
      "Id" : "1950",
      "oid" : "5620",
      "districtId" : "1",
      "nameZh" : "永順",
      "pgp" : "0",
      "terminal" : "0",
      "latitude" : "24.1612",
      "inDis" : "50",
      "routeId" : "237",
      "seqNo" : "7"
   },
   {
      "GoBack" : "2",
      "longitude" : "120.53113",
      "outDis" : "50",
      "Id" : "2035",
      "oid" : "5674",
      "districtId" : "1",
      "nameZh" : "份仔",
      "pgp" : "0",
      "terminal" : "0",
      "latitude" : "24.16617",
      "inDis" : "50",
      "routeId" : "237",
      "seqNo" : "8"
   },
   {
      "GoBack" : "2",
      "longitude" : "120.53072",
      "outDis" : "50",
      "Id" : "5236",
      "oid" : "310787778",
      "districtId" : "1",
      "nameZh" : "成功里",
      "pgp" : "0",
      "terminal" : "0",
      "latitude" : "24.17307",
      "inDis" : "50",
      "routeId" : "237",
      "seqNo" : "9"
   },
   {
      "GoBack" : "2",
      "longitude" : "120.52889",
      "outDis" : "50",
      "Id" : "2710",
      "oid" : "6065",
      "districtId" : "1",
      "nameZh" : "茄投",
      "pgp" : "0",
      "terminal" : "0",
      "latitude" : "24.17891",
      "inDis" : "50",
      "routeId" : "237",
      "seqNo" : "10"
   },
   {
      "GoBack" : "2",
      "longitude" : "120.5247",
      "outDis" : "50",
      "Id" : "2711",
      "oid" : "6066",
      "districtId" : "1",
      "nameZh" : "茄投尾",
      "pgp" : "0",
      "terminal" : "0",
      "latitude" : "24.18006",
      "inDis" : "50",
      "routeId" : "237",
      "seqNo" : "11"
   },
   {
      "GoBack" : "2",
      "longitude" : "120.52201",
      "outDis" : "50",
      "Id" : "1987",
      "oid" : "5638",
      "districtId" : "1",
      "nameZh" : "田尾厝",
      "pgp" : "0",
      "terminal" : "0",
      "latitude" : "24.18298",
      "inDis" : "50",
      "routeId" : "237",
      "seqNo" : "12"
   },
   {
      "GoBack" : "2",
      "longitude" : "120.51645",
      "outDis" : "50",
      "Id" : "5261",
      "oid" : "310787830",
      "districtId" : "1",
      "nameZh" : "福田里",
      "pgp" : "0",
      "terminal" : "0",
      "latitude" : "24.18982",
      "inDis" : "50",
      "routeId" : "237",
      "seqNo" : "13"
   },
   {
      "GoBack" : "2",
      "longitude" : "120.51261",
      "outDis" : "50",
      "Id" : "2808",
      "oid" : "6126",
      "districtId" : "1",
      "nameZh" : "海埔仔",
      "pgp" : "0",
      "terminal" : "0",
      "latitude" : "24.19329",
      "inDis" : "50",
      "routeId" : "237",
      "seqNo" : "14"
   },
   {
      "GoBack" : "2",
      "longitude" : "120.50025",
      "outDis" : "100",
      "Id" : "3862",
      "oid" : "6660",
      "districtId" : "1",
      "nameZh" : "龍港國小",
      "pgp" : "0",
      "terminal" : "0",
      "latitude" : "24.19867",
      "inDis" : "50",
      "routeId" : "237",
      "seqNo" : "16"
   },
   {
      "GoBack" : "2",
      "longitude" : "120.49841",
      "outDis" : "50",
      "Id" : "3982",
      "oid" : "6726",
      "districtId" : "1",
      "nameZh" : "麗水",
      "pgp" : "0",
      "terminal" : "0",
      "latitude" : "24.20074",
      "inDis" : "50",
      "routeId" : "237",
      "seqNo" : "17"
   },
   {
      "GoBack" : "2",
      "longitude" : "120.49991",
      "outDis" : "100",
      "Id" : "3862",
      "oid" : "6762",
      "districtId" : "1",
      "nameZh" : "龍港國小",
      "pgp" : "0",
      "terminal" : "0",
      "latitude" : "24.19867",
      "inDis" : "50",
      "routeId" : "237",
      "seqNo" : "18"
   },
   {
      "GoBack" : "2",
      "longitude" : "120.50436",
      "outDis" : "50",
      "Id" : "5297",
      "oid" : "311033704",
      "districtId" : "1",
      "nameZh" : "三港護岸路口",
      "pgp" : "0",
      "terminal" : "0",
      "latitude" : "24.19759",
      "inDis" : "50",
      "routeId" : "237",
      "seqNo" : "19"
   },
   {
      "GoBack" : "2",
      "longitude" : "120.50874",
      "outDis" : "50",
      "Id" : "1983",
      "oid" : "5637",
      "districtId" : "1",
      "nameZh" : "田仔內",
      "pgp" : "0",
      "terminal" : "0",
      "latitude" : "24.19974",
      "inDis" : "50",
      "routeId" : "237",
      "seqNo" : "20"
   },
   {
      "GoBack" : "2",
      "longitude" : "120.51646",
      "outDis" : "50",
      "Id" : "5291",
      "oid" : "311033698",
      "districtId" : "1",
      "nameZh" : "臨港東西濱路口",
      "pgp" : "0",
      "terminal" : "0",
      "latitude" : "24.19804",
      "inDis" : "50",
      "routeId" : "237",
      "seqNo" : "21"
   },
   {
      "GoBack" : "2",
      "longitude" : "120.51922",
      "outDis" : "50",
      "Id" : "5262",
      "oid" : "310787832",
      "districtId" : "1",
      "nameZh" : "福田社區",
      "pgp" : "0",
      "terminal" : "0",
      "latitude" : "24.19743",
      "inDis" : "50",
      "routeId" : "237",
      "seqNo" : "22"
   },
   {
      "GoBack" : "2",
      "longitude" : "120.52263",
      "outDis" : "50",
      "Id" : "3842",
      "oid" : "6652",
      "districtId" : "1",
      "nameZh" : "龍二橋",
      "pgp" : "0",
      "terminal" : "0",
      "latitude" : "24.19667",
      "inDis" : "50",
      "routeId" : "237",
      "seqNo" : "23"
   },
   {
      "GoBack" : "2",
      "longitude" : "120.5235",
      "outDis" : "50",
      "Id" : "3858",
      "oid" : "6658",
      "districtId" : "1",
      "nameZh" : "龍津",
      "pgp" : "0",
      "terminal" : "0",
      "latitude" : "24.19989",
      "inDis" : "50",
      "routeId" : "237",
      "seqNo" : "24"
   },
   {
      "GoBack" : "2",
      "longitude" : "120.5234",
      "outDis" : "50",
      "Id" : "4183",
      "oid" : "12258",
      "districtId" : "1",
      "nameZh" : "海埔厝庄頭",
      "pgp" : "0",
      "terminal" : "0",
      "latitude" : "24.20259",
      "inDis" : "50",
      "routeId" : "237",
      "seqNo" : "25"
   },
   {
      "GoBack" : "2",
      "longitude" : "120.52338",
      "outDis" : "50",
      "Id" : "3848",
      "oid" : "6654",
      "districtId" : "1",
      "nameZh" : "龍井市場",
      "pgp" : "0",
      "terminal" : "0",
      "latitude" : "24.20372",
      "inDis" : "50",
      "routeId" : "237",
      "seqNo" : "26"
   },
   {
      "GoBack" : "2",
      "longitude" : "120.52353",
      "outDis" : "50",
      "Id" : "1102",
      "oid" : "5095",
      "districtId" : "1",
      "nameZh" : "三德",
      "pgp" : "0",
      "terminal" : "0",
      "latitude" : "24.20646",
      "inDis" : "50",
      "routeId" : "237",
      "seqNo" : "27"
   },
   {
      "GoBack" : "2",
      "longitude" : "120.52499",
      "outDis" : "50",
      "Id" : "2346",
      "oid" : "5851",
      "districtId" : "1",
      "nameZh" : "忠和",
      "pgp" : "0",
      "terminal" : "0",
      "latitude" : "24.21186",
      "inDis" : "50",
      "routeId" : "237",
      "seqNo" : "28"
   },
   {
      "GoBack" : "2",
      "longitude" : "120.52587",
      "outDis" : "50",
      "Id" : "2906",
      "oid" : "6171",
      "districtId" : "1",
      "nameZh" : "高圓仔",
      "pgp" : "0",
      "terminal" : "0",
      "latitude" : "24.21472",
      "inDis" : "50",
      "routeId" : "237",
      "seqNo" : "29"
   },
   {
      "GoBack" : "2",
      "longitude" : "120.52702",
      "outDis" : "50",
      "Id" : "2802",
      "oid" : "6119",
      "districtId" : "1",
      "nameZh" : "海尾巷",
      "pgp" : "0",
      "terminal" : "0",
      "latitude" : "24.21845",
      "inDis" : "50",
      "routeId" : "237",
      "seqNo" : "30"
   },
   {
      "GoBack" : "2",
      "longitude" : "120.52826",
      "outDis" : "50",
      "Id" : "2110",
      "oid" : "5722",
      "districtId" : "1",
      "nameZh" : "安良港",
      "pgp" : "0",
      "terminal" : "0",
      "latitude" : "24.22165",
      "inDis" : "50",
      "routeId" : "237",
      "seqNo" : "31"
   },
   {
      "GoBack" : "2",
      "longitude" : "120.52966",
      "outDis" : "50",
      "Id" : "2133",
      "oid" : "5733",
      "districtId" : "1",
      "nameZh" : "百姓公",
      "pgp" : "0",
      "terminal" : "0",
      "latitude" : "24.22415",
      "inDis" : "50",
      "routeId" : "237",
      "seqNo" : "32"
   },
   {
      "GoBack" : "2",
      "longitude" : "120.53204",
      "outDis" : "50",
      "Id" : "5301",
      "oid" : "311033708",
      "districtId" : "1",
      "nameZh" : "中央永興路口",
      "pgp" : "0",
      "terminal" : "0",
      "latitude" : "24.2256",
      "inDis" : "50",
      "routeId" : "237",
      "seqNo" : "33"
   },
   {
      "GoBack" : "2",
      "longitude" : "120.5345",
      "outDis" : "50",
      "Id" : "0563",
      "oid" : "5615",
      "districtId" : "1",
      "nameZh" : "永安里",
      "pgp" : "0",
      "terminal" : "0",
      "latitude" : "24.22527",
      "inDis" : "50",
      "routeId" : "237",
      "seqNo" : "34"
   },
   {
      "GoBack" : "2",
      "longitude" : "120.53626",
      "outDis" : "50",
      "Id" : "1136",
      "oid" : "5116",
      "districtId" : "1",
      "nameZh" : "下永安里",
      "pgp" : "0",
      "terminal" : "0",
      "latitude" : "24.22552",
      "inDis" : "50",
      "routeId" : "237",
      "seqNo" : "35"
   },
   {
      "GoBack" : "2",
      "longitude" : "120.53929",
      "outDis" : "50",
      "Id" : "4180",
      "oid" : "12255",
      "districtId" : "1",
      "nameZh" : "永興橋",
      "pgp" : "0",
      "terminal" : "0",
      "latitude" : "24.22587",
      "inDis" : "50",
      "routeId" : "237",
      "seqNo" : "36"
   },
   {
      "GoBack" : "2",
      "longitude" : "120.54221",
      "outDis" : "50",
      "Id" : "2036",
      "oid" : "5675",
      "districtId" : "1",
      "nameZh" : "份頭",
      "pgp" : "0",
      "terminal" : "0",
      "latitude" : "24.22635",
      "inDis" : "50",
      "routeId" : "237",
      "seqNo" : "37"
   },
   {
      "GoBack" : "2",
      "longitude" : "120.55221",
      "outDis" : "50",
      "Id" : "2303",
      "oid" : "5827",
      "districtId" : "1",
      "nameZh" : "味丹公司",
      "pgp" : "0",
      "terminal" : "0",
      "latitude" : "24.23031",
      "inDis" : "50",
      "routeId" : "237",
      "seqNo" : "38"
   },
   {
      "GoBack" : "2",
      "longitude" : "120.55689",
      "outDis" : "50",
      "Id" : "3809",
      "oid" : "6632",
      "districtId" : "1",
      "nameZh" : "興仁里",
      "pgp" : "0",
      "terminal" : "0",
      "latitude" : "24.23263",
      "inDis" : "50",
      "routeId" : "237",
      "seqNo" : "39"
   },
   {
      "GoBack" : "2",
      "longitude" : "120.55882",
      "outDis" : "50",
      "Id" : "4816",
      "oid" : "313222697",
      "districtId" : "1",
      "nameZh" : "沙鹿光田醫院",
      "pgp" : "0",
      "terminal" : "0",
      "latitude" : "24.23492",
      "inDis" : "50",
      "routeId" : "237",
      "seqNo" : "40"
   },
   {
      "GoBack" : "2",
      "longitude" : "120.55931",
      "outDis" : "50",
      "Id" : "4815",
      "oid" : "15238",
      "districtId" : "1",
      "nameZh" : "沙鹿火車站",
      "pgp" : "0",
      "terminal" : "0",
      "latitude" : "24.23602",
      "inDis" : "50",
      "routeId" : "237",
      "seqNo" : "41"
   },
   {
      "GoBack" : "2",
      "longitude" : "120.55967",
      "outDis" : "50",
      "Id" : "4681",
      "oid" : "14045",
      "districtId" : "1",
      "nameZh" : "沙鹿市場",
      "pgp" : "0",
      "terminal" : "0",
      "latitude" : "24.23737",
      "inDis" : "50",
      "routeId" : "237",
      "seqNo" : "42"
   },
   {
      "GoBack" : "2",
      "longitude" : "120.56252",
      "outDis" : "50",
      "Id" : "2682",
      "oid" : "6041",
      "districtId" : "1",
      "nameZh" : "洛泉里",
      "pgp" : "0",
      "terminal" : "0",
      "latitude" : "24.2376",
      "inDis" : "50",
      "routeId" : "237",
      "seqNo" : "43"
   },
   {
      "GoBack" : "2",
      "longitude" : "120.56494",
      "outDis" : "50",
      "Id" : "4390",
      "oid" : "17454",
      "districtId" : "1",
      "nameZh" : "沙鹿高工(中山路)",
      "pgp" : "0",
      "terminal" : "0",
      "latitude" : "24.23722",
      "inDis" : "50",
      "routeId" : "237",
      "seqNo" : "44"
   },
   {
      "GoBack" : "2",
      "longitude" : "120.56673",
      "outDis" : "50",
      "Id" : "5222",
      "oid" : "310787750",
      "districtId" : "1",
      "nameZh" : "中山鎮政路口",
      "pgp" : "0",
      "terminal" : "0",
      "latitude" : "24.23698",
      "inDis" : "50",
      "routeId" : "237",
      "seqNo" : "45"
   },
   {
      "GoBack" : "2",
      "longitude" : "120.56918",
      "outDis" : "50",
      "Id" : "5221",
      "oid" : "310787748",
      "districtId" : "1",
      "nameZh" : "中山臺灣大道口",
      "pgp" : "0",
      "terminal" : "0",
      "latitude" : "24.2371",
      "inDis" : "50",
      "routeId" : "237",
      "seqNo" : "46"
   },
   {
      "GoBack" : "2",
      "longitude" : "120.5718",
      "outDis" : "50",
      "Id" : "2145",
      "oid" : "5738",
      "districtId" : "1",
      "nameZh" : "竹林",
      "pgp" : "0",
      "terminal" : "0",
      "latitude" : "24.23853",
      "inDis" : "50",
      "routeId" : "237",
      "seqNo" : "47"
   },
   {
      "GoBack" : "2",
      "longitude" : "120.57728",
      "outDis" : "50",
      "Id" : "5299",
      "oid" : "311033706",
      "districtId" : "1",
      "nameZh" : "頂犁份",
      "pgp" : "0",
      "terminal" : "0",
      "latitude" : "24.24151",
      "inDis" : "50",
      "routeId" : "237",
      "seqNo" : "48"
   },
   {
      "GoBack" : "2",
      "longitude" : "120.58236",
      "outDis" : "50",
      "Id" : "3352",
      "oid" : "6403",
      "districtId" : "1",
      "nameZh" : "慈惠堂",
      "pgp" : "0",
      "terminal" : "0",
      "latitude" : "24.2437",
      "inDis" : "50",
      "routeId" : "237",
      "seqNo" : "49"
   },
   {
      "GoBack" : "2",
      "longitude" : "120.59608",
      "outDis" : "50",
      "Id" : "3116",
      "oid" : "6293",
      "districtId" : "1",
      "nameZh" : "頂西勢寮",
      "pgp" : "0",
      "terminal" : "0",
      "latitude" : "24.24892",
      "inDis" : "50",
      "routeId" : "237",
      "seqNo" : "51"
   },
   {
      "GoBack" : "2",
      "longitude" : "120.5984",
      "outDis" : "50",
      "Id" : "4982",
      "oid" : "306167896",
      "districtId" : "1",
      "nameZh" : "漢翔複材中心",
      "pgp" : "0",
      "terminal" : "0",
      "latitude" : "24.25234",
      "inDis" : "50",
      "routeId" : "237",
      "seqNo" : "52"
   },
   {
      "GoBack" : "2",
      "longitude" : "120.59899",
      "outDis" : "50",
      "Id" : "0135",
      "oid" : "312174380",
      "districtId" : "1",
      "nameZh" : "臺中航空站",
      "pgp" : "0",
      "terminal" : "0",
      "latitude" : "24.25348",
      "inDis" : "50",
      "routeId" : "237",
      "seqNo" : "53"
   },
   {
      "GoBack" : "2",
      "longitude" : "120.59856",
      "outDis" : "50",
      "Id" : "4982",
      "oid" : "319618096",
      "districtId" : "1",
      "nameZh" : "漢翔複材中心",
      "pgp" : "0",
      "terminal" : "0",
      "latitude" : "24.25279",
      "inDis" : "50",
      "routeId" : "237",
      "seqNo" : "54"
   },
   {
      "GoBack" : "2",
      "longitude" : "120.59881",
      "outDis" : "50",
      "Id" : "4713",
      "oid" : "310614301",
      "districtId" : "1",
      "nameZh" : "公明國中",
      "pgp" : "0",
      "terminal" : "0",
      "latitude" : "24.2501",
      "inDis" : "50",
      "routeId" : "237",
      "seqNo" : "55"
   },
   {
      "GoBack" : "2",
      "longitude" : "120.6018",
      "outDis" : "50",
      "Id" : "1556",
      "oid" : "0032883D9F1A4E049568D5607D04A15E",
      "districtId" : "1",
      "nameZh" : "中清仁愛巷口",
      "pgp" : "0",
      "terminal" : "0",
      "latitude" : "24.24946",
      "inDis" : "50",
      "routeId" : "237",
      "seqNo" : "56"
   },
   {
      "GoBack" : "2",
      "longitude" : "120.60567",
      "outDis" : "50",
      "Id" : "3738",
      "oid" : "5D3D303824DE44588FF28F594C522805",
      "districtId" : "1",
      "nameZh" : "樂群二村",
      "pgp" : "0",
      "terminal" : "0",
      "latitude" : "24.24772",
      "inDis" : "50",
      "routeId" : "237",
      "seqNo" : "57"
   },
   {
      "GoBack" : "2",
      "longitude" : "120.60824",
      "outDis" : "50",
      "Id" : "1604",
      "oid" : "3E8D6863D7C6417AB4B68003C95F12DE",
      "districtId" : "1",
      "nameZh" : "公明里",
      "pgp" : "0",
      "terminal" : "0",
      "latitude" : "24.24655",
      "inDis" : "50",
      "routeId" : "237",
      "seqNo" : "58"
   },
   {
      "GoBack" : "2",
      "longitude" : "120.61048",
      "outDis" : "50",
      "Id" : "0169",
      "oid" : "318241812",
      "districtId" : "1",
      "nameZh" : "清泉派出所",
      "pgp" : "0",
      "terminal" : "0",
      "latitude" : "24.24561",
      "inDis" : "50",
      "routeId" : "237",
      "seqNo" : "59"
   },
   {
      "GoBack" : "2",
      "longitude" : "120.61466",
      "outDis" : "50",
      "Id" : "3023",
      "oid" : "6230",
      "districtId" : "1",
      "nameZh" : "清泉里",
      "pgp" : "0",
      "terminal" : "0",
      "latitude" : "24.24409",
      "inDis" : "50",
      "routeId" : "237",
      "seqNo" : "60"
   },
   {
      "GoBack" : "2",
      "longitude" : "120.6204",
      "outDis" : "50",
      "Id" : "4669",
      "oid" : "7425",
      "districtId" : "1",
      "nameZh" : "中清信義路口",
      "pgp" : "0",
      "terminal" : "0",
      "latitude" : "24.2425",
      "inDis" : "50",
      "routeId" : "237",
      "seqNo" : "61"
   },
   {
      "GoBack" : "2",
      "longitude" : "120.62673",
      "outDis" : "50",
      "Id" : "3663",
      "oid" : "00F44A45672A4A16994A287A6E61763B",
      "districtId" : "1",
      "nameZh" : "福樂新城",
      "pgp" : "0",
      "terminal" : "0",
      "latitude" : "24.24248",
      "inDis" : "50",
      "routeId" : "237",
      "seqNo" : "62"
   },
   {
      "GoBack" : "2",
      "longitude" : "120.63102",
      "outDis" : "50",
      "Id" : "4188",
      "oid" : "12263",
      "districtId" : "1",
      "nameZh" : "埔仔墘",
      "pgp" : "0",
      "terminal" : "0",
      "latitude" : "24.24095",
      "inDis" : "50",
      "routeId" : "237",
      "seqNo" : "63"
   },
   {
      "GoBack" : "2",
      "longitude" : "120.63456",
      "outDis" : "50",
      "Id" : "5242",
      "oid" : "310787792",
      "districtId" : "1",
      "nameZh" : "和平清陽一路口",
      "pgp" : "0",
      "terminal" : "0",
      "latitude" : "24.24309",
      "inDis" : "50",
      "routeId" : "237",
      "seqNo" : "64"
   },
   {
      "GoBack" : "2",
      "longitude" : "120.63801",
      "outDis" : "50",
      "Id" : "1118",
      "oid" : "5104",
      "districtId" : "1",
      "nameZh" : "下山皮",
      "pgp" : "0",
      "terminal" : "0",
      "latitude" : "24.24622",
      "inDis" : "50",
      "routeId" : "237",
      "seqNo" : "65"
   },
   {
      "GoBack" : "2",
      "longitude" : "120.64411",
      "outDis" : "50",
      "Id" : "2282",
      "oid" : "5810",
      "districtId" : "1",
      "nameZh" : "車站前",
      "pgp" : "0",
      "terminal" : "0",
      "latitude" : "24.25339",
      "inDis" : "50",
      "routeId" : "237",
      "seqNo" : "66"
   },
   {
      "GoBack" : "2",
      "longitude" : "120.64935",
      "outDis" : "50",
      "Id" : "1392",
      "oid" : "5286",
      "districtId" : "1",
      "nameZh" : "山皮",
      "pgp" : "0",
      "terminal" : "0",
      "latitude" : "24.25824",
      "inDis" : "50",
      "routeId" : "237",
      "seqNo" : "67"
   },
   {
      "GoBack" : "2",
      "longitude" : "120.6531",
      "outDis" : "50",
      "Id" : "3654",
      "oid" : "6551",
      "districtId" : "1",
      "nameZh" : "福連公司",
      "pgp" : "0",
      "terminal" : "0",
      "latitude" : "24.25852",
      "inDis" : "50",
      "routeId" : "237",
      "seqNo" : "68"
   },
   {
      "GoBack" : "2",
      "longitude" : "120.65605",
      "outDis" : "50",
      "Id" : "4445",
      "oid" : "13808",
      "districtId" : "1",
      "nameZh" : "中正中山路口",
      "pgp" : "0",
      "terminal" : "0",
      "latitude" : "24.25842",
      "inDis" : "50",
      "routeId" : "237",
      "seqNo" : "69"
   },
   {
      "GoBack" : "2",
      "longitude" : "120.6593",
      "outDis" : "50",
      "Id" : "2835",
      "oid" : "6139",
      "districtId" : "1",
      "nameZh" : "神岡",
      "pgp" : "0",
      "terminal" : "0",
      "latitude" : "24.25703",
      "inDis" : "50",
      "routeId" : "237",
      "seqNo" : "70"
   },
   {
      "GoBack" : "2",
      "longitude" : "120.66141",
      "outDis" : "50",
      "Id" : "2837",
      "oid" : "6141",
      "districtId" : "1",
      "nameZh" : "神岡區公所",
      "pgp" : "0",
      "terminal" : "0",
      "latitude" : "24.25771",
      "inDis" : "50",
      "routeId" : "237",
      "seqNo" : "71"
   },
   {
      "GoBack" : "2",
      "longitude" : "120.66294",
      "outDis" : "50",
      "Id" : "3066",
      "oid" : "6265",
      "districtId" : "1",
      "nameZh" : "庄頭",
      "pgp" : "0",
      "terminal" : "0",
      "latitude" : "24.25812",
      "inDis" : "50",
      "routeId" : "237",
      "seqNo" : "72"
   },
   {
      "GoBack" : "2",
      "longitude" : "120.66832",
      "outDis" : "50",
      "Id" : "1783",
      "oid" : "5526",
      "districtId" : "1",
      "nameZh" : "北庄",
      "pgp" : "0",
      "terminal" : "0",
      "latitude" : "24.25732",
      "inDis" : "50",
      "routeId" : "237",
      "seqNo" : "73"
   },
   {
      "GoBack" : "2",
      "longitude" : "120.67224",
      "outDis" : "50",
      "Id" : "3460",
      "oid" : "6474",
      "districtId" : "1",
      "nameZh" : "中山溝心路口",
      "pgp" : "0",
      "terminal" : "0",
      "latitude" : "24.25521",
      "inDis" : "50",
      "routeId" : "237",
      "seqNo" : "74"
   },
   {
      "GoBack" : "2",
      "longitude" : "120.67368",
      "outDis" : "50",
      "Id" : "3556",
      "oid" : "13823",
      "districtId" : "1",
      "nameZh" : "電信局",
      "pgp" : "0",
      "terminal" : "0",
      "latitude" : "24.25317",
      "inDis" : "50",
      "routeId" : "237",
      "seqNo" : "75"
   },
   {
      "GoBack" : "2",
      "longitude" : "120.67622",
      "outDis" : "50",
      "Id" : "3655",
      "oid" : "6552",
      "districtId" : "1",
      "nameZh" : "福華公司",
      "pgp" : "0",
      "terminal" : "0",
      "latitude" : "24.25099",
      "inDis" : "50",
      "routeId" : "237",
      "seqNo" : "76"
   },
   {
      "GoBack" : "2",
      "longitude" : "120.67946",
      "outDis" : "50",
      "Id" : "3656",
      "oid" : "6553",
      "districtId" : "1",
      "nameZh" : "福隆新村",
      "pgp" : "0",
      "terminal" : "0",
      "latitude" : "24.24901",
      "inDis" : "50",
      "routeId" : "237",
      "seqNo" : "77"
   },
   {
      "GoBack" : "2",
      "longitude" : "120.68146",
      "outDis" : "50",
      "Id" : "2836",
      "oid" : "6140",
      "districtId" : "1",
      "nameZh" : "神岡國中",
      "pgp" : "0",
      "terminal" : "0",
      "latitude" : "24.24731",
      "inDis" : "50",
      "routeId" : "237",
      "seqNo" : "78"
   },
   {
      "GoBack" : "2",
      "longitude" : "120.68563",
      "outDis" : "50",
      "Id" : "2486",
      "oid" : "5941",
      "districtId" : "1",
      "nameZh" : "社口",
      "pgp" : "0",
      "terminal" : "0",
      "latitude" : "24.24668",
      "inDis" : "50",
      "routeId" : "237",
      "seqNo" : "79"
   },
   {
      "GoBack" : "2",
      "longitude" : "120.6896",
      "outDis" : "50",
      "Id" : "2700",
      "oid" : "6056",
      "districtId" : "1",
      "nameZh" : "紅瓦厝口",
      "pgp" : "0",
      "terminal" : "0",
      "latitude" : "24.2476",
      "inDis" : "50",
      "routeId" : "237",
      "seqNo" : "80"
   },
   {
      "GoBack" : "2",
      "longitude" : "120.69323",
      "outDis" : "50",
      "Id" : "2993",
      "oid" : "6203",
      "districtId" : "1",
      "nameZh" : "望寮",
      "pgp" : "0",
      "terminal" : "0",
      "latitude" : "24.24841",
      "inDis" : "50",
      "routeId" : "237",
      "seqNo" : "81"
   },
   {
      "GoBack" : "2",
      "longitude" : "120.69799",
      "outDis" : "50",
      "Id" : "5438",
      "oid" : "5237",
      "districtId" : "1",
      "nameZh" : "岸裡國小",
      "pgp" : "0",
      "terminal" : "0",
      "latitude" : "24.2487",
      "inDis" : "50",
      "routeId" : "237",
      "seqNo" : "82"
   },
   {
      "GoBack" : "2",
      "longitude" : "120.70003",
      "outDis" : "50",
      "Id" : "4498",
      "oid" : "13826",
      "districtId" : "1",
      "nameZh" : "臺豐社區",
      "pgp" : "0",
      "terminal" : "0",
      "latitude" : "24.249",
      "inDis" : "50",
      "routeId" : "237",
      "seqNo" : "83"
   },
   {
      "GoBack" : "2",
      "longitude" : "120.70229",
      "outDis" : "50",
      "Id" : "2489",
      "oid" : "5943",
      "districtId" : "1",
      "nameZh" : "社皮鐵路巷",
      "pgp" : "0",
      "terminal" : "0",
      "latitude" : "24.24951",
      "inDis" : "50",
      "routeId" : "237",
      "seqNo" : "84"
   },
   {
      "GoBack" : "2",
      "longitude" : "120.70434",
      "outDis" : "50",
      "Id" : "2349",
      "oid" : "5856",
      "districtId" : "1",
      "nameZh" : "忠勤新村",
      "pgp" : "0",
      "terminal" : "0",
      "latitude" : "24.24962",
      "inDis" : "50",
      "routeId" : "237",
      "seqNo" : "85"
   },
   {
      "GoBack" : "2",
      "longitude" : "120.70672",
      "outDis" : "50",
      "Id" : "1065",
      "oid" : "5072",
      "districtId" : "1",
      "nameZh" : "三光新村",
      "pgp" : "0",
      "terminal" : "0",
      "latitude" : "24.24999",
      "inDis" : "50",
      "routeId" : "237",
      "seqNo" : "86"
   },
   {
      "GoBack" : "2",
      "longitude" : "120.70963",
      "outDis" : "50",
      "Id" : "4448",
      "oid" : "6688",
      "districtId" : "1",
      "nameZh" : "中正圓環西路口",
      "pgp" : "0",
      "terminal" : "0",
      "latitude" : "24.25039",
      "inDis" : "50",
      "routeId" : "237",
      "seqNo" : "87"
   },
   {
      "GoBack" : "2",
      "longitude" : "120.712",
      "outDis" : "50",
      "Id" : "3357",
      "oid" : "6406",
      "districtId" : "1",
      "nameZh" : "慈龍寺",
      "pgp" : "0",
      "terminal" : "0",
      "latitude" : "24.25079",
      "inDis" : "50",
      "routeId" : "237",
      "seqNo" : "88"
   },
   {
      "GoBack" : "2",
      "longitude" : "120.71526",
      "outDis" : "50",
      "Id" : "3939",
      "oid" : "6698",
      "districtId" : "1",
      "nameZh" : "豐原郵局",
      "pgp" : "0",
      "terminal" : "0",
      "latitude" : "24.25136",
      "inDis" : "50",
      "routeId" : "237",
      "seqNo" : "89"
   },
   {
      "GoBack" : "2",
      "longitude" : "120.71851",
      "outDis" : "50",
      "Id" : "3343",
      "oid" : "6397",
      "districtId" : "1",
      "nameZh" : "媽祖廟",
      "pgp" : "0",
      "terminal" : "0",
      "latitude" : "24.25157",
      "inDis" : "50",
      "routeId" : "237",
      "seqNo" : "90"
   },
   {
      "GoBack" : "2",
      "longitude" : "120.71986",
      "outDis" : "50",
      "Id" : "2309",
      "oid" : "5835",
      "districtId" : "1",
      "nameZh" : "和平街",
      "pgp" : "0",
      "terminal" : "0",
      "latitude" : "24.25233",
      "inDis" : "50",
      "routeId" : "237",
      "seqNo" : "91"
   },
   {
      "GoBack" : "2",
      "longitude" : "120.72154",
      "outDis" : "70",
      "Id" : "3935",
      "oid" : "6693",
      "districtId" : "1",
      "nameZh" : "豐原",
      "pgp" : "0",
      "terminal" : "0",
      "latitude" : "24.2538",
      "inDis" : "70",
      "routeId" : "237",
      "seqNo" : "92"
   }
]
