[
   {
      "GoBack" : "1",
      "longitude" : "120.58033",
      "outDis" : "50",
      "Id" : "3531",
      "oid" : "310808454",
      "districtId" : "1",
      "nameZh" : "正英臺灣大道口",
      "pgp" : "0",
      "terminal" : "0",
      "latitude" : "24.20961",
      "inDis" : "50",
      "routeId" : "藍6區",
      "seqNo" : "1"
   },
   {
      "GoBack" : "1",
      "longitude" : "120.58114",
      "outDis" : "50",
      "Id" : "4124",
      "oid" : "14334",
      "districtId" : "1",
      "nameZh" : "頂六路",
      "pgp" : "0",
      "terminal" : "0",
      "latitude" : "24.21332",
      "inDis" : "50",
      "routeId" : "藍6區",
      "seqNo" : "2"
   },
   {
      "GoBack" : "1",
      "longitude" : "120.5808",
      "outDis" : "50",
      "Id" : "4386",
      "oid" : "17377",
      "districtId" : "1",
      "nameZh" : "弘光科技大學",
      "pgp" : "0",
      "terminal" : "0",
      "latitude" : "24.2166",
      "inDis" : "50",
      "routeId" : "藍6區",
      "seqNo" : "3"
   },
   {
      "GoBack" : "1",
      "longitude" : "120.57986",
      "outDis" : "50",
      "Id" : "4111",
      "oid" : "17574",
      "districtId" : "1",
      "nameZh" : "晉江里",
      "pgp" : "0",
      "terminal" : "0",
      "latitude" : "24.22106",
      "inDis" : "50",
      "routeId" : "藍6區",
      "seqNo" : "4"
   },
   {
      "GoBack" : "1",
      "longitude" : "120.57859",
      "outDis" : "50",
      "Id" : "4062",
      "oid" : "15032",
      "districtId" : "1",
      "nameZh" : "下晉江",
      "pgp" : "0",
      "terminal" : "0",
      "latitude" : "24.22326",
      "inDis" : "50",
      "routeId" : "藍6區",
      "seqNo" : "5"
   },
   {
      "GoBack" : "1",
      "longitude" : "120.57673",
      "outDis" : "50",
      "Id" : "4147",
      "oid" : "15033",
      "districtId" : "1",
      "nameZh" : "靜宜大學",
      "pgp" : "0",
      "terminal" : "0",
      "latitude" : "24.22623",
      "inDis" : "50",
      "routeId" : "藍6區",
      "seqNo" : "6"
   },
   {
      "GoBack" : "1",
      "longitude" : "120.57421",
      "outDis" : "50",
      "Id" : "4086",
      "oid" : "15167",
      "districtId" : "1",
      "nameZh" : "臺灣大道北勢路口",
      "pgp" : "0",
      "terminal" : "0",
      "latitude" : "24.23015",
      "inDis" : "50",
      "routeId" : "藍6區",
      "seqNo" : "7"
   },
   {
      "GoBack" : "1",
      "longitude" : "120.57242",
      "outDis" : "50",
      "Id" : "4392",
      "oid" : "2275",
      "districtId" : "1",
      "nameZh" : "紅竹巷",
      "pgp" : "0",
      "terminal" : "0",
      "latitude" : "24.23312",
      "inDis" : "50",
      "routeId" : "藍6區",
      "seqNo" : "8"
   },
   {
      "GoBack" : "1",
      "longitude" : "120.56892",
      "outDis" : "50",
      "Id" : "0431",
      "oid" : "318961612",
      "districtId" : "1",
      "nameZh" : "中山台灣大道口",
      "pgp" : "0",
      "terminal" : "0",
      "latitude" : "24.23704",
      "inDis" : "50",
      "routeId" : "藍6區",
      "seqNo" : "9"
   },
   {
      "GoBack" : "1",
      "longitude" : "120.56704",
      "outDis" : "50",
      "Id" : "5222",
      "oid" : "318961613",
      "districtId" : "1",
      "nameZh" : "中山鎮政路口",
      "pgp" : "0",
      "terminal" : "0",
      "latitude" : "24.23707",
      "inDis" : "50",
      "routeId" : "藍6區",
      "seqNo" : "10"
   },
   {
      "GoBack" : "1",
      "longitude" : "120.56494",
      "outDis" : "50",
      "Id" : "4390",
      "oid" : "17454",
      "districtId" : "1",
      "nameZh" : "沙鹿高工(中山路)",
      "pgp" : "0",
      "terminal" : "0",
      "latitude" : "24.23722",
      "inDis" : "50",
      "routeId" : "藍6區",
      "seqNo" : "11"
   },
   {
      "GoBack" : "1",
      "longitude" : "120.56236",
      "outDis" : "50",
      "Id" : "2682",
      "oid" : "312574878",
      "districtId" : "1",
      "nameZh" : "洛泉里",
      "pgp" : "0",
      "terminal" : "0",
      "latitude" : "24.23768",
      "inDis" : "50",
      "routeId" : "藍6區",
      "seqNo" : "12"
   },
   {
      "GoBack" : "1",
      "longitude" : "120.56142",
      "outDis" : "50",
      "Id" : "2248",
      "oid" : "2280",
      "districtId" : "1",
      "nameZh" : "沙鹿站",
      "pgp" : "0",
      "terminal" : "0",
      "latitude" : "24.23778",
      "inDis" : "50",
      "routeId" : "藍6區",
      "seqNo" : "13"
   },
   {
      "GoBack" : "1",
      "longitude" : "120.56023",
      "outDis" : "50",
      "Id" : "5135",
      "oid" : "310808433",
      "districtId" : "1",
      "nameZh" : "第一銀行(沙鹿分行)",
      "pgp" : "0",
      "terminal" : "0",
      "latitude" : "24.23925",
      "inDis" : "50",
      "routeId" : "藍6區",
      "seqNo" : "14"
   },
   {
      "GoBack" : "1",
      "longitude" : "120.56127",
      "outDis" : "50",
      "Id" : "5140",
      "oid" : "14047",
      "districtId" : "1",
      "nameZh" : "童綜合醫院(沙鹿院區)",
      "pgp" : "0",
      "terminal" : "0",
      "latitude" : "24.24245",
      "inDis" : "50",
      "routeId" : "藍6區",
      "seqNo" : "15"
   },
   {
      "GoBack" : "1",
      "longitude" : "120.56227",
      "outDis" : "50",
      "Id" : "4042",
      "oid" : "15177",
      "districtId" : "1",
      "nameZh" : "文化莊",
      "pgp" : "0",
      "terminal" : "0",
      "latitude" : "24.24531",
      "inDis" : "50",
      "routeId" : "藍6區",
      "seqNo" : "16"
   },
   {
      "GoBack" : "1",
      "longitude" : "120.56281",
      "outDis" : "50",
      "Id" : "4110",
      "oid" : "2284",
      "districtId" : "1",
      "nameZh" : "家扶中心",
      "pgp" : "0",
      "terminal" : "0",
      "latitude" : "24.2468",
      "inDis" : "50",
      "routeId" : "藍6區",
      "seqNo" : "17"
   },
   {
      "GoBack" : "1",
      "longitude" : "120.56506",
      "outDis" : "50",
      "Id" : "5138",
      "oid" : "318961614",
      "districtId" : "1",
      "nameZh" : "鹿寮成衣商圈",
      "pgp" : "0",
      "terminal" : "0",
      "latitude" : "24.24914",
      "inDis" : "50",
      "routeId" : "藍6區",
      "seqNo" : "18"
   },
   {
      "GoBack" : "1",
      "longitude" : "120.56676",
      "outDis" : "50",
      "Id" : "4044",
      "oid" : "17283",
      "districtId" : "1",
      "nameZh" : "鹿寮",
      "pgp" : "0",
      "terminal" : "0",
      "latitude" : "24.25173",
      "inDis" : "50",
      "routeId" : "藍6區",
      "seqNo" : "19"
   },
   {
      "GoBack" : "1",
      "longitude" : "120.56786",
      "outDis" : "50",
      "Id" : "5392",
      "oid" : "312897794",
      "districtId" : "1",
      "nameZh" : "中山長春路口",
      "pgp" : "0",
      "terminal" : "0",
      "latitude" : "24.2537",
      "inDis" : "50",
      "routeId" : "藍6區",
      "seqNo" : "20"
   },
   {
      "GoBack" : "1",
      "longitude" : "120.56879",
      "outDis" : "50",
      "Id" : "4045",
      "oid" : "14354",
      "districtId" : "1",
      "nameZh" : "中峰",
      "pgp" : "0",
      "terminal" : "0",
      "latitude" : "24.25529",
      "inDis" : "50",
      "routeId" : "藍6區",
      "seqNo" : "21"
   },
   {
      "GoBack" : "1",
      "longitude" : "120.5693",
      "outDis" : "50",
      "Id" : "4471",
      "oid" : "14355",
      "districtId" : "1",
      "nameZh" : "勞工育樂中心",
      "pgp" : "0",
      "terminal" : "0",
      "latitude" : "24.2562",
      "inDis" : "50",
      "routeId" : "藍6區",
      "seqNo" : "22"
   },
   {
      "GoBack" : "1",
      "longitude" : "120.57081",
      "outDis" : "50",
      "Id" : "4129",
      "oid" : "17547",
      "districtId" : "1",
      "nameZh" : "鹿峰里",
      "pgp" : "0",
      "terminal" : "0",
      "latitude" : "24.25884",
      "inDis" : "50",
      "routeId" : "藍6區",
      "seqNo" : "23"
   },
   {
      "GoBack" : "1",
      "longitude" : "120.5714",
      "outDis" : "50",
      "Id" : "4441",
      "oid" : "307275657",
      "districtId" : "1",
      "nameZh" : "中山星河路口",
      "pgp" : "0",
      "terminal" : "0",
      "latitude" : "24.25997",
      "inDis" : "50",
      "routeId" : "藍6區",
      "seqNo" : "24"
   },
   {
      "GoBack" : "1",
      "longitude" : "120.57266",
      "outDis" : "50",
      "Id" : "4121",
      "oid" : "17288",
      "districtId" : "1",
      "nameZh" : "清水電信局",
      "pgp" : "0",
      "terminal" : "0",
      "latitude" : "24.26214",
      "inDis" : "50",
      "routeId" : "藍6區",
      "seqNo" : "25"
   },
   {
      "GoBack" : "1",
      "longitude" : "120.5742",
      "outDis" : "50",
      "Id" : "4119",
      "oid" : "14359",
      "districtId" : "1",
      "nameZh" : "清水高中",
      "pgp" : "0",
      "terminal" : "0",
      "latitude" : "24.2658",
      "inDis" : "50",
      "routeId" : "藍6區",
      "seqNo" : "26"
   },
   {
      "GoBack" : "1",
      "longitude" : "120.57549",
      "outDis" : "50",
      "Id" : "5141",
      "oid" : "318961615",
      "districtId" : "1",
      "nameZh" : "華南銀行(清水分行)",
      "pgp" : "0",
      "terminal" : "0",
      "latitude" : "24.26904",
      "inDis" : "50",
      "routeId" : "藍6區",
      "seqNo" : "27"
   },
   {
      "GoBack" : "1",
      "longitude" : "120.57583",
      "outDis" : "50",
      "Id" : "3013",
      "oid" : "6222",
      "districtId" : "1",
      "nameZh" : "清水",
      "pgp" : "0",
      "terminal" : "0",
      "latitude" : "24.27009",
      "inDis" : "50",
      "routeId" : "藍6區",
      "seqNo" : "28"
   }
]
