[
   {
      "GoBack" : "1",
      "longitude" : "120.57005",
      "outDis" : "50",
      "Id" : "5471",
      "oid" : "314200099",
      "districtId" : "1",
      "nameZh" : "清水火車站",
      "pgp" : "0",
      "terminal" : "0",
      "latitude" : "24.26341",
      "inDis" : "50",
      "routeId" : "179",
      "seqNo" : "1"
   },
   {
      "GoBack" : "1",
      "longitude" : "120.5742",
      "outDis" : "50",
      "Id" : "4119",
      "oid" : "14359",
      "districtId" : "1",
      "nameZh" : "清水高中",
      "pgp" : "0",
      "terminal" : "0",
      "latitude" : "24.2658",
      "inDis" : "50",
      "routeId" : "179",
      "seqNo" : "2"
   },
   {
      "GoBack" : "1",
      "longitude" : "120.57516",
      "outDis" : "50",
      "Id" : "5141",
      "oid" : "14057",
      "districtId" : "1",
      "nameZh" : "華南銀行(清水分行)",
      "pgp" : "0",
      "terminal" : "0",
      "latitude" : "24.2683",
      "inDis" : "50",
      "routeId" : "179",
      "seqNo" : "3"
   },
   {
      "GoBack" : "1",
      "longitude" : "120.57594",
      "outDis" : "50",
      "Id" : "3013",
      "oid" : "10843",
      "districtId" : "1",
      "nameZh" : "清水",
      "pgp" : "0",
      "terminal" : "0",
      "latitude" : "24.2703",
      "inDis" : "50",
      "routeId" : "179",
      "seqNo" : "4"
   },
   {
      "GoBack" : "1",
      "longitude" : "120.57687",
      "outDis" : "50",
      "Id" : "4521",
      "oid" : "305513525",
      "districtId" : "1",
      "nameZh" : "中山董公街口",
      "pgp" : "0",
      "terminal" : "0",
      "latitude" : "24.27284",
      "inDis" : "50",
      "routeId" : "179",
      "seqNo" : "5"
   },
   {
      "GoBack" : "1",
      "longitude" : "120.57725",
      "outDis" : "50",
      "Id" : "4442",
      "oid" : "312352563",
      "districtId" : "1",
      "nameZh" : "中山高美路口",
      "pgp" : "0",
      "terminal" : "0",
      "latitude" : "24.27461",
      "inDis" : "50",
      "routeId" : "179",
      "seqNo" : "6"
   },
   {
      "GoBack" : "1",
      "longitude" : "120.57524",
      "outDis" : "50",
      "Id" : "4863",
      "oid" : "311502867",
      "districtId" : "1",
      "nameZh" : "橋頭",
      "pgp" : "0",
      "terminal" : "0",
      "latitude" : "24.27929",
      "inDis" : "50",
      "routeId" : "179",
      "seqNo" : "7"
   },
   {
      "GoBack" : "1",
      "longitude" : "120.57494",
      "outDis" : "50",
      "Id" : "4847",
      "oid" : "316040246",
      "districtId" : "1",
      "nameZh" : "頂橋頭",
      "pgp" : "0",
      "terminal" : "0",
      "latitude" : "24.28251",
      "inDis" : "50",
      "routeId" : "179",
      "seqNo" : "8"
   },
   {
      "GoBack" : "1",
      "longitude" : "120.57462",
      "outDis" : "50",
      "Id" : "3586",
      "oid" : "14637",
      "districtId" : "1",
      "nameZh" : "廖厝",
      "pgp" : "0",
      "terminal" : "0",
      "latitude" : "24.28457",
      "inDis" : "50",
      "routeId" : "179",
      "seqNo" : "9"
   },
   {
      "GoBack" : "1",
      "longitude" : "120.57339",
      "outDis" : "50",
      "Id" : "1096",
      "oid" : "311502862",
      "districtId" : "1",
      "nameZh" : "三塊厝",
      "pgp" : "0",
      "terminal" : "0",
      "latitude" : "24.28704",
      "inDis" : "50",
      "routeId" : "179",
      "seqNo" : "10"
   },
   {
      "GoBack" : "1",
      "longitude" : "120.57468",
      "outDis" : "50",
      "Id" : "4782",
      "oid" : "14638",
      "districtId" : "1",
      "nameZh" : "三田路口",
      "pgp" : "0",
      "terminal" : "0",
      "latitude" : "24.29059",
      "inDis" : "50",
      "routeId" : "179",
      "seqNo" : "11"
   },
   {
      "GoBack" : "1",
      "longitude" : "120.5754",
      "outDis" : "50",
      "Id" : "5343",
      "oid" : "311466316",
      "districtId" : "1",
      "nameZh" : "城隍廟",
      "pgp" : "0",
      "terminal" : "0",
      "latitude" : "24.29249",
      "inDis" : "50",
      "routeId" : "179",
      "seqNo" : "12"
   },
   {
      "GoBack" : "1",
      "longitude" : "120.57586",
      "outDis" : "50",
      "Id" : "5516",
      "oid" : "315482590",
      "districtId" : "1",
      "nameZh" : "國姓里(三美路)",
      "pgp" : "0",
      "terminal" : "0",
      "latitude" : "24.29537",
      "inDis" : "50",
      "routeId" : "179",
      "seqNo" : "13"
   },
   {
      "GoBack" : "1",
      "longitude" : "120.57718",
      "outDis" : "50",
      "Id" : "4814",
      "oid" : "14639",
      "districtId" : "1",
      "nameZh" : "李厝",
      "pgp" : "0",
      "terminal" : "0",
      "latitude" : "24.29747",
      "inDis" : "50",
      "routeId" : "179",
      "seqNo" : "14"
   },
   {
      "GoBack" : "1",
      "longitude" : "120.57775",
      "outDis" : "50",
      "Id" : "5528",
      "oid" : "316040247",
      "districtId" : "1",
      "nameZh" : "溪底(三美路)",
      "pgp" : "0",
      "terminal" : "0",
      "latitude" : "24.29953",
      "inDis" : "50",
      "routeId" : "179",
      "seqNo" : "15"
   },
   {
      "GoBack" : "1",
      "longitude" : "120.57763",
      "outDis" : "50",
      "Id" : "4870",
      "oid" : "14640",
      "districtId" : "1",
      "nameZh" : "臨海路口",
      "pgp" : "0",
      "terminal" : "0",
      "latitude" : "24.30091",
      "inDis" : "50",
      "routeId" : "179",
      "seqNo" : "16"
   },
   {
      "GoBack" : "1",
      "longitude" : "120.57566",
      "outDis" : "50",
      "Id" : "5721",
      "oid" : "320604379",
      "districtId" : "1",
      "nameZh" : "蔡厝(三美路)",
      "pgp" : "0",
      "terminal" : "0",
      "latitude" : "24.30573",
      "inDis" : "50",
      "routeId" : "179",
      "seqNo" : "17"
   },
   {
      "GoBack" : "1",
      "longitude" : "120.5752",
      "outDis" : "50",
      "Id" : "4853",
      "oid" : "14641",
      "districtId" : "1",
      "nameZh" : "溪頭仔",
      "pgp" : "0",
      "terminal" : "0",
      "latitude" : "24.30732",
      "inDis" : "50",
      "routeId" : "179",
      "seqNo" : "18"
   },
   {
      "GoBack" : "1",
      "longitude" : "120.57334",
      "outDis" : "50",
      "Id" : "3070",
      "oid" : "14642",
      "districtId" : "1",
      "nameZh" : "許厝",
      "pgp" : "0",
      "terminal" : "0",
      "latitude" : "24.30905",
      "inDis" : "50",
      "routeId" : "179",
      "seqNo" : "19"
   },
   {
      "GoBack" : "1",
      "longitude" : "120.5703",
      "outDis" : "50",
      "Id" : "4837",
      "oid" : "14643",
      "districtId" : "1",
      "nameZh" : "高美植物園",
      "pgp" : "0",
      "terminal" : "0",
      "latitude" : "24.31044",
      "inDis" : "50",
      "routeId" : "179",
      "seqNo" : "20"
   },
   {
      "GoBack" : "1",
      "longitude" : "120.56557",
      "outDis" : "50",
      "Id" : "3406",
      "oid" : "316040250",
      "districtId" : "1",
      "nameZh" : "新厝(三美路)",
      "pgp" : "0",
      "terminal" : "0",
      "latitude" : "24.31128",
      "inDis" : "50",
      "routeId" : "179",
      "seqNo" : "21"
   },
   {
      "GoBack" : "1",
      "longitude" : "120.56292",
      "outDis" : "50",
      "Id" : "4835",
      "oid" : "14644",
      "districtId" : "1",
      "nameZh" : "高美",
      "pgp" : "0",
      "terminal" : "0",
      "latitude" : "24.31058",
      "inDis" : "50",
      "routeId" : "179",
      "seqNo" : "22"
   },
   {
      "GoBack" : "1",
      "longitude" : "120.55975",
      "outDis" : "50",
      "Id" : "4789",
      "oid" : "14645",
      "districtId" : "1",
      "nameZh" : "五分子",
      "pgp" : "0",
      "terminal" : "0",
      "latitude" : "24.30949",
      "inDis" : "50",
      "routeId" : "179",
      "seqNo" : "23"
   },
   {
      "GoBack" : "1",
      "longitude" : "120.55723",
      "outDis" : "50",
      "Id" : "4831",
      "oid" : "14646",
      "districtId" : "1",
      "nameZh" : "海口村",
      "pgp" : "0",
      "terminal" : "0",
      "latitude" : "24.31086",
      "inDis" : "50",
      "routeId" : "179",
      "seqNo" : "24"
   },
   {
      "GoBack" : "1",
      "longitude" : "120.5555",
      "outDis" : "50",
      "Id" : "0347",
      "oid" : "14647",
      "districtId" : "1",
      "nameZh" : "土地公廟",
      "pgp" : "0",
      "terminal" : "0",
      "latitude" : "24.31103",
      "inDis" : "50",
      "routeId" : "179",
      "seqNo" : "25"
   },
   {
      "GoBack" : "1",
      "longitude" : "120.55226",
      "outDis" : "50",
      "Id" : "4793",
      "oid" : "14648",
      "districtId" : "1",
      "nameZh" : "文興宮",
      "pgp" : "0",
      "terminal" : "0",
      "latitude" : "24.31122",
      "inDis" : "50",
      "routeId" : "179",
      "seqNo" : "26"
   },
   {
      "GoBack" : "1",
      "longitude" : "120.55137",
      "outDis" : "50",
      "Id" : "4728",
      "oid" : "14649",
      "districtId" : "1",
      "nameZh" : "高美濕地",
      "pgp" : "0",
      "terminal" : "0",
      "latitude" : "24.3118",
      "inDis" : "50",
      "routeId" : "179",
      "seqNo" : "27"
   },
   {
      "GoBack" : "1",
      "longitude" : "120.54944",
      "outDis" : "50",
      "Id" : "0322",
      "oid" : "318752341",
      "districtId" : "1",
      "nameZh" : "西安朝天宮",
      "pgp" : "0",
      "terminal" : "0",
      "latitude" : "24.30845",
      "inDis" : "50",
      "routeId" : "179",
      "seqNo" : "28"
   },
   {
      "GoBack" : "1",
      "longitude" : "120.54649",
      "outDis" : "50",
      "Id" : "0326",
      "oid" : "318752342",
      "districtId" : "1",
      "nameZh" : "高美濕地體驗館",
      "pgp" : "0",
      "terminal" : "0",
      "latitude" : "24.30599",
      "inDis" : "50",
      "routeId" : "179",
      "seqNo" : "29"
   },
   {
      "GoBack" : "1",
      "longitude" : "120.54631",
      "outDis" : "50",
      "Id" : "5760",
      "oid" : "318752343",
      "districtId" : "1",
      "nameZh" : "高美濕地遊客中心",
      "pgp" : "0",
      "terminal" : "0",
      "latitude" : "24.29995",
      "inDis" : "50",
      "routeId" : "179",
      "seqNo" : "30"
   },
   {
      "GoBack" : "2",
      "longitude" : "120.54631",
      "outDis" : "50",
      "Id" : "5760",
      "oid" : "318752343",
      "districtId" : "1",
      "nameZh" : "高美濕地遊客中心",
      "pgp" : "0",
      "terminal" : "0",
      "latitude" : "24.29995",
      "inDis" : "50",
      "routeId" : "179",
      "seqNo" : "1"
   },
   {
      "GoBack" : "2",
      "longitude" : "120.54654",
      "outDis" : "50",
      "Id" : "0326",
      "oid" : "318752344",
      "districtId" : "1",
      "nameZh" : "高美濕地體驗館",
      "pgp" : "0",
      "terminal" : "0",
      "latitude" : "24.30601",
      "inDis" : "50",
      "routeId" : "179",
      "seqNo" : "2"
   },
   {
      "GoBack" : "2",
      "longitude" : "120.54955",
      "outDis" : "50",
      "Id" : "0322",
      "oid" : "318752345",
      "districtId" : "1",
      "nameZh" : "西安朝天宮",
      "pgp" : "0",
      "terminal" : "0",
      "latitude" : "24.30875",
      "inDis" : "50",
      "routeId" : "179",
      "seqNo" : "3"
   },
   {
      "GoBack" : "2",
      "longitude" : "120.55137",
      "outDis" : "50",
      "Id" : "4728",
      "oid" : "14614",
      "districtId" : "1",
      "nameZh" : "高美濕地",
      "pgp" : "0",
      "terminal" : "0",
      "latitude" : "24.3118",
      "inDis" : "50",
      "routeId" : "179",
      "seqNo" : "4"
   },
   {
      "GoBack" : "2",
      "longitude" : "120.55226",
      "outDis" : "50",
      "Id" : "4793",
      "oid" : "14615",
      "districtId" : "1",
      "nameZh" : "文興宮",
      "pgp" : "0",
      "terminal" : "0",
      "latitude" : "24.31122",
      "inDis" : "50",
      "routeId" : "179",
      "seqNo" : "5"
   },
   {
      "GoBack" : "2",
      "longitude" : "120.5555",
      "outDis" : "50",
      "Id" : "0347",
      "oid" : "14616",
      "districtId" : "1",
      "nameZh" : "土地公廟",
      "pgp" : "0",
      "terminal" : "0",
      "latitude" : "24.31103",
      "inDis" : "50",
      "routeId" : "179",
      "seqNo" : "6"
   },
   {
      "GoBack" : "2",
      "longitude" : "120.55723",
      "outDis" : "50",
      "Id" : "4831",
      "oid" : "14617",
      "districtId" : "1",
      "nameZh" : "海口村",
      "pgp" : "0",
      "terminal" : "0",
      "latitude" : "24.31086",
      "inDis" : "50",
      "routeId" : "179",
      "seqNo" : "7"
   },
   {
      "GoBack" : "2",
      "longitude" : "120.55975",
      "outDis" : "50",
      "Id" : "4789",
      "oid" : "14618",
      "districtId" : "1",
      "nameZh" : "五分子",
      "pgp" : "0",
      "terminal" : "0",
      "latitude" : "24.30949",
      "inDis" : "50",
      "routeId" : "179",
      "seqNo" : "8"
   },
   {
      "GoBack" : "2",
      "longitude" : "120.56298",
      "outDis" : "50",
      "Id" : "4835",
      "oid" : "14619",
      "districtId" : "1",
      "nameZh" : "高美",
      "pgp" : "0",
      "terminal" : "0",
      "latitude" : "24.31049",
      "inDis" : "50",
      "routeId" : "179",
      "seqNo" : "9"
   },
   {
      "GoBack" : "2",
      "longitude" : "120.5657",
      "outDis" : "50",
      "Id" : "3406",
      "oid" : "316040249",
      "districtId" : "1",
      "nameZh" : "新厝(三美路)",
      "pgp" : "0",
      "terminal" : "0",
      "latitude" : "24.3112",
      "inDis" : "50",
      "routeId" : "179",
      "seqNo" : "10"
   },
   {
      "GoBack" : "2",
      "longitude" : "120.5703",
      "outDis" : "50",
      "Id" : "4837",
      "oid" : "14620",
      "districtId" : "1",
      "nameZh" : "高美植物園",
      "pgp" : "0",
      "terminal" : "0",
      "latitude" : "24.31044",
      "inDis" : "50",
      "routeId" : "179",
      "seqNo" : "11"
   },
   {
      "GoBack" : "2",
      "longitude" : "120.57334",
      "outDis" : "50",
      "Id" : "3070",
      "oid" : "14621",
      "districtId" : "1",
      "nameZh" : "許厝",
      "pgp" : "0",
      "terminal" : "0",
      "latitude" : "24.30905",
      "inDis" : "50",
      "routeId" : "179",
      "seqNo" : "12"
   },
   {
      "GoBack" : "2",
      "longitude" : "120.5752",
      "outDis" : "50",
      "Id" : "4853",
      "oid" : "14622",
      "districtId" : "1",
      "nameZh" : "溪頭仔",
      "pgp" : "0",
      "terminal" : "0",
      "latitude" : "24.30732",
      "inDis" : "50",
      "routeId" : "179",
      "seqNo" : "13"
   },
   {
      "GoBack" : "2",
      "longitude" : "120.57573",
      "outDis" : "50",
      "Id" : "5721",
      "oid" : "320604378",
      "districtId" : "1",
      "nameZh" : "蔡厝(三美路)",
      "pgp" : "0",
      "terminal" : "0",
      "latitude" : "24.30573",
      "inDis" : "50",
      "routeId" : "179",
      "seqNo" : "14"
   },
   {
      "GoBack" : "2",
      "longitude" : "120.57763",
      "outDis" : "50",
      "Id" : "4870",
      "oid" : "14623",
      "districtId" : "1",
      "nameZh" : "臨海路口",
      "pgp" : "0",
      "terminal" : "0",
      "latitude" : "24.30091",
      "inDis" : "50",
      "routeId" : "179",
      "seqNo" : "15"
   },
   {
      "GoBack" : "2",
      "longitude" : "120.57771",
      "outDis" : "50",
      "Id" : "5528",
      "oid" : "316040248",
      "districtId" : "1",
      "nameZh" : "溪底(三美路)",
      "pgp" : "0",
      "terminal" : "0",
      "latitude" : "24.29953",
      "inDis" : "50",
      "routeId" : "179",
      "seqNo" : "16"
   },
   {
      "GoBack" : "2",
      "longitude" : "120.57721",
      "outDis" : "50",
      "Id" : "4814",
      "oid" : "14624",
      "districtId" : "1",
      "nameZh" : "李厝",
      "pgp" : "0",
      "terminal" : "0",
      "latitude" : "24.29758",
      "inDis" : "50",
      "routeId" : "179",
      "seqNo" : "17"
   },
   {
      "GoBack" : "2",
      "longitude" : "120.57556",
      "outDis" : "50",
      "Id" : "5516",
      "oid" : "315482591",
      "districtId" : "1",
      "nameZh" : "國姓里(三美路)",
      "pgp" : "0",
      "terminal" : "0",
      "latitude" : "24.29526",
      "inDis" : "50",
      "routeId" : "179",
      "seqNo" : "18"
   },
   {
      "GoBack" : "2",
      "longitude" : "120.5754",
      "outDis" : "50",
      "Id" : "5343",
      "oid" : "311466316",
      "districtId" : "1",
      "nameZh" : "城隍廟",
      "pgp" : "0",
      "terminal" : "0",
      "latitude" : "24.29249",
      "inDis" : "50",
      "routeId" : "179",
      "seqNo" : "19"
   },
   {
      "GoBack" : "2",
      "longitude" : "120.57468",
      "outDis" : "50",
      "Id" : "4782",
      "oid" : "14625",
      "districtId" : "1",
      "nameZh" : "三田路口",
      "pgp" : "0",
      "terminal" : "0",
      "latitude" : "24.29059",
      "inDis" : "50",
      "routeId" : "179",
      "seqNo" : "20"
   },
   {
      "GoBack" : "2",
      "longitude" : "120.57339",
      "outDis" : "50",
      "Id" : "1096",
      "oid" : "311502862",
      "districtId" : "1",
      "nameZh" : "三塊厝",
      "pgp" : "0",
      "terminal" : "0",
      "latitude" : "24.28704",
      "inDis" : "50",
      "routeId" : "179",
      "seqNo" : "21"
   },
   {
      "GoBack" : "2",
      "longitude" : "120.57462",
      "outDis" : "50",
      "Id" : "3586",
      "oid" : "14626",
      "districtId" : "1",
      "nameZh" : "廖厝",
      "pgp" : "0",
      "terminal" : "0",
      "latitude" : "24.28457",
      "inDis" : "50",
      "routeId" : "179",
      "seqNo" : "22"
   },
   {
      "GoBack" : "2",
      "longitude" : "120.57501",
      "outDis" : "50",
      "Id" : "4847",
      "oid" : "311502868",
      "districtId" : "1",
      "nameZh" : "頂橋頭",
      "pgp" : "0",
      "terminal" : "0",
      "latitude" : "24.28255",
      "inDis" : "50",
      "routeId" : "179",
      "seqNo" : "23"
   },
   {
      "GoBack" : "2",
      "longitude" : "120.5751",
      "outDis" : "50",
      "Id" : "4863",
      "oid" : "316040245",
      "districtId" : "1",
      "nameZh" : "橋頭",
      "pgp" : "0",
      "terminal" : "0",
      "latitude" : "24.28043",
      "inDis" : "50",
      "routeId" : "179",
      "seqNo" : "24"
   },
   {
      "GoBack" : "2",
      "longitude" : "120.57725",
      "outDis" : "50",
      "Id" : "4442",
      "oid" : "312352563",
      "districtId" : "1",
      "nameZh" : "中山高美路口",
      "pgp" : "0",
      "terminal" : "0",
      "latitude" : "24.27461",
      "inDis" : "50",
      "routeId" : "179",
      "seqNo" : "25"
   },
   {
      "GoBack" : "2",
      "longitude" : "120.57687",
      "outDis" : "50",
      "Id" : "4521",
      "oid" : "305513525",
      "districtId" : "1",
      "nameZh" : "中山董公街口",
      "pgp" : "0",
      "terminal" : "0",
      "latitude" : "24.27284",
      "inDis" : "50",
      "routeId" : "179",
      "seqNo" : "26"
   },
   {
      "GoBack" : "2",
      "longitude" : "120.57594",
      "outDis" : "50",
      "Id" : "3013",
      "oid" : "10843",
      "districtId" : "1",
      "nameZh" : "清水",
      "pgp" : "0",
      "terminal" : "0",
      "latitude" : "24.2703",
      "inDis" : "50",
      "routeId" : "179",
      "seqNo" : "27"
   },
   {
      "GoBack" : "2",
      "longitude" : "120.57516",
      "outDis" : "50",
      "Id" : "5141",
      "oid" : "14057",
      "districtId" : "1",
      "nameZh" : "華南銀行(清水分行)",
      "pgp" : "0",
      "terminal" : "0",
      "latitude" : "24.2683",
      "inDis" : "50",
      "routeId" : "179",
      "seqNo" : "28"
   },
   {
      "GoBack" : "2",
      "longitude" : "120.5742",
      "outDis" : "50",
      "Id" : "4119",
      "oid" : "14359",
      "districtId" : "1",
      "nameZh" : "清水高中",
      "pgp" : "0",
      "terminal" : "0",
      "latitude" : "24.2658",
      "inDis" : "50",
      "routeId" : "179",
      "seqNo" : "29"
   },
   {
      "GoBack" : "2",
      "longitude" : "120.57005",
      "outDis" : "50",
      "Id" : "5471",
      "oid" : "314200099",
      "districtId" : "1",
      "nameZh" : "清水火車站",
      "pgp" : "0",
      "terminal" : "0",
      "latitude" : "24.26341",
      "inDis" : "50",
      "routeId" : "179",
      "seqNo" : "30"
   }
]
