[
   {
      "GoBack" : "1",
      "longitude" : "120.68464",
      "outDis" : "50",
      "Id" : "0041",
      "oid" : "C167CA455EFE4FFCB38588B3A312B63B",
      "districtId" : "1",
      "nameZh" : "臺中火車站",
      "pgp" : "0",
      "terminal" : "0",
      "latitude" : "24.13784",
      "inDis" : "50",
      "routeId" : "9",
      "seqNo" : "1"
   },
   {
      "GoBack" : "1",
      "longitude" : "120.68368",
      "outDis" : "50",
      "Id" : "0151",
      "oid" : "8161",
      "districtId" : "1",
      "nameZh" : "第一廣場",
      "pgp" : "0",
      "terminal" : "0",
      "latitude" : "24.13878",
      "inDis" : "50",
      "routeId" : "9",
      "seqNo" : "2"
   },
   {
      "GoBack" : "1",
      "longitude" : "120.6826",
      "outDis" : "50",
      "Id" : "4401",
      "oid" : "95C23B3D67B441DEA2964A8080ADB25E",
      "districtId" : "1",
      "nameZh" : "彰化銀行(臺灣大道)",
      "pgp" : "0",
      "terminal" : "0",
      "latitude" : "24.13984",
      "inDis" : "50",
      "routeId" : "9",
      "seqNo" : "3"
   },
   {
      "GoBack" : "1",
      "longitude" : "120.68202",
      "outDis" : "50",
      "Id" : "0206",
      "oid" : "7432",
      "districtId" : "1",
      "nameZh" : "第一信用",
      "pgp" : "0",
      "terminal" : "0",
      "latitude" : "24.14036",
      "inDis" : "50",
      "routeId" : "9",
      "seqNo" : "4"
   },
   {
      "GoBack" : "1",
      "longitude" : "120.68014",
      "outDis" : "50",
      "Id" : "4395",
      "oid" : "7573151EFC6949B795139FEDD5D0D6A0",
      "districtId" : "1",
      "nameZh" : "第二市場(臺灣大道)",
      "pgp" : "0",
      "terminal" : "0",
      "latitude" : "24.14198",
      "inDis" : "50",
      "routeId" : "9",
      "seqNo" : "5"
   },
   {
      "GoBack" : "1",
      "longitude" : "120.68111",
      "outDis" : "50",
      "Id" : "5506",
      "oid" : "7056",
      "districtId" : "1",
      "nameZh" : "光復國小(三民路)",
      "pgp" : "0",
      "terminal" : "0",
      "latitude" : "24.14397",
      "inDis" : "50",
      "routeId" : "9",
      "seqNo" : "6"
   },
   {
      "GoBack" : "1",
      "longitude" : "120.68212",
      "outDis" : "50",
      "Id" : "4543",
      "oid" : "7313",
      "districtId" : "1",
      "nameZh" : "臺中公園(三民路)",
      "pgp" : "0",
      "terminal" : "0",
      "latitude" : "24.14507",
      "inDis" : "50",
      "routeId" : "9",
      "seqNo" : "7"
   },
   {
      "GoBack" : "1",
      "longitude" : "120.68398",
      "outDis" : "50",
      "Id" : "0045",
      "oid" : "13460",
      "districtId" : "1",
      "nameZh" : "國立臺中科技大學",
      "pgp" : "0",
      "terminal" : "0",
      "latitude" : "24.1495",
      "inDis" : "50",
      "routeId" : "9",
      "seqNo" : "8"
   },
   {
      "GoBack" : "1",
      "longitude" : "120.68517",
      "outDis" : "50",
      "Id" : "0046",
      "oid" : "13430",
      "districtId" : "1",
      "nameZh" : "中友百貨",
      "pgp" : "0",
      "terminal" : "0",
      "latitude" : "24.15223",
      "inDis" : "50",
      "routeId" : "9",
      "seqNo" : "9"
   },
   {
      "GoBack" : "1",
      "longitude" : "120.68304",
      "outDis" : "50",
      "Id" : "3772",
      "oid" : "13566",
      "districtId" : "1",
      "nameZh" : "五權學士路口",
      "pgp" : "0",
      "terminal" : "0",
      "latitude" : "24.15353",
      "inDis" : "50",
      "routeId" : "9",
      "seqNo" : "10"
   },
   {
      "GoBack" : "1",
      "longitude" : "120.68043",
      "outDis" : "50",
      "Id" : "0146",
      "oid" : "7288",
      "districtId" : "1",
      "nameZh" : "五常里",
      "pgp" : "0",
      "terminal" : "0",
      "latitude" : "24.15254",
      "inDis" : "50",
      "routeId" : "9",
      "seqNo" : "11"
   },
   {
      "GoBack" : "1",
      "longitude" : "120.67844",
      "outDis" : "50",
      "Id" : "0145",
      "oid" : "7055",
      "districtId" : "1",
      "nameZh" : "光大里",
      "pgp" : "0",
      "terminal" : "0",
      "latitude" : "24.15177",
      "inDis" : "50",
      "routeId" : "9",
      "seqNo" : "12"
   },
   {
      "GoBack" : "1",
      "longitude" : "120.67731",
      "outDis" : "50",
      "Id" : "0503",
      "oid" : "7707",
      "districtId" : "1",
      "nameZh" : "臺中二中",
      "pgp" : "0",
      "terminal" : "0",
      "latitude" : "24.15232",
      "inDis" : "50",
      "routeId" : "9",
      "seqNo" : "13"
   },
   {
      "GoBack" : "1",
      "longitude" : "120.67737",
      "outDis" : "50",
      "Id" : "0481",
      "oid" : "7328",
      "districtId" : "1",
      "nameZh" : "文莊里",
      "pgp" : "0",
      "terminal" : "0",
      "latitude" : "24.15433",
      "inDis" : "50",
      "routeId" : "9",
      "seqNo" : "14"
   },
   {
      "GoBack" : "1",
      "longitude" : "120.67678",
      "outDis" : "50",
      "Id" : "0092",
      "oid" : "8150",
      "districtId" : "1",
      "nameZh" : "邱厝里",
      "pgp" : "0",
      "terminal" : "0",
      "latitude" : "24.15651",
      "inDis" : "50",
      "routeId" : "9",
      "seqNo" : "15"
   },
   {
      "GoBack" : "1",
      "longitude" : "120.67609",
      "outDis" : "50",
      "Id" : "5732",
      "oid" : "320660557",
      "districtId" : "1",
      "nameZh" : "中清健行路口",
      "pgp" : "0",
      "terminal" : "0",
      "latitude" : "24.15854",
      "inDis" : "50",
      "routeId" : "9",
      "seqNo" : "16"
   },
   {
      "GoBack" : "1",
      "longitude" : "120.67554",
      "outDis" : "50",
      "Id" : "5733",
      "oid" : "320660552",
      "districtId" : "1",
      "nameZh" : "大道公廟(中清路)",
      "pgp" : "0",
      "terminal" : "0",
      "latitude" : "24.16015",
      "inDis" : "50",
      "routeId" : "9",
      "seqNo" : "17"
   },
   {
      "GoBack" : "1",
      "longitude" : "120.67495",
      "outDis" : "50",
      "Id" : "5734",
      "oid" : "50031BF7E50A403BA7FB5BDB7D4013C8",
      "districtId" : "1",
      "nameZh" : "中清忠明路口",
      "pgp" : "0",
      "terminal" : "0",
      "latitude" : "24.16197",
      "inDis" : "50",
      "routeId" : "9",
      "seqNo" : "18"
   },
   {
      "GoBack" : "1",
      "longitude" : "120.67421",
      "outDis" : "50",
      "Id" : "5735",
      "oid" : "320660553",
      "districtId" : "1",
      "nameZh" : "中清太原路口",
      "pgp" : "0",
      "terminal" : "0",
      "latitude" : "24.16417",
      "inDis" : "50",
      "routeId" : "9",
      "seqNo" : "19"
   },
   {
      "GoBack" : "1",
      "longitude" : "120.67354",
      "outDis" : "50",
      "Id" : "5736",
      "oid" : "320660554",
      "districtId" : "1",
      "nameZh" : "中清漢口路口",
      "pgp" : "0",
      "terminal" : "0",
      "latitude" : "24.16644",
      "inDis" : "50",
      "routeId" : "9",
      "seqNo" : "20"
   },
   {
      "GoBack" : "1",
      "longitude" : "120.67314",
      "outDis" : "50",
      "Id" : "5737",
      "oid" : "320660555",
      "districtId" : "1",
      "nameZh" : "曉明女中(中清路)",
      "pgp" : "0",
      "terminal" : "0",
      "latitude" : "24.16755",
      "inDis" : "50",
      "routeId" : "9",
      "seqNo" : "21"
   },
   {
      "GoBack" : "1",
      "longitude" : "120.67228",
      "outDis" : "50",
      "Id" : "1629",
      "oid" : "F9637C03649748D0B6444C6B1E67DFC1",
      "districtId" : "1",
      "nameZh" : "天津路商圈",
      "pgp" : "0",
      "terminal" : "0",
      "latitude" : "24.17061",
      "inDis" : "50",
      "routeId" : "9",
      "seqNo" : "22"
   },
   {
      "GoBack" : "1",
      "longitude" : "120.67179",
      "outDis" : "50",
      "Id" : "0805",
      "oid" : "7832",
      "districtId" : "1",
      "nameZh" : "頂賴厝",
      "pgp" : "0",
      "terminal" : "0",
      "latitude" : "24.17231",
      "inDis" : "50",
      "routeId" : "9",
      "seqNo" : "23"
   },
   {
      "GoBack" : "1",
      "longitude" : "120.67092",
      "outDis" : "50",
      "Id" : "0334",
      "oid" : "3685",
      "districtId" : "1",
      "nameZh" : "下水湳",
      "pgp" : "0",
      "terminal" : "0",
      "latitude" : "24.17525",
      "inDis" : "50",
      "routeId" : "9",
      "seqNo" : "24"
   },
   {
      "GoBack" : "1",
      "longitude" : "120.67008",
      "outDis" : "30",
      "Id" : "0486",
      "oid" : "319227554",
      "districtId" : "1",
      "nameZh" : "水湳",
      "pgp" : "0",
      "terminal" : "0",
      "latitude" : "24.17636",
      "inDis" : "30",
      "routeId" : "9",
      "seqNo" : "25"
   },
   {
      "GoBack" : "1",
      "longitude" : "120.66916",
      "outDis" : "50",
      "Id" : "5100",
      "oid" : "8139",
      "districtId" : "1",
      "nameZh" : "水湳市場(中清路)",
      "pgp" : "0",
      "terminal" : "0",
      "latitude" : "24.17756",
      "inDis" : "50",
      "routeId" : "9",
      "seqNo" : "26"
   },
   {
      "GoBack" : "1",
      "longitude" : "120.66781",
      "outDis" : "50",
      "Id" : "0385",
      "oid" : "8138",
      "districtId" : "1",
      "nameZh" : "大德國中",
      "pgp" : "0",
      "terminal" : "0",
      "latitude" : "24.17936",
      "inDis" : "50",
      "routeId" : "9",
      "seqNo" : "27"
   },
   {
      "GoBack" : "1",
      "longitude" : "120.66655",
      "outDis" : "50",
      "Id" : "0593",
      "oid" : "3790",
      "districtId" : "1",
      "nameZh" : "全民醫院",
      "pgp" : "0",
      "terminal" : "0",
      "latitude" : "24.18127",
      "inDis" : "50",
      "routeId" : "9",
      "seqNo" : "28"
   },
   {
      "GoBack" : "1",
      "longitude" : "120.66571",
      "outDis" : "50",
      "Id" : "0789",
      "oid" : "7452",
      "districtId" : "1",
      "nameZh" : "陳平",
      "pgp" : "0",
      "terminal" : "0",
      "latitude" : "24.18285",
      "inDis" : "50",
      "routeId" : "9",
      "seqNo" : "29"
   },
   {
      "GoBack" : "1",
      "longitude" : "120.66474",
      "outDis" : "50",
      "Id" : "0801",
      "oid" : "7460",
      "districtId" : "1",
      "nameZh" : "頂陳平",
      "pgp" : "0",
      "terminal" : "0",
      "latitude" : "24.18455",
      "inDis" : "50",
      "routeId" : "9",
      "seqNo" : "30"
   },
   {
      "GoBack" : "1",
      "longitude" : "120.66396",
      "outDis" : "50",
      "Id" : "2638",
      "oid" : "3793",
      "districtId" : "1",
      "nameZh" : "后庄仔",
      "pgp" : "0",
      "terminal" : "0",
      "latitude" : "24.18601",
      "inDis" : "50",
      "routeId" : "9",
      "seqNo" : "31"
   },
   {
      "GoBack" : "1",
      "longitude" : "120.66267",
      "outDis" : "50",
      "Id" : "0989",
      "oid" : "3677",
      "districtId" : "1",
      "nameZh" : "中清后庄路口",
      "pgp" : "0",
      "terminal" : "0",
      "latitude" : "24.18823",
      "inDis" : "50",
      "routeId" : "9",
      "seqNo" : "32"
   },
   {
      "GoBack" : "1",
      "longitude" : "120.66137",
      "outDis" : "50",
      "Id" : "0708",
      "oid" : "3676",
      "districtId" : "1",
      "nameZh" : "后庄國宅",
      "pgp" : "0",
      "terminal" : "0",
      "latitude" : "24.19041",
      "inDis" : "50",
      "routeId" : "9",
      "seqNo" : "33"
   },
   {
      "GoBack" : "1",
      "longitude" : "120.66008",
      "outDis" : "50",
      "Id" : "3293",
      "oid" : "3796",
      "districtId" : "1",
      "nameZh" : "貿易三村",
      "pgp" : "0",
      "terminal" : "0",
      "latitude" : "24.19257",
      "inDis" : "50",
      "routeId" : "9",
      "seqNo" : "34"
   },
   {
      "GoBack" : "1",
      "longitude" : "120.65934",
      "outDis" : "50",
      "Id" : "2069",
      "oid" : "13480",
      "districtId" : "1",
      "nameZh" : "中清同榮路口",
      "pgp" : "0",
      "terminal" : "0",
      "latitude" : "24.19374",
      "inDis" : "50",
      "routeId" : "9",
      "seqNo" : "35"
   },
   {
      "GoBack" : "1",
      "longitude" : "120.65838",
      "outDis" : "50",
      "Id" : "0136",
      "oid" : "7653",
      "districtId" : "1",
      "nameZh" : "下港尾",
      "pgp" : "0",
      "terminal" : "0",
      "latitude" : "24.1954",
      "inDis" : "50",
      "routeId" : "9",
      "seqNo" : "36"
   },
   {
      "GoBack" : "1",
      "longitude" : "120.65632",
      "outDis" : "40",
      "Id" : "1475",
      "oid" : "3644",
      "districtId" : "1",
      "nameZh" : "中清環中路口",
      "pgp" : "0",
      "terminal" : "0",
      "latitude" : "24.19867",
      "inDis" : "40",
      "routeId" : "9",
      "seqNo" : "37"
   },
   {
      "GoBack" : "1",
      "longitude" : "120.65493",
      "outDis" : "50",
      "Id" : "0827",
      "oid" : "7482",
      "districtId" : "1",
      "nameZh" : "港尾",
      "pgp" : "0",
      "terminal" : "0",
      "latitude" : "24.20096",
      "inDis" : "50",
      "routeId" : "9",
      "seqNo" : "38"
   },
   {
      "GoBack" : "1",
      "longitude" : "120.65363",
      "outDis" : "50",
      "Id" : "3247",
      "oid" : "3645",
      "districtId" : "1",
      "nameZh" : "港尾橋",
      "pgp" : "0",
      "terminal" : "0",
      "latitude" : "24.2034",
      "inDis" : "50",
      "routeId" : "9",
      "seqNo" : "39"
   },
   {
      "GoBack" : "1",
      "longitude" : "120.65253",
      "outDis" : "50",
      "Id" : "0936",
      "oid" : "7596",
      "districtId" : "1",
      "nameZh" : "頭張(中清路)",
      "pgp" : "0",
      "terminal" : "0",
      "latitude" : "24.20563",
      "inDis" : "50",
      "routeId" : "9",
      "seqNo" : "40"
   },
   {
      "GoBack" : "1",
      "longitude" : "120.65166",
      "outDis" : "50",
      "Id" : "0806",
      "oid" : "7466",
      "districtId" : "1",
      "nameZh" : "頂頭張(中清路)",
      "pgp" : "0",
      "terminal" : "0",
      "latitude" : "24.20755",
      "inDis" : "50",
      "routeId" : "9",
      "seqNo" : "41"
   },
   {
      "GoBack" : "1",
      "longitude" : "120.6509",
      "outDis" : "50",
      "Id" : "1348",
      "oid" : "308058862",
      "districtId" : "1",
      "nameZh" : "大雅交流道",
      "pgp" : "0",
      "terminal" : "0",
      "latitude" : "24.20939",
      "inDis" : "50",
      "routeId" : "9",
      "seqNo" : "42"
   },
   {
      "GoBack" : "1",
      "longitude" : "120.65003",
      "outDis" : "50",
      "Id" : "0938",
      "oid" : "7882",
      "districtId" : "1",
      "nameZh" : "龍善寺",
      "pgp" : "0",
      "terminal" : "0",
      "latitude" : "24.21207",
      "inDis" : "50",
      "routeId" : "9",
      "seqNo" : "43"
   },
   {
      "GoBack" : "1",
      "longitude" : "120.64947",
      "outDis" : "50",
      "Id" : "1345",
      "oid" : "7230",
      "districtId" : "1",
      "nameZh" : "大華國中",
      "pgp" : "0",
      "terminal" : "0",
      "latitude" : "24.21497",
      "inDis" : "50",
      "routeId" : "9",
      "seqNo" : "44"
   },
   {
      "GoBack" : "1",
      "longitude" : "120.64904",
      "outDis" : "50",
      "Id" : "2558",
      "oid" : "7146",
      "districtId" : "1",
      "nameZh" : "南大雅",
      "pgp" : "0",
      "terminal" : "0",
      "latitude" : "24.21724",
      "inDis" : "50",
      "routeId" : "9",
      "seqNo" : "45"
   },
   {
      "GoBack" : "1",
      "longitude" : "120.64843",
      "outDis" : "50",
      "Id" : "4306",
      "oid" : "51754502",
      "districtId" : "1",
      "nameZh" : "中清雅潭路口",
      "pgp" : "0",
      "terminal" : "0",
      "latitude" : "24.21925",
      "inDis" : "50",
      "routeId" : "9",
      "seqNo" : "46"
   },
   {
      "GoBack" : "1",
      "longitude" : "120.64803",
      "outDis" : "50",
      "Id" : "1346",
      "oid" : "13424",
      "districtId" : "1",
      "nameZh" : "大雅",
      "pgp" : "0",
      "terminal" : "0",
      "latitude" : "24.2228",
      "inDis" : "50",
      "routeId" : "9",
      "seqNo" : "47"
   },
   {
      "GoBack" : "1",
      "longitude" : "120.64673",
      "outDis" : "50",
      "Id" : "1620",
      "oid" : "13425",
      "districtId" : "1",
      "nameZh" : "大雅分駐所",
      "pgp" : "0",
      "terminal" : "0",
      "latitude" : "24.22478",
      "inDis" : "50",
      "routeId" : "9",
      "seqNo" : "48"
   },
   {
      "GoBack" : "1",
      "longitude" : "120.64457",
      "outDis" : "50",
      "Id" : "5423",
      "oid" : "313288973",
      "districtId" : "1",
      "nameZh" : "大雅澄清醫院",
      "pgp" : "0",
      "terminal" : "0",
      "latitude" : "24.22699",
      "inDis" : "50",
      "routeId" : "9",
      "seqNo" : "49"
   },
   {
      "GoBack" : "1",
      "longitude" : "120.6429",
      "outDis" : "50",
      "Id" : "4651",
      "oid" : "13419",
      "districtId" : "1",
      "nameZh" : "大明國小(中清路)",
      "pgp" : "0",
      "terminal" : "0",
      "latitude" : "24.22864",
      "inDis" : "50",
      "routeId" : "9",
      "seqNo" : "50"
   },
   {
      "GoBack" : "1",
      "longitude" : "120.64112",
      "outDis" : "50",
      "Id" : "2253",
      "oid" : "7095",
      "districtId" : "1",
      "nameZh" : "秀山里",
      "pgp" : "0",
      "terminal" : "0",
      "latitude" : "24.23025",
      "inDis" : "50",
      "routeId" : "9",
      "seqNo" : "51"
   },
   {
      "GoBack" : "1",
      "longitude" : "120.63829",
      "outDis" : "50",
      "Id" : "2798",
      "oid" : "7374",
      "districtId" : "1",
      "nameZh" : "泰聯公司",
      "pgp" : "0",
      "terminal" : "0",
      "latitude" : "24.23322",
      "inDis" : "50",
      "routeId" : "9",
      "seqNo" : "52"
   },
   {
      "GoBack" : "1",
      "longitude" : "120.63487",
      "outDis" : "50",
      "Id" : "1593",
      "oid" : "7692",
      "districtId" : "1",
      "nameZh" : "六寶里",
      "pgp" : "0",
      "terminal" : "0",
      "latitude" : "24.23644",
      "inDis" : "50",
      "routeId" : "9",
      "seqNo" : "53"
   },
   {
      "GoBack" : "1",
      "longitude" : "120.63242",
      "outDis" : "50",
      "Id" : "2289",
      "oid" : "7099",
      "districtId" : "1",
      "nameZh" : "亞東公司",
      "pgp" : "0",
      "terminal" : "0",
      "latitude" : "24.2389",
      "inDis" : "50",
      "routeId" : "9",
      "seqNo" : "54"
   },
   {
      "GoBack" : "1",
      "longitude" : "120.63126",
      "outDis" : "50",
      "Id" : "1591",
      "oid" : "7303",
      "districtId" : "1",
      "nameZh" : "六張犁",
      "pgp" : "0",
      "terminal" : "0",
      "latitude" : "24.24003",
      "inDis" : "50",
      "routeId" : "9",
      "seqNo" : "55"
   },
   {
      "GoBack" : "1",
      "longitude" : "120.62669",
      "outDis" : "50",
      "Id" : "3663",
      "oid" : "7564",
      "districtId" : "1",
      "nameZh" : "福樂新城",
      "pgp" : "0",
      "terminal" : "0",
      "latitude" : "24.24239",
      "inDis" : "50",
      "routeId" : "9",
      "seqNo" : "56"
   },
   {
      "GoBack" : "1",
      "longitude" : "120.6204",
      "outDis" : "50",
      "Id" : "4669",
      "oid" : "7425",
      "districtId" : "1",
      "nameZh" : "中清信義路口",
      "pgp" : "0",
      "terminal" : "0",
      "latitude" : "24.2425",
      "inDis" : "50",
      "routeId" : "9",
      "seqNo" : "57"
   },
   {
      "GoBack" : "1",
      "longitude" : "120.61754",
      "outDis" : "50",
      "Id" : "4960",
      "oid" : "307906617",
      "districtId" : "1",
      "nameZh" : "中清清泉路口",
      "pgp" : "0",
      "terminal" : "0",
      "latitude" : "24.24333",
      "inDis" : "50",
      "routeId" : "9",
      "seqNo" : "58"
   },
   {
      "GoBack" : "1",
      "longitude" : "120.61478",
      "outDis" : "50",
      "Id" : "3023",
      "oid" : "7811",
      "districtId" : "1",
      "nameZh" : "清泉里",
      "pgp" : "0",
      "terminal" : "0",
      "latitude" : "24.24428",
      "inDis" : "50",
      "routeId" : "9",
      "seqNo" : "59"
   },
   {
      "GoBack" : "1",
      "longitude" : "120.61048",
      "outDis" : "50",
      "Id" : "0169",
      "oid" : "318241812",
      "districtId" : "1",
      "nameZh" : "清泉派出所",
      "pgp" : "0",
      "terminal" : "0",
      "latitude" : "24.24561",
      "inDis" : "50",
      "routeId" : "9",
      "seqNo" : "60"
   },
   {
      "GoBack" : "1",
      "longitude" : "120.60825",
      "outDis" : "50",
      "Id" : "1604",
      "oid" : "7693",
      "districtId" : "1",
      "nameZh" : "公明里",
      "pgp" : "0",
      "terminal" : "0",
      "latitude" : "24.24659",
      "inDis" : "50",
      "routeId" : "9",
      "seqNo" : "61"
   },
   {
      "GoBack" : "1",
      "longitude" : "120.60564",
      "outDis" : "50",
      "Id" : "3738",
      "oid" : "13565",
      "districtId" : "1",
      "nameZh" : "樂群二村",
      "pgp" : "0",
      "terminal" : "0",
      "latitude" : "24.24771",
      "inDis" : "50",
      "routeId" : "9",
      "seqNo" : "62"
   },
   {
      "GoBack" : "1",
      "longitude" : "120.60169",
      "outDis" : "50",
      "Id" : "1556",
      "oid" : "13448",
      "districtId" : "1",
      "nameZh" : "中清仁愛巷口",
      "pgp" : "0",
      "terminal" : "0",
      "latitude" : "24.24951",
      "inDis" : "50",
      "routeId" : "9",
      "seqNo" : "63"
   },
   {
      "GoBack" : "1",
      "longitude" : "120.60098",
      "outDis" : "50",
      "Id" : "4713",
      "oid" : "306167894",
      "districtId" : "1",
      "nameZh" : "公明國中",
      "pgp" : "0",
      "terminal" : "0",
      "latitude" : "24.24982",
      "inDis" : "50",
      "routeId" : "9",
      "seqNo" : "64"
   },
   {
      "GoBack" : "1",
      "longitude" : "120.5984",
      "outDis" : "50",
      "Id" : "4982",
      "oid" : "306167896",
      "districtId" : "1",
      "nameZh" : "漢翔複材中心",
      "pgp" : "0",
      "terminal" : "0",
      "latitude" : "24.25234",
      "inDis" : "50",
      "routeId" : "9",
      "seqNo" : "65"
   },
   {
      "GoBack" : "1",
      "longitude" : "120.59899",
      "outDis" : "50",
      "Id" : "0135",
      "oid" : "312174380",
      "districtId" : "1",
      "nameZh" : "臺中航空站",
      "pgp" : "0",
      "terminal" : "0",
      "latitude" : "24.25348",
      "inDis" : "50",
      "routeId" : "9",
      "seqNo" : "66"
   },
   {
      "GoBack" : "1",
      "longitude" : "120.60003",
      "outDis" : "50",
      "Id" : "5381",
      "oid" : "312172944",
      "districtId" : "1",
      "nameZh" : "西勢十巷口",
      "pgp" : "0",
      "terminal" : "0",
      "latitude" : "24.25557",
      "inDis" : "50",
      "routeId" : "9",
      "seqNo" : "67"
   },
   {
      "GoBack" : "1",
      "longitude" : "120.60119",
      "outDis" : "50",
      "Id" : "5662",
      "oid" : "317773386",
      "districtId" : "1",
      "nameZh" : "中航和睦路口",
      "pgp" : "0",
      "terminal" : "0",
      "latitude" : "24.2578",
      "inDis" : "50",
      "routeId" : "9",
      "seqNo" : "68"
   },
   {
      "GoBack" : "1",
      "longitude" : "120.5987",
      "outDis" : "50",
      "Id" : "4101",
      "oid" : "317773389",
      "districtId" : "1",
      "nameZh" : "西勢里",
      "pgp" : "0",
      "terminal" : "0",
      "latitude" : "24.25982",
      "inDis" : "50",
      "routeId" : "9",
      "seqNo" : "69"
   },
   {
      "GoBack" : "1",
      "longitude" : "120.59513",
      "outDis" : "50",
      "Id" : "4083",
      "oid" : "13450",
      "districtId" : "1",
      "nameZh" : "公館國小",
      "pgp" : "0",
      "terminal" : "0",
      "latitude" : "24.26084",
      "inDis" : "50",
      "routeId" : "9",
      "seqNo" : "70"
   },
   {
      "GoBack" : "1",
      "longitude" : "120.58787",
      "outDis" : "50",
      "Id" : "5033",
      "oid" : "309555541",
      "districtId" : "1",
      "nameZh" : "國仕加油站",
      "pgp" : "0",
      "terminal" : "0",
      "latitude" : "24.26416",
      "inDis" : "50",
      "routeId" : "9",
      "seqNo" : "71"
   },
   {
      "GoBack" : "1",
      "longitude" : "120.58224",
      "outDis" : "50",
      "Id" : "4137",
      "oid" : "13560",
      "districtId" : "1",
      "nameZh" : "嘉陽高中",
      "pgp" : "0",
      "terminal" : "0",
      "latitude" : "24.26578",
      "inDis" : "50",
      "routeId" : "9",
      "seqNo" : "72"
   },
   {
      "GoBack" : "1",
      "longitude" : "120.57492",
      "outDis" : "50",
      "Id" : "5568",
      "oid" : "316572735",
      "districtId" : "1",
      "nameZh" : "清水高中(學園街)",
      "pgp" : "0",
      "terminal" : "0",
      "latitude" : "24.26615",
      "inDis" : "50",
      "routeId" : "9",
      "seqNo" : "73"
   },
   {
      "GoBack" : "1",
      "longitude" : "120.57506",
      "outDis" : "50",
      "Id" : "5141",
      "oid" : "10590",
      "districtId" : "1",
      "nameZh" : "華南銀行(清水分行)",
      "pgp" : "0",
      "terminal" : "0",
      "latitude" : "24.2679",
      "inDis" : "50",
      "routeId" : "9",
      "seqNo" : "74"
   },
   {
      "GoBack" : "1",
      "longitude" : "120.57591",
      "outDis" : "50",
      "Id" : "3013",
      "oid" : "10591",
      "districtId" : "1",
      "nameZh" : "清水",
      "pgp" : "0",
      "terminal" : "0",
      "latitude" : "24.27022",
      "inDis" : "50",
      "routeId" : "9",
      "seqNo" : "75"
   },
   {
      "GoBack" : "1",
      "longitude" : "120.57687",
      "outDis" : "50",
      "Id" : "4521",
      "oid" : "305513525",
      "districtId" : "1",
      "nameZh" : "中山董公街口",
      "pgp" : "0",
      "terminal" : "0",
      "latitude" : "24.27284",
      "inDis" : "50",
      "routeId" : "9",
      "seqNo" : "76"
   },
   {
      "GoBack" : "1",
      "longitude" : "120.57725",
      "outDis" : "50",
      "Id" : "4442",
      "oid" : "14059",
      "districtId" : "1",
      "nameZh" : "中山高美路口",
      "pgp" : "0",
      "terminal" : "0",
      "latitude" : "24.27531",
      "inDis" : "50",
      "routeId" : "9",
      "seqNo" : "77"
   },
   {
      "GoBack" : "2",
      "longitude" : "120.57721",
      "outDis" : "50",
      "Id" : "4442",
      "oid" : "316214210",
      "districtId" : "1",
      "nameZh" : "中山高美路口",
      "pgp" : "0",
      "terminal" : "0",
      "latitude" : "24.2742",
      "inDis" : "50",
      "routeId" : "9",
      "seqNo" : "1"
   },
   {
      "GoBack" : "2",
      "longitude" : "120.57712",
      "outDis" : "50",
      "Id" : "4521",
      "oid" : "305513527",
      "districtId" : "1",
      "nameZh" : "中山董公街口",
      "pgp" : "0",
      "terminal" : "0",
      "latitude" : "24.2732",
      "inDis" : "50",
      "routeId" : "9",
      "seqNo" : "2"
   },
   {
      "GoBack" : "2",
      "longitude" : "120.57591",
      "outDis" : "50",
      "Id" : "3013",
      "oid" : "10591",
      "districtId" : "1",
      "nameZh" : "清水",
      "pgp" : "0",
      "terminal" : "0",
      "latitude" : "24.27022",
      "inDis" : "50",
      "routeId" : "9",
      "seqNo" : "3"
   },
   {
      "GoBack" : "2",
      "longitude" : "120.57506",
      "outDis" : "50",
      "Id" : "5141",
      "oid" : "10590",
      "districtId" : "1",
      "nameZh" : "華南銀行(清水分行)",
      "pgp" : "0",
      "terminal" : "0",
      "latitude" : "24.2679",
      "inDis" : "50",
      "routeId" : "9",
      "seqNo" : "4"
   },
   {
      "GoBack" : "2",
      "longitude" : "120.57492",
      "outDis" : "50",
      "Id" : "5568",
      "oid" : "316572735",
      "districtId" : "1",
      "nameZh" : "清水高中(學園街)",
      "pgp" : "0",
      "terminal" : "0",
      "latitude" : "24.26615",
      "inDis" : "50",
      "routeId" : "9",
      "seqNo" : "5"
   },
   {
      "GoBack" : "2",
      "longitude" : "120.58224",
      "outDis" : "50",
      "Id" : "4137",
      "oid" : "13560",
      "districtId" : "1",
      "nameZh" : "嘉陽高中",
      "pgp" : "0",
      "terminal" : "0",
      "latitude" : "24.26578",
      "inDis" : "50",
      "routeId" : "9",
      "seqNo" : "6"
   },
   {
      "GoBack" : "2",
      "longitude" : "120.58787",
      "outDis" : "50",
      "Id" : "5033",
      "oid" : "309555541",
      "districtId" : "1",
      "nameZh" : "國仕加油站",
      "pgp" : "0",
      "terminal" : "0",
      "latitude" : "24.26416",
      "inDis" : "50",
      "routeId" : "9",
      "seqNo" : "7"
   },
   {
      "GoBack" : "2",
      "longitude" : "120.59513",
      "outDis" : "50",
      "Id" : "4083",
      "oid" : "13450",
      "districtId" : "1",
      "nameZh" : "公館國小",
      "pgp" : "0",
      "terminal" : "0",
      "latitude" : "24.26084",
      "inDis" : "50",
      "routeId" : "9",
      "seqNo" : "8"
   },
   {
      "GoBack" : "2",
      "longitude" : "120.5987",
      "outDis" : "50",
      "Id" : "4101",
      "oid" : "317773389",
      "districtId" : "1",
      "nameZh" : "西勢里",
      "pgp" : "0",
      "terminal" : "0",
      "latitude" : "24.25982",
      "inDis" : "50",
      "routeId" : "9",
      "seqNo" : "9"
   },
   {
      "GoBack" : "2",
      "longitude" : "120.60129",
      "outDis" : "50",
      "Id" : "5662",
      "oid" : "317773387",
      "districtId" : "1",
      "nameZh" : "中航和睦路口",
      "pgp" : "0",
      "terminal" : "0",
      "latitude" : "24.25821",
      "inDis" : "50",
      "routeId" : "9",
      "seqNo" : "10"
   },
   {
      "GoBack" : "2",
      "longitude" : "120.60003",
      "outDis" : "50",
      "Id" : "5381",
      "oid" : "312172944",
      "districtId" : "1",
      "nameZh" : "西勢十巷口",
      "pgp" : "0",
      "terminal" : "0",
      "latitude" : "24.25557",
      "inDis" : "50",
      "routeId" : "9",
      "seqNo" : "11"
   },
   {
      "GoBack" : "2",
      "longitude" : "120.59899",
      "outDis" : "50",
      "Id" : "0135",
      "oid" : "312174380",
      "districtId" : "1",
      "nameZh" : "臺中航空站",
      "pgp" : "0",
      "terminal" : "0",
      "latitude" : "24.25348",
      "inDis" : "50",
      "routeId" : "9",
      "seqNo" : "12"
   },
   {
      "GoBack" : "2",
      "longitude" : "120.59843",
      "outDis" : "50",
      "Id" : "4982",
      "oid" : "306167895",
      "districtId" : "1",
      "nameZh" : "漢翔複材中心",
      "pgp" : "0",
      "terminal" : "0",
      "latitude" : "24.25229",
      "inDis" : "50",
      "routeId" : "9",
      "seqNo" : "13"
   },
   {
      "GoBack" : "2",
      "longitude" : "120.60087",
      "outDis" : "50",
      "Id" : "4713",
      "oid" : "306167893",
      "districtId" : "1",
      "nameZh" : "公明國中",
      "pgp" : "0",
      "terminal" : "0",
      "latitude" : "24.24963",
      "inDis" : "50",
      "routeId" : "9",
      "seqNo" : "14"
   },
   {
      "GoBack" : "2",
      "longitude" : "120.60169",
      "outDis" : "50",
      "Id" : "1556",
      "oid" : "13448",
      "districtId" : "1",
      "nameZh" : "中清仁愛巷口",
      "pgp" : "0",
      "terminal" : "0",
      "latitude" : "24.24951",
      "inDis" : "50",
      "routeId" : "9",
      "seqNo" : "15"
   },
   {
      "GoBack" : "2",
      "longitude" : "120.60564",
      "outDis" : "50",
      "Id" : "3738",
      "oid" : "13565",
      "districtId" : "1",
      "nameZh" : "樂群二村",
      "pgp" : "0",
      "terminal" : "0",
      "latitude" : "24.24771",
      "inDis" : "50",
      "routeId" : "9",
      "seqNo" : "16"
   },
   {
      "GoBack" : "2",
      "longitude" : "120.60825",
      "outDis" : "50",
      "Id" : "1604",
      "oid" : "7693",
      "districtId" : "1",
      "nameZh" : "公明里",
      "pgp" : "0",
      "terminal" : "0",
      "latitude" : "24.24659",
      "inDis" : "50",
      "routeId" : "9",
      "seqNo" : "17"
   },
   {
      "GoBack" : "2",
      "longitude" : "120.61048",
      "outDis" : "50",
      "Id" : "0169",
      "oid" : "318241812",
      "districtId" : "1",
      "nameZh" : "清泉派出所",
      "pgp" : "0",
      "terminal" : "0",
      "latitude" : "24.24561",
      "inDis" : "50",
      "routeId" : "9",
      "seqNo" : "18"
   },
   {
      "GoBack" : "2",
      "longitude" : "120.61478",
      "outDis" : "50",
      "Id" : "3023",
      "oid" : "7811",
      "districtId" : "1",
      "nameZh" : "清泉里",
      "pgp" : "0",
      "terminal" : "0",
      "latitude" : "24.24428",
      "inDis" : "50",
      "routeId" : "9",
      "seqNo" : "19"
   },
   {
      "GoBack" : "2",
      "longitude" : "120.61757",
      "outDis" : "50",
      "Id" : "4960",
      "oid" : "307906618",
      "districtId" : "1",
      "nameZh" : "中清清泉路口",
      "pgp" : "0",
      "terminal" : "0",
      "latitude" : "24.24336",
      "inDis" : "50",
      "routeId" : "9",
      "seqNo" : "20"
   },
   {
      "GoBack" : "2",
      "longitude" : "120.6204",
      "outDis" : "50",
      "Id" : "4669",
      "oid" : "7425",
      "districtId" : "1",
      "nameZh" : "中清信義路口",
      "pgp" : "0",
      "terminal" : "0",
      "latitude" : "24.2425",
      "inDis" : "50",
      "routeId" : "9",
      "seqNo" : "21"
   },
   {
      "GoBack" : "2",
      "longitude" : "120.62669",
      "outDis" : "50",
      "Id" : "3663",
      "oid" : "7564",
      "districtId" : "1",
      "nameZh" : "福樂新城",
      "pgp" : "0",
      "terminal" : "0",
      "latitude" : "24.24239",
      "inDis" : "50",
      "routeId" : "9",
      "seqNo" : "22"
   },
   {
      "GoBack" : "2",
      "longitude" : "120.63113",
      "outDis" : "50",
      "Id" : "1591",
      "oid" : "7301",
      "districtId" : "1",
      "nameZh" : "六張犁",
      "pgp" : "0",
      "terminal" : "0",
      "latitude" : "24.2401",
      "inDis" : "50",
      "routeId" : "9",
      "seqNo" : "23"
   },
   {
      "GoBack" : "2",
      "longitude" : "120.63229",
      "outDis" : "50",
      "Id" : "2289",
      "oid" : "7097",
      "districtId" : "1",
      "nameZh" : "亞東公司",
      "pgp" : "0",
      "terminal" : "0",
      "latitude" : "24.23887",
      "inDis" : "50",
      "routeId" : "9",
      "seqNo" : "24"
   },
   {
      "GoBack" : "2",
      "longitude" : "120.63455",
      "outDis" : "50",
      "Id" : "1593",
      "oid" : "7304",
      "districtId" : "1",
      "nameZh" : "六寶里",
      "pgp" : "0",
      "terminal" : "0",
      "latitude" : "24.23659",
      "inDis" : "50",
      "routeId" : "9",
      "seqNo" : "25"
   },
   {
      "GoBack" : "2",
      "longitude" : "120.63809",
      "outDis" : "50",
      "Id" : "2798",
      "oid" : "7373",
      "districtId" : "1",
      "nameZh" : "泰聯公司",
      "pgp" : "0",
      "terminal" : "0",
      "latitude" : "24.23318",
      "inDis" : "50",
      "routeId" : "9",
      "seqNo" : "26"
   },
   {
      "GoBack" : "2",
      "longitude" : "120.64112",
      "outDis" : "50",
      "Id" : "2253",
      "oid" : "7095",
      "districtId" : "1",
      "nameZh" : "秀山里",
      "pgp" : "0",
      "terminal" : "0",
      "latitude" : "24.23025",
      "inDis" : "50",
      "routeId" : "9",
      "seqNo" : "27"
   },
   {
      "GoBack" : "2",
      "longitude" : "120.64284",
      "outDis" : "50",
      "Id" : "4651",
      "oid" : "7222",
      "districtId" : "1",
      "nameZh" : "大明國小(中清路)",
      "pgp" : "0",
      "terminal" : "0",
      "latitude" : "24.22844",
      "inDis" : "50",
      "routeId" : "9",
      "seqNo" : "28"
   },
   {
      "GoBack" : "2",
      "longitude" : "120.64457",
      "outDis" : "50",
      "Id" : "5423",
      "oid" : "313288973",
      "districtId" : "1",
      "nameZh" : "大雅澄清醫院",
      "pgp" : "0",
      "terminal" : "0",
      "latitude" : "24.22699",
      "inDis" : "50",
      "routeId" : "9",
      "seqNo" : "29"
   },
   {
      "GoBack" : "2",
      "longitude" : "120.64673",
      "outDis" : "50",
      "Id" : "1620",
      "oid" : "13425",
      "districtId" : "1",
      "nameZh" : "大雅分駐所",
      "pgp" : "0",
      "terminal" : "0",
      "latitude" : "24.22478",
      "inDis" : "50",
      "routeId" : "9",
      "seqNo" : "30"
   },
   {
      "GoBack" : "2",
      "longitude" : "120.64803",
      "outDis" : "50",
      "Id" : "1346",
      "oid" : "13424",
      "districtId" : "1",
      "nameZh" : "大雅",
      "pgp" : "0",
      "terminal" : "0",
      "latitude" : "24.2228",
      "inDis" : "50",
      "routeId" : "9",
      "seqNo" : "31"
   },
   {
      "GoBack" : "2",
      "longitude" : "120.64843",
      "outDis" : "50",
      "Id" : "4306",
      "oid" : "51754502",
      "districtId" : "1",
      "nameZh" : "中清雅潭路口",
      "pgp" : "0",
      "terminal" : "0",
      "latitude" : "24.21925",
      "inDis" : "50",
      "routeId" : "9",
      "seqNo" : "32"
   },
   {
      "GoBack" : "2",
      "longitude" : "120.64904",
      "outDis" : "50",
      "Id" : "2558",
      "oid" : "7146",
      "districtId" : "1",
      "nameZh" : "南大雅",
      "pgp" : "0",
      "terminal" : "0",
      "latitude" : "24.21724",
      "inDis" : "50",
      "routeId" : "9",
      "seqNo" : "33"
   },
   {
      "GoBack" : "2",
      "longitude" : "120.64947",
      "outDis" : "50",
      "Id" : "1345",
      "oid" : "7230",
      "districtId" : "1",
      "nameZh" : "大華國中",
      "pgp" : "0",
      "terminal" : "0",
      "latitude" : "24.21497",
      "inDis" : "50",
      "routeId" : "9",
      "seqNo" : "34"
   },
   {
      "GoBack" : "2",
      "longitude" : "120.65003",
      "outDis" : "50",
      "Id" : "0938",
      "oid" : "7882",
      "districtId" : "1",
      "nameZh" : "龍善寺",
      "pgp" : "0",
      "terminal" : "0",
      "latitude" : "24.21207",
      "inDis" : "50",
      "routeId" : "9",
      "seqNo" : "35"
   },
   {
      "GoBack" : "2",
      "longitude" : "120.6507",
      "outDis" : "50",
      "Id" : "1348",
      "oid" : "307750209",
      "districtId" : "1",
      "nameZh" : "大雅交流道",
      "pgp" : "0",
      "terminal" : "0",
      "latitude" : "24.20979",
      "inDis" : "50",
      "routeId" : "9",
      "seqNo" : "36"
   },
   {
      "GoBack" : "2",
      "longitude" : "120.65166",
      "outDis" : "50",
      "Id" : "0806",
      "oid" : "7466",
      "districtId" : "1",
      "nameZh" : "頂頭張(中清路)",
      "pgp" : "0",
      "terminal" : "0",
      "latitude" : "24.20755",
      "inDis" : "50",
      "routeId" : "9",
      "seqNo" : "37"
   },
   {
      "GoBack" : "2",
      "longitude" : "120.65253",
      "outDis" : "50",
      "Id" : "0936",
      "oid" : "7596",
      "districtId" : "1",
      "nameZh" : "頭張(中清路)",
      "pgp" : "0",
      "terminal" : "0",
      "latitude" : "24.20563",
      "inDis" : "50",
      "routeId" : "9",
      "seqNo" : "38"
   },
   {
      "GoBack" : "2",
      "longitude" : "120.65363",
      "outDis" : "50",
      "Id" : "3247",
      "oid" : "3645",
      "districtId" : "1",
      "nameZh" : "港尾橋",
      "pgp" : "0",
      "terminal" : "0",
      "latitude" : "24.2034",
      "inDis" : "50",
      "routeId" : "9",
      "seqNo" : "39"
   },
   {
      "GoBack" : "2",
      "longitude" : "120.65493",
      "outDis" : "50",
      "Id" : "0827",
      "oid" : "7482",
      "districtId" : "1",
      "nameZh" : "港尾",
      "pgp" : "0",
      "terminal" : "0",
      "latitude" : "24.20096",
      "inDis" : "50",
      "routeId" : "9",
      "seqNo" : "40"
   },
   {
      "GoBack" : "2",
      "longitude" : "120.65632",
      "outDis" : "40",
      "Id" : "1475",
      "oid" : "3644",
      "districtId" : "1",
      "nameZh" : "中清環中路口",
      "pgp" : "0",
      "terminal" : "0",
      "latitude" : "24.19867",
      "inDis" : "40",
      "routeId" : "9",
      "seqNo" : "41"
   },
   {
      "GoBack" : "2",
      "longitude" : "120.65838",
      "outDis" : "50",
      "Id" : "0136",
      "oid" : "7653",
      "districtId" : "1",
      "nameZh" : "下港尾",
      "pgp" : "0",
      "terminal" : "0",
      "latitude" : "24.1954",
      "inDis" : "50",
      "routeId" : "9",
      "seqNo" : "42"
   },
   {
      "GoBack" : "2",
      "longitude" : "120.65934",
      "outDis" : "50",
      "Id" : "2069",
      "oid" : "13480",
      "districtId" : "1",
      "nameZh" : "中清同榮路口",
      "pgp" : "0",
      "terminal" : "0",
      "latitude" : "24.19374",
      "inDis" : "50",
      "routeId" : "9",
      "seqNo" : "43"
   },
   {
      "GoBack" : "2",
      "longitude" : "120.66008",
      "outDis" : "50",
      "Id" : "3293",
      "oid" : "3796",
      "districtId" : "1",
      "nameZh" : "貿易三村",
      "pgp" : "0",
      "terminal" : "0",
      "latitude" : "24.19257",
      "inDis" : "50",
      "routeId" : "9",
      "seqNo" : "44"
   },
   {
      "GoBack" : "2",
      "longitude" : "120.66137",
      "outDis" : "50",
      "Id" : "0708",
      "oid" : "3676",
      "districtId" : "1",
      "nameZh" : "后庄國宅",
      "pgp" : "0",
      "terminal" : "0",
      "latitude" : "24.19041",
      "inDis" : "50",
      "routeId" : "9",
      "seqNo" : "45"
   },
   {
      "GoBack" : "2",
      "longitude" : "120.66267",
      "outDis" : "50",
      "Id" : "0989",
      "oid" : "3677",
      "districtId" : "1",
      "nameZh" : "中清后庄路口",
      "pgp" : "0",
      "terminal" : "0",
      "latitude" : "24.18823",
      "inDis" : "50",
      "routeId" : "9",
      "seqNo" : "46"
   },
   {
      "GoBack" : "2",
      "longitude" : "120.66396",
      "outDis" : "50",
      "Id" : "2638",
      "oid" : "3793",
      "districtId" : "1",
      "nameZh" : "后庄仔",
      "pgp" : "0",
      "terminal" : "0",
      "latitude" : "24.18601",
      "inDis" : "50",
      "routeId" : "9",
      "seqNo" : "47"
   },
   {
      "GoBack" : "2",
      "longitude" : "120.66474",
      "outDis" : "50",
      "Id" : "0801",
      "oid" : "7460",
      "districtId" : "1",
      "nameZh" : "頂陳平",
      "pgp" : "0",
      "terminal" : "0",
      "latitude" : "24.18455",
      "inDis" : "50",
      "routeId" : "9",
      "seqNo" : "48"
   },
   {
      "GoBack" : "2",
      "longitude" : "120.66571",
      "outDis" : "50",
      "Id" : "0789",
      "oid" : "7452",
      "districtId" : "1",
      "nameZh" : "陳平",
      "pgp" : "0",
      "terminal" : "0",
      "latitude" : "24.18285",
      "inDis" : "50",
      "routeId" : "9",
      "seqNo" : "49"
   },
   {
      "GoBack" : "2",
      "longitude" : "120.66655",
      "outDis" : "50",
      "Id" : "0593",
      "oid" : "3790",
      "districtId" : "1",
      "nameZh" : "全民醫院",
      "pgp" : "0",
      "terminal" : "0",
      "latitude" : "24.18127",
      "inDis" : "50",
      "routeId" : "9",
      "seqNo" : "50"
   },
   {
      "GoBack" : "2",
      "longitude" : "120.66781",
      "outDis" : "50",
      "Id" : "0385",
      "oid" : "8138",
      "districtId" : "1",
      "nameZh" : "大德國中",
      "pgp" : "0",
      "terminal" : "0",
      "latitude" : "24.17936",
      "inDis" : "50",
      "routeId" : "9",
      "seqNo" : "51"
   },
   {
      "GoBack" : "2",
      "longitude" : "120.66916",
      "outDis" : "50",
      "Id" : "5100",
      "oid" : "8139",
      "districtId" : "1",
      "nameZh" : "水湳市場(中清路)",
      "pgp" : "0",
      "terminal" : "0",
      "latitude" : "24.17756",
      "inDis" : "50",
      "routeId" : "9",
      "seqNo" : "52"
   },
   {
      "GoBack" : "2",
      "longitude" : "120.67008",
      "outDis" : "30",
      "Id" : "0486",
      "oid" : "308022314",
      "districtId" : "1",
      "nameZh" : "水湳",
      "pgp" : "0",
      "terminal" : "0",
      "latitude" : "24.17636",
      "inDis" : "30",
      "routeId" : "9",
      "seqNo" : "53"
   },
   {
      "GoBack" : "2",
      "longitude" : "120.67092",
      "outDis" : "50",
      "Id" : "0334",
      "oid" : "3685",
      "districtId" : "1",
      "nameZh" : "下水湳",
      "pgp" : "0",
      "terminal" : "0",
      "latitude" : "24.17525",
      "inDis" : "50",
      "routeId" : "9",
      "seqNo" : "54"
   },
   {
      "GoBack" : "2",
      "longitude" : "120.67179",
      "outDis" : "50",
      "Id" : "0805",
      "oid" : "7832",
      "districtId" : "1",
      "nameZh" : "頂賴厝",
      "pgp" : "0",
      "terminal" : "0",
      "latitude" : "24.17231",
      "inDis" : "50",
      "routeId" : "9",
      "seqNo" : "55"
   },
   {
      "GoBack" : "2",
      "longitude" : "120.67225",
      "outDis" : "50",
      "Id" : "1629",
      "oid" : "A19B9A6531364F6685DE0857F44C0D1F",
      "districtId" : "1",
      "nameZh" : "天津路商圈",
      "pgp" : "0",
      "terminal" : "0",
      "latitude" : "24.16994",
      "inDis" : "50",
      "routeId" : "9",
      "seqNo" : "56"
   },
   {
      "GoBack" : "2",
      "longitude" : "120.67314",
      "outDis" : "50",
      "Id" : "5737",
      "oid" : "320660555",
      "districtId" : "1",
      "nameZh" : "曉明女中(中清路)",
      "pgp" : "0",
      "terminal" : "0",
      "latitude" : "24.16755",
      "inDis" : "50",
      "routeId" : "9",
      "seqNo" : "57"
   },
   {
      "GoBack" : "2",
      "longitude" : "120.67354",
      "outDis" : "50",
      "Id" : "5736",
      "oid" : "320660554",
      "districtId" : "1",
      "nameZh" : "中清漢口路口",
      "pgp" : "0",
      "terminal" : "0",
      "latitude" : "24.16644",
      "inDis" : "50",
      "routeId" : "9",
      "seqNo" : "58"
   },
   {
      "GoBack" : "2",
      "longitude" : "120.67421",
      "outDis" : "50",
      "Id" : "5735",
      "oid" : "320660553",
      "districtId" : "1",
      "nameZh" : "中清太原路口",
      "pgp" : "0",
      "terminal" : "0",
      "latitude" : "24.16417",
      "inDis" : "50",
      "routeId" : "9",
      "seqNo" : "59"
   },
   {
      "GoBack" : "2",
      "longitude" : "120.67495",
      "outDis" : "50",
      "Id" : "5734",
      "oid" : "50031BF7E50A403BA7FB5BDB7D4013C8",
      "districtId" : "1",
      "nameZh" : "中清忠明路口",
      "pgp" : "0",
      "terminal" : "0",
      "latitude" : "24.16197",
      "inDis" : "50",
      "routeId" : "9",
      "seqNo" : "60"
   },
   {
      "GoBack" : "2",
      "longitude" : "120.67554",
      "outDis" : "50",
      "Id" : "5733",
      "oid" : "320660552",
      "districtId" : "1",
      "nameZh" : "大道公廟(中清路)",
      "pgp" : "0",
      "terminal" : "0",
      "latitude" : "24.16015",
      "inDis" : "50",
      "routeId" : "9",
      "seqNo" : "61"
   },
   {
      "GoBack" : "2",
      "longitude" : "120.67609",
      "outDis" : "50",
      "Id" : "5732",
      "oid" : "320660557",
      "districtId" : "1",
      "nameZh" : "中清健行路口",
      "pgp" : "0",
      "terminal" : "0",
      "latitude" : "24.15854",
      "inDis" : "50",
      "routeId" : "9",
      "seqNo" : "62"
   },
   {
      "GoBack" : "2",
      "longitude" : "120.67678",
      "outDis" : "50",
      "Id" : "0092",
      "oid" : "8150",
      "districtId" : "1",
      "nameZh" : "邱厝里",
      "pgp" : "0",
      "terminal" : "0",
      "latitude" : "24.15651",
      "inDis" : "50",
      "routeId" : "9",
      "seqNo" : "63"
   },
   {
      "GoBack" : "2",
      "longitude" : "120.67737",
      "outDis" : "50",
      "Id" : "0481",
      "oid" : "7328",
      "districtId" : "1",
      "nameZh" : "文莊里",
      "pgp" : "0",
      "terminal" : "0",
      "latitude" : "24.15433",
      "inDis" : "50",
      "routeId" : "9",
      "seqNo" : "64"
   },
   {
      "GoBack" : "2",
      "longitude" : "120.67731",
      "outDis" : "50",
      "Id" : "0503",
      "oid" : "7707",
      "districtId" : "1",
      "nameZh" : "臺中二中",
      "pgp" : "0",
      "terminal" : "0",
      "latitude" : "24.15232",
      "inDis" : "50",
      "routeId" : "9",
      "seqNo" : "65"
   },
   {
      "GoBack" : "2",
      "longitude" : "120.67844",
      "outDis" : "50",
      "Id" : "0145",
      "oid" : "7055",
      "districtId" : "1",
      "nameZh" : "光大里",
      "pgp" : "0",
      "terminal" : "0",
      "latitude" : "24.15177",
      "inDis" : "50",
      "routeId" : "9",
      "seqNo" : "66"
   },
   {
      "GoBack" : "2",
      "longitude" : "120.68043",
      "outDis" : "50",
      "Id" : "0146",
      "oid" : "7288",
      "districtId" : "1",
      "nameZh" : "五常里",
      "pgp" : "0",
      "terminal" : "0",
      "latitude" : "24.15254",
      "inDis" : "50",
      "routeId" : "9",
      "seqNo" : "67"
   },
   {
      "GoBack" : "2",
      "longitude" : "120.68304",
      "outDis" : "50",
      "Id" : "3772",
      "oid" : "13566",
      "districtId" : "1",
      "nameZh" : "五權學士路口",
      "pgp" : "0",
      "terminal" : "0",
      "latitude" : "24.15353",
      "inDis" : "50",
      "routeId" : "9",
      "seqNo" : "68"
   },
   {
      "GoBack" : "2",
      "longitude" : "120.68563",
      "outDis" : "50",
      "Id" : "0047",
      "oid" : "156231535",
      "districtId" : "1",
      "nameZh" : "一心市場",
      "pgp" : "0",
      "terminal" : "0",
      "latitude" : "24.15369",
      "inDis" : "50",
      "routeId" : "9",
      "seqNo" : "69"
   },
   {
      "GoBack" : "2",
      "longitude" : "120.68517",
      "outDis" : "50",
      "Id" : "0046",
      "oid" : "13430",
      "districtId" : "1",
      "nameZh" : "中友百貨",
      "pgp" : "0",
      "terminal" : "0",
      "latitude" : "24.15223",
      "inDis" : "50",
      "routeId" : "9",
      "seqNo" : "70"
   },
   {
      "GoBack" : "2",
      "longitude" : "120.68398",
      "outDis" : "50",
      "Id" : "0045",
      "oid" : "13460",
      "districtId" : "1",
      "nameZh" : "國立臺中科技大學",
      "pgp" : "0",
      "terminal" : "0",
      "latitude" : "24.1495",
      "inDis" : "50",
      "routeId" : "9",
      "seqNo" : "71"
   },
   {
      "GoBack" : "2",
      "longitude" : "120.68212",
      "outDis" : "50",
      "Id" : "4543",
      "oid" : "7313",
      "districtId" : "1",
      "nameZh" : "臺中公園(三民路)",
      "pgp" : "0",
      "terminal" : "0",
      "latitude" : "24.14507",
      "inDis" : "50",
      "routeId" : "9",
      "seqNo" : "72"
   },
   {
      "GoBack" : "2",
      "longitude" : "120.68111",
      "outDis" : "50",
      "Id" : "5506",
      "oid" : "7056",
      "districtId" : "1",
      "nameZh" : "光復國小(三民路)",
      "pgp" : "0",
      "terminal" : "0",
      "latitude" : "24.14397",
      "inDis" : "50",
      "routeId" : "9",
      "seqNo" : "73"
   },
   {
      "GoBack" : "2",
      "longitude" : "120.67977",
      "outDis" : "50",
      "Id" : "4609",
      "oid" : "3706",
      "districtId" : "1",
      "nameZh" : "第二市場(三民路)",
      "pgp" : "0",
      "terminal" : "0",
      "latitude" : "24.14267",
      "inDis" : "50",
      "routeId" : "9",
      "seqNo" : "74"
   },
   {
      "GoBack" : "2",
      "longitude" : "120.67838",
      "outDis" : "50",
      "Id" : "5026",
      "oid" : "309504377",
      "districtId" : "1",
      "nameZh" : "美榮藥局",
      "pgp" : "0",
      "terminal" : "0",
      "latitude" : "24.14131",
      "inDis" : "50",
      "routeId" : "9",
      "seqNo" : "75"
   },
   {
      "GoBack" : "2",
      "longitude" : "120.67848",
      "outDis" : "50",
      "Id" : "4416",
      "oid" : "6DA05825CE704FBB9B2BF69FECA70245",
      "districtId" : "1",
      "nameZh" : "臺中州廳",
      "pgp" : "0",
      "terminal" : "0",
      "latitude" : "24.1391",
      "inDis" : "50",
      "routeId" : "9",
      "seqNo" : "76"
   },
   {
      "GoBack" : "2",
      "longitude" : "120.68043",
      "outDis" : "50",
      "Id" : "0215",
      "oid" : "8159",
      "districtId" : "1",
      "nameZh" : "合作金庫",
      "pgp" : "0",
      "terminal" : "0",
      "latitude" : "24.13835",
      "inDis" : "50",
      "routeId" : "9",
      "seqNo" : "77"
   },
   {
      "GoBack" : "2",
      "longitude" : "120.68193",
      "outDis" : "50",
      "Id" : "0216",
      "oid" : "7547",
      "districtId" : "1",
      "nameZh" : "彰化銀行(自由路)",
      "pgp" : "0",
      "terminal" : "0",
      "latitude" : "24.13977",
      "inDis" : "50",
      "routeId" : "9",
      "seqNo" : "78"
   },
   {
      "GoBack" : "2",
      "longitude" : "120.68323",
      "outDis" : "50",
      "Id" : "0905",
      "oid" : "13461",
      "districtId" : "1",
      "nameZh" : "綠川東站",
      "pgp" : "0",
      "terminal" : "0",
      "latitude" : "24.13806",
      "inDis" : "50",
      "routeId" : "9",
      "seqNo" : "79"
   }
]
