[
   {
      "GoBack" : "1",
      "longitude" : "120.58033",
      "outDis" : "50",
      "Id" : "3531",
      "oid" : "318982352",
      "districtId" : "1",
      "nameZh" : "正英臺灣大道口",
      "pgp" : "0",
      "terminal" : "0",
      "latitude" : "24.20961",
      "inDis" : "50",
      "routeId" : "藍7",
      "seqNo" : "1"
   },
   {
      "GoBack" : "1",
      "longitude" : "120.58096",
      "outDis" : "50",
      "Id" : "4124",
      "oid" : "318982354",
      "districtId" : "1",
      "nameZh" : "頂六路",
      "pgp" : "0",
      "terminal" : "0",
      "latitude" : "24.21314",
      "inDis" : "50",
      "routeId" : "藍7",
      "seqNo" : "2"
   },
   {
      "GoBack" : "1",
      "longitude" : "120.58041",
      "outDis" : "50",
      "Id" : "4386",
      "oid" : "318982356",
      "districtId" : "1",
      "nameZh" : "弘光科技大學",
      "pgp" : "0",
      "terminal" : "0",
      "latitude" : "24.21743",
      "inDis" : "50",
      "routeId" : "藍7",
      "seqNo" : "3"
   },
   {
      "GoBack" : "1",
      "longitude" : "120.57957",
      "outDis" : "50",
      "Id" : "4111",
      "oid" : "318982358",
      "districtId" : "1",
      "nameZh" : "晉江里",
      "pgp" : "0",
      "terminal" : "0",
      "latitude" : "24.22143",
      "inDis" : "50",
      "routeId" : "藍7",
      "seqNo" : "4"
   },
   {
      "GoBack" : "1",
      "longitude" : "120.57829",
      "outDis" : "50",
      "Id" : "4062",
      "oid" : "318982360",
      "districtId" : "1",
      "nameZh" : "下晉江",
      "pgp" : "0",
      "terminal" : "0",
      "latitude" : "24.22342",
      "inDis" : "50",
      "routeId" : "藍7",
      "seqNo" : "5"
   },
   {
      "GoBack" : "1",
      "longitude" : "120.57674",
      "outDis" : "50",
      "Id" : "4147",
      "oid" : "318982362",
      "districtId" : "1",
      "nameZh" : "靜宜大學",
      "pgp" : "0",
      "terminal" : "0",
      "latitude" : "24.22583",
      "inDis" : "50",
      "routeId" : "藍7",
      "seqNo" : "6"
   },
   {
      "GoBack" : "1",
      "longitude" : "120.57389",
      "outDis" : "50",
      "Id" : "4086",
      "oid" : "318982364",
      "districtId" : "1",
      "nameZh" : "臺灣大道北勢路口",
      "pgp" : "0",
      "terminal" : "0",
      "latitude" : "24.23028",
      "inDis" : "50",
      "routeId" : "藍7",
      "seqNo" : "7"
   },
   {
      "GoBack" : "1",
      "longitude" : "120.57198",
      "outDis" : "50",
      "Id" : "4392",
      "oid" : "318982366",
      "districtId" : "1",
      "nameZh" : "紅竹巷",
      "pgp" : "0",
      "terminal" : "0",
      "latitude" : "24.23325",
      "inDis" : "50",
      "routeId" : "藍7",
      "seqNo" : "8"
   },
   {
      "GoBack" : "1",
      "longitude" : "120.57013",
      "outDis" : "50",
      "Id" : "4389",
      "oid" : "318982368",
      "districtId" : "1",
      "nameZh" : "竹林里",
      "pgp" : "0",
      "terminal" : "0",
      "latitude" : "24.23609",
      "inDis" : "50",
      "routeId" : "藍7",
      "seqNo" : "9"
   },
   {
      "GoBack" : "1",
      "longitude" : "120.56774",
      "outDis" : "50",
      "Id" : "2147",
      "oid" : "318982370",
      "districtId" : "1",
      "nameZh" : "竹林國小",
      "pgp" : "0",
      "terminal" : "0",
      "latitude" : "24.23847",
      "inDis" : "50",
      "routeId" : "藍7",
      "seqNo" : "10"
   },
   {
      "GoBack" : "1",
      "longitude" : "120.56535",
      "outDis" : "50",
      "Id" : "0005",
      "oid" : "318982372",
      "districtId" : "1",
      "nameZh" : "沙鹿高工(臺灣大道)",
      "pgp" : "0",
      "terminal" : "0",
      "latitude" : "24.23926",
      "inDis" : "50",
      "routeId" : "藍7",
      "seqNo" : "11"
   },
   {
      "GoBack" : "1",
      "longitude" : "120.56346",
      "outDis" : "50",
      "Id" : "2335",
      "oid" : "318982374",
      "districtId" : "1",
      "nameZh" : "居仁里",
      "pgp" : "0",
      "terminal" : "0",
      "latitude" : "24.24007",
      "inDis" : "50",
      "routeId" : "藍7",
      "seqNo" : "12"
   },
   {
      "GoBack" : "1",
      "longitude" : "120.56127",
      "outDis" : "50",
      "Id" : "5140",
      "oid" : "318982376",
      "districtId" : "1",
      "nameZh" : "童綜合醫院(沙鹿院區)",
      "pgp" : "0",
      "terminal" : "0",
      "latitude" : "24.24245",
      "inDis" : "50",
      "routeId" : "藍7",
      "seqNo" : "13"
   },
   {
      "GoBack" : "1",
      "longitude" : "120.56221",
      "outDis" : "50",
      "Id" : "4042",
      "oid" : "318982378",
      "districtId" : "1",
      "nameZh" : "文化莊",
      "pgp" : "0",
      "terminal" : "0",
      "latitude" : "24.24518",
      "inDis" : "50",
      "routeId" : "藍7",
      "seqNo" : "14"
   },
   {
      "GoBack" : "1",
      "longitude" : "120.56269",
      "outDis" : "50",
      "Id" : "4110",
      "oid" : "318982380",
      "districtId" : "1",
      "nameZh" : "家扶中心",
      "pgp" : "0",
      "terminal" : "0",
      "latitude" : "24.24674",
      "inDis" : "50",
      "routeId" : "藍7",
      "seqNo" : "15"
   },
   {
      "GoBack" : "1",
      "longitude" : "120.56484",
      "outDis" : "50",
      "Id" : "5138",
      "oid" : "318982382",
      "districtId" : "1",
      "nameZh" : "鹿寮成衣商圈",
      "pgp" : "0",
      "terminal" : "0",
      "latitude" : "24.2489",
      "inDis" : "50",
      "routeId" : "藍7",
      "seqNo" : "16"
   },
   {
      "GoBack" : "1",
      "longitude" : "120.56679",
      "outDis" : "50",
      "Id" : "4044",
      "oid" : "318982384",
      "districtId" : "1",
      "nameZh" : "鹿寮",
      "pgp" : "0",
      "terminal" : "0",
      "latitude" : "24.25177",
      "inDis" : "50",
      "routeId" : "藍7",
      "seqNo" : "17"
   },
   {
      "GoBack" : "1",
      "longitude" : "120.56786",
      "outDis" : "50",
      "Id" : "5392",
      "oid" : "318982386",
      "districtId" : "1",
      "nameZh" : "中山長春路口",
      "pgp" : "0",
      "terminal" : "0",
      "latitude" : "24.2537",
      "inDis" : "50",
      "routeId" : "藍7",
      "seqNo" : "18"
   },
   {
      "GoBack" : "1",
      "longitude" : "120.56885",
      "outDis" : "50",
      "Id" : "4045",
      "oid" : "318982388",
      "districtId" : "1",
      "nameZh" : "中峰",
      "pgp" : "0",
      "terminal" : "0",
      "latitude" : "24.25542",
      "inDis" : "50",
      "routeId" : "藍7",
      "seqNo" : "19"
   },
   {
      "GoBack" : "1",
      "longitude" : "120.57005",
      "outDis" : "50",
      "Id" : "4471",
      "oid" : "318982390",
      "districtId" : "1",
      "nameZh" : "勞工育樂中心",
      "pgp" : "0",
      "terminal" : "0",
      "latitude" : "24.25766",
      "inDis" : "50",
      "routeId" : "藍7",
      "seqNo" : "20"
   },
   {
      "GoBack" : "1",
      "longitude" : "120.57075",
      "outDis" : "50",
      "Id" : "4129",
      "oid" : "318982392",
      "districtId" : "1",
      "nameZh" : "鹿峰里",
      "pgp" : "0",
      "terminal" : "0",
      "latitude" : "24.25885",
      "inDis" : "50",
      "routeId" : "藍7",
      "seqNo" : "21"
   },
   {
      "GoBack" : "1",
      "longitude" : "120.5714",
      "outDis" : "50",
      "Id" : "4441",
      "oid" : "318982394",
      "districtId" : "1",
      "nameZh" : "中山星河路口",
      "pgp" : "0",
      "terminal" : "0",
      "latitude" : "24.25997",
      "inDis" : "50",
      "routeId" : "藍7",
      "seqNo" : "22"
   },
   {
      "GoBack" : "1",
      "longitude" : "120.57262",
      "outDis" : "50",
      "Id" : "4121",
      "oid" : "318982396",
      "districtId" : "1",
      "nameZh" : "清水電信局",
      "pgp" : "0",
      "terminal" : "0",
      "latitude" : "24.26214",
      "inDis" : "50",
      "routeId" : "藍7",
      "seqNo" : "23"
   },
   {
      "GoBack" : "1",
      "longitude" : "120.5743",
      "outDis" : "50",
      "Id" : "4119",
      "oid" : "318983475",
      "districtId" : "1",
      "nameZh" : "清水高中",
      "pgp" : "0",
      "terminal" : "0",
      "latitude" : "24.26588",
      "inDis" : "50",
      "routeId" : "藍7",
      "seqNo" : "24"
   },
   {
      "GoBack" : "1",
      "longitude" : "120.57515",
      "outDis" : "50",
      "Id" : "5141",
      "oid" : "318983477",
      "districtId" : "1",
      "nameZh" : "華南銀行(清水分行)",
      "pgp" : "0",
      "terminal" : "0",
      "latitude" : "24.2683",
      "inDis" : "50",
      "routeId" : "藍7",
      "seqNo" : "25"
   },
   {
      "GoBack" : "1",
      "longitude" : "120.57594",
      "outDis" : "50",
      "Id" : "3013",
      "oid" : "318983479",
      "districtId" : "1",
      "nameZh" : "清水",
      "pgp" : "0",
      "terminal" : "0",
      "latitude" : "24.2703",
      "inDis" : "50",
      "routeId" : "藍7",
      "seqNo" : "26"
   },
   {
      "GoBack" : "1",
      "longitude" : "120.57687",
      "outDis" : "50",
      "Id" : "4521",
      "oid" : "318983481",
      "districtId" : "1",
      "nameZh" : "中山董公街口",
      "pgp" : "0",
      "terminal" : "0",
      "latitude" : "24.27284",
      "inDis" : "50",
      "routeId" : "藍7",
      "seqNo" : "27"
   },
   {
      "GoBack" : "1",
      "longitude" : "120.57725",
      "outDis" : "50",
      "Id" : "4442",
      "oid" : "318983483",
      "districtId" : "1",
      "nameZh" : "中山高美路口",
      "pgp" : "0",
      "terminal" : "0",
      "latitude" : "24.27461",
      "inDis" : "50",
      "routeId" : "藍7",
      "seqNo" : "28"
   },
   {
      "GoBack" : "1",
      "longitude" : "120.57505",
      "outDis" : "50",
      "Id" : "4956",
      "oid" : "318983495",
      "districtId" : "1",
      "nameZh" : "西寧國小",
      "pgp" : "0",
      "terminal" : "0",
      "latitude" : "24.2757",
      "inDis" : "50",
      "routeId" : "藍7",
      "seqNo" : "29"
   },
   {
      "GoBack" : "1",
      "longitude" : "120.57207",
      "outDis" : "50",
      "Id" : "5228",
      "oid" : "318983487",
      "districtId" : "1",
      "nameZh" : "五權東鎮新路口",
      "pgp" : "0",
      "terminal" : "0",
      "latitude" : "24.27509",
      "inDis" : "50",
      "routeId" : "藍7",
      "seqNo" : "30"
   },
   {
      "GoBack" : "1",
      "longitude" : "120.56798",
      "outDis" : "50",
      "Id" : "5227",
      "oid" : "318983489",
      "districtId" : "1",
      "nameZh" : "五權民享路口",
      "pgp" : "0",
      "terminal" : "0",
      "latitude" : "24.27697",
      "inDis" : "50",
      "routeId" : "藍7",
      "seqNo" : "31"
   },
   {
      "GoBack" : "1",
      "longitude" : "120.56472",
      "outDis" : "50",
      "Id" : "5777",
      "oid" : "320882922",
      "districtId" : "1",
      "nameZh" : "五權華江北街口",
      "pgp" : "0",
      "terminal" : "0",
      "latitude" : "24.27708",
      "inDis" : "50",
      "routeId" : "藍7",
      "seqNo" : "32"
   },
   {
      "GoBack" : "1",
      "longitude" : "120.56179",
      "outDis" : "50",
      "Id" : "4959",
      "oid" : "17816",
      "districtId" : "1",
      "nameZh" : "慈濟靜思堂(五權路)",
      "pgp" : "0",
      "terminal" : "0",
      "latitude" : "24.27715",
      "inDis" : "50",
      "routeId" : "藍7",
      "seqNo" : "33"
   },
   {
      "GoBack" : "1",
      "longitude" : "120.55889",
      "outDis" : "50",
      "Id" : "5725",
      "oid" : "320269813",
      "districtId" : "1",
      "nameZh" : "五權南平等街口",
      "pgp" : "0",
      "terminal" : "0",
      "latitude" : "24.27451",
      "inDis" : "50",
      "routeId" : "藍7",
      "seqNo" : "34"
   },
   {
      "GoBack" : "1",
      "longitude" : "120.55834",
      "outDis" : "50",
      "Id" : "5694",
      "oid" : "320269811",
      "districtId" : "1",
      "nameZh" : "南社郵局",
      "pgp" : "0",
      "terminal" : "0",
      "latitude" : "24.27165",
      "inDis" : "50",
      "routeId" : "藍7",
      "seqNo" : "35"
   },
   {
      "GoBack" : "1",
      "longitude" : "120.55774",
      "outDis" : "50",
      "Id" : "0400",
      "oid" : "318981927",
      "districtId" : "1",
      "nameZh" : "港區藝術中心(鎮政路)",
      "pgp" : "0",
      "terminal" : "0",
      "latitude" : "24.26929",
      "inDis" : "50",
      "routeId" : "藍7",
      "seqNo" : "36"
   },
   {
      "GoBack" : "2",
      "longitude" : "120.55774",
      "outDis" : "50",
      "Id" : "0400",
      "oid" : "318981927",
      "districtId" : "1",
      "nameZh" : "港區藝術中心(鎮政路)",
      "pgp" : "0",
      "terminal" : "0",
      "latitude" : "24.26929",
      "inDis" : "50",
      "routeId" : "藍7",
      "seqNo" : "1"
   },
   {
      "GoBack" : "2",
      "longitude" : "120.55841",
      "outDis" : "50",
      "Id" : "5694",
      "oid" : "320269812",
      "districtId" : "1",
      "nameZh" : "南社郵局",
      "pgp" : "0",
      "terminal" : "0",
      "latitude" : "24.2719",
      "inDis" : "50",
      "routeId" : "藍7",
      "seqNo" : "2"
   },
   {
      "GoBack" : "2",
      "longitude" : "120.55898",
      "outDis" : "50",
      "Id" : "5725",
      "oid" : "320269814",
      "districtId" : "1",
      "nameZh" : "五權南平等街口",
      "pgp" : "0",
      "terminal" : "0",
      "latitude" : "24.27446",
      "inDis" : "50",
      "routeId" : "藍7",
      "seqNo" : "3"
   },
   {
      "GoBack" : "2",
      "longitude" : "120.56179",
      "outDis" : "50",
      "Id" : "4959",
      "oid" : "17816",
      "districtId" : "1",
      "nameZh" : "慈濟靜思堂(五權路)",
      "pgp" : "0",
      "terminal" : "0",
      "latitude" : "24.27715",
      "inDis" : "50",
      "routeId" : "藍7",
      "seqNo" : "4"
   },
   {
      "GoBack" : "2",
      "longitude" : "120.56472",
      "outDis" : "50",
      "Id" : "5777",
      "oid" : "320882922",
      "districtId" : "1",
      "nameZh" : "五權華江北街口",
      "pgp" : "0",
      "terminal" : "0",
      "latitude" : "24.27708",
      "inDis" : "50",
      "routeId" : "藍7",
      "seqNo" : "5"
   },
   {
      "GoBack" : "2",
      "longitude" : "120.56798",
      "outDis" : "50",
      "Id" : "5227",
      "oid" : "318983491",
      "districtId" : "1",
      "nameZh" : "五權民享路口",
      "pgp" : "0",
      "terminal" : "0",
      "latitude" : "24.27697",
      "inDis" : "50",
      "routeId" : "藍7",
      "seqNo" : "6"
   },
   {
      "GoBack" : "2",
      "longitude" : "120.57207",
      "outDis" : "50",
      "Id" : "5228",
      "oid" : "318983493",
      "districtId" : "1",
      "nameZh" : "五權東鎮新路口",
      "pgp" : "0",
      "terminal" : "0",
      "latitude" : "24.27509",
      "inDis" : "50",
      "routeId" : "藍7",
      "seqNo" : "7"
   },
   {
      "GoBack" : "2",
      "longitude" : "120.57505",
      "outDis" : "50",
      "Id" : "4956",
      "oid" : "318983495",
      "districtId" : "1",
      "nameZh" : "西寧國小",
      "pgp" : "0",
      "terminal" : "0",
      "latitude" : "24.2757",
      "inDis" : "50",
      "routeId" : "藍7",
      "seqNo" : "8"
   },
   {
      "GoBack" : "2",
      "longitude" : "120.57725",
      "outDis" : "50",
      "Id" : "4442",
      "oid" : "318983497",
      "districtId" : "1",
      "nameZh" : "中山高美路口",
      "pgp" : "0",
      "terminal" : "0",
      "latitude" : "24.27461",
      "inDis" : "50",
      "routeId" : "藍7",
      "seqNo" : "9"
   },
   {
      "GoBack" : "2",
      "longitude" : "120.57712",
      "outDis" : "50",
      "Id" : "4521",
      "oid" : "318983499",
      "districtId" : "1",
      "nameZh" : "中山董公街口",
      "pgp" : "0",
      "terminal" : "0",
      "latitude" : "24.2732",
      "inDis" : "50",
      "routeId" : "藍7",
      "seqNo" : "10"
   },
   {
      "GoBack" : "2",
      "longitude" : "120.57594",
      "outDis" : "50",
      "Id" : "3013",
      "oid" : "318983501",
      "districtId" : "1",
      "nameZh" : "清水",
      "pgp" : "0",
      "terminal" : "0",
      "latitude" : "24.2703",
      "inDis" : "50",
      "routeId" : "藍7",
      "seqNo" : "11"
   },
   {
      "GoBack" : "2",
      "longitude" : "120.57515",
      "outDis" : "50",
      "Id" : "5141",
      "oid" : "318983503",
      "districtId" : "1",
      "nameZh" : "華南銀行(清水分行)",
      "pgp" : "0",
      "terminal" : "0",
      "latitude" : "24.2683",
      "inDis" : "50",
      "routeId" : "藍7",
      "seqNo" : "12"
   },
   {
      "GoBack" : "2",
      "longitude" : "120.57435",
      "outDis" : "50",
      "Id" : "4119",
      "oid" : "318983505",
      "districtId" : "1",
      "nameZh" : "清水高中",
      "pgp" : "0",
      "terminal" : "0",
      "latitude" : "24.2661",
      "inDis" : "50",
      "routeId" : "藍7",
      "seqNo" : "13"
   },
   {
      "GoBack" : "2",
      "longitude" : "120.57262",
      "outDis" : "50",
      "Id" : "4121",
      "oid" : "318983507",
      "districtId" : "1",
      "nameZh" : "清水電信局",
      "pgp" : "0",
      "terminal" : "0",
      "latitude" : "24.26214",
      "inDis" : "50",
      "routeId" : "藍7",
      "seqNo" : "14"
   },
   {
      "GoBack" : "2",
      "longitude" : "120.5714",
      "outDis" : "50",
      "Id" : "4441",
      "oid" : "318983509",
      "districtId" : "1",
      "nameZh" : "中山星河路口",
      "pgp" : "0",
      "terminal" : "0",
      "latitude" : "24.25997",
      "inDis" : "50",
      "routeId" : "藍7",
      "seqNo" : "15"
   },
   {
      "GoBack" : "2",
      "longitude" : "120.57075",
      "outDis" : "50",
      "Id" : "4129",
      "oid" : "318983511",
      "districtId" : "1",
      "nameZh" : "鹿峰里",
      "pgp" : "0",
      "terminal" : "0",
      "latitude" : "24.25885",
      "inDis" : "50",
      "routeId" : "藍7",
      "seqNo" : "16"
   },
   {
      "GoBack" : "2",
      "longitude" : "120.57005",
      "outDis" : "50",
      "Id" : "4471",
      "oid" : "318983513",
      "districtId" : "1",
      "nameZh" : "勞工育樂中心",
      "pgp" : "0",
      "terminal" : "0",
      "latitude" : "24.25766",
      "inDis" : "50",
      "routeId" : "藍7",
      "seqNo" : "17"
   },
   {
      "GoBack" : "2",
      "longitude" : "120.56873",
      "outDis" : "50",
      "Id" : "4045",
      "oid" : "318983515",
      "districtId" : "1",
      "nameZh" : "中峰",
      "pgp" : "0",
      "terminal" : "0",
      "latitude" : "24.25538",
      "inDis" : "50",
      "routeId" : "藍7",
      "seqNo" : "18"
   },
   {
      "GoBack" : "2",
      "longitude" : "120.56786",
      "outDis" : "50",
      "Id" : "5392",
      "oid" : "318983517",
      "districtId" : "1",
      "nameZh" : "中山長春路口",
      "pgp" : "0",
      "terminal" : "0",
      "latitude" : "24.2537",
      "inDis" : "50",
      "routeId" : "藍7",
      "seqNo" : "19"
   },
   {
      "GoBack" : "2",
      "longitude" : "120.56624",
      "outDis" : "50",
      "Id" : "4044",
      "oid" : "318983519",
      "districtId" : "1",
      "nameZh" : "鹿寮",
      "pgp" : "0",
      "terminal" : "0",
      "latitude" : "24.2507",
      "inDis" : "50",
      "routeId" : "藍7",
      "seqNo" : "20"
   },
   {
      "GoBack" : "2",
      "longitude" : "120.56484",
      "outDis" : "50",
      "Id" : "5138",
      "oid" : "318983521",
      "districtId" : "1",
      "nameZh" : "鹿寮成衣商圈",
      "pgp" : "0",
      "terminal" : "0",
      "latitude" : "24.2489",
      "inDis" : "50",
      "routeId" : "藍7",
      "seqNo" : "21"
   },
   {
      "GoBack" : "2",
      "longitude" : "120.56269",
      "outDis" : "50",
      "Id" : "4110",
      "oid" : "318983523",
      "districtId" : "1",
      "nameZh" : "家扶中心",
      "pgp" : "0",
      "terminal" : "0",
      "latitude" : "24.24674",
      "inDis" : "50",
      "routeId" : "藍7",
      "seqNo" : "22"
   },
   {
      "GoBack" : "2",
      "longitude" : "120.56221",
      "outDis" : "50",
      "Id" : "4042",
      "oid" : "318983525",
      "districtId" : "1",
      "nameZh" : "文化莊",
      "pgp" : "0",
      "terminal" : "0",
      "latitude" : "24.24518",
      "inDis" : "50",
      "routeId" : "藍7",
      "seqNo" : "23"
   },
   {
      "GoBack" : "2",
      "longitude" : "120.56127",
      "outDis" : "50",
      "Id" : "5140",
      "oid" : "318983527",
      "districtId" : "1",
      "nameZh" : "童綜合醫院(沙鹿院區)",
      "pgp" : "0",
      "terminal" : "0",
      "latitude" : "24.24245",
      "inDis" : "50",
      "routeId" : "藍7",
      "seqNo" : "24"
   },
   {
      "GoBack" : "2",
      "longitude" : "120.56309",
      "outDis" : "50",
      "Id" : "2335",
      "oid" : "318983529",
      "districtId" : "1",
      "nameZh" : "居仁里",
      "pgp" : "0",
      "terminal" : "0",
      "latitude" : "24.24015",
      "inDis" : "50",
      "routeId" : "藍7",
      "seqNo" : "25"
   },
   {
      "GoBack" : "2",
      "longitude" : "120.56535",
      "outDis" : "50",
      "Id" : "0005",
      "oid" : "318983531",
      "districtId" : "1",
      "nameZh" : "沙鹿高工(臺灣大道)",
      "pgp" : "0",
      "terminal" : "0",
      "latitude" : "24.23926",
      "inDis" : "50",
      "routeId" : "藍7",
      "seqNo" : "26"
   },
   {
      "GoBack" : "2",
      "longitude" : "120.56786",
      "outDis" : "50",
      "Id" : "2147",
      "oid" : "318983533",
      "districtId" : "1",
      "nameZh" : "竹林國小",
      "pgp" : "0",
      "terminal" : "0",
      "latitude" : "24.23839",
      "inDis" : "50",
      "routeId" : "藍7",
      "seqNo" : "27"
   },
   {
      "GoBack" : "2",
      "longitude" : "120.56995",
      "outDis" : "50",
      "Id" : "4389",
      "oid" : "318983535",
      "districtId" : "1",
      "nameZh" : "竹林里",
      "pgp" : "0",
      "terminal" : "0",
      "latitude" : "24.23639",
      "inDis" : "50",
      "routeId" : "藍7",
      "seqNo" : "28"
   },
   {
      "GoBack" : "2",
      "longitude" : "120.57193",
      "outDis" : "50",
      "Id" : "4392",
      "oid" : "318983537",
      "districtId" : "1",
      "nameZh" : "紅竹巷",
      "pgp" : "0",
      "terminal" : "0",
      "latitude" : "24.23331",
      "inDis" : "50",
      "routeId" : "藍7",
      "seqNo" : "29"
   },
   {
      "GoBack" : "2",
      "longitude" : "120.57396",
      "outDis" : "50",
      "Id" : "4086",
      "oid" : "318983539",
      "districtId" : "1",
      "nameZh" : "臺灣大道北勢路口",
      "pgp" : "0",
      "terminal" : "0",
      "latitude" : "24.23011",
      "inDis" : "50",
      "routeId" : "藍7",
      "seqNo" : "30"
   },
   {
      "GoBack" : "2",
      "longitude" : "120.57674",
      "outDis" : "50",
      "Id" : "4147",
      "oid" : "318983541",
      "districtId" : "1",
      "nameZh" : "靜宜大學",
      "pgp" : "0",
      "terminal" : "0",
      "latitude" : "24.22576",
      "inDis" : "50",
      "routeId" : "藍7",
      "seqNo" : "31"
   },
   {
      "GoBack" : "2",
      "longitude" : "120.57823",
      "outDis" : "50",
      "Id" : "4062",
      "oid" : "318983543",
      "districtId" : "1",
      "nameZh" : "下晉江",
      "pgp" : "0",
      "terminal" : "0",
      "latitude" : "24.22346",
      "inDis" : "50",
      "routeId" : "藍7",
      "seqNo" : "32"
   },
   {
      "GoBack" : "2",
      "longitude" : "120.57965",
      "outDis" : "50",
      "Id" : "4111",
      "oid" : "318983545",
      "districtId" : "1",
      "nameZh" : "晉江里",
      "pgp" : "0",
      "terminal" : "0",
      "latitude" : "24.22111",
      "inDis" : "50",
      "routeId" : "藍7",
      "seqNo" : "33"
   },
   {
      "GoBack" : "2",
      "longitude" : "120.58041",
      "outDis" : "50",
      "Id" : "4386",
      "oid" : "318983547",
      "districtId" : "1",
      "nameZh" : "弘光科技大學",
      "pgp" : "0",
      "terminal" : "0",
      "latitude" : "24.21735",
      "inDis" : "50",
      "routeId" : "藍7",
      "seqNo" : "34"
   },
   {
      "GoBack" : "2",
      "longitude" : "120.58096",
      "outDis" : "50",
      "Id" : "4124",
      "oid" : "318983549",
      "districtId" : "1",
      "nameZh" : "頂六路",
      "pgp" : "0",
      "terminal" : "0",
      "latitude" : "24.21314",
      "inDis" : "50",
      "routeId" : "藍7",
      "seqNo" : "35"
   },
   {
      "GoBack" : "2",
      "longitude" : "120.58108",
      "outDis" : "50",
      "Id" : "3531",
      "oid" : "318983551",
      "districtId" : "1",
      "nameZh" : "正英臺灣大道口",
      "pgp" : "0",
      "terminal" : "0",
      "latitude" : "24.2099",
      "inDis" : "50",
      "routeId" : "藍7",
      "seqNo" : "36"
   }
]
