[
   {
      "GoBack" : "1",
      "longitude" : "120.68417",
      "outDis" : "50",
      "Id" : "1824",
      "oid" : "5546",
      "districtId" : "1",
      "nameZh" : "臺中火車站",
      "pgp" : "0",
      "terminal" : "0",
      "latitude" : "24.13678",
      "inDis" : "50",
      "routeId" : "290繞",
      "seqNo" : "1"
   },
   {
      "GoBack" : "1",
      "longitude" : "120.6811",
      "outDis" : "50",
      "Id" : "4284",
      "oid" : "753223F679A2463AA37A1E3F09667AD5",
      "districtId" : "1",
      "nameZh" : "民權繼光街口",
      "pgp" : "0",
      "terminal" : "0",
      "latitude" : "24.13702",
      "inDis" : "50",
      "routeId" : "290繞",
      "seqNo" : "2"
   },
   {
      "GoBack" : "1",
      "longitude" : "120.67848",
      "outDis" : "50",
      "Id" : "4416",
      "oid" : "6DA05825CE704FBB9B2BF69FECA70245",
      "districtId" : "1",
      "nameZh" : "臺中州廳",
      "pgp" : "0",
      "terminal" : "0",
      "latitude" : "24.1391",
      "inDis" : "50",
      "routeId" : "290繞",
      "seqNo" : "3"
   },
   {
      "GoBack" : "1",
      "longitude" : "120.6765",
      "outDis" : "50",
      "Id" : "0208",
      "oid" : "8157",
      "districtId" : "1",
      "nameZh" : "臺中醫院",
      "pgp" : "0",
      "terminal" : "0",
      "latitude" : "24.14097",
      "inDis" : "50",
      "routeId" : "290繞",
      "seqNo" : "4"
   },
   {
      "GoBack" : "1",
      "longitude" : "120.67464",
      "outDis" : "50",
      "Id" : "4623",
      "oid" : "772FFD21B46D4E16AAC6A8B3CCE38713",
      "districtId" : "1",
      "nameZh" : "民權中華路口",
      "pgp" : "0",
      "terminal" : "0",
      "latitude" : "24.14257",
      "inDis" : "50",
      "routeId" : "290繞",
      "seqNo" : "5"
   },
   {
      "GoBack" : "1",
      "longitude" : "120.67192",
      "outDis" : "50",
      "Id" : "0513",
      "oid" : "487266B6A18D430DA1A4D30BD3B2744B",
      "districtId" : "1",
      "nameZh" : "臺中教育大學",
      "pgp" : "0",
      "terminal" : "0",
      "latitude" : "24.14474",
      "inDis" : "50",
      "routeId" : "290繞",
      "seqNo" : "6"
   },
   {
      "GoBack" : "1",
      "longitude" : "120.66917",
      "outDis" : "50",
      "Id" : "5235",
      "oid" : "310787776",
      "districtId" : "1",
      "nameZh" : "向上民權路口",
      "pgp" : "0",
      "terminal" : "0",
      "latitude" : "24.14663",
      "inDis" : "50",
      "routeId" : "290繞",
      "seqNo" : "7"
   },
   {
      "GoBack" : "1",
      "longitude" : "120.66607",
      "outDis" : "50",
      "Id" : "0725",
      "oid" : "10248",
      "districtId" : "1",
      "nameZh" : "向上英才路口",
      "pgp" : "0",
      "terminal" : "0",
      "latitude" : "24.14675",
      "inDis" : "50",
      "routeId" : "290繞",
      "seqNo" : "8"
   },
   {
      "GoBack" : "1",
      "longitude" : "120.66339",
      "outDis" : "50",
      "Id" : "0281",
      "oid" : "320650276",
      "districtId" : "1",
      "nameZh" : "市農會",
      "pgp" : "0",
      "terminal" : "0",
      "latitude" : "24.14672",
      "inDis" : "50",
      "routeId" : "290繞",
      "seqNo" : "9"
   },
   {
      "GoBack" : "1",
      "longitude" : "120.66186",
      "outDis" : "50",
      "Id" : "0438",
      "oid" : "531EAC6366E94FC2B43D7FEF6CE15B35",
      "districtId" : "1",
      "nameZh" : "互助新村",
      "pgp" : "0",
      "terminal" : "0",
      "latitude" : "24.14668",
      "inDis" : "50",
      "routeId" : "290繞",
      "seqNo" : "10"
   },
   {
      "GoBack" : "1",
      "longitude" : "120.65967",
      "outDis" : "50",
      "Id" : "0171",
      "oid" : "6308",
      "districtId" : "1",
      "nameZh" : "頂麻園",
      "pgp" : "0",
      "terminal" : "0",
      "latitude" : "24.14675",
      "inDis" : "50",
      "routeId" : "290繞",
      "seqNo" : "11"
   },
   {
      "GoBack" : "1",
      "longitude" : "120.6581",
      "outDis" : "50",
      "Id" : "4540",
      "oid" : "F9348C0A71BF402FA84F4EE1933538B4",
      "districtId" : "1",
      "nameZh" : "向上忠明南路口",
      "pgp" : "0",
      "terminal" : "0",
      "latitude" : "24.14669",
      "inDis" : "50",
      "routeId" : "290繞",
      "seqNo" : "12"
   },
   {
      "GoBack" : "1",
      "longitude" : "120.65548",
      "outDis" : "50",
      "Id" : "4595",
      "oid" : "14549E5EE8CC4D7C8A2CDB1721CCEC52",
      "districtId" : "1",
      "nameZh" : "向上精誠路口",
      "pgp" : "0",
      "terminal" : "0",
      "latitude" : "24.14674",
      "inDis" : "50",
      "routeId" : "290繞",
      "seqNo" : "13"
   },
   {
      "GoBack" : "1",
      "longitude" : "120.65158",
      "outDis" : "50",
      "Id" : "1187",
      "oid" : "5143",
      "districtId" : "1",
      "nameZh" : "下麻園",
      "pgp" : "0",
      "terminal" : "0",
      "latitude" : "24.14493",
      "inDis" : "50",
      "routeId" : "290繞",
      "seqNo" : "14"
   },
   {
      "GoBack" : "1",
      "longitude" : "120.64955",
      "outDis" : "50",
      "Id" : "5664",
      "oid" : "317813143",
      "districtId" : "1",
      "nameZh" : "向上南大墩路口",
      "pgp" : "0",
      "terminal" : "0",
      "latitude" : "24.14498",
      "inDis" : "50",
      "routeId" : "290繞",
      "seqNo" : "15"
   },
   {
      "GoBack" : "1",
      "longitude" : "120.6466",
      "outDis" : "50",
      "Id" : "5477",
      "oid" : "313679746",
      "districtId" : "1",
      "nameZh" : "文心大墩七街口",
      "pgp" : "0",
      "terminal" : "0",
      "latitude" : "24.14419",
      "inDis" : "50",
      "routeId" : "290繞",
      "seqNo" : "16"
   },
   {
      "GoBack" : "1",
      "longitude" : "120.64502",
      "outDis" : "50",
      "Id" : "1981",
      "oid" : "5636",
      "districtId" : "1",
      "nameZh" : "田心",
      "pgp" : "0",
      "terminal" : "0",
      "latitude" : "24.14046",
      "inDis" : "50",
      "routeId" : "290繞",
      "seqNo" : "17"
   },
   {
      "GoBack" : "1",
      "longitude" : "120.64437",
      "outDis" : "50",
      "Id" : "1137",
      "oid" : "5117",
      "districtId" : "1",
      "nameZh" : "下田心",
      "pgp" : "0",
      "terminal" : "0",
      "latitude" : "24.13921",
      "inDis" : "50",
      "routeId" : "290繞",
      "seqNo" : "18"
   },
   {
      "GoBack" : "1",
      "longitude" : "120.64288",
      "outDis" : "50",
      "Id" : "2561",
      "oid" : "5982",
      "districtId" : "1",
      "nameZh" : "南屯郵局",
      "pgp" : "0",
      "terminal" : "0",
      "latitude" : "24.13846",
      "inDis" : "50",
      "routeId" : "290繞",
      "seqNo" : "19"
   },
   {
      "GoBack" : "1",
      "longitude" : "120.64179",
      "outDis" : "50",
      "Id" : "4547",
      "oid" : "48D1A5D2039F4202843CD75BF27EC3BD",
      "districtId" : "1",
      "nameZh" : "南屯(南屯路)",
      "pgp" : "0",
      "terminal" : "0",
      "latitude" : "24.13851",
      "inDis" : "50",
      "routeId" : "290繞",
      "seqNo" : "20"
   },
   {
      "GoBack" : "1",
      "longitude" : "120.63875",
      "outDis" : "50",
      "Id" : "0693",
      "oid" : "5980",
      "districtId" : "1",
      "nameZh" : "南屯市場",
      "pgp" : "0",
      "terminal" : "0",
      "latitude" : "24.13951",
      "inDis" : "50",
      "routeId" : "290繞",
      "seqNo" : "21"
   },
   {
      "GoBack" : "1",
      "longitude" : "120.63516",
      "outDis" : "50",
      "Id" : "0616",
      "oid" : "5763",
      "districtId" : "1",
      "nameZh" : "西南屯",
      "pgp" : "0",
      "terminal" : "0",
      "latitude" : "24.14139",
      "inDis" : "50",
      "routeId" : "290繞",
      "seqNo" : "22"
   },
   {
      "GoBack" : "1",
      "longitude" : "120.63229",
      "outDis" : "50",
      "Id" : "0009",
      "oid" : "5617",
      "districtId" : "1",
      "nameZh" : "永定里(永春路)",
      "pgp" : "0",
      "terminal" : "0",
      "latitude" : "24.14132",
      "inDis" : "50",
      "routeId" : "290繞",
      "seqNo" : "23"
   },
   {
      "GoBack" : "1",
      "longitude" : "120.63035",
      "outDis" : "50",
      "Id" : "0565",
      "oid" : "0CC1305A65484EE79F1E8D5EF9F5E173",
      "districtId" : "1",
      "nameZh" : "永定里二站",
      "pgp" : "0",
      "terminal" : "0",
      "latitude" : "24.14103",
      "inDis" : "50",
      "routeId" : "290繞",
      "seqNo" : "24"
   },
   {
      "GoBack" : "1",
      "longitude" : "120.62692",
      "outDis" : "50",
      "Id" : "0338",
      "oid" : "5151",
      "districtId" : "1",
      "nameZh" : "下新生里",
      "pgp" : "0",
      "terminal" : "0",
      "latitude" : "24.14052",
      "inDis" : "50",
      "routeId" : "290繞",
      "seqNo" : "25"
   },
   {
      "GoBack" : "1",
      "longitude" : "120.62196",
      "outDis" : "50",
      "Id" : "3710",
      "oid" : "6590",
      "districtId" : "1",
      "nameZh" : "劉厝莊",
      "pgp" : "0",
      "terminal" : "0",
      "latitude" : "24.14034",
      "inDis" : "50",
      "routeId" : "290繞",
      "seqNo" : "26"
   },
   {
      "GoBack" : "1",
      "longitude" : "120.61326",
      "outDis" : "50",
      "Id" : "0065",
      "oid" : "313736924",
      "districtId" : "1",
      "nameZh" : "春社里(永春路)",
      "pgp" : "0",
      "terminal" : "0",
      "latitude" : "24.13884",
      "inDis" : "50",
      "routeId" : "290繞",
      "seqNo" : "27"
   },
   {
      "GoBack" : "1",
      "longitude" : "120.61312",
      "outDis" : "50",
      "Id" : "0157",
      "oid" : "21F3F235EB7C40699FFA685863464C89",
      "districtId" : "1",
      "nameZh" : "七星橋",
      "pgp" : "0",
      "terminal" : "0",
      "latitude" : "24.14046",
      "inDis" : "50",
      "routeId" : "290繞",
      "seqNo" : "28"
   },
   {
      "GoBack" : "1",
      "longitude" : "120.61372",
      "outDis" : "50",
      "Id" : "0158",
      "oid" : "10232",
      "districtId" : "1",
      "nameZh" : "下文山",
      "pgp" : "0",
      "terminal" : "0",
      "latitude" : "24.14275",
      "inDis" : "50",
      "routeId" : "290繞",
      "seqNo" : "29"
   },
   {
      "GoBack" : "1",
      "longitude" : "120.61473",
      "outDis" : "50",
      "Id" : "0159",
      "oid" : "8B7E1216EDAB4225A53875CE28AD9D10",
      "districtId" : "1",
      "nameZh" : "一善堂",
      "pgp" : "0",
      "terminal" : "0",
      "latitude" : "24.14489",
      "inDis" : "50",
      "routeId" : "290繞",
      "seqNo" : "30"
   },
   {
      "GoBack" : "1",
      "longitude" : "120.61504",
      "outDis" : "50",
      "Id" : "0160",
      "oid" : "5450",
      "districtId" : "1",
      "nameZh" : "文山里",
      "pgp" : "0",
      "terminal" : "0",
      "latitude" : "24.14607",
      "inDis" : "50",
      "routeId" : "290繞",
      "seqNo" : "31"
   },
   {
      "GoBack" : "1",
      "longitude" : "120.61561",
      "outDis" : "50",
      "Id" : "0165",
      "oid" : "4B90641C67CE406BB199990BA5C02BF6",
      "districtId" : "1",
      "nameZh" : "文山國小(忠勇路)",
      "pgp" : "0",
      "terminal" : "0",
      "latitude" : "24.14961",
      "inDis" : "50",
      "routeId" : "290繞",
      "seqNo" : "32"
   },
   {
      "GoBack" : "1",
      "longitude" : "120.6157",
      "outDis" : "50",
      "Id" : "5489",
      "oid" : "12627",
      "districtId" : "1",
      "nameZh" : "寶山里土地公",
      "pgp" : "0",
      "terminal" : "0",
      "latitude" : "24.15073",
      "inDis" : "50",
      "routeId" : "290繞",
      "seqNo" : "33"
   },
   {
      "GoBack" : "1",
      "longitude" : "120.61629",
      "outDis" : "50",
      "Id" : "5488",
      "oid" : "C0EF86DDE2FE4F9691725663784DE5BE",
      "districtId" : "1",
      "nameZh" : "忠勇寶山東二街口",
      "pgp" : "0",
      "terminal" : "0",
      "latitude" : "24.15275",
      "inDis" : "50",
      "routeId" : "290繞",
      "seqNo" : "34"
   },
   {
      "GoBack" : "1",
      "longitude" : "120.61243",
      "outDis" : "50",
      "Id" : "0944",
      "oid" : "4A3DB813E02443729E8181710F1E73CA",
      "districtId" : "1",
      "nameZh" : "五權西嶺東路口",
      "pgp" : "0",
      "terminal" : "0",
      "latitude" : "24.15423",
      "inDis" : "50",
      "routeId" : "290繞",
      "seqNo" : "35"
   },
   {
      "GoBack" : "1",
      "longitude" : "120.60874",
      "outDis" : "50",
      "Id" : "5240",
      "oid" : "310787788",
      "districtId" : "1",
      "nameZh" : "辰皓電子",
      "pgp" : "0",
      "terminal" : "0",
      "latitude" : "24.15669",
      "inDis" : "50",
      "routeId" : "290繞",
      "seqNo" : "36"
   },
   {
      "GoBack" : "1",
      "longitude" : "120.60697",
      "outDis" : "50",
      "Id" : "5532",
      "oid" : "5298",
      "districtId" : "1",
      "nameZh" : "五權西工業21路口",
      "pgp" : "0",
      "terminal" : "0",
      "latitude" : "24.16075",
      "inDis" : "50",
      "routeId" : "290繞",
      "seqNo" : "37"
   },
   {
      "GoBack" : "1",
      "longitude" : "120.60486",
      "outDis" : "50",
      "Id" : "5531",
      "oid" : "316277445",
      "districtId" : "1",
      "nameZh" : "五權西工業23路口",
      "pgp" : "0",
      "terminal" : "0",
      "latitude" : "24.16099",
      "inDis" : "50",
      "routeId" : "290繞",
      "seqNo" : "38"
   },
   {
      "GoBack" : "1",
      "longitude" : "120.6033",
      "outDis" : "50",
      "Id" : "3898",
      "oid" : "EC9E532A018040EBB17EFDD0F897F9D8",
      "districtId" : "1",
      "nameZh" : "聯強國際",
      "pgp" : "0",
      "terminal" : "0",
      "latitude" : "24.15967",
      "inDis" : "50",
      "routeId" : "290繞",
      "seqNo" : "39"
   },
   {
      "GoBack" : "1",
      "longitude" : "120.60185",
      "outDis" : "50",
      "Id" : "5266",
      "oid" : "310787840",
      "districtId" : "1",
      "nameZh" : "臺灣薄膜",
      "pgp" : "0",
      "terminal" : "0",
      "latitude" : "24.16001",
      "inDis" : "50",
      "routeId" : "290繞",
      "seqNo" : "40"
   },
   {
      "GoBack" : "1",
      "longitude" : "120.59862",
      "outDis" : "50",
      "Id" : "0947",
      "oid" : "6676",
      "districtId" : "1",
      "nameZh" : "環隆科技",
      "pgp" : "0",
      "terminal" : "0",
      "latitude" : "24.16293",
      "inDis" : "50",
      "routeId" : "290繞",
      "seqNo" : "41"
   },
   {
      "GoBack" : "1",
      "longitude" : "120.58734",
      "outDis" : "50",
      "Id" : "3386",
      "oid" : "6425",
      "districtId" : "1",
      "nameZh" : "新圳",
      "pgp" : "0",
      "terminal" : "0",
      "latitude" : "24.16689",
      "inDis" : "50",
      "routeId" : "290繞",
      "seqNo" : "42"
   },
   {
      "GoBack" : "1",
      "longitude" : "120.57846",
      "outDis" : "50",
      "Id" : "5294",
      "oid" : "311033701",
      "districtId" : "1",
      "nameZh" : "中蔗遊園路口",
      "pgp" : "0",
      "terminal" : "0",
      "latitude" : "24.16907",
      "inDis" : "50",
      "routeId" : "290繞",
      "seqNo" : "43"
   },
   {
      "GoBack" : "1",
      "longitude" : "120.57507",
      "outDis" : "50",
      "Id" : "3494",
      "oid" : "6490",
      "districtId" : "1",
      "nameZh" : "瑞峰國小",
      "pgp" : "0",
      "terminal" : "0",
      "latitude" : "24.16975",
      "inDis" : "50",
      "routeId" : "290繞",
      "seqNo" : "44"
   },
   {
      "GoBack" : "1",
      "longitude" : "120.57449",
      "outDis" : "50",
      "Id" : "3751",
      "oid" : "311051484",
      "districtId" : "1",
      "nameZh" : "蔗部",
      "pgp" : "0",
      "terminal" : "0",
      "latitude" : "24.17042",
      "inDis" : "50",
      "routeId" : "290繞",
      "seqNo" : "45"
   },
   {
      "GoBack" : "1",
      "longitude" : "120.57478",
      "outDis" : "50",
      "Id" : "2166",
      "oid" : "5750",
      "districtId" : "1",
      "nameZh" : "自強文化城",
      "pgp" : "0",
      "terminal" : "0",
      "latitude" : "24.17147",
      "inDis" : "50",
      "routeId" : "290繞",
      "seqNo" : "46"
   },
   {
      "GoBack" : "1",
      "longitude" : "120.57052",
      "outDis" : "50",
      "Id" : "5755",
      "oid" : "320297741",
      "districtId" : "1",
      "nameZh" : "南寮里",
      "pgp" : "0",
      "terminal" : "0",
      "latitude" : "24.17602",
      "inDis" : "50",
      "routeId" : "290繞",
      "seqNo" : "47"
   },
   {
      "GoBack" : "1",
      "longitude" : "120.57575",
      "outDis" : "50",
      "Id" : "2168",
      "oid" : "5751",
      "districtId" : "1",
      "nameZh" : "自強新城",
      "pgp" : "0",
      "terminal" : "0",
      "latitude" : "24.17567",
      "inDis" : "50",
      "routeId" : "290繞",
      "seqNo" : "48"
   },
   {
      "GoBack" : "1",
      "longitude" : "120.57569",
      "outDis" : "50",
      "Id" : "1856",
      "oid" : "5583",
      "districtId" : "1",
      "nameZh" : "四箴國中",
      "pgp" : "0",
      "terminal" : "0",
      "latitude" : "24.17886",
      "inDis" : "50",
      "routeId" : "290繞",
      "seqNo" : "49"
   },
   {
      "GoBack" : "1",
      "longitude" : "120.57569",
      "outDis" : "50",
      "Id" : "5293",
      "oid" : "311033700",
      "districtId" : "1",
      "nameZh" : "永順宮",
      "pgp" : "0",
      "terminal" : "0",
      "latitude" : "24.18249",
      "inDis" : "50",
      "routeId" : "290繞",
      "seqNo" : "50"
   },
   {
      "GoBack" : "1",
      "longitude" : "120.56903",
      "outDis" : "50",
      "Id" : "5223",
      "oid" : "310787752",
      "districtId" : "1",
      "nameZh" : "中正新城",
      "pgp" : "0",
      "terminal" : "0",
      "latitude" : "24.19852",
      "inDis" : "50",
      "routeId" : "290繞",
      "seqNo" : "52"
   },
   {
      "GoBack" : "1",
      "longitude" : "120.56834",
      "outDis" : "50",
      "Id" : "3198",
      "oid" : "6320",
      "districtId" : "1",
      "nameZh" : "鹿港寮",
      "pgp" : "0",
      "terminal" : "0",
      "latitude" : "24.20115",
      "inDis" : "50",
      "routeId" : "290繞",
      "seqNo" : "53"
   },
   {
      "GoBack" : "1",
      "longitude" : "120.56741",
      "outDis" : "50",
      "Id" : "1090",
      "oid" : "5086",
      "districtId" : "1",
      "nameZh" : "三鹿里",
      "pgp" : "0",
      "terminal" : "0",
      "latitude" : "24.20448",
      "inDis" : "50",
      "routeId" : "290繞",
      "seqNo" : "54"
   },
   {
      "GoBack" : "1",
      "longitude" : "120.56851",
      "outDis" : "50",
      "Id" : "5248",
      "oid" : "310787804",
      "districtId" : "1",
      "nameZh" : "屏西保順路口",
      "pgp" : "0",
      "terminal" : "0",
      "latitude" : "24.2085",
      "inDis" : "50",
      "routeId" : "290繞",
      "seqNo" : "55"
   },
   {
      "GoBack" : "1",
      "longitude" : "120.5696",
      "outDis" : "50",
      "Id" : "2756",
      "oid" : "6090",
      "districtId" : "1",
      "nameZh" : "埔仔",
      "pgp" : "0",
      "terminal" : "0",
      "latitude" : "24.21047",
      "inDis" : "50",
      "routeId" : "290繞",
      "seqNo" : "56"
   },
   {
      "GoBack" : "1",
      "longitude" : "120.57032",
      "outDis" : "50",
      "Id" : "1782",
      "oid" : "5524",
      "districtId" : "1",
      "nameZh" : "北埔仔",
      "pgp" : "0",
      "terminal" : "0",
      "latitude" : "24.21241",
      "inDis" : "50",
      "routeId" : "290繞",
      "seqNo" : "57"
   },
   {
      "GoBack" : "1",
      "longitude" : "120.57057",
      "outDis" : "50",
      "Id" : "2361",
      "oid" : "310808431",
      "districtId" : "1",
      "nameZh" : "明秀",
      "pgp" : "0",
      "terminal" : "0",
      "latitude" : "24.21764",
      "inDis" : "50",
      "routeId" : "290繞",
      "seqNo" : "58"
   },
   {
      "GoBack" : "1",
      "longitude" : "120.56962",
      "outDis" : "50",
      "Id" : "3529",
      "oid" : "310808432",
      "districtId" : "1",
      "nameZh" : "鎮南平等路口",
      "pgp" : "0",
      "terminal" : "0",
      "latitude" : "24.2205",
      "inDis" : "50",
      "routeId" : "290繞",
      "seqNo" : "59"
   },
   {
      "GoBack" : "1",
      "longitude" : "120.56915",
      "outDis" : "50",
      "Id" : "3664",
      "oid" : "311051483",
      "districtId" : "1",
      "nameZh" : "福興",
      "pgp" : "0",
      "terminal" : "0",
      "latitude" : "24.22193",
      "inDis" : "50",
      "routeId" : "290繞",
      "seqNo" : "60"
   },
   {
      "GoBack" : "1",
      "longitude" : "120.56875",
      "outDis" : "50",
      "Id" : "1796",
      "oid" : "5533",
      "districtId" : "1",
      "nameZh" : "北勢頭",
      "pgp" : "0",
      "terminal" : "0",
      "latitude" : "24.22442",
      "inDis" : "50",
      "routeId" : "290繞",
      "seqNo" : "61"
   },
   {
      "GoBack" : "1",
      "longitude" : "120.56812",
      "outDis" : "50",
      "Id" : "5681",
      "oid" : "319622692",
      "districtId" : "1",
      "nameZh" : "鎮南福至路口",
      "pgp" : "0",
      "terminal" : "0",
      "latitude" : "24.22611",
      "inDis" : "50",
      "routeId" : "290繞",
      "seqNo" : "62"
   },
   {
      "GoBack" : "1",
      "longitude" : "120.56715",
      "outDis" : "50",
      "Id" : "2362",
      "oid" : "5871",
      "districtId" : "1",
      "nameZh" : "明泰社區",
      "pgp" : "0",
      "terminal" : "0",
      "latitude" : "24.22861",
      "inDis" : "50",
      "routeId" : "290繞",
      "seqNo" : "63"
   },
   {
      "GoBack" : "1",
      "longitude" : "120.56548",
      "outDis" : "50",
      "Id" : "4817",
      "oid" : "312512873",
      "districtId" : "1",
      "nameZh" : "沙鹿區公所",
      "pgp" : "0",
      "terminal" : "0",
      "latitude" : "24.23245",
      "inDis" : "50",
      "routeId" : "290繞",
      "seqNo" : "64"
   },
   {
      "GoBack" : "1",
      "longitude" : "120.56313",
      "outDis" : "50",
      "Id" : "5292",
      "oid" : "311033699",
      "districtId" : "1",
      "nameZh" : "鎮南光華路口",
      "pgp" : "0",
      "terminal" : "0",
      "latitude" : "24.23334",
      "inDis" : "50",
      "routeId" : "290繞",
      "seqNo" : "65"
   },
   {
      "GoBack" : "1",
      "longitude" : "120.55882",
      "outDis" : "50",
      "Id" : "4816",
      "oid" : "313222697",
      "districtId" : "1",
      "nameZh" : "沙鹿光田醫院",
      "pgp" : "0",
      "terminal" : "0",
      "latitude" : "24.23492",
      "inDis" : "50",
      "routeId" : "290繞",
      "seqNo" : "66"
   },
   {
      "GoBack" : "1",
      "longitude" : "120.55931",
      "outDis" : "50",
      "Id" : "4815",
      "oid" : "15238",
      "districtId" : "1",
      "nameZh" : "沙鹿火車站",
      "pgp" : "0",
      "terminal" : "0",
      "latitude" : "24.23602",
      "inDis" : "50",
      "routeId" : "290繞",
      "seqNo" : "67"
   },
   {
      "GoBack" : "1",
      "longitude" : "120.55967",
      "outDis" : "50",
      "Id" : "4681",
      "oid" : "14045",
      "districtId" : "1",
      "nameZh" : "沙鹿市場",
      "pgp" : "0",
      "terminal" : "0",
      "latitude" : "24.23737",
      "inDis" : "50",
      "routeId" : "290繞",
      "seqNo" : "68"
   },
   {
      "GoBack" : "1",
      "longitude" : "120.56",
      "outDis" : "50",
      "Id" : "5135",
      "oid" : "14046",
      "districtId" : "1",
      "nameZh" : "第一銀行(沙鹿分行)",
      "pgp" : "0",
      "terminal" : "0",
      "latitude" : "24.23932",
      "inDis" : "50",
      "routeId" : "290繞",
      "seqNo" : "69"
   },
   {
      "GoBack" : "1",
      "longitude" : "120.55659",
      "outDis" : "50",
      "Id" : "1482",
      "oid" : "17389",
      "districtId" : "1",
      "nameZh" : "中港國小",
      "pgp" : "0",
      "terminal" : "0",
      "latitude" : "24.24273",
      "inDis" : "50",
      "routeId" : "290繞",
      "seqNo" : "70"
   },
   {
      "GoBack" : "1",
      "longitude" : "120.54911",
      "outDis" : "50",
      "Id" : "1088",
      "oid" : "17390",
      "districtId" : "1",
      "nameZh" : "三條圳",
      "pgp" : "0",
      "terminal" : "0",
      "latitude" : "24.24548",
      "inDis" : "50",
      "routeId" : "290繞",
      "seqNo" : "71"
   },
   {
      "GoBack" : "1",
      "longitude" : "120.54653",
      "outDis" : "50",
      "Id" : "4822",
      "oid" : "17391",
      "districtId" : "1",
      "nameZh" : "東大庄",
      "pgp" : "0",
      "terminal" : "0",
      "latitude" : "24.24643",
      "inDis" : "50",
      "routeId" : "290繞",
      "seqNo" : "72"
   },
   {
      "GoBack" : "1",
      "longitude" : "120.54472",
      "outDis" : "50",
      "Id" : "4007",
      "oid" : "17392",
      "districtId" : "1",
      "nameZh" : "體育館前",
      "pgp" : "0",
      "terminal" : "0",
      "latitude" : "24.2471",
      "inDis" : "50",
      "routeId" : "290繞",
      "seqNo" : "73"
   },
   {
      "GoBack" : "1",
      "longitude" : "120.54319",
      "outDis" : "50",
      "Id" : "4041",
      "oid" : "17393",
      "districtId" : "1",
      "nameZh" : "童綜合醫院(梧棲院區)",
      "pgp" : "0",
      "terminal" : "0",
      "latitude" : "24.24757",
      "inDis" : "50",
      "routeId" : "290繞",
      "seqNo" : "74"
   },
   {
      "GoBack" : "2",
      "longitude" : "120.54319",
      "outDis" : "50",
      "Id" : "4041",
      "oid" : "17446",
      "districtId" : "1",
      "nameZh" : "童綜合醫院(梧棲院區)",
      "pgp" : "0",
      "terminal" : "0",
      "latitude" : "24.24757",
      "inDis" : "50",
      "routeId" : "290繞",
      "seqNo" : "1"
   },
   {
      "GoBack" : "2",
      "longitude" : "120.54472",
      "outDis" : "50",
      "Id" : "4007",
      "oid" : "17447",
      "districtId" : "1",
      "nameZh" : "體育館前",
      "pgp" : "0",
      "terminal" : "0",
      "latitude" : "24.2471",
      "inDis" : "50",
      "routeId" : "290繞",
      "seqNo" : "2"
   },
   {
      "GoBack" : "2",
      "longitude" : "120.54653",
      "outDis" : "50",
      "Id" : "4822",
      "oid" : "17448",
      "districtId" : "1",
      "nameZh" : "東大庄",
      "pgp" : "0",
      "terminal" : "0",
      "latitude" : "24.24643",
      "inDis" : "50",
      "routeId" : "290繞",
      "seqNo" : "3"
   },
   {
      "GoBack" : "2",
      "longitude" : "120.54911",
      "outDis" : "50",
      "Id" : "1088",
      "oid" : "17449",
      "districtId" : "1",
      "nameZh" : "三條圳",
      "pgp" : "0",
      "terminal" : "0",
      "latitude" : "24.24548",
      "inDis" : "50",
      "routeId" : "290繞",
      "seqNo" : "4"
   },
   {
      "GoBack" : "2",
      "longitude" : "120.55659",
      "outDis" : "50",
      "Id" : "1482",
      "oid" : "17450",
      "districtId" : "1",
      "nameZh" : "中港國小",
      "pgp" : "0",
      "terminal" : "0",
      "latitude" : "24.24273",
      "inDis" : "50",
      "routeId" : "290繞",
      "seqNo" : "5"
   },
   {
      "GoBack" : "2",
      "longitude" : "120.56",
      "outDis" : "50",
      "Id" : "5135",
      "oid" : "14046",
      "districtId" : "1",
      "nameZh" : "第一銀行(沙鹿分行)",
      "pgp" : "0",
      "terminal" : "0",
      "latitude" : "24.23932",
      "inDis" : "50",
      "routeId" : "290繞",
      "seqNo" : "6"
   },
   {
      "GoBack" : "2",
      "longitude" : "120.55967",
      "outDis" : "50",
      "Id" : "4681",
      "oid" : "14045",
      "districtId" : "1",
      "nameZh" : "沙鹿市場",
      "pgp" : "0",
      "terminal" : "0",
      "latitude" : "24.23737",
      "inDis" : "50",
      "routeId" : "290繞",
      "seqNo" : "7"
   },
   {
      "GoBack" : "2",
      "longitude" : "120.55931",
      "outDis" : "50",
      "Id" : "4815",
      "oid" : "15238",
      "districtId" : "1",
      "nameZh" : "沙鹿火車站",
      "pgp" : "0",
      "terminal" : "0",
      "latitude" : "24.23602",
      "inDis" : "50",
      "routeId" : "290繞",
      "seqNo" : "8"
   },
   {
      "GoBack" : "2",
      "longitude" : "120.56313",
      "outDis" : "50",
      "Id" : "5292",
      "oid" : "311033699",
      "districtId" : "1",
      "nameZh" : "鎮南光華路口",
      "pgp" : "0",
      "terminal" : "0",
      "latitude" : "24.23334",
      "inDis" : "50",
      "routeId" : "290繞",
      "seqNo" : "9"
   },
   {
      "GoBack" : "2",
      "longitude" : "120.56548",
      "outDis" : "50",
      "Id" : "4817",
      "oid" : "312512873",
      "districtId" : "1",
      "nameZh" : "沙鹿區公所",
      "pgp" : "0",
      "terminal" : "0",
      "latitude" : "24.23245",
      "inDis" : "50",
      "routeId" : "290繞",
      "seqNo" : "10"
   },
   {
      "GoBack" : "2",
      "longitude" : "120.56715",
      "outDis" : "50",
      "Id" : "2362",
      "oid" : "5871",
      "districtId" : "1",
      "nameZh" : "明泰社區",
      "pgp" : "0",
      "terminal" : "0",
      "latitude" : "24.22861",
      "inDis" : "50",
      "routeId" : "290繞",
      "seqNo" : "11"
   },
   {
      "GoBack" : "2",
      "longitude" : "120.56806",
      "outDis" : "50",
      "Id" : "5681",
      "oid" : "319622693",
      "districtId" : "1",
      "nameZh" : "鎮南福至路口",
      "pgp" : "0",
      "terminal" : "0",
      "latitude" : "24.22612",
      "inDis" : "50",
      "routeId" : "290繞",
      "seqNo" : "12"
   },
   {
      "GoBack" : "2",
      "longitude" : "120.56875",
      "outDis" : "50",
      "Id" : "1796",
      "oid" : "5533",
      "districtId" : "1",
      "nameZh" : "北勢頭",
      "pgp" : "0",
      "terminal" : "0",
      "latitude" : "24.22442",
      "inDis" : "50",
      "routeId" : "290繞",
      "seqNo" : "13"
   },
   {
      "GoBack" : "2",
      "longitude" : "120.56915",
      "outDis" : "50",
      "Id" : "3664",
      "oid" : "311051483",
      "districtId" : "1",
      "nameZh" : "福興",
      "pgp" : "0",
      "terminal" : "0",
      "latitude" : "24.22193",
      "inDis" : "50",
      "routeId" : "290繞",
      "seqNo" : "14"
   },
   {
      "GoBack" : "2",
      "longitude" : "120.56962",
      "outDis" : "50",
      "Id" : "3529",
      "oid" : "310808432",
      "districtId" : "1",
      "nameZh" : "鎮南平等路口",
      "pgp" : "0",
      "terminal" : "0",
      "latitude" : "24.2205",
      "inDis" : "50",
      "routeId" : "290繞",
      "seqNo" : "15"
   },
   {
      "GoBack" : "2",
      "longitude" : "120.57057",
      "outDis" : "50",
      "Id" : "2361",
      "oid" : "310808431",
      "districtId" : "1",
      "nameZh" : "明秀",
      "pgp" : "0",
      "terminal" : "0",
      "latitude" : "24.21764",
      "inDis" : "50",
      "routeId" : "290繞",
      "seqNo" : "16"
   },
   {
      "GoBack" : "2",
      "longitude" : "120.57032",
      "outDis" : "50",
      "Id" : "1782",
      "oid" : "5524",
      "districtId" : "1",
      "nameZh" : "北埔仔",
      "pgp" : "0",
      "terminal" : "0",
      "latitude" : "24.21241",
      "inDis" : "50",
      "routeId" : "290繞",
      "seqNo" : "17"
   },
   {
      "GoBack" : "2",
      "longitude" : "120.5696",
      "outDis" : "50",
      "Id" : "2756",
      "oid" : "6090",
      "districtId" : "1",
      "nameZh" : "埔仔",
      "pgp" : "0",
      "terminal" : "0",
      "latitude" : "24.21047",
      "inDis" : "50",
      "routeId" : "290繞",
      "seqNo" : "18"
   },
   {
      "GoBack" : "2",
      "longitude" : "120.56851",
      "outDis" : "50",
      "Id" : "5248",
      "oid" : "310787805",
      "districtId" : "1",
      "nameZh" : "屏西保順路口",
      "pgp" : "0",
      "terminal" : "0",
      "latitude" : "24.2085",
      "inDis" : "50",
      "routeId" : "290繞",
      "seqNo" : "19"
   },
   {
      "GoBack" : "2",
      "longitude" : "120.56741",
      "outDis" : "50",
      "Id" : "1090",
      "oid" : "5086",
      "districtId" : "1",
      "nameZh" : "三鹿里",
      "pgp" : "0",
      "terminal" : "0",
      "latitude" : "24.20448",
      "inDis" : "50",
      "routeId" : "290繞",
      "seqNo" : "20"
   },
   {
      "GoBack" : "2",
      "longitude" : "120.56834",
      "outDis" : "50",
      "Id" : "3198",
      "oid" : "6320",
      "districtId" : "1",
      "nameZh" : "鹿港寮",
      "pgp" : "0",
      "terminal" : "0",
      "latitude" : "24.20115",
      "inDis" : "50",
      "routeId" : "290繞",
      "seqNo" : "21"
   },
   {
      "GoBack" : "2",
      "longitude" : "120.56903",
      "outDis" : "50",
      "Id" : "5223",
      "oid" : "310787753",
      "districtId" : "1",
      "nameZh" : "中正新城",
      "pgp" : "0",
      "terminal" : "0",
      "latitude" : "24.19852",
      "inDis" : "50",
      "routeId" : "290繞",
      "seqNo" : "22"
   },
   {
      "GoBack" : "2",
      "longitude" : "120.57569",
      "outDis" : "50",
      "Id" : "5293",
      "oid" : "311033700",
      "districtId" : "1",
      "nameZh" : "永順宮",
      "pgp" : "0",
      "terminal" : "0",
      "latitude" : "24.18249",
      "inDis" : "50",
      "routeId" : "290繞",
      "seqNo" : "24"
   },
   {
      "GoBack" : "2",
      "longitude" : "120.57569",
      "outDis" : "50",
      "Id" : "1856",
      "oid" : "5583",
      "districtId" : "1",
      "nameZh" : "四箴國中",
      "pgp" : "0",
      "terminal" : "0",
      "latitude" : "24.17886",
      "inDis" : "50",
      "routeId" : "290繞",
      "seqNo" : "25"
   },
   {
      "GoBack" : "2",
      "longitude" : "120.57575",
      "outDis" : "50",
      "Id" : "2168",
      "oid" : "5751",
      "districtId" : "1",
      "nameZh" : "自強新城",
      "pgp" : "0",
      "terminal" : "0",
      "latitude" : "24.17567",
      "inDis" : "50",
      "routeId" : "290繞",
      "seqNo" : "26"
   },
   {
      "GoBack" : "2",
      "longitude" : "120.57036",
      "outDis" : "50",
      "Id" : "5755",
      "oid" : "320297742",
      "districtId" : "1",
      "nameZh" : "南寮里",
      "pgp" : "0",
      "terminal" : "0",
      "latitude" : "24.17589",
      "inDis" : "50",
      "routeId" : "290繞",
      "seqNo" : "27"
   },
   {
      "GoBack" : "2",
      "longitude" : "120.57478",
      "outDis" : "50",
      "Id" : "2166",
      "oid" : "5750",
      "districtId" : "1",
      "nameZh" : "自強文化城",
      "pgp" : "0",
      "terminal" : "0",
      "latitude" : "24.17147",
      "inDis" : "50",
      "routeId" : "290繞",
      "seqNo" : "28"
   },
   {
      "GoBack" : "2",
      "longitude" : "120.57449",
      "outDis" : "50",
      "Id" : "3751",
      "oid" : "311051484",
      "districtId" : "1",
      "nameZh" : "蔗部",
      "pgp" : "0",
      "terminal" : "0",
      "latitude" : "24.17042",
      "inDis" : "50",
      "routeId" : "290繞",
      "seqNo" : "29"
   },
   {
      "GoBack" : "2",
      "longitude" : "120.57507",
      "outDis" : "50",
      "Id" : "3494",
      "oid" : "6490",
      "districtId" : "1",
      "nameZh" : "瑞峰國小",
      "pgp" : "0",
      "terminal" : "0",
      "latitude" : "24.16975",
      "inDis" : "50",
      "routeId" : "290繞",
      "seqNo" : "30"
   },
   {
      "GoBack" : "2",
      "longitude" : "120.57846",
      "outDis" : "50",
      "Id" : "5294",
      "oid" : "311033701",
      "districtId" : "1",
      "nameZh" : "中蔗遊園路口",
      "pgp" : "0",
      "terminal" : "0",
      "latitude" : "24.16907",
      "inDis" : "50",
      "routeId" : "290繞",
      "seqNo" : "31"
   },
   {
      "GoBack" : "2",
      "longitude" : "120.58734",
      "outDis" : "50",
      "Id" : "3386",
      "oid" : "6425",
      "districtId" : "1",
      "nameZh" : "新圳",
      "pgp" : "0",
      "terminal" : "0",
      "latitude" : "24.16689",
      "inDis" : "50",
      "routeId" : "290繞",
      "seqNo" : "32"
   },
   {
      "GoBack" : "2",
      "longitude" : "120.59862",
      "outDis" : "50",
      "Id" : "0947",
      "oid" : "6676",
      "districtId" : "1",
      "nameZh" : "環隆科技",
      "pgp" : "0",
      "terminal" : "0",
      "latitude" : "24.16293",
      "inDis" : "50",
      "routeId" : "290繞",
      "seqNo" : "33"
   },
   {
      "GoBack" : "2",
      "longitude" : "120.60185",
      "outDis" : "50",
      "Id" : "5266",
      "oid" : "310787841",
      "districtId" : "1",
      "nameZh" : "臺灣薄膜",
      "pgp" : "0",
      "terminal" : "0",
      "latitude" : "24.16001",
      "inDis" : "50",
      "routeId" : "290繞",
      "seqNo" : "34"
   },
   {
      "GoBack" : "2",
      "longitude" : "120.6033",
      "outDis" : "50",
      "Id" : "3898",
      "oid" : "EC9E532A018040EBB17EFDD0F897F9D8",
      "districtId" : "1",
      "nameZh" : "聯強國際",
      "pgp" : "0",
      "terminal" : "0",
      "latitude" : "24.15967",
      "inDis" : "50",
      "routeId" : "290繞",
      "seqNo" : "35"
   },
   {
      "GoBack" : "2",
      "longitude" : "120.60491",
      "outDis" : "50",
      "Id" : "5531",
      "oid" : "316277446",
      "districtId" : "1",
      "nameZh" : "五權西工業23路口",
      "pgp" : "0",
      "terminal" : "0",
      "latitude" : "24.16088",
      "inDis" : "50",
      "routeId" : "290繞",
      "seqNo" : "36"
   },
   {
      "GoBack" : "2",
      "longitude" : "120.60697",
      "outDis" : "50",
      "Id" : "5532",
      "oid" : "5298",
      "districtId" : "1",
      "nameZh" : "五權西工業21路口",
      "pgp" : "0",
      "terminal" : "0",
      "latitude" : "24.16075",
      "inDis" : "50",
      "routeId" : "290繞",
      "seqNo" : "37"
   },
   {
      "GoBack" : "2",
      "longitude" : "120.60874",
      "outDis" : "50",
      "Id" : "5240",
      "oid" : "310787789",
      "districtId" : "1",
      "nameZh" : "辰皓電子",
      "pgp" : "0",
      "terminal" : "0",
      "latitude" : "24.15669",
      "inDis" : "50",
      "routeId" : "290繞",
      "seqNo" : "38"
   },
   {
      "GoBack" : "2",
      "longitude" : "120.61243",
      "outDis" : "50",
      "Id" : "0944",
      "oid" : "4A3DB813E02443729E8181710F1E73CA",
      "districtId" : "1",
      "nameZh" : "五權西嶺東路口",
      "pgp" : "0",
      "terminal" : "0",
      "latitude" : "24.15423",
      "inDis" : "50",
      "routeId" : "290繞",
      "seqNo" : "39"
   },
   {
      "GoBack" : "2",
      "longitude" : "120.61641",
      "outDis" : "50",
      "Id" : "5488",
      "oid" : "B749E9C5251843EF9B30E5D3BA0A4B92",
      "districtId" : "1",
      "nameZh" : "忠勇寶山東二街口",
      "pgp" : "0",
      "terminal" : "0",
      "latitude" : "24.15269",
      "inDis" : "50",
      "routeId" : "290繞",
      "seqNo" : "40"
   },
   {
      "GoBack" : "2",
      "longitude" : "120.6157",
      "outDis" : "50",
      "Id" : "5489",
      "oid" : "12627",
      "districtId" : "1",
      "nameZh" : "寶山里土地公",
      "pgp" : "0",
      "terminal" : "0",
      "latitude" : "24.15073",
      "inDis" : "50",
      "routeId" : "290繞",
      "seqNo" : "41"
   },
   {
      "GoBack" : "2",
      "longitude" : "120.6156",
      "outDis" : "50",
      "Id" : "0165",
      "oid" : "7CFC43E343584124A6201DA976758821",
      "districtId" : "1",
      "nameZh" : "文山國小(忠勇路)",
      "pgp" : "0",
      "terminal" : "0",
      "latitude" : "24.14938",
      "inDis" : "50",
      "routeId" : "290繞",
      "seqNo" : "42"
   },
   {
      "GoBack" : "2",
      "longitude" : "120.61504",
      "outDis" : "50",
      "Id" : "0160",
      "oid" : "5450",
      "districtId" : "1",
      "nameZh" : "文山里",
      "pgp" : "0",
      "terminal" : "0",
      "latitude" : "24.14607",
      "inDis" : "50",
      "routeId" : "290繞",
      "seqNo" : "43"
   },
   {
      "GoBack" : "2",
      "longitude" : "120.61473",
      "outDis" : "50",
      "Id" : "0159",
      "oid" : "8B7E1216EDAB4225A53875CE28AD9D10",
      "districtId" : "1",
      "nameZh" : "一善堂",
      "pgp" : "0",
      "terminal" : "0",
      "latitude" : "24.14489",
      "inDis" : "50",
      "routeId" : "290繞",
      "seqNo" : "44"
   },
   {
      "GoBack" : "2",
      "longitude" : "120.61372",
      "outDis" : "50",
      "Id" : "0158",
      "oid" : "10232",
      "districtId" : "1",
      "nameZh" : "下文山",
      "pgp" : "0",
      "terminal" : "0",
      "latitude" : "24.14275",
      "inDis" : "50",
      "routeId" : "290繞",
      "seqNo" : "45"
   },
   {
      "GoBack" : "2",
      "longitude" : "120.61312",
      "outDis" : "50",
      "Id" : "0157",
      "oid" : "21F3F235EB7C40699FFA685863464C89",
      "districtId" : "1",
      "nameZh" : "七星橋",
      "pgp" : "0",
      "terminal" : "0",
      "latitude" : "24.14046",
      "inDis" : "50",
      "routeId" : "290繞",
      "seqNo" : "46"
   },
   {
      "GoBack" : "2",
      "longitude" : "120.61326",
      "outDis" : "50",
      "Id" : "0065",
      "oid" : "313736924",
      "districtId" : "1",
      "nameZh" : "春社里(永春路)",
      "pgp" : "0",
      "terminal" : "0",
      "latitude" : "24.13884",
      "inDis" : "50",
      "routeId" : "290繞",
      "seqNo" : "47"
   },
   {
      "GoBack" : "2",
      "longitude" : "120.62196",
      "outDis" : "50",
      "Id" : "3710",
      "oid" : "6590",
      "districtId" : "1",
      "nameZh" : "劉厝莊",
      "pgp" : "0",
      "terminal" : "0",
      "latitude" : "24.14034",
      "inDis" : "50",
      "routeId" : "290繞",
      "seqNo" : "48"
   },
   {
      "GoBack" : "2",
      "longitude" : "120.62692",
      "outDis" : "50",
      "Id" : "0338",
      "oid" : "5151",
      "districtId" : "1",
      "nameZh" : "下新生里",
      "pgp" : "0",
      "terminal" : "0",
      "latitude" : "24.14052",
      "inDis" : "50",
      "routeId" : "290繞",
      "seqNo" : "49"
   },
   {
      "GoBack" : "2",
      "longitude" : "120.63035",
      "outDis" : "50",
      "Id" : "0565",
      "oid" : "0CC1305A65484EE79F1E8D5EF9F5E173",
      "districtId" : "1",
      "nameZh" : "永定里二站",
      "pgp" : "0",
      "terminal" : "0",
      "latitude" : "24.14103",
      "inDis" : "50",
      "routeId" : "290繞",
      "seqNo" : "50"
   },
   {
      "GoBack" : "2",
      "longitude" : "120.63229",
      "outDis" : "50",
      "Id" : "0009",
      "oid" : "5617",
      "districtId" : "1",
      "nameZh" : "永定里(永春路)",
      "pgp" : "0",
      "terminal" : "0",
      "latitude" : "24.14132",
      "inDis" : "50",
      "routeId" : "290繞",
      "seqNo" : "51"
   },
   {
      "GoBack" : "2",
      "longitude" : "120.63516",
      "outDis" : "50",
      "Id" : "0616",
      "oid" : "5763",
      "districtId" : "1",
      "nameZh" : "西南屯",
      "pgp" : "0",
      "terminal" : "0",
      "latitude" : "24.14139",
      "inDis" : "50",
      "routeId" : "290繞",
      "seqNo" : "52"
   },
   {
      "GoBack" : "2",
      "longitude" : "120.63875",
      "outDis" : "50",
      "Id" : "0693",
      "oid" : "5980",
      "districtId" : "1",
      "nameZh" : "南屯市場",
      "pgp" : "0",
      "terminal" : "0",
      "latitude" : "24.13951",
      "inDis" : "50",
      "routeId" : "290繞",
      "seqNo" : "53"
   },
   {
      "GoBack" : "2",
      "longitude" : "120.64179",
      "outDis" : "50",
      "Id" : "4547",
      "oid" : "48D1A5D2039F4202843CD75BF27EC3BD",
      "districtId" : "1",
      "nameZh" : "南屯(南屯路)",
      "pgp" : "0",
      "terminal" : "0",
      "latitude" : "24.13851",
      "inDis" : "50",
      "routeId" : "290繞",
      "seqNo" : "54"
   },
   {
      "GoBack" : "2",
      "longitude" : "120.64288",
      "outDis" : "50",
      "Id" : "2561",
      "oid" : "5982",
      "districtId" : "1",
      "nameZh" : "南屯郵局",
      "pgp" : "0",
      "terminal" : "0",
      "latitude" : "24.13846",
      "inDis" : "50",
      "routeId" : "290繞",
      "seqNo" : "55"
   },
   {
      "GoBack" : "2",
      "longitude" : "120.64437",
      "outDis" : "50",
      "Id" : "1137",
      "oid" : "5117",
      "districtId" : "1",
      "nameZh" : "下田心",
      "pgp" : "0",
      "terminal" : "0",
      "latitude" : "24.13921",
      "inDis" : "50",
      "routeId" : "290繞",
      "seqNo" : "56"
   },
   {
      "GoBack" : "2",
      "longitude" : "120.64502",
      "outDis" : "50",
      "Id" : "1981",
      "oid" : "5636",
      "districtId" : "1",
      "nameZh" : "田心",
      "pgp" : "0",
      "terminal" : "0",
      "latitude" : "24.14046",
      "inDis" : "50",
      "routeId" : "290繞",
      "seqNo" : "57"
   },
   {
      "GoBack" : "2",
      "longitude" : "120.6466",
      "outDis" : "50",
      "Id" : "5477",
      "oid" : "313679746",
      "districtId" : "1",
      "nameZh" : "文心大墩七街口",
      "pgp" : "0",
      "terminal" : "0",
      "latitude" : "24.14419",
      "inDis" : "50",
      "routeId" : "290繞",
      "seqNo" : "58"
   },
   {
      "GoBack" : "2",
      "longitude" : "120.64957",
      "outDis" : "50",
      "Id" : "5664",
      "oid" : "317813144",
      "districtId" : "1",
      "nameZh" : "向上南大墩路口",
      "pgp" : "0",
      "terminal" : "0",
      "latitude" : "24.14494",
      "inDis" : "50",
      "routeId" : "290繞",
      "seqNo" : "59"
   },
   {
      "GoBack" : "2",
      "longitude" : "120.65158",
      "outDis" : "50",
      "Id" : "1187",
      "oid" : "5143",
      "districtId" : "1",
      "nameZh" : "下麻園",
      "pgp" : "0",
      "terminal" : "0",
      "latitude" : "24.14493",
      "inDis" : "50",
      "routeId" : "290繞",
      "seqNo" : "60"
   },
   {
      "GoBack" : "2",
      "longitude" : "120.65548",
      "outDis" : "50",
      "Id" : "4595",
      "oid" : "14549E5EE8CC4D7C8A2CDB1721CCEC52",
      "districtId" : "1",
      "nameZh" : "向上精誠路口",
      "pgp" : "0",
      "terminal" : "0",
      "latitude" : "24.14674",
      "inDis" : "50",
      "routeId" : "290繞",
      "seqNo" : "61"
   },
   {
      "GoBack" : "2",
      "longitude" : "120.6581",
      "outDis" : "50",
      "Id" : "4540",
      "oid" : "F9348C0A71BF402FA84F4EE1933538B4",
      "districtId" : "1",
      "nameZh" : "向上忠明南路口",
      "pgp" : "0",
      "terminal" : "0",
      "latitude" : "24.14669",
      "inDis" : "50",
      "routeId" : "290繞",
      "seqNo" : "62"
   },
   {
      "GoBack" : "2",
      "longitude" : "120.65967",
      "outDis" : "50",
      "Id" : "0171",
      "oid" : "6308",
      "districtId" : "1",
      "nameZh" : "頂麻園",
      "pgp" : "0",
      "terminal" : "0",
      "latitude" : "24.14675",
      "inDis" : "50",
      "routeId" : "290繞",
      "seqNo" : "63"
   },
   {
      "GoBack" : "2",
      "longitude" : "120.66186",
      "outDis" : "50",
      "Id" : "0438",
      "oid" : "531EAC6366E94FC2B43D7FEF6CE15B35",
      "districtId" : "1",
      "nameZh" : "互助新村",
      "pgp" : "0",
      "terminal" : "0",
      "latitude" : "24.14668",
      "inDis" : "50",
      "routeId" : "290繞",
      "seqNo" : "64"
   },
   {
      "GoBack" : "2",
      "longitude" : "120.66339",
      "outDis" : "50",
      "Id" : "0281",
      "oid" : "320650276",
      "districtId" : "1",
      "nameZh" : "市農會",
      "pgp" : "0",
      "terminal" : "0",
      "latitude" : "24.14672",
      "inDis" : "50",
      "routeId" : "290繞",
      "seqNo" : "65"
   },
   {
      "GoBack" : "2",
      "longitude" : "120.66607",
      "outDis" : "50",
      "Id" : "0725",
      "oid" : "10248",
      "districtId" : "1",
      "nameZh" : "向上英才路口",
      "pgp" : "0",
      "terminal" : "0",
      "latitude" : "24.14675",
      "inDis" : "50",
      "routeId" : "290繞",
      "seqNo" : "66"
   },
   {
      "GoBack" : "2",
      "longitude" : "120.66917",
      "outDis" : "50",
      "Id" : "5235",
      "oid" : "310787777",
      "districtId" : "1",
      "nameZh" : "向上民權路口",
      "pgp" : "0",
      "terminal" : "0",
      "latitude" : "24.14663",
      "inDis" : "50",
      "routeId" : "290繞",
      "seqNo" : "67"
   },
   {
      "GoBack" : "2",
      "longitude" : "120.67192",
      "outDis" : "50",
      "Id" : "0513",
      "oid" : "487266B6A18D430DA1A4D30BD3B2744B",
      "districtId" : "1",
      "nameZh" : "臺中教育大學",
      "pgp" : "0",
      "terminal" : "0",
      "latitude" : "24.14474",
      "inDis" : "50",
      "routeId" : "290繞",
      "seqNo" : "68"
   },
   {
      "GoBack" : "2",
      "longitude" : "120.67464",
      "outDis" : "50",
      "Id" : "4623",
      "oid" : "772FFD21B46D4E16AAC6A8B3CCE38713",
      "districtId" : "1",
      "nameZh" : "民權中華路口",
      "pgp" : "0",
      "terminal" : "0",
      "latitude" : "24.14257",
      "inDis" : "50",
      "routeId" : "290繞",
      "seqNo" : "69"
   },
   {
      "GoBack" : "2",
      "longitude" : "120.6765",
      "outDis" : "50",
      "Id" : "0208",
      "oid" : "8157",
      "districtId" : "1",
      "nameZh" : "臺中醫院",
      "pgp" : "0",
      "terminal" : "0",
      "latitude" : "24.14097",
      "inDis" : "50",
      "routeId" : "290繞",
      "seqNo" : "70"
   },
   {
      "GoBack" : "2",
      "longitude" : "120.67848",
      "outDis" : "50",
      "Id" : "4416",
      "oid" : "6DA05825CE704FBB9B2BF69FECA70245",
      "districtId" : "1",
      "nameZh" : "臺中州廳",
      "pgp" : "0",
      "terminal" : "0",
      "latitude" : "24.1391",
      "inDis" : "50",
      "routeId" : "290繞",
      "seqNo" : "71"
   },
   {
      "GoBack" : "2",
      "longitude" : "120.6811",
      "outDis" : "50",
      "Id" : "4284",
      "oid" : "753223F679A2463AA37A1E3F09667AD5",
      "districtId" : "1",
      "nameZh" : "民權繼光街口",
      "pgp" : "0",
      "terminal" : "0",
      "latitude" : "24.13702",
      "inDis" : "50",
      "routeId" : "290繞",
      "seqNo" : "72"
   },
   {
      "GoBack" : "2",
      "longitude" : "120.68417",
      "outDis" : "50",
      "Id" : "1824",
      "oid" : "5546",
      "districtId" : "1",
      "nameZh" : "臺中火車站",
      "pgp" : "0",
      "terminal" : "0",
      "latitude" : "24.13678",
      "inDis" : "50",
      "routeId" : "290繞",
      "seqNo" : "73"
   }
]
