[
   {
      "GoBack" : "1",
      "longitude" : "120.68619",
      "outDis" : "50",
      "Id" : "0194",
      "oid" : "8965",
      "districtId" : "1",
      "nameZh" : "北屯區行政大樓",
      "pgp" : "0",
      "terminal" : "0",
      "latitude" : "24.18203",
      "inDis" : "50",
      "routeId" : "131",
      "seqNo" : "1"
   },
   {
      "GoBack" : "1",
      "longitude" : "120.68608",
      "outDis" : "50",
      "Id" : "5387",
      "oid" : "313288983",
      "districtId" : "1",
      "nameZh" : "崇德六路口",
      "pgp" : "0",
      "terminal" : "0",
      "latitude" : "24.18086",
      "inDis" : "50",
      "routeId" : "131",
      "seqNo" : "2"
   },
   {
      "GoBack" : "1",
      "longitude" : "120.68585",
      "outDis" : "50",
      "Id" : "0195",
      "oid" : "219A93B415B14EA180A8E1960FB310F7",
      "districtId" : "1",
      "nameZh" : "崇德五路口",
      "pgp" : "0",
      "terminal" : "0",
      "latitude" : "24.17873",
      "inDis" : "50",
      "routeId" : "131",
      "seqNo" : "3"
   },
   {
      "GoBack" : "1",
      "longitude" : "120.68586",
      "outDis" : "50",
      "Id" : "0196",
      "oid" : "A08B6B176CAC4C0B9A6EA64F1F98006A",
      "districtId" : "1",
      "nameZh" : "崇德一路口",
      "pgp" : "0",
      "terminal" : "0",
      "latitude" : "24.17674",
      "inDis" : "50",
      "routeId" : "131",
      "seqNo" : "4"
   },
   {
      "GoBack" : "1",
      "longitude" : "120.6856",
      "outDis" : "50",
      "Id" : "5131",
      "oid" : "306661878",
      "districtId" : "1",
      "nameZh" : "崇德國中(民俗公園)",
      "pgp" : "0",
      "terminal" : "0",
      "latitude" : "24.17523",
      "inDis" : "50",
      "routeId" : "131",
      "seqNo" : "5"
   },
   {
      "GoBack" : "1",
      "longitude" : "120.68548",
      "outDis" : "50",
      "Id" : "0199",
      "oid" : "7403",
      "districtId" : "1",
      "nameZh" : "崇德瀋陽路口",
      "pgp" : "0",
      "terminal" : "0",
      "latitude" : "24.17314",
      "inDis" : "50",
      "routeId" : "131",
      "seqNo" : "6"
   },
   {
      "GoBack" : "1",
      "longitude" : "120.68544",
      "outDis" : "50",
      "Id" : "4339",
      "oid" : "7325",
      "districtId" : "1",
      "nameZh" : "崇德文心路口",
      "pgp" : "0",
      "terminal" : "0",
      "latitude" : "24.17195",
      "inDis" : "50",
      "routeId" : "131",
      "seqNo" : "7"
   },
   {
      "GoBack" : "1",
      "longitude" : "120.68541",
      "outDis" : "50",
      "Id" : "1768",
      "oid" : "7344",
      "districtId" : "1",
      "nameZh" : "崇德北平路口",
      "pgp" : "0",
      "terminal" : "0",
      "latitude" : "24.1708",
      "inDis" : "50",
      "routeId" : "131",
      "seqNo" : "8"
   },
   {
      "GoBack" : "1",
      "longitude" : "120.68525",
      "outDis" : "50",
      "Id" : "3511",
      "oid" : "7538",
      "districtId" : "1",
      "nameZh" : "聖德禪寺",
      "pgp" : "0",
      "terminal" : "0",
      "latitude" : "24.16863",
      "inDis" : "50",
      "routeId" : "131",
      "seqNo" : "9"
   },
   {
      "GoBack" : "1",
      "longitude" : "120.68519",
      "outDis" : "50",
      "Id" : "0098",
      "oid" : "7406",
      "districtId" : "1",
      "nameZh" : "崇德橋",
      "pgp" : "0",
      "terminal" : "0",
      "latitude" : "24.16613",
      "inDis" : "50",
      "routeId" : "131",
      "seqNo" : "10"
   },
   {
      "GoBack" : "1",
      "longitude" : "120.68296",
      "outDis" : "50",
      "Id" : "4579",
      "oid" : "7046",
      "districtId" : "1",
      "nameZh" : "進化北永興街口",
      "pgp" : "0",
      "terminal" : "0",
      "latitude" : "24.16309",
      "inDis" : "50",
      "routeId" : "131",
      "seqNo" : "11"
   },
   {
      "GoBack" : "1",
      "longitude" : "120.68096",
      "outDis" : "50",
      "Id" : "4577",
      "oid" : "7585",
      "districtId" : "1",
      "nameZh" : "學士德化街口",
      "pgp" : "0",
      "terminal" : "0",
      "latitude" : "24.16138",
      "inDis" : "50",
      "routeId" : "131",
      "seqNo" : "12"
   },
   {
      "GoBack" : "1",
      "longitude" : "120.68085",
      "outDis" : "50",
      "Id" : "4575",
      "oid" : "11204",
      "districtId" : "1",
      "nameZh" : "學士健行路口",
      "pgp" : "0",
      "terminal" : "0",
      "latitude" : "24.15927",
      "inDis" : "50",
      "routeId" : "131",
      "seqNo" : "13"
   },
   {
      "GoBack" : "1",
      "longitude" : "120.68133",
      "outDis" : "50",
      "Id" : "0426",
      "oid" : "7265",
      "districtId" : "1",
      "nameZh" : "中國醫藥大學",
      "pgp" : "0",
      "terminal" : "0",
      "latitude" : "24.15687",
      "inDis" : "50",
      "routeId" : "131",
      "seqNo" : "14"
   },
   {
      "GoBack" : "1",
      "longitude" : "120.67969",
      "outDis" : "50",
      "Id" : "0093",
      "oid" : "7290",
      "districtId" : "1",
      "nameZh" : "五權國中",
      "pgp" : "0",
      "terminal" : "0",
      "latitude" : "24.15575",
      "inDis" : "50",
      "routeId" : "131",
      "seqNo" : "15"
   },
   {
      "GoBack" : "1",
      "longitude" : "120.67737",
      "outDis" : "50",
      "Id" : "0481",
      "oid" : "7328",
      "districtId" : "1",
      "nameZh" : "文莊里",
      "pgp" : "0",
      "terminal" : "0",
      "latitude" : "24.15433",
      "inDis" : "50",
      "routeId" : "131",
      "seqNo" : "16"
   },
   {
      "GoBack" : "1",
      "longitude" : "120.6774",
      "outDis" : "50",
      "Id" : "0503",
      "oid" : "7349",
      "districtId" : "1",
      "nameZh" : "臺中二中",
      "pgp" : "0",
      "terminal" : "0",
      "latitude" : "24.15234",
      "inDis" : "50",
      "routeId" : "131",
      "seqNo" : "17"
   },
   {
      "GoBack" : "1",
      "longitude" : "120.67864",
      "outDis" : "50",
      "Id" : "0145",
      "oid" : "300262045",
      "districtId" : "1",
      "nameZh" : "光大里",
      "pgp" : "0",
      "terminal" : "0",
      "latitude" : "24.15177",
      "inDis" : "50",
      "routeId" : "131",
      "seqNo" : "18"
   },
   {
      "GoBack" : "1",
      "longitude" : "120.68025",
      "outDis" : "50",
      "Id" : "0146",
      "oid" : "300262043",
      "districtId" : "1",
      "nameZh" : "五常里",
      "pgp" : "0",
      "terminal" : "0",
      "latitude" : "24.15236",
      "inDis" : "50",
      "routeId" : "131",
      "seqNo" : "19"
   },
   {
      "GoBack" : "1",
      "longitude" : "120.68389",
      "outDis" : "50",
      "Id" : "3772",
      "oid" : "300262041",
      "districtId" : "1",
      "nameZh" : "五權學士路口",
      "pgp" : "0",
      "terminal" : "0",
      "latitude" : "24.15388",
      "inDis" : "50",
      "routeId" : "131",
      "seqNo" : "20"
   },
   {
      "GoBack" : "1",
      "longitude" : "120.68779",
      "outDis" : "50",
      "Id" : "0048",
      "oid" : "300262039",
      "districtId" : "1",
      "nameZh" : "莒光新城",
      "pgp" : "0",
      "terminal" : "0",
      "latitude" : "24.15414",
      "inDis" : "50",
      "routeId" : "131",
      "seqNo" : "21"
   },
   {
      "GoBack" : "1",
      "longitude" : "120.68886",
      "outDis" : "50",
      "Id" : "4694",
      "oid" : "300262037",
      "districtId" : "1",
      "nameZh" : "臺灣體大體育場",
      "pgp" : "0",
      "terminal" : "0",
      "latitude" : "24.15233",
      "inDis" : "50",
      "routeId" : "131",
      "seqNo" : "22"
   },
   {
      "GoBack" : "1",
      "longitude" : "120.68742",
      "outDis" : "50",
      "Id" : "0149",
      "oid" : "300262035",
      "districtId" : "1",
      "nameZh" : "臺中一中",
      "pgp" : "0",
      "terminal" : "0",
      "latitude" : "24.14897",
      "inDis" : "50",
      "routeId" : "131",
      "seqNo" : "23"
   },
   {
      "GoBack" : "1",
      "longitude" : "120.68624",
      "outDis" : "50",
      "Id" : "4695",
      "oid" : "300262033",
      "districtId" : "1",
      "nameZh" : "臺灣體大游泳池",
      "pgp" : "0",
      "terminal" : "0",
      "latitude" : "24.1466",
      "inDis" : "50",
      "routeId" : "131",
      "seqNo" : "24"
   },
   {
      "GoBack" : "1",
      "longitude" : "120.68606",
      "outDis" : "50",
      "Id" : "4544",
      "oid" : "300262031",
      "districtId" : "1",
      "nameZh" : "臺中公園(雙十路)",
      "pgp" : "0",
      "terminal" : "0",
      "latitude" : "24.14416",
      "inDis" : "50",
      "routeId" : "131",
      "seqNo" : "25"
   },
   {
      "GoBack" : "1",
      "longitude" : "120.68576",
      "outDis" : "50",
      "Id" : "0402",
      "oid" : "300262027",
      "districtId" : "1",
      "nameZh" : "干城站",
      "pgp" : "0",
      "terminal" : "0",
      "latitude" : "24.14087",
      "inDis" : "50",
      "routeId" : "131",
      "seqNo" : "26"
   },
   {
      "GoBack" : "1",
      "longitude" : "120.6844",
      "outDis" : "170",
      "Id" : "1824",
      "oid" : "7351",
      "districtId" : "1",
      "nameZh" : "臺中火車站",
      "pgp" : "0",
      "terminal" : "0",
      "latitude" : "24.13743",
      "inDis" : "50",
      "routeId" : "131",
      "seqNo" : "27"
   },
   {
      "GoBack" : "1",
      "longitude" : "120.68392",
      "outDis" : "50",
      "Id" : "0049",
      "oid" : "7448",
      "districtId" : "1",
      "nameZh" : "第三市場(臺中家商)",
      "pgp" : "0",
      "terminal" : "0",
      "latitude" : "24.13256",
      "inDis" : "50",
      "routeId" : "131",
      "seqNo" : "28"
   },
   {
      "GoBack" : "1",
      "longitude" : "120.68502",
      "outDis" : "50",
      "Id" : "0257",
      "oid" : "7005",
      "districtId" : "1",
      "nameZh" : "臺中國小",
      "pgp" : "0",
      "terminal" : "0",
      "latitude" : "24.13026",
      "inDis" : "50",
      "routeId" : "131",
      "seqNo" : "29"
   },
   {
      "GoBack" : "1",
      "longitude" : "120.68465",
      "outDis" : "50",
      "Id" : "5607",
      "oid" : "316993634",
      "districtId" : "1",
      "nameZh" : "興大附農(臺中路)",
      "pgp" : "0",
      "terminal" : "0",
      "latitude" : "24.12803",
      "inDis" : "50",
      "routeId" : "131",
      "seqNo" : "30"
   },
   {
      "GoBack" : "1",
      "longitude" : "120.68404",
      "outDis" : "50",
      "Id" : "0255",
      "oid" : "7153",
      "districtId" : "1",
      "nameZh" : "南門仔",
      "pgp" : "0",
      "terminal" : "0",
      "latitude" : "24.12545",
      "inDis" : "50",
      "routeId" : "131",
      "seqNo" : "31"
   },
   {
      "GoBack" : "1",
      "longitude" : "120.6843",
      "outDis" : "50",
      "Id" : "5112",
      "oid" : "7118",
      "districtId" : "1",
      "nameZh" : "明德高中(臺中路)",
      "pgp" : "0",
      "terminal" : "0",
      "latitude" : "24.12292",
      "inDis" : "50",
      "routeId" : "131",
      "seqNo" : "32"
   },
   {
      "GoBack" : "1",
      "longitude" : "120.68664",
      "outDis" : "50",
      "Id" : "2591",
      "oid" : "7156",
      "districtId" : "1",
      "nameZh" : "南門橋頭",
      "pgp" : "0",
      "terminal" : "0",
      "latitude" : "24.1212",
      "inDis" : "50",
      "routeId" : "131",
      "seqNo" : "33"
   },
   {
      "GoBack" : "1",
      "longitude" : "120.68957",
      "outDis" : "50",
      "Id" : "3281",
      "oid" : "7493",
      "districtId" : "1",
      "nameZh" : "菸葉廠",
      "pgp" : "0",
      "terminal" : "0",
      "latitude" : "24.11794",
      "inDis" : "50",
      "routeId" : "131",
      "seqNo" : "34"
   },
   {
      "GoBack" : "1",
      "longitude" : "120.68958",
      "outDis" : "50",
      "Id" : "3280",
      "oid" : "7490",
      "districtId" : "1",
      "nameZh" : "菩提醫院",
      "pgp" : "0",
      "terminal" : "0",
      "latitude" : "24.11508",
      "inDis" : "50",
      "routeId" : "131",
      "seqNo" : "35"
   },
   {
      "GoBack" : "1",
      "longitude" : "120.68974",
      "outDis" : "50",
      "Id" : "5485",
      "oid" : "314655296",
      "districtId" : "1",
      "nameZh" : "中興內新街口",
      "pgp" : "0",
      "terminal" : "0",
      "latitude" : "24.11408",
      "inDis" : "50",
      "routeId" : "131",
      "seqNo" : "36"
   },
   {
      "GoBack" : "1",
      "longitude" : "120.68986",
      "outDis" : "50",
      "Id" : "2691",
      "oid" : "7173",
      "districtId" : "1",
      "nameZh" : "省農會",
      "pgp" : "0",
      "terminal" : "0",
      "latitude" : "24.1125",
      "inDis" : "50",
      "routeId" : "131",
      "seqNo" : "37"
   },
   {
      "GoBack" : "1",
      "longitude" : "120.68993",
      "outDis" : "50",
      "Id" : "1576",
      "oid" : "7298",
      "districtId" : "1",
      "nameZh" : "內新市場",
      "pgp" : "0",
      "terminal" : "0",
      "latitude" : "24.11107",
      "inDis" : "50",
      "routeId" : "131",
      "seqNo" : "38"
   },
   {
      "GoBack" : "1",
      "longitude" : "120.69003",
      "outDis" : "50",
      "Id" : "1363",
      "oid" : "7237",
      "districtId" : "1",
      "nameZh" : "中興大里路口",
      "pgp" : "0",
      "terminal" : "0",
      "latitude" : "24.10863",
      "inDis" : "50",
      "routeId" : "131",
      "seqNo" : "39"
   },
   {
      "GoBack" : "1",
      "longitude" : "120.68941",
      "outDis" : "50",
      "Id" : "2026",
      "oid" : "7054",
      "districtId" : "1",
      "nameZh" : "立人高中",
      "pgp" : "0",
      "terminal" : "0",
      "latitude" : "24.10584",
      "inDis" : "50",
      "routeId" : "131",
      "seqNo" : "40"
   },
   {
      "GoBack" : "1",
      "longitude" : "120.68864",
      "outDis" : "50",
      "Id" : "1126",
      "oid" : "7202",
      "districtId" : "1",
      "nameZh" : "下內新",
      "pgp" : "0",
      "terminal" : "0",
      "latitude" : "24.10257",
      "inDis" : "50",
      "routeId" : "131",
      "seqNo" : "41"
   },
   {
      "GoBack" : "1",
      "longitude" : "120.6879",
      "outDis" : "50",
      "Id" : "5151",
      "oid" : "5822",
      "districtId" : "1",
      "nameZh" : "兒童藝術館(中興路)",
      "pgp" : "0",
      "terminal" : "0",
      "latitude" : "24.10002",
      "inDis" : "50",
      "routeId" : "131",
      "seqNo" : "42"
   },
   {
      "GoBack" : "1",
      "longitude" : "120.68694",
      "outDis" : "50",
      "Id" : "1322",
      "oid" : "309974047",
      "districtId" : "1",
      "nameZh" : "大突寮(中興路)",
      "pgp" : "0",
      "terminal" : "0",
      "latitude" : "24.09735",
      "inDis" : "50",
      "routeId" : "131",
      "seqNo" : "43"
   },
   {
      "GoBack" : "1",
      "longitude" : "120.69146",
      "outDis" : "50",
      "Id" : "4661",
      "oid" : "7291",
      "districtId" : "1",
      "nameZh" : "中興仁化路口",
      "pgp" : "0",
      "terminal" : "0",
      "latitude" : "24.09192",
      "inDis" : "50",
      "routeId" : "131",
      "seqNo" : "44"
   },
   {
      "GoBack" : "1",
      "longitude" : "120.69365",
      "outDis" : "50",
      "Id" : "5171",
      "oid" : "7500",
      "districtId" : "1",
      "nameZh" : "塗城中興路口",
      "pgp" : "0",
      "terminal" : "0",
      "latitude" : "24.09084",
      "inDis" : "50",
      "routeId" : "131",
      "seqNo" : "45"
   },
   {
      "GoBack" : "1",
      "longitude" : "120.69532",
      "outDis" : "50",
      "Id" : "3339",
      "oid" : "7499",
      "districtId" : "1",
      "nameZh" : "塗城市場",
      "pgp" : "0",
      "terminal" : "0",
      "latitude" : "24.09113",
      "inDis" : "50",
      "routeId" : "131",
      "seqNo" : "46"
   },
   {
      "GoBack" : "1",
      "longitude" : "120.69716",
      "outDis" : "50",
      "Id" : "2116",
      "oid" : "7070",
      "districtId" : "1",
      "nameZh" : "成功社區",
      "pgp" : "0",
      "terminal" : "0",
      "latitude" : "24.09039",
      "inDis" : "50",
      "routeId" : "131",
      "seqNo" : "47"
   },
   {
      "GoBack" : "1",
      "longitude" : "120.69929",
      "outDis" : "50",
      "Id" : "2796",
      "oid" : "320269804",
      "districtId" : "1",
      "nameZh" : "泰興社區",
      "pgp" : "0",
      "terminal" : "0",
      "latitude" : "24.08922",
      "inDis" : "50",
      "routeId" : "131",
      "seqNo" : "48"
   },
   {
      "GoBack" : "1",
      "longitude" : "120.69923",
      "outDis" : "50",
      "Id" : "5724",
      "oid" : "320062559",
      "districtId" : "1",
      "nameZh" : "塗城龍城街口",
      "pgp" : "0",
      "terminal" : "0",
      "latitude" : "24.08938",
      "inDis" : "50",
      "routeId" : "131",
      "seqNo" : "49"
   },
   {
      "GoBack" : "1",
      "longitude" : "120.70276",
      "outDis" : "50",
      "Id" : "1196",
      "oid" : "7208",
      "districtId" : "1",
      "nameZh" : "下塗城",
      "pgp" : "0",
      "terminal" : "0",
      "latitude" : "24.08818",
      "inDis" : "50",
      "routeId" : "131",
      "seqNo" : "50"
   },
   {
      "GoBack" : "1",
      "longitude" : "120.70503",
      "outDis" : "50",
      "Id" : "2148",
      "oid" : "7080",
      "districtId" : "1",
      "nameZh" : "竹圍",
      "pgp" : "0",
      "terminal" : "0",
      "latitude" : "24.08782",
      "inDis" : "50",
      "routeId" : "131",
      "seqNo" : "51"
   },
   {
      "GoBack" : "1",
      "longitude" : "120.70787",
      "outDis" : "50",
      "Id" : "3057",
      "oid" : "7451",
      "districtId" : "1",
      "nameZh" : "統一化學",
      "pgp" : "0",
      "terminal" : "0",
      "latitude" : "24.08698",
      "inDis" : "50",
      "routeId" : "131",
      "seqNo" : "52"
   },
   {
      "GoBack" : "1",
      "longitude" : "120.70997",
      "outDis" : "50",
      "Id" : "1044",
      "oid" : "7194",
      "districtId" : "1",
      "nameZh" : "十全藥局",
      "pgp" : "0",
      "terminal" : "0",
      "latitude" : "24.08636",
      "inDis" : "50",
      "routeId" : "131",
      "seqNo" : "53"
   },
   {
      "GoBack" : "1",
      "longitude" : "120.71231",
      "outDis" : "50",
      "Id" : "3159",
      "oid" : "7463",
      "districtId" : "1",
      "nameZh" : "頂塗城",
      "pgp" : "0",
      "terminal" : "0",
      "latitude" : "24.08601",
      "inDis" : "50",
      "routeId" : "131",
      "seqNo" : "54"
   },
   {
      "GoBack" : "1",
      "longitude" : "120.71531",
      "outDis" : "50",
      "Id" : "1334",
      "oid" : "7227",
      "districtId" : "1",
      "nameZh" : "大庄",
      "pgp" : "0",
      "terminal" : "0",
      "latitude" : "24.08612",
      "inDis" : "50",
      "routeId" : "131",
      "seqNo" : "55"
   },
   {
      "GoBack" : "1",
      "longitude" : "120.71951",
      "outDis" : "50",
      "Id" : "3559",
      "oid" : "7543",
      "districtId" : "1",
      "nameZh" : "靶場",
      "pgp" : "0",
      "terminal" : "0",
      "latitude" : "24.0862",
      "inDis" : "50",
      "routeId" : "131",
      "seqNo" : "56"
   },
   {
      "GoBack" : "1",
      "longitude" : "120.72958",
      "outDis" : "50",
      "Id" : "3699",
      "oid" : "6586",
      "districtId" : "1",
      "nameZh" : "銀聯一村",
      "pgp" : "0",
      "terminal" : "0",
      "latitude" : "24.08783",
      "inDis" : "50",
      "routeId" : "131",
      "seqNo" : "57"
   },
   {
      "GoBack" : "1",
      "longitude" : "120.71841",
      "outDis" : "50",
      "Id" : "4724",
      "oid" : "306640244",
      "districtId" : "1",
      "nameZh" : "吉峰國小",
      "pgp" : "0",
      "terminal" : "0",
      "latitude" : "24.07966",
      "inDis" : "50",
      "routeId" : "131",
      "seqNo" : "60"
   },
   {
      "GoBack" : "1",
      "longitude" : "120.71704",
      "outDis" : "50",
      "Id" : "4725",
      "oid" : "306640245",
      "districtId" : "1",
      "nameZh" : "桐林里",
      "pgp" : "0",
      "terminal" : "0",
      "latitude" : "24.07764",
      "inDis" : "50",
      "routeId" : "131",
      "seqNo" : "61"
   },
   {
      "GoBack" : "1",
      "longitude" : "120.71493",
      "outDis" : "50",
      "Id" : "2059",
      "oid" : "306640246",
      "districtId" : "1",
      "nameZh" : "吉峰里",
      "pgp" : "0",
      "terminal" : "0",
      "latitude" : "24.07616",
      "inDis" : "50",
      "routeId" : "131",
      "seqNo" : "62"
   },
   {
      "GoBack" : "1",
      "longitude" : "120.71458",
      "outDis" : "50",
      "Id" : "2060",
      "oid" : "306640247",
      "districtId" : "1",
      "nameZh" : "吉峰東路口",
      "pgp" : "0",
      "terminal" : "0",
      "latitude" : "24.07505",
      "inDis" : "50",
      "routeId" : "131",
      "seqNo" : "63"
   },
   {
      "GoBack" : "1",
      "longitude" : "120.71551",
      "outDis" : "50",
      "Id" : "3246",
      "oid" : "7481",
      "districtId" : "1",
      "nameZh" : "朝陽科技大學",
      "pgp" : "0",
      "terminal" : "0",
      "latitude" : "24.07041",
      "inDis" : "50",
      "routeId" : "131",
      "seqNo" : "64"
   },
   {
      "GoBack" : "2",
      "longitude" : "120.71551",
      "outDis" : "50",
      "Id" : "3246",
      "oid" : "7481",
      "districtId" : "1",
      "nameZh" : "朝陽科技大學",
      "pgp" : "0",
      "terminal" : "0",
      "latitude" : "24.07041",
      "inDis" : "50",
      "routeId" : "131",
      "seqNo" : "1"
   },
   {
      "GoBack" : "2",
      "longitude" : "120.71458",
      "outDis" : "50",
      "Id" : "2060",
      "oid" : "306640247",
      "districtId" : "1",
      "nameZh" : "吉峰東路口",
      "pgp" : "0",
      "terminal" : "0",
      "latitude" : "24.07505",
      "inDis" : "50",
      "routeId" : "131",
      "seqNo" : "2"
   },
   {
      "GoBack" : "2",
      "longitude" : "120.71493",
      "outDis" : "50",
      "Id" : "2059",
      "oid" : "306640246",
      "districtId" : "1",
      "nameZh" : "吉峰里",
      "pgp" : "0",
      "terminal" : "0",
      "latitude" : "24.07616",
      "inDis" : "50",
      "routeId" : "131",
      "seqNo" : "3"
   },
   {
      "GoBack" : "2",
      "longitude" : "120.71704",
      "outDis" : "50",
      "Id" : "4725",
      "oid" : "306640245",
      "districtId" : "1",
      "nameZh" : "桐林里",
      "pgp" : "0",
      "terminal" : "0",
      "latitude" : "24.07764",
      "inDis" : "50",
      "routeId" : "131",
      "seqNo" : "4"
   },
   {
      "GoBack" : "2",
      "longitude" : "120.71841",
      "outDis" : "50",
      "Id" : "4724",
      "oid" : "306640244",
      "districtId" : "1",
      "nameZh" : "吉峰國小",
      "pgp" : "0",
      "terminal" : "0",
      "latitude" : "24.07966",
      "inDis" : "50",
      "routeId" : "131",
      "seqNo" : "5"
   },
   {
      "GoBack" : "2",
      "longitude" : "120.72958",
      "outDis" : "50",
      "Id" : "3699",
      "oid" : "6586",
      "districtId" : "1",
      "nameZh" : "銀聯一村",
      "pgp" : "0",
      "terminal" : "0",
      "latitude" : "24.08783",
      "inDis" : "50",
      "routeId" : "131",
      "seqNo" : "8"
   },
   {
      "GoBack" : "2",
      "longitude" : "120.71951",
      "outDis" : "50",
      "Id" : "3559",
      "oid" : "7543",
      "districtId" : "1",
      "nameZh" : "靶場",
      "pgp" : "0",
      "terminal" : "0",
      "latitude" : "24.0862",
      "inDis" : "50",
      "routeId" : "131",
      "seqNo" : "9"
   },
   {
      "GoBack" : "2",
      "longitude" : "120.71531",
      "outDis" : "50",
      "Id" : "1334",
      "oid" : "7227",
      "districtId" : "1",
      "nameZh" : "大庄",
      "pgp" : "0",
      "terminal" : "0",
      "latitude" : "24.08612",
      "inDis" : "50",
      "routeId" : "131",
      "seqNo" : "10"
   },
   {
      "GoBack" : "2",
      "longitude" : "120.71231",
      "outDis" : "50",
      "Id" : "3159",
      "oid" : "7463",
      "districtId" : "1",
      "nameZh" : "頂塗城",
      "pgp" : "0",
      "terminal" : "0",
      "latitude" : "24.08601",
      "inDis" : "50",
      "routeId" : "131",
      "seqNo" : "11"
   },
   {
      "GoBack" : "2",
      "longitude" : "120.70997",
      "outDis" : "50",
      "Id" : "1044",
      "oid" : "7194",
      "districtId" : "1",
      "nameZh" : "十全藥局",
      "pgp" : "0",
      "terminal" : "0",
      "latitude" : "24.08636",
      "inDis" : "50",
      "routeId" : "131",
      "seqNo" : "12"
   },
   {
      "GoBack" : "2",
      "longitude" : "120.70787",
      "outDis" : "50",
      "Id" : "3057",
      "oid" : "7451",
      "districtId" : "1",
      "nameZh" : "統一化學",
      "pgp" : "0",
      "terminal" : "0",
      "latitude" : "24.08698",
      "inDis" : "50",
      "routeId" : "131",
      "seqNo" : "13"
   },
   {
      "GoBack" : "2",
      "longitude" : "120.70503",
      "outDis" : "50",
      "Id" : "2148",
      "oid" : "7080",
      "districtId" : "1",
      "nameZh" : "竹圍",
      "pgp" : "0",
      "terminal" : "0",
      "latitude" : "24.08782",
      "inDis" : "50",
      "routeId" : "131",
      "seqNo" : "14"
   },
   {
      "GoBack" : "2",
      "longitude" : "120.70276",
      "outDis" : "50",
      "Id" : "1196",
      "oid" : "7208",
      "districtId" : "1",
      "nameZh" : "下塗城",
      "pgp" : "0",
      "terminal" : "0",
      "latitude" : "24.08818",
      "inDis" : "50",
      "routeId" : "131",
      "seqNo" : "15"
   },
   {
      "GoBack" : "2",
      "longitude" : "120.7012",
      "outDis" : "50",
      "Id" : "5724",
      "oid" : "320062560",
      "districtId" : "1",
      "nameZh" : "塗城龍城街口",
      "pgp" : "0",
      "terminal" : "0",
      "latitude" : "24.08875",
      "inDis" : "50",
      "routeId" : "131",
      "seqNo" : "16"
   },
   {
      "GoBack" : "2",
      "longitude" : "120.69923",
      "outDis" : "50",
      "Id" : "2796",
      "oid" : "7372",
      "districtId" : "1",
      "nameZh" : "泰興社區",
      "pgp" : "0",
      "terminal" : "0",
      "latitude" : "24.08938",
      "inDis" : "50",
      "routeId" : "131",
      "seqNo" : "17"
   },
   {
      "GoBack" : "2",
      "longitude" : "120.69716",
      "outDis" : "50",
      "Id" : "2116",
      "oid" : "7070",
      "districtId" : "1",
      "nameZh" : "成功社區",
      "pgp" : "0",
      "terminal" : "0",
      "latitude" : "24.09039",
      "inDis" : "50",
      "routeId" : "131",
      "seqNo" : "18"
   },
   {
      "GoBack" : "2",
      "longitude" : "120.69532",
      "outDis" : "50",
      "Id" : "3339",
      "oid" : "7499",
      "districtId" : "1",
      "nameZh" : "塗城市場",
      "pgp" : "0",
      "terminal" : "0",
      "latitude" : "24.09113",
      "inDis" : "50",
      "routeId" : "131",
      "seqNo" : "19"
   },
   {
      "GoBack" : "2",
      "longitude" : "120.69365",
      "outDis" : "50",
      "Id" : "5171",
      "oid" : "7500",
      "districtId" : "1",
      "nameZh" : "塗城中興路口",
      "pgp" : "0",
      "terminal" : "0",
      "latitude" : "24.09084",
      "inDis" : "50",
      "routeId" : "131",
      "seqNo" : "20"
   },
   {
      "GoBack" : "2",
      "longitude" : "120.69162",
      "outDis" : "50",
      "Id" : "4661",
      "oid" : "7293",
      "districtId" : "1",
      "nameZh" : "中興仁化路口",
      "pgp" : "0",
      "terminal" : "0",
      "latitude" : "24.09162",
      "inDis" : "50",
      "routeId" : "131",
      "seqNo" : "21"
   },
   {
      "GoBack" : "2",
      "longitude" : "120.68694",
      "outDis" : "50",
      "Id" : "1322",
      "oid" : "309974047",
      "districtId" : "1",
      "nameZh" : "大突寮(中興路)",
      "pgp" : "0",
      "terminal" : "0",
      "latitude" : "24.09735",
      "inDis" : "50",
      "routeId" : "131",
      "seqNo" : "22"
   },
   {
      "GoBack" : "2",
      "longitude" : "120.68735",
      "outDis" : "50",
      "Id" : "5151",
      "oid" : "7212",
      "districtId" : "1",
      "nameZh" : "兒童藝術館(中興路)",
      "pgp" : "0",
      "terminal" : "0",
      "latitude" : "24.09892",
      "inDis" : "50",
      "routeId" : "131",
      "seqNo" : "23"
   },
   {
      "GoBack" : "2",
      "longitude" : "120.6885",
      "outDis" : "50",
      "Id" : "1126",
      "oid" : "7201",
      "districtId" : "1",
      "nameZh" : "下內新",
      "pgp" : "0",
      "terminal" : "0",
      "latitude" : "24.10283",
      "inDis" : "50",
      "routeId" : "131",
      "seqNo" : "24"
   },
   {
      "GoBack" : "2",
      "longitude" : "120.68941",
      "outDis" : "50",
      "Id" : "2026",
      "oid" : "7053",
      "districtId" : "1",
      "nameZh" : "立人高中",
      "pgp" : "0",
      "terminal" : "0",
      "latitude" : "24.10584",
      "inDis" : "50",
      "routeId" : "131",
      "seqNo" : "25"
   },
   {
      "GoBack" : "2",
      "longitude" : "120.68996",
      "outDis" : "50",
      "Id" : "1363",
      "oid" : "7236",
      "districtId" : "1",
      "nameZh" : "中興大里路口",
      "pgp" : "0",
      "terminal" : "0",
      "latitude" : "24.10841",
      "inDis" : "50",
      "routeId" : "131",
      "seqNo" : "26"
   },
   {
      "GoBack" : "2",
      "longitude" : "120.69002",
      "outDis" : "50",
      "Id" : "1576",
      "oid" : "7299",
      "districtId" : "1",
      "nameZh" : "內新市場",
      "pgp" : "0",
      "terminal" : "0",
      "latitude" : "24.11079",
      "inDis" : "50",
      "routeId" : "131",
      "seqNo" : "27"
   },
   {
      "GoBack" : "2",
      "longitude" : "120.68986",
      "outDis" : "50",
      "Id" : "2691",
      "oid" : "7172",
      "districtId" : "1",
      "nameZh" : "省農會",
      "pgp" : "0",
      "terminal" : "0",
      "latitude" : "24.1125",
      "inDis" : "50",
      "routeId" : "131",
      "seqNo" : "28"
   },
   {
      "GoBack" : "2",
      "longitude" : "120.68974",
      "outDis" : "50",
      "Id" : "5485",
      "oid" : "314655296",
      "districtId" : "1",
      "nameZh" : "中興內新街口",
      "pgp" : "0",
      "terminal" : "0",
      "latitude" : "24.11408",
      "inDis" : "50",
      "routeId" : "131",
      "seqNo" : "29"
   },
   {
      "GoBack" : "2",
      "longitude" : "120.6897",
      "outDis" : "50",
      "Id" : "3280",
      "oid" : "7491",
      "districtId" : "1",
      "nameZh" : "菩提醫院",
      "pgp" : "0",
      "terminal" : "0",
      "latitude" : "24.11519",
      "inDis" : "50",
      "routeId" : "131",
      "seqNo" : "30"
   },
   {
      "GoBack" : "2",
      "longitude" : "120.68948",
      "outDis" : "50",
      "Id" : "3281",
      "oid" : "7492",
      "districtId" : "1",
      "nameZh" : "菸葉廠",
      "pgp" : "0",
      "terminal" : "0",
      "latitude" : "24.11737",
      "inDis" : "50",
      "routeId" : "131",
      "seqNo" : "31"
   },
   {
      "GoBack" : "2",
      "longitude" : "120.68679",
      "outDis" : "50",
      "Id" : "2591",
      "oid" : "7157",
      "districtId" : "1",
      "nameZh" : "南門橋頭",
      "pgp" : "0",
      "terminal" : "0",
      "latitude" : "24.1211",
      "inDis" : "50",
      "routeId" : "131",
      "seqNo" : "32"
   },
   {
      "GoBack" : "2",
      "longitude" : "120.6843",
      "outDis" : "50",
      "Id" : "5112",
      "oid" : "7118",
      "districtId" : "1",
      "nameZh" : "明德高中(臺中路)",
      "pgp" : "0",
      "terminal" : "0",
      "latitude" : "24.12292",
      "inDis" : "50",
      "routeId" : "131",
      "seqNo" : "33"
   },
   {
      "GoBack" : "2",
      "longitude" : "120.68404",
      "outDis" : "50",
      "Id" : "0255",
      "oid" : "7153",
      "districtId" : "1",
      "nameZh" : "南門仔",
      "pgp" : "0",
      "terminal" : "0",
      "latitude" : "24.12545",
      "inDis" : "50",
      "routeId" : "131",
      "seqNo" : "34"
   },
   {
      "GoBack" : "2",
      "longitude" : "120.68443",
      "outDis" : "50",
      "Id" : "5607",
      "oid" : "316993635",
      "districtId" : "1",
      "nameZh" : "興大附農(臺中路)",
      "pgp" : "0",
      "terminal" : "0",
      "latitude" : "24.12723",
      "inDis" : "50",
      "routeId" : "131",
      "seqNo" : "35"
   },
   {
      "GoBack" : "2",
      "longitude" : "120.68506",
      "outDis" : "50",
      "Id" : "0257",
      "oid" : "7007",
      "districtId" : "1",
      "nameZh" : "臺中國小",
      "pgp" : "0",
      "terminal" : "0",
      "latitude" : "24.13029",
      "inDis" : "50",
      "routeId" : "131",
      "seqNo" : "36"
   },
   {
      "GoBack" : "2",
      "longitude" : "120.68365",
      "outDis" : "50",
      "Id" : "0049",
      "oid" : "7447",
      "districtId" : "1",
      "nameZh" : "第三市場(臺中家商)",
      "pgp" : "0",
      "terminal" : "0",
      "latitude" : "24.13295",
      "inDis" : "50",
      "routeId" : "131",
      "seqNo" : "37"
   },
   {
      "GoBack" : "2",
      "longitude" : "120.68458",
      "outDis" : "50",
      "Id" : "1824",
      "oid" : "5688FBE1DF664D8EB7B3CAA1C89E4575",
      "districtId" : "1",
      "nameZh" : "臺中火車站",
      "pgp" : "0",
      "terminal" : "0",
      "latitude" : "24.13727",
      "inDis" : "50",
      "routeId" : "131",
      "seqNo" : "38"
   },
   {
      "GoBack" : "2",
      "longitude" : "120.68576",
      "outDis" : "50",
      "Id" : "0402",
      "oid" : "300262027",
      "districtId" : "1",
      "nameZh" : "干城站",
      "pgp" : "0",
      "terminal" : "0",
      "latitude" : "24.14087",
      "inDis" : "50",
      "routeId" : "131",
      "seqNo" : "39"
   },
   {
      "GoBack" : "2",
      "longitude" : "120.68582",
      "outDis" : "50",
      "Id" : "4561",
      "oid" : "4C0F8426770D41898B45F60F2EFB829E",
      "districtId" : "1",
      "nameZh" : "立體停車場(雙十路)",
      "pgp" : "0",
      "terminal" : "0",
      "latitude" : "24.14248",
      "inDis" : "50",
      "routeId" : "131",
      "seqNo" : "40"
   },
   {
      "GoBack" : "2",
      "longitude" : "120.68606",
      "outDis" : "50",
      "Id" : "4544",
      "oid" : "300262031",
      "districtId" : "1",
      "nameZh" : "臺中公園(雙十路)",
      "pgp" : "0",
      "terminal" : "0",
      "latitude" : "24.14416",
      "inDis" : "50",
      "routeId" : "131",
      "seqNo" : "41"
   },
   {
      "GoBack" : "2",
      "longitude" : "120.68624",
      "outDis" : "50",
      "Id" : "4695",
      "oid" : "300262033",
      "districtId" : "1",
      "nameZh" : "臺灣體大游泳池",
      "pgp" : "0",
      "terminal" : "0",
      "latitude" : "24.1466",
      "inDis" : "50",
      "routeId" : "131",
      "seqNo" : "42"
   },
   {
      "GoBack" : "2",
      "longitude" : "120.68742",
      "outDis" : "50",
      "Id" : "0149",
      "oid" : "300262035",
      "districtId" : "1",
      "nameZh" : "臺中一中",
      "pgp" : "0",
      "terminal" : "0",
      "latitude" : "24.14897",
      "inDis" : "50",
      "routeId" : "131",
      "seqNo" : "43"
   },
   {
      "GoBack" : "2",
      "longitude" : "120.68886",
      "outDis" : "50",
      "Id" : "4694",
      "oid" : "300262037",
      "districtId" : "1",
      "nameZh" : "臺灣體大體育場",
      "pgp" : "0",
      "terminal" : "0",
      "latitude" : "24.15233",
      "inDis" : "50",
      "routeId" : "131",
      "seqNo" : "44"
   },
   {
      "GoBack" : "2",
      "longitude" : "120.68779",
      "outDis" : "50",
      "Id" : "0048",
      "oid" : "300262039",
      "districtId" : "1",
      "nameZh" : "莒光新城",
      "pgp" : "0",
      "terminal" : "0",
      "latitude" : "24.15414",
      "inDis" : "50",
      "routeId" : "131",
      "seqNo" : "45"
   },
   {
      "GoBack" : "2",
      "longitude" : "120.68389",
      "outDis" : "50",
      "Id" : "3772",
      "oid" : "300262041",
      "districtId" : "1",
      "nameZh" : "五權學士路口",
      "pgp" : "0",
      "terminal" : "0",
      "latitude" : "24.15388",
      "inDis" : "50",
      "routeId" : "131",
      "seqNo" : "46"
   },
   {
      "GoBack" : "2",
      "longitude" : "120.68025",
      "outDis" : "50",
      "Id" : "0146",
      "oid" : "300262043",
      "districtId" : "1",
      "nameZh" : "五常里",
      "pgp" : "0",
      "terminal" : "0",
      "latitude" : "24.15236",
      "inDis" : "50",
      "routeId" : "131",
      "seqNo" : "47"
   },
   {
      "GoBack" : "2",
      "longitude" : "120.67864",
      "outDis" : "50",
      "Id" : "0145",
      "oid" : "300262045",
      "districtId" : "1",
      "nameZh" : "光大里",
      "pgp" : "0",
      "terminal" : "0",
      "latitude" : "24.15177",
      "inDis" : "50",
      "routeId" : "131",
      "seqNo" : "48"
   },
   {
      "GoBack" : "2",
      "longitude" : "120.6774",
      "outDis" : "50",
      "Id" : "0503",
      "oid" : "7349",
      "districtId" : "1",
      "nameZh" : "臺中二中",
      "pgp" : "0",
      "terminal" : "0",
      "latitude" : "24.15234",
      "inDis" : "50",
      "routeId" : "131",
      "seqNo" : "49"
   },
   {
      "GoBack" : "2",
      "longitude" : "120.67737",
      "outDis" : "50",
      "Id" : "0481",
      "oid" : "7328",
      "districtId" : "1",
      "nameZh" : "文莊里",
      "pgp" : "0",
      "terminal" : "0",
      "latitude" : "24.15433",
      "inDis" : "50",
      "routeId" : "131",
      "seqNo" : "50"
   },
   {
      "GoBack" : "2",
      "longitude" : "120.67869",
      "outDis" : "50",
      "Id" : "0093",
      "oid" : "7289",
      "districtId" : "1",
      "nameZh" : "五權國中",
      "pgp" : "0",
      "terminal" : "0",
      "latitude" : "24.15575",
      "inDis" : "50",
      "routeId" : "131",
      "seqNo" : "51"
   },
   {
      "GoBack" : "2",
      "longitude" : "120.68148",
      "outDis" : "50",
      "Id" : "0426",
      "oid" : "7266",
      "districtId" : "1",
      "nameZh" : "中國醫藥大學",
      "pgp" : "0",
      "terminal" : "0",
      "latitude" : "24.15645",
      "inDis" : "50",
      "routeId" : "131",
      "seqNo" : "52"
   },
   {
      "GoBack" : "2",
      "longitude" : "120.68085",
      "outDis" : "50",
      "Id" : "4575",
      "oid" : "11204",
      "districtId" : "1",
      "nameZh" : "學士健行路口",
      "pgp" : "0",
      "terminal" : "0",
      "latitude" : "24.15927",
      "inDis" : "50",
      "routeId" : "131",
      "seqNo" : "53"
   },
   {
      "GoBack" : "2",
      "longitude" : "120.68098",
      "outDis" : "50",
      "Id" : "4577",
      "oid" : "7586",
      "districtId" : "1",
      "nameZh" : "學士德化街口",
      "pgp" : "0",
      "terminal" : "0",
      "latitude" : "24.16153",
      "inDis" : "50",
      "routeId" : "131",
      "seqNo" : "54"
   },
   {
      "GoBack" : "2",
      "longitude" : "120.68245",
      "outDis" : "50",
      "Id" : "4579",
      "oid" : "7045",
      "districtId" : "1",
      "nameZh" : "進化北永興街口",
      "pgp" : "0",
      "terminal" : "0",
      "latitude" : "24.16311",
      "inDis" : "50",
      "routeId" : "131",
      "seqNo" : "55"
   },
   {
      "GoBack" : "2",
      "longitude" : "120.68519",
      "outDis" : "50",
      "Id" : "0098",
      "oid" : "7406",
      "districtId" : "1",
      "nameZh" : "崇德橋",
      "pgp" : "0",
      "terminal" : "0",
      "latitude" : "24.16613",
      "inDis" : "50",
      "routeId" : "131",
      "seqNo" : "56"
   },
   {
      "GoBack" : "2",
      "longitude" : "120.68512",
      "outDis" : "50",
      "Id" : "3511",
      "oid" : "7537",
      "districtId" : "1",
      "nameZh" : "聖德禪寺",
      "pgp" : "0",
      "terminal" : "0",
      "latitude" : "24.16787",
      "inDis" : "50",
      "routeId" : "131",
      "seqNo" : "57"
   },
   {
      "GoBack" : "2",
      "longitude" : "120.68539",
      "outDis" : "50",
      "Id" : "1768",
      "oid" : "7343",
      "districtId" : "1",
      "nameZh" : "崇德北平路口",
      "pgp" : "0",
      "terminal" : "0",
      "latitude" : "24.17033",
      "inDis" : "50",
      "routeId" : "131",
      "seqNo" : "58"
   },
   {
      "GoBack" : "2",
      "longitude" : "120.68544",
      "outDis" : "50",
      "Id" : "4339",
      "oid" : "7325",
      "districtId" : "1",
      "nameZh" : "崇德文心路口",
      "pgp" : "0",
      "terminal" : "0",
      "latitude" : "24.17195",
      "inDis" : "50",
      "routeId" : "131",
      "seqNo" : "59"
   },
   {
      "GoBack" : "2",
      "longitude" : "120.68548",
      "outDis" : "50",
      "Id" : "0199",
      "oid" : "7403",
      "districtId" : "1",
      "nameZh" : "崇德瀋陽路口",
      "pgp" : "0",
      "terminal" : "0",
      "latitude" : "24.17314",
      "inDis" : "50",
      "routeId" : "131",
      "seqNo" : "60"
   },
   {
      "GoBack" : "2",
      "longitude" : "120.6856",
      "outDis" : "50",
      "Id" : "5131",
      "oid" : "306661878",
      "districtId" : "1",
      "nameZh" : "崇德國中(民俗公園)",
      "pgp" : "0",
      "terminal" : "0",
      "latitude" : "24.17523",
      "inDis" : "50",
      "routeId" : "131",
      "seqNo" : "61"
   },
   {
      "GoBack" : "2",
      "longitude" : "120.68586",
      "outDis" : "50",
      "Id" : "0196",
      "oid" : "B5EF354843C043609B55DBD0205369A4",
      "districtId" : "1",
      "nameZh" : "崇德一路口",
      "pgp" : "0",
      "terminal" : "0",
      "latitude" : "24.17695",
      "inDis" : "50",
      "routeId" : "131",
      "seqNo" : "62"
   },
   {
      "GoBack" : "2",
      "longitude" : "120.68585",
      "outDis" : "50",
      "Id" : "0195",
      "oid" : "219A93B415B14EA180A8E1960FB310F7",
      "districtId" : "1",
      "nameZh" : "崇德五路口",
      "pgp" : "0",
      "terminal" : "0",
      "latitude" : "24.17873",
      "inDis" : "50",
      "routeId" : "131",
      "seqNo" : "63"
   },
   {
      "GoBack" : "2",
      "longitude" : "120.68608",
      "outDis" : "50",
      "Id" : "5387",
      "oid" : "313288983",
      "districtId" : "1",
      "nameZh" : "崇德六路口",
      "pgp" : "0",
      "terminal" : "0",
      "latitude" : "24.18086",
      "inDis" : "50",
      "routeId" : "131",
      "seqNo" : "64"
   },
   {
      "GoBack" : "2",
      "longitude" : "120.68619",
      "outDis" : "50",
      "Id" : "0194",
      "oid" : "8965",
      "districtId" : "1",
      "nameZh" : "北屯區行政大樓",
      "pgp" : "0",
      "terminal" : "0",
      "latitude" : "24.18203",
      "inDis" : "50",
      "routeId" : "131",
      "seqNo" : "65"
   }
]
