[
   {
      "GoBack" : "1",
      "longitude" : "120.72154",
      "outDis" : "70",
      "Id" : "3935",
      "oid" : "6693",
      "districtId" : "1",
      "nameZh" : "豐原",
      "pgp" : "0",
      "terminal" : "0",
      "latitude" : "24.2538",
      "inDis" : "70",
      "routeId" : "225",
      "seqNo" : "1"
   },
   {
      "GoBack" : "1",
      "longitude" : "120.71865",
      "outDis" : "50",
      "Id" : "3343",
      "oid" : "6697",
      "districtId" : "1",
      "nameZh" : "媽祖廟",
      "pgp" : "0",
      "terminal" : "0",
      "latitude" : "24.25167",
      "inDis" : "50",
      "routeId" : "225",
      "seqNo" : "2"
   },
   {
      "GoBack" : "1",
      "longitude" : "120.71612",
      "outDis" : "50",
      "Id" : "2097",
      "oid" : "5710",
      "districtId" : "1",
      "nameZh" : "圳寮口",
      "pgp" : "0",
      "terminal" : "0",
      "latitude" : "24.25276",
      "inDis" : "50",
      "routeId" : "225",
      "seqNo" : "3"
   },
   {
      "GoBack" : "1",
      "longitude" : "120.71866",
      "outDis" : "50",
      "Id" : "1269",
      "oid" : "5212",
      "districtId" : "1",
      "nameZh" : "大湳里",
      "pgp" : "0",
      "terminal" : "0",
      "latitude" : "24.25666",
      "inDis" : "50",
      "routeId" : "225",
      "seqNo" : "4"
   },
   {
      "GoBack" : "1",
      "longitude" : "120.71947",
      "outDis" : "50",
      "Id" : "4493",
      "oid" : "13860",
      "districtId" : "1",
      "nameZh" : "新惠生醫院",
      "pgp" : "0",
      "terminal" : "0",
      "latitude" : "24.25808",
      "inDis" : "50",
      "routeId" : "225",
      "seqNo" : "5"
   },
   {
      "GoBack" : "1",
      "longitude" : "120.71985",
      "outDis" : "50",
      "Id" : "4503",
      "oid" : "303690761",
      "districtId" : "1",
      "nameZh" : "豐原國中",
      "pgp" : "0",
      "terminal" : "0",
      "latitude" : "24.26141",
      "inDis" : "50",
      "routeId" : "225",
      "seqNo" : "6"
   },
   {
      "GoBack" : "1",
      "longitude" : "120.72039",
      "outDis" : "50",
      "Id" : "3356",
      "oid" : "6405",
      "districtId" : "1",
      "nameZh" : "慈興宮",
      "pgp" : "0",
      "terminal" : "0",
      "latitude" : "24.26524",
      "inDis" : "50",
      "routeId" : "225",
      "seqNo" : "7"
   },
   {
      "GoBack" : "1",
      "longitude" : "120.72113",
      "outDis" : "50",
      "Id" : "3541",
      "oid" : "6508",
      "districtId" : "1",
      "nameZh" : "道班前",
      "pgp" : "0",
      "terminal" : "0",
      "latitude" : "24.26954",
      "inDis" : "50",
      "routeId" : "225",
      "seqNo" : "8"
   },
   {
      "GoBack" : "1",
      "longitude" : "120.7218",
      "outDis" : "50",
      "Id" : "3527",
      "oid" : "6503",
      "districtId" : "1",
      "nameZh" : "農會事業場",
      "pgp" : "0",
      "terminal" : "0",
      "latitude" : "24.27191",
      "inDis" : "50",
      "routeId" : "225",
      "seqNo" : "9"
   },
   {
      "GoBack" : "1",
      "longitude" : "120.72211",
      "outDis" : "50",
      "Id" : "3470",
      "oid" : "6481",
      "districtId" : "1",
      "nameZh" : "溪底",
      "pgp" : "0",
      "terminal" : "0",
      "latitude" : "24.27567",
      "inDis" : "50",
      "routeId" : "225",
      "seqNo" : "10"
   },
   {
      "GoBack" : "1",
      "longitude" : "120.72285",
      "outDis" : "50",
      "Id" : "1911",
      "oid" : "5605",
      "districtId" : "1",
      "nameZh" : "正隆紙廠",
      "pgp" : "0",
      "terminal" : "0",
      "latitude" : "24.28434",
      "inDis" : "50",
      "routeId" : "225",
      "seqNo" : "11"
   },
   {
      "GoBack" : "1",
      "longitude" : "120.72322",
      "outDis" : "50",
      "Id" : "2374",
      "oid" : "5874",
      "districtId" : "1",
      "nameZh" : "枋寮",
      "pgp" : "0",
      "terminal" : "0",
      "latitude" : "24.28785",
      "inDis" : "50",
      "routeId" : "225",
      "seqNo" : "12"
   },
   {
      "GoBack" : "1",
      "longitude" : "120.72373",
      "outDis" : "50",
      "Id" : "0987",
      "oid" : "5025",
      "districtId" : "1",
      "nameZh" : "七星農場",
      "pgp" : "0",
      "terminal" : "0",
      "latitude" : "24.2933",
      "inDis" : "50",
      "routeId" : "225",
      "seqNo" : "13"
   },
   {
      "GoBack" : "1",
      "longitude" : "120.72363",
      "outDis" : "50",
      "Id" : "2898",
      "oid" : "6164",
      "districtId" : "1",
      "nameZh" : "馬場入口",
      "pgp" : "0",
      "terminal" : "0",
      "latitude" : "24.29812",
      "inDis" : "50",
      "routeId" : "225",
      "seqNo" : "14"
   },
   {
      "GoBack" : "1",
      "longitude" : "120.7233",
      "outDis" : "50",
      "Id" : "1737",
      "oid" : "5500",
      "districtId" : "1",
      "nameZh" : "牛稠坑",
      "pgp" : "0",
      "terminal" : "0",
      "latitude" : "24.29968",
      "inDis" : "50",
      "routeId" : "225",
      "seqNo" : "15"
   },
   {
      "GoBack" : "1",
      "longitude" : "120.72242",
      "outDis" : "50",
      "Id" : "2592",
      "oid" : "5999",
      "districtId" : "1",
      "nameZh" : "南后里",
      "pgp" : "0",
      "terminal" : "0",
      "latitude" : "24.30335",
      "inDis" : "50",
      "routeId" : "225",
      "seqNo" : "16"
   },
   {
      "GoBack" : "1",
      "longitude" : "120.72203",
      "outDis" : "50",
      "Id" : "2991",
      "oid" : "6202",
      "districtId" : "1",
      "nameZh" : "啟明學校",
      "pgp" : "0",
      "terminal" : "0",
      "latitude" : "24.30511",
      "inDis" : "50",
      "routeId" : "225",
      "seqNo" : "17"
   },
   {
      "GoBack" : "1",
      "longitude" : "120.72164",
      "outDis" : "50",
      "Id" : "1169",
      "oid" : "5132",
      "districtId" : "1",
      "nameZh" : "下后里",
      "pgp" : "0",
      "terminal" : "0",
      "latitude" : "24.30903",
      "inDis" : "50",
      "routeId" : "225",
      "seqNo" : "18"
   },
   {
      "GoBack" : "1",
      "longitude" : "120.71765",
      "outDis" : "50",
      "Id" : "2651",
      "oid" : "6026",
      "districtId" : "1",
      "nameZh" : "后里電信局",
      "pgp" : "0",
      "terminal" : "0",
      "latitude" : "24.30969",
      "inDis" : "50",
      "routeId" : "225",
      "seqNo" : "19"
   },
   {
      "GoBack" : "1",
      "longitude" : "120.71645",
      "outDis" : "50",
      "Id" : "4453",
      "oid" : "5459",
      "districtId" : "1",
      "nameZh" : "民生文明路口",
      "pgp" : "0",
      "terminal" : "0",
      "latitude" : "24.30747",
      "inDis" : "50",
      "routeId" : "225",
      "seqNo" : "20"
   },
   {
      "GoBack" : "1",
      "longitude" : "120.7133",
      "outDis" : "50",
      "Id" : "1571",
      "oid" : "5393",
      "districtId" : "1",
      "nameZh" : "內埔市場",
      "pgp" : "0",
      "terminal" : "0",
      "latitude" : "24.30633",
      "inDis" : "50",
      "routeId" : "225",
      "seqNo" : "21"
   },
   {
      "GoBack" : "1",
      "longitude" : "120.7107",
      "outDis" : "50",
      "Id" : "4504",
      "oid" : "303690762",
      "districtId" : "1",
      "nameZh" : "后里區公所",
      "pgp" : "0",
      "terminal" : "0",
      "latitude" : "24.30482",
      "inDis" : "50",
      "routeId" : "225",
      "seqNo" : "22"
   },
   {
      "GoBack" : "1",
      "longitude" : "120.70917",
      "outDis" : "50",
      "Id" : "4449",
      "oid" : "5504",
      "districtId" : "1",
      "nameZh" : "公安主和路口",
      "pgp" : "0",
      "terminal" : "0",
      "latitude" : "24.30554",
      "inDis" : "50",
      "routeId" : "225",
      "seqNo" : "23"
   },
   {
      "GoBack" : "1",
      "longitude" : "120.70587",
      "outDis" : "50",
      "Id" : "3309",
      "oid" : "6381",
      "districtId" : "1",
      "nameZh" : "雅藝公司",
      "pgp" : "0",
      "terminal" : "0",
      "latitude" : "24.30699",
      "inDis" : "50",
      "routeId" : "225",
      "seqNo" : "24"
   },
   {
      "GoBack" : "1",
      "longitude" : "120.69814",
      "outDis" : "50",
      "Id" : "0421",
      "oid" : "5326",
      "districtId" : "1",
      "nameZh" : "中和",
      "pgp" : "0",
      "terminal" : "0",
      "latitude" : "24.31041",
      "inDis" : "50",
      "routeId" : "225",
      "seqNo" : "25"
   },
   {
      "GoBack" : "1",
      "longitude" : "120.69621",
      "outDis" : "50",
      "Id" : "2469",
      "oid" : "5928",
      "districtId" : "1",
      "nameZh" : "松鶴酒莊",
      "pgp" : "0",
      "terminal" : "0",
      "latitude" : "24.31178",
      "inDis" : "50",
      "routeId" : "225",
      "seqNo" : "26"
   },
   {
      "GoBack" : "1",
      "longitude" : "120.6951",
      "outDis" : "50",
      "Id" : "1689",
      "oid" : "5468",
      "districtId" : "1",
      "nameZh" : "月眉糖廠",
      "pgp" : "0",
      "terminal" : "0",
      "latitude" : "24.31351",
      "inDis" : "50",
      "routeId" : "225",
      "seqNo" : "27"
   },
   {
      "GoBack" : "1",
      "longitude" : "120.69262",
      "outDis" : "50",
      "Id" : "1683",
      "oid" : "5466",
      "districtId" : "1",
      "nameZh" : "月眉",
      "pgp" : "0",
      "terminal" : "0",
      "latitude" : "24.31389",
      "inDis" : "50",
      "routeId" : "225",
      "seqNo" : "28"
   },
   {
      "GoBack" : "1",
      "longitude" : "120.68729",
      "outDis" : "50",
      "Id" : "4455",
      "oid" : "5442",
      "districtId" : "1",
      "nameZh" : "甲后四月路口",
      "pgp" : "0",
      "terminal" : "0",
      "latitude" : "24.31224",
      "inDis" : "50",
      "routeId" : "225",
      "seqNo" : "29"
   },
   {
      "GoBack" : "1",
      "longitude" : "120.6846",
      "outDis" : "50",
      "Id" : "1778",
      "oid" : "5519",
      "districtId" : "1",
      "nameZh" : "四月水門路口",
      "pgp" : "0",
      "terminal" : "0",
      "latitude" : "24.31136",
      "inDis" : "50",
      "routeId" : "225",
      "seqNo" : "30"
   },
   {
      "GoBack" : "1",
      "longitude" : "120.68074",
      "outDis" : "50",
      "Id" : "2266",
      "oid" : "5800",
      "districtId" : "1",
      "nameZh" : "育英國小",
      "pgp" : "0",
      "terminal" : "0",
      "latitude" : "24.3113",
      "inDis" : "50",
      "routeId" : "225",
      "seqNo" : "31"
   },
   {
      "GoBack" : "1",
      "longitude" : "120.67728",
      "outDis" : "50",
      "Id" : "3093",
      "oid" : "6280",
      "districtId" : "1",
      "nameZh" : "頂口庄",
      "pgp" : "0",
      "terminal" : "0",
      "latitude" : "24.31046",
      "inDis" : "50",
      "routeId" : "225",
      "seqNo" : "32"
   },
   {
      "GoBack" : "1",
      "longitude" : "120.67292",
      "outDis" : "50",
      "Id" : "3102",
      "oid" : "6285",
      "districtId" : "1",
      "nameZh" : "頂太平　",
      "pgp" : "0",
      "terminal" : "0",
      "latitude" : "24.31004",
      "inDis" : "50",
      "routeId" : "225",
      "seqNo" : "33"
   },
   {
      "GoBack" : "1",
      "longitude" : "120.66874",
      "outDis" : "50",
      "Id" : "1848",
      "oid" : "5570",
      "districtId" : "1",
      "nameZh" : "五哩",
      "pgp" : "0",
      "terminal" : "0",
      "latitude" : "24.31041",
      "inDis" : "50",
      "routeId" : "225",
      "seqNo" : "34"
   },
   {
      "GoBack" : "1",
      "longitude" : "120.66434",
      "outDis" : "50",
      "Id" : "1613",
      "oid" : "5422",
      "districtId" : "1",
      "nameZh" : "公館仔",
      "pgp" : "0",
      "terminal" : "0",
      "latitude" : "24.31197",
      "inDis" : "50",
      "routeId" : "225",
      "seqNo" : "35"
   },
   {
      "GoBack" : "1",
      "longitude" : "120.65928",
      "outDis" : "50",
      "Id" : "1639",
      "oid" : "5441",
      "districtId" : "1",
      "nameZh" : "太平里",
      "pgp" : "0",
      "terminal" : "0",
      "latitude" : "24.31385",
      "inDis" : "50",
      "routeId" : "225",
      "seqNo" : "36"
   },
   {
      "GoBack" : "2",
      "longitude" : "120.65928",
      "outDis" : "50",
      "Id" : "1639",
      "oid" : "5441",
      "districtId" : "1",
      "nameZh" : "太平里",
      "pgp" : "0",
      "terminal" : "0",
      "latitude" : "24.31385",
      "inDis" : "50",
      "routeId" : "225",
      "seqNo" : "1"
   },
   {
      "GoBack" : "2",
      "longitude" : "120.66434",
      "outDis" : "50",
      "Id" : "1613",
      "oid" : "5422",
      "districtId" : "1",
      "nameZh" : "公館仔",
      "pgp" : "0",
      "terminal" : "0",
      "latitude" : "24.31197",
      "inDis" : "50",
      "routeId" : "225",
      "seqNo" : "2"
   },
   {
      "GoBack" : "2",
      "longitude" : "120.66874",
      "outDis" : "50",
      "Id" : "1848",
      "oid" : "5570",
      "districtId" : "1",
      "nameZh" : "五哩",
      "pgp" : "0",
      "terminal" : "0",
      "latitude" : "24.31041",
      "inDis" : "50",
      "routeId" : "225",
      "seqNo" : "3"
   },
   {
      "GoBack" : "2",
      "longitude" : "120.67292",
      "outDis" : "50",
      "Id" : "3102",
      "oid" : "6285",
      "districtId" : "1",
      "nameZh" : "頂太平　",
      "pgp" : "0",
      "terminal" : "0",
      "latitude" : "24.31004",
      "inDis" : "50",
      "routeId" : "225",
      "seqNo" : "4"
   },
   {
      "GoBack" : "2",
      "longitude" : "120.67728",
      "outDis" : "50",
      "Id" : "3093",
      "oid" : "6280",
      "districtId" : "1",
      "nameZh" : "頂口庄",
      "pgp" : "0",
      "terminal" : "0",
      "latitude" : "24.31046",
      "inDis" : "50",
      "routeId" : "225",
      "seqNo" : "5"
   },
   {
      "GoBack" : "2",
      "longitude" : "120.68074",
      "outDis" : "50",
      "Id" : "2266",
      "oid" : "5800",
      "districtId" : "1",
      "nameZh" : "育英國小",
      "pgp" : "0",
      "terminal" : "0",
      "latitude" : "24.3113",
      "inDis" : "50",
      "routeId" : "225",
      "seqNo" : "6"
   },
   {
      "GoBack" : "2",
      "longitude" : "120.6846",
      "outDis" : "50",
      "Id" : "1778",
      "oid" : "5519",
      "districtId" : "1",
      "nameZh" : "四月水門路口",
      "pgp" : "0",
      "terminal" : "0",
      "latitude" : "24.31136",
      "inDis" : "50",
      "routeId" : "225",
      "seqNo" : "7"
   },
   {
      "GoBack" : "2",
      "longitude" : "120.68729",
      "outDis" : "50",
      "Id" : "4455",
      "oid" : "5442",
      "districtId" : "1",
      "nameZh" : "甲后四月路口",
      "pgp" : "0",
      "terminal" : "0",
      "latitude" : "24.31224",
      "inDis" : "50",
      "routeId" : "225",
      "seqNo" : "8"
   },
   {
      "GoBack" : "2",
      "longitude" : "120.69262",
      "outDis" : "50",
      "Id" : "1683",
      "oid" : "5466",
      "districtId" : "1",
      "nameZh" : "月眉",
      "pgp" : "0",
      "terminal" : "0",
      "latitude" : "24.31389",
      "inDis" : "50",
      "routeId" : "225",
      "seqNo" : "9"
   },
   {
      "GoBack" : "2",
      "longitude" : "120.6951",
      "outDis" : "50",
      "Id" : "1689",
      "oid" : "5468",
      "districtId" : "1",
      "nameZh" : "月眉糖廠",
      "pgp" : "0",
      "terminal" : "0",
      "latitude" : "24.31351",
      "inDis" : "50",
      "routeId" : "225",
      "seqNo" : "10"
   },
   {
      "GoBack" : "2",
      "longitude" : "120.69621",
      "outDis" : "50",
      "Id" : "2469",
      "oid" : "5928",
      "districtId" : "1",
      "nameZh" : "松鶴酒莊",
      "pgp" : "0",
      "terminal" : "0",
      "latitude" : "24.31178",
      "inDis" : "50",
      "routeId" : "225",
      "seqNo" : "11"
   },
   {
      "GoBack" : "2",
      "longitude" : "120.69814",
      "outDis" : "50",
      "Id" : "0421",
      "oid" : "5326",
      "districtId" : "1",
      "nameZh" : "中和",
      "pgp" : "0",
      "terminal" : "0",
      "latitude" : "24.31041",
      "inDis" : "50",
      "routeId" : "225",
      "seqNo" : "12"
   },
   {
      "GoBack" : "2",
      "longitude" : "120.70587",
      "outDis" : "50",
      "Id" : "3309",
      "oid" : "6381",
      "districtId" : "1",
      "nameZh" : "雅藝公司",
      "pgp" : "0",
      "terminal" : "0",
      "latitude" : "24.30699",
      "inDis" : "50",
      "routeId" : "225",
      "seqNo" : "13"
   },
   {
      "GoBack" : "2",
      "longitude" : "120.70917",
      "outDis" : "50",
      "Id" : "4449",
      "oid" : "5504",
      "districtId" : "1",
      "nameZh" : "公安主和路口",
      "pgp" : "0",
      "terminal" : "0",
      "latitude" : "24.30554",
      "inDis" : "50",
      "routeId" : "225",
      "seqNo" : "14"
   },
   {
      "GoBack" : "2",
      "longitude" : "120.7107",
      "outDis" : "50",
      "Id" : "4504",
      "oid" : "303690762",
      "districtId" : "1",
      "nameZh" : "后里區公所",
      "pgp" : "0",
      "terminal" : "0",
      "latitude" : "24.30482",
      "inDis" : "50",
      "routeId" : "225",
      "seqNo" : "15"
   },
   {
      "GoBack" : "2",
      "longitude" : "120.7133",
      "outDis" : "50",
      "Id" : "1571",
      "oid" : "5393",
      "districtId" : "1",
      "nameZh" : "內埔市場",
      "pgp" : "0",
      "terminal" : "0",
      "latitude" : "24.30633",
      "inDis" : "50",
      "routeId" : "225",
      "seqNo" : "16"
   },
   {
      "GoBack" : "2",
      "longitude" : "120.71645",
      "outDis" : "50",
      "Id" : "4453",
      "oid" : "5459",
      "districtId" : "1",
      "nameZh" : "民生文明路口",
      "pgp" : "0",
      "terminal" : "0",
      "latitude" : "24.30747",
      "inDis" : "50",
      "routeId" : "225",
      "seqNo" : "17"
   },
   {
      "GoBack" : "2",
      "longitude" : "120.71765",
      "outDis" : "50",
      "Id" : "2651",
      "oid" : "6026",
      "districtId" : "1",
      "nameZh" : "后里電信局",
      "pgp" : "0",
      "terminal" : "0",
      "latitude" : "24.30969",
      "inDis" : "50",
      "routeId" : "225",
      "seqNo" : "18"
   },
   {
      "GoBack" : "2",
      "longitude" : "120.72164",
      "outDis" : "50",
      "Id" : "1169",
      "oid" : "5132",
      "districtId" : "1",
      "nameZh" : "下后里",
      "pgp" : "0",
      "terminal" : "0",
      "latitude" : "24.30903",
      "inDis" : "50",
      "routeId" : "225",
      "seqNo" : "19"
   },
   {
      "GoBack" : "2",
      "longitude" : "120.72203",
      "outDis" : "50",
      "Id" : "2991",
      "oid" : "6202",
      "districtId" : "1",
      "nameZh" : "啟明學校",
      "pgp" : "0",
      "terminal" : "0",
      "latitude" : "24.30511",
      "inDis" : "50",
      "routeId" : "225",
      "seqNo" : "20"
   },
   {
      "GoBack" : "2",
      "longitude" : "120.72242",
      "outDis" : "50",
      "Id" : "2592",
      "oid" : "5999",
      "districtId" : "1",
      "nameZh" : "南后里",
      "pgp" : "0",
      "terminal" : "0",
      "latitude" : "24.30335",
      "inDis" : "50",
      "routeId" : "225",
      "seqNo" : "21"
   },
   {
      "GoBack" : "2",
      "longitude" : "120.7233",
      "outDis" : "50",
      "Id" : "1737",
      "oid" : "5500",
      "districtId" : "1",
      "nameZh" : "牛稠坑",
      "pgp" : "0",
      "terminal" : "0",
      "latitude" : "24.29968",
      "inDis" : "50",
      "routeId" : "225",
      "seqNo" : "22"
   },
   {
      "GoBack" : "2",
      "longitude" : "120.72363",
      "outDis" : "50",
      "Id" : "2898",
      "oid" : "6164",
      "districtId" : "1",
      "nameZh" : "馬場入口",
      "pgp" : "0",
      "terminal" : "0",
      "latitude" : "24.29812",
      "inDis" : "50",
      "routeId" : "225",
      "seqNo" : "23"
   },
   {
      "GoBack" : "2",
      "longitude" : "120.72373",
      "outDis" : "50",
      "Id" : "0987",
      "oid" : "5025",
      "districtId" : "1",
      "nameZh" : "七星農場",
      "pgp" : "0",
      "terminal" : "0",
      "latitude" : "24.2933",
      "inDis" : "50",
      "routeId" : "225",
      "seqNo" : "24"
   },
   {
      "GoBack" : "2",
      "longitude" : "120.72322",
      "outDis" : "50",
      "Id" : "2374",
      "oid" : "5874",
      "districtId" : "1",
      "nameZh" : "枋寮",
      "pgp" : "0",
      "terminal" : "0",
      "latitude" : "24.28785",
      "inDis" : "50",
      "routeId" : "225",
      "seqNo" : "25"
   },
   {
      "GoBack" : "2",
      "longitude" : "120.72285",
      "outDis" : "50",
      "Id" : "1911",
      "oid" : "5605",
      "districtId" : "1",
      "nameZh" : "正隆紙廠",
      "pgp" : "0",
      "terminal" : "0",
      "latitude" : "24.28434",
      "inDis" : "50",
      "routeId" : "225",
      "seqNo" : "26"
   },
   {
      "GoBack" : "2",
      "longitude" : "120.72211",
      "outDis" : "50",
      "Id" : "3470",
      "oid" : "6481",
      "districtId" : "1",
      "nameZh" : "溪底",
      "pgp" : "0",
      "terminal" : "0",
      "latitude" : "24.27567",
      "inDis" : "50",
      "routeId" : "225",
      "seqNo" : "27"
   },
   {
      "GoBack" : "2",
      "longitude" : "120.7218",
      "outDis" : "50",
      "Id" : "3527",
      "oid" : "6503",
      "districtId" : "1",
      "nameZh" : "農會事業場",
      "pgp" : "0",
      "terminal" : "0",
      "latitude" : "24.27191",
      "inDis" : "50",
      "routeId" : "225",
      "seqNo" : "28"
   },
   {
      "GoBack" : "2",
      "longitude" : "120.72113",
      "outDis" : "50",
      "Id" : "3541",
      "oid" : "6508",
      "districtId" : "1",
      "nameZh" : "道班前",
      "pgp" : "0",
      "terminal" : "0",
      "latitude" : "24.26954",
      "inDis" : "50",
      "routeId" : "225",
      "seqNo" : "29"
   },
   {
      "GoBack" : "2",
      "longitude" : "120.72039",
      "outDis" : "50",
      "Id" : "3356",
      "oid" : "6405",
      "districtId" : "1",
      "nameZh" : "慈興宮",
      "pgp" : "0",
      "terminal" : "0",
      "latitude" : "24.26524",
      "inDis" : "50",
      "routeId" : "225",
      "seqNo" : "30"
   },
   {
      "GoBack" : "2",
      "longitude" : "120.71985",
      "outDis" : "50",
      "Id" : "4503",
      "oid" : "303690761",
      "districtId" : "1",
      "nameZh" : "豐原國中",
      "pgp" : "0",
      "terminal" : "0",
      "latitude" : "24.26141",
      "inDis" : "50",
      "routeId" : "225",
      "seqNo" : "31"
   },
   {
      "GoBack" : "2",
      "longitude" : "120.71947",
      "outDis" : "50",
      "Id" : "4493",
      "oid" : "13860",
      "districtId" : "1",
      "nameZh" : "新惠生醫院",
      "pgp" : "0",
      "terminal" : "0",
      "latitude" : "24.25808",
      "inDis" : "50",
      "routeId" : "225",
      "seqNo" : "32"
   },
   {
      "GoBack" : "2",
      "longitude" : "120.71866",
      "outDis" : "50",
      "Id" : "1269",
      "oid" : "5212",
      "districtId" : "1",
      "nameZh" : "大湳里",
      "pgp" : "0",
      "terminal" : "0",
      "latitude" : "24.25666",
      "inDis" : "50",
      "routeId" : "225",
      "seqNo" : "33"
   },
   {
      "GoBack" : "2",
      "longitude" : "120.71612",
      "outDis" : "50",
      "Id" : "2097",
      "oid" : "5710",
      "districtId" : "1",
      "nameZh" : "圳寮口",
      "pgp" : "0",
      "terminal" : "0",
      "latitude" : "24.25276",
      "inDis" : "50",
      "routeId" : "225",
      "seqNo" : "34"
   },
   {
      "GoBack" : "2",
      "longitude" : "120.7156",
      "outDis" : "50",
      "Id" : "3939",
      "oid" : "6699",
      "districtId" : "1",
      "nameZh" : "豐原郵局",
      "pgp" : "0",
      "terminal" : "0",
      "latitude" : "24.25141",
      "inDis" : "50",
      "routeId" : "225",
      "seqNo" : "35"
   },
   {
      "GoBack" : "2",
      "longitude" : "120.71865",
      "outDis" : "50",
      "Id" : "3343",
      "oid" : "6697",
      "districtId" : "1",
      "nameZh" : "媽祖廟",
      "pgp" : "0",
      "terminal" : "0",
      "latitude" : "24.25167",
      "inDis" : "50",
      "routeId" : "225",
      "seqNo" : "36"
   },
   {
      "GoBack" : "2",
      "longitude" : "120.7198",
      "outDis" : "50",
      "Id" : "2309",
      "oid" : "5836",
      "districtId" : "1",
      "nameZh" : "和平街",
      "pgp" : "0",
      "terminal" : "0",
      "latitude" : "24.25208",
      "inDis" : "50",
      "routeId" : "225",
      "seqNo" : "37"
   },
   {
      "GoBack" : "2",
      "longitude" : "120.72154",
      "outDis" : "70",
      "Id" : "3935",
      "oid" : "6693",
      "districtId" : "1",
      "nameZh" : "豐原",
      "pgp" : "0",
      "terminal" : "0",
      "latitude" : "24.2538",
      "inDis" : "70",
      "routeId" : "225",
      "seqNo" : "38"
   }
]
