[
   {
      "GoBack" : "1",
      "longitude" : "120.72154",
      "outDis" : "70",
      "Id" : "3935",
      "oid" : "6693",
      "districtId" : "1",
      "nameZh" : "豐原",
      "pgp" : "0",
      "terminal" : "0",
      "latitude" : "24.2538",
      "inDis" : "70",
      "routeId" : "218",
      "seqNo" : "1"
   },
   {
      "GoBack" : "1",
      "longitude" : "120.71851",
      "outDis" : "50",
      "Id" : "3343",
      "oid" : "6397",
      "districtId" : "1",
      "nameZh" : "媽祖廟",
      "pgp" : "0",
      "terminal" : "0",
      "latitude" : "24.25157",
      "inDis" : "50",
      "routeId" : "218",
      "seqNo" : "2"
   },
   {
      "GoBack" : "1",
      "longitude" : "120.71571",
      "outDis" : "50",
      "Id" : "2097",
      "oid" : "5711",
      "districtId" : "1",
      "nameZh" : "圳寮口",
      "pgp" : "0",
      "terminal" : "0",
      "latitude" : "24.25245",
      "inDis" : "50",
      "routeId" : "218",
      "seqNo" : "3"
   },
   {
      "GoBack" : "1",
      "longitude" : "120.71548",
      "outDis" : "50",
      "Id" : "2098",
      "oid" : "5714",
      "districtId" : "1",
      "nameZh" : "圳寮里",
      "pgp" : "0",
      "terminal" : "0",
      "latitude" : "24.25557",
      "inDis" : "50",
      "routeId" : "218",
      "seqNo" : "4"
   },
   {
      "GoBack" : "1",
      "longitude" : "120.71299",
      "outDis" : "50",
      "Id" : "4473",
      "oid" : "13846",
      "districtId" : "1",
      "nameZh" : "圓環北中山路口",
      "pgp" : "0",
      "terminal" : "0",
      "latitude" : "24.25583",
      "inDis" : "50",
      "routeId" : "218",
      "seqNo" : "5"
   },
   {
      "GoBack" : "1",
      "longitude" : "120.71133",
      "outDis" : "50",
      "Id" : "3458",
      "oid" : "6473",
      "districtId" : "1",
      "nameZh" : "源龍社區",
      "pgp" : "0",
      "terminal" : "0",
      "latitude" : "24.25835",
      "inDis" : "50",
      "routeId" : "218",
      "seqNo" : "6"
   },
   {
      "GoBack" : "1",
      "longitude" : "120.70844",
      "outDis" : "50",
      "Id" : "2021",
      "oid" : "5668",
      "districtId" : "1",
      "nameZh" : "石頭厝",
      "pgp" : "0",
      "terminal" : "0",
      "latitude" : "24.25975",
      "inDis" : "50",
      "routeId" : "218",
      "seqNo" : "7"
   },
   {
      "GoBack" : "1",
      "longitude" : "120.70375",
      "outDis" : "50",
      "Id" : "4967",
      "oid" : "308875008",
      "districtId" : "1",
      "nameZh" : "豐洲國小",
      "pgp" : "0",
      "terminal" : "0",
      "latitude" : "24.26201",
      "inDis" : "50",
      "routeId" : "218",
      "seqNo" : "8"
   },
   {
      "GoBack" : "1",
      "longitude" : "120.70408",
      "outDis" : "50",
      "Id" : "1323",
      "oid" : "5242",
      "districtId" : "1",
      "nameZh" : "豐洲大洲路口",
      "pgp" : "0",
      "terminal" : "0",
      "latitude" : "24.26187",
      "inDis" : "50",
      "routeId" : "218",
      "seqNo" : "9"
   },
   {
      "GoBack" : "1",
      "longitude" : "120.69606",
      "outDis" : "50",
      "Id" : "2655",
      "oid" : "6029",
      "districtId" : "1",
      "nameZh" : "後壁厝",
      "pgp" : "0",
      "terminal" : "0",
      "latitude" : "24.26555",
      "inDis" : "50",
      "routeId" : "218",
      "seqNo" : "10"
   },
   {
      "GoBack" : "1",
      "longitude" : "120.69073",
      "outDis" : "50",
      "Id" : "2840",
      "oid" : "6143",
      "districtId" : "1",
      "nameZh" : "神洲",
      "pgp" : "0",
      "terminal" : "0",
      "latitude" : "24.26621",
      "inDis" : "50",
      "routeId" : "218",
      "seqNo" : "11"
   },
   {
      "GoBack" : "1",
      "longitude" : "120.68592",
      "outDis" : "50",
      "Id" : "1496",
      "oid" : "5346",
      "districtId" : "1",
      "nameZh" : "中寮",
      "pgp" : "0",
      "terminal" : "0",
      "latitude" : "24.26797",
      "inDis" : "50",
      "routeId" : "218",
      "seqNo" : "12"
   },
   {
      "GoBack" : "1",
      "longitude" : "120.68296",
      "outDis" : "50",
      "Id" : "1143",
      "oid" : "5123",
      "districtId" : "1",
      "nameZh" : "下圳寮",
      "pgp" : "0",
      "terminal" : "0",
      "latitude" : "24.26933",
      "inDis" : "50",
      "routeId" : "218",
      "seqNo" : "13"
   },
   {
      "GoBack" : "1",
      "longitude" : "120.68095",
      "outDis" : "50",
      "Id" : "3934",
      "oid" : "6691",
      "districtId" : "1",
      "nameZh" : "豐洲",
      "pgp" : "0",
      "terminal" : "0",
      "latitude" : "24.26727",
      "inDis" : "50",
      "routeId" : "218",
      "seqNo" : "14"
   },
   {
      "GoBack" : "1",
      "longitude" : "120.67957",
      "outDis" : "50",
      "Id" : "1205",
      "oid" : "5157",
      "districtId" : "1",
      "nameZh" : "下溪洲",
      "pgp" : "0",
      "terminal" : "0",
      "latitude" : "24.26597",
      "inDis" : "50",
      "routeId" : "218",
      "seqNo" : "15"
   },
   {
      "GoBack" : "1",
      "longitude" : "120.67765",
      "outDis" : "50",
      "Id" : "4945",
      "oid" : "308890940",
      "districtId" : "1",
      "nameZh" : "崎腳",
      "pgp" : "0",
      "terminal" : "0",
      "latitude" : "24.26491",
      "inDis" : "50",
      "routeId" : "218",
      "seqNo" : "16"
   },
   {
      "GoBack" : "2",
      "longitude" : "120.67765",
      "outDis" : "50",
      "Id" : "4945",
      "oid" : "308890940",
      "districtId" : "1",
      "nameZh" : "崎腳",
      "pgp" : "0",
      "terminal" : "0",
      "latitude" : "24.26491",
      "inDis" : "50",
      "routeId" : "218",
      "seqNo" : "1"
   },
   {
      "GoBack" : "2",
      "longitude" : "120.67957",
      "outDis" : "50",
      "Id" : "1205",
      "oid" : "5157",
      "districtId" : "1",
      "nameZh" : "下溪洲",
      "pgp" : "0",
      "terminal" : "0",
      "latitude" : "24.26597",
      "inDis" : "50",
      "routeId" : "218",
      "seqNo" : "3"
   },
   {
      "GoBack" : "2",
      "longitude" : "120.68095",
      "outDis" : "50",
      "Id" : "3934",
      "oid" : "6691",
      "districtId" : "1",
      "nameZh" : "豐洲",
      "pgp" : "0",
      "terminal" : "0",
      "latitude" : "24.26727",
      "inDis" : "50",
      "routeId" : "218",
      "seqNo" : "4"
   },
   {
      "GoBack" : "2",
      "longitude" : "120.68296",
      "outDis" : "50",
      "Id" : "1143",
      "oid" : "5123",
      "districtId" : "1",
      "nameZh" : "下圳寮",
      "pgp" : "0",
      "terminal" : "0",
      "latitude" : "24.26933",
      "inDis" : "50",
      "routeId" : "218",
      "seqNo" : "5"
   },
   {
      "GoBack" : "2",
      "longitude" : "120.68592",
      "outDis" : "50",
      "Id" : "1496",
      "oid" : "5346",
      "districtId" : "1",
      "nameZh" : "中寮",
      "pgp" : "0",
      "terminal" : "0",
      "latitude" : "24.26797",
      "inDis" : "50",
      "routeId" : "218",
      "seqNo" : "6"
   },
   {
      "GoBack" : "2",
      "longitude" : "120.69073",
      "outDis" : "50",
      "Id" : "2840",
      "oid" : "6143",
      "districtId" : "1",
      "nameZh" : "神洲",
      "pgp" : "0",
      "terminal" : "0",
      "latitude" : "24.26621",
      "inDis" : "50",
      "routeId" : "218",
      "seqNo" : "7"
   },
   {
      "GoBack" : "2",
      "longitude" : "120.69606",
      "outDis" : "50",
      "Id" : "2655",
      "oid" : "6029",
      "districtId" : "1",
      "nameZh" : "後壁厝",
      "pgp" : "0",
      "terminal" : "0",
      "latitude" : "24.26555",
      "inDis" : "50",
      "routeId" : "218",
      "seqNo" : "8"
   },
   {
      "GoBack" : "2",
      "longitude" : "120.70408",
      "outDis" : "50",
      "Id" : "1323",
      "oid" : "5242",
      "districtId" : "1",
      "nameZh" : "豐洲大洲路口",
      "pgp" : "0",
      "terminal" : "0",
      "latitude" : "24.26187",
      "inDis" : "50",
      "routeId" : "218",
      "seqNo" : "9"
   },
   {
      "GoBack" : "2",
      "longitude" : "120.70375",
      "outDis" : "50",
      "Id" : "4967",
      "oid" : "308875008",
      "districtId" : "1",
      "nameZh" : "豐洲國小",
      "pgp" : "0",
      "terminal" : "0",
      "latitude" : "24.26201",
      "inDis" : "50",
      "routeId" : "218",
      "seqNo" : "10"
   },
   {
      "GoBack" : "2",
      "longitude" : "120.70844",
      "outDis" : "50",
      "Id" : "2021",
      "oid" : "5668",
      "districtId" : "1",
      "nameZh" : "石頭厝",
      "pgp" : "0",
      "terminal" : "0",
      "latitude" : "24.25975",
      "inDis" : "50",
      "routeId" : "218",
      "seqNo" : "11"
   },
   {
      "GoBack" : "2",
      "longitude" : "120.71133",
      "outDis" : "50",
      "Id" : "3458",
      "oid" : "6473",
      "districtId" : "1",
      "nameZh" : "源龍社區",
      "pgp" : "0",
      "terminal" : "0",
      "latitude" : "24.25835",
      "inDis" : "50",
      "routeId" : "218",
      "seqNo" : "12"
   },
   {
      "GoBack" : "2",
      "longitude" : "120.71299",
      "outDis" : "50",
      "Id" : "4473",
      "oid" : "13846",
      "districtId" : "1",
      "nameZh" : "圓環北中山路口",
      "pgp" : "0",
      "terminal" : "0",
      "latitude" : "24.25583",
      "inDis" : "50",
      "routeId" : "218",
      "seqNo" : "13"
   },
   {
      "GoBack" : "2",
      "longitude" : "120.71548",
      "outDis" : "50",
      "Id" : "2098",
      "oid" : "5714",
      "districtId" : "1",
      "nameZh" : "圳寮里",
      "pgp" : "0",
      "terminal" : "0",
      "latitude" : "24.25557",
      "inDis" : "50",
      "routeId" : "218",
      "seqNo" : "14"
   },
   {
      "GoBack" : "2",
      "longitude" : "120.71571",
      "outDis" : "50",
      "Id" : "2097",
      "oid" : "5711",
      "districtId" : "1",
      "nameZh" : "圳寮口",
      "pgp" : "0",
      "terminal" : "0",
      "latitude" : "24.25245",
      "inDis" : "50",
      "routeId" : "218",
      "seqNo" : "15"
   },
   {
      "GoBack" : "2",
      "longitude" : "120.71526",
      "outDis" : "50",
      "Id" : "3939",
      "oid" : "13243",
      "districtId" : "1",
      "nameZh" : "豐原郵局",
      "pgp" : "0",
      "terminal" : "0",
      "latitude" : "24.25136",
      "inDis" : "50",
      "routeId" : "218",
      "seqNo" : "16"
   },
   {
      "GoBack" : "2",
      "longitude" : "120.71851",
      "outDis" : "50",
      "Id" : "3343",
      "oid" : "6397",
      "districtId" : "1",
      "nameZh" : "媽祖廟",
      "pgp" : "0",
      "terminal" : "0",
      "latitude" : "24.25157",
      "inDis" : "50",
      "routeId" : "218",
      "seqNo" : "17"
   },
   {
      "GoBack" : "2",
      "longitude" : "120.71986",
      "outDis" : "50",
      "Id" : "2309",
      "oid" : "5835",
      "districtId" : "1",
      "nameZh" : "和平街",
      "pgp" : "0",
      "terminal" : "0",
      "latitude" : "24.25233",
      "inDis" : "50",
      "routeId" : "218",
      "seqNo" : "18"
   },
   {
      "GoBack" : "2",
      "longitude" : "120.72154",
      "outDis" : "70",
      "Id" : "3935",
      "oid" : "6693",
      "districtId" : "1",
      "nameZh" : "豐原",
      "pgp" : "0",
      "terminal" : "0",
      "latitude" : "24.2538",
      "inDis" : "70",
      "routeId" : "218",
      "seqNo" : "19"
   }
]
