[
   {
      "GoBack" : "1",
      "longitude" : "120.58253",
      "outDis" : "50",
      "Id" : "4061",
      "oid" : "13415",
      "districtId" : "1",
      "nameZh" : "下坪頂",
      "pgp" : "0",
      "terminal" : "0",
      "latitude" : "24.18754",
      "inDis" : "50",
      "routeId" : "57區",
      "seqNo" : "1"
   },
   {
      "GoBack" : "1",
      "longitude" : "120.58065",
      "outDis" : "50",
      "Id" : "4388",
      "oid" : "13482",
      "districtId" : "1",
      "nameZh" : "后厝仔",
      "pgp" : "0",
      "terminal" : "0",
      "latitude" : "24.19911",
      "inDis" : "50",
      "routeId" : "57區",
      "seqNo" : "2"
   },
   {
      "GoBack" : "1",
      "longitude" : "120.58144",
      "outDis" : "50",
      "Id" : "4136",
      "oid" : "13558",
      "districtId" : "1",
      "nameZh" : "祿清宮",
      "pgp" : "0",
      "terminal" : "0",
      "latitude" : "24.209",
      "inDis" : "50",
      "routeId" : "57區",
      "seqNo" : "3"
   },
   {
      "GoBack" : "1",
      "longitude" : "120.58096",
      "outDis" : "50",
      "Id" : "4124",
      "oid" : "13535",
      "districtId" : "1",
      "nameZh" : "頂六路",
      "pgp" : "0",
      "terminal" : "0",
      "latitude" : "24.21314",
      "inDis" : "50",
      "routeId" : "57區",
      "seqNo" : "4"
   },
   {
      "GoBack" : "1",
      "longitude" : "120.58041",
      "outDis" : "50",
      "Id" : "4386",
      "oid" : "13477",
      "districtId" : "1",
      "nameZh" : "弘光科技大學",
      "pgp" : "0",
      "terminal" : "0",
      "latitude" : "24.21743",
      "inDis" : "50",
      "routeId" : "57區",
      "seqNo" : "5"
   },
   {
      "GoBack" : "1",
      "longitude" : "120.57956",
      "outDis" : "50",
      "Id" : "4111",
      "oid" : "13515",
      "districtId" : "1",
      "nameZh" : "晉江里",
      "pgp" : "0",
      "terminal" : "0",
      "latitude" : "24.22143",
      "inDis" : "50",
      "routeId" : "57區",
      "seqNo" : "6"
   },
   {
      "GoBack" : "1",
      "longitude" : "120.57829",
      "outDis" : "50",
      "Id" : "4062",
      "oid" : "13417",
      "districtId" : "1",
      "nameZh" : "下晉江",
      "pgp" : "0",
      "terminal" : "0",
      "latitude" : "24.22342",
      "inDis" : "50",
      "routeId" : "57區",
      "seqNo" : "7"
   },
   {
      "GoBack" : "1",
      "longitude" : "120.57674",
      "outDis" : "50",
      "Id" : "4147",
      "oid" : "13568",
      "districtId" : "1",
      "nameZh" : "靜宜大學",
      "pgp" : "0",
      "terminal" : "0",
      "latitude" : "24.22583",
      "inDis" : "50",
      "routeId" : "57區",
      "seqNo" : "8"
   },
   {
      "GoBack" : "1",
      "longitude" : "120.57389",
      "outDis" : "50",
      "Id" : "4086",
      "oid" : "13456",
      "districtId" : "1",
      "nameZh" : "臺灣大道北勢路口",
      "pgp" : "0",
      "terminal" : "0",
      "latitude" : "24.23028",
      "inDis" : "50",
      "routeId" : "57區",
      "seqNo" : "9"
   },
   {
      "GoBack" : "1",
      "longitude" : "120.57198",
      "outDis" : "100",
      "Id" : "4392",
      "oid" : "13510",
      "districtId" : "1",
      "nameZh" : "紅竹巷",
      "pgp" : "0",
      "terminal" : "0",
      "latitude" : "24.23325",
      "inDis" : "50",
      "routeId" : "57區",
      "seqNo" : "10"
   },
   {
      "GoBack" : "1",
      "longitude" : "120.57013",
      "outDis" : "50",
      "Id" : "4389",
      "oid" : "13483",
      "districtId" : "1",
      "nameZh" : "竹林里",
      "pgp" : "0",
      "terminal" : "0",
      "latitude" : "24.23609",
      "inDis" : "50",
      "routeId" : "57區",
      "seqNo" : "11"
   },
   {
      "GoBack" : "1",
      "longitude" : "120.56774",
      "outDis" : "50",
      "Id" : "2147",
      "oid" : "13487",
      "districtId" : "1",
      "nameZh" : "竹林國小",
      "pgp" : "0",
      "terminal" : "0",
      "latitude" : "24.23847",
      "inDis" : "50",
      "routeId" : "57區",
      "seqNo" : "12"
   },
   {
      "GoBack" : "1",
      "longitude" : "120.56535",
      "outDis" : "50",
      "Id" : "0005",
      "oid" : "13493",
      "districtId" : "1",
      "nameZh" : "沙鹿高工(臺灣大道)",
      "pgp" : "0",
      "terminal" : "0",
      "latitude" : "24.23926",
      "inDis" : "50",
      "routeId" : "57區",
      "seqNo" : "13"
   },
   {
      "GoBack" : "1",
      "longitude" : "120.56346",
      "outDis" : "50",
      "Id" : "2335",
      "oid" : "13498",
      "districtId" : "1",
      "nameZh" : "居仁里",
      "pgp" : "0",
      "terminal" : "0",
      "latitude" : "24.24007",
      "inDis" : "50",
      "routeId" : "57區",
      "seqNo" : "14"
   },
   {
      "GoBack" : "1",
      "longitude" : "120.5612",
      "outDis" : "50",
      "Id" : "5388",
      "oid" : "312690453",
      "districtId" : "1",
      "nameZh" : "臺灣大道中山路口",
      "pgp" : "0",
      "terminal" : "0",
      "latitude" : "24.24064",
      "inDis" : "50",
      "routeId" : "57區",
      "seqNo" : "15"
   },
   {
      "GoBack" : "1",
      "longitude" : "120.55632",
      "outDis" : "50",
      "Id" : "1482",
      "oid" : "13441",
      "districtId" : "1",
      "nameZh" : "中港國小",
      "pgp" : "0",
      "terminal" : "0",
      "latitude" : "24.24264",
      "inDis" : "50",
      "routeId" : "57區",
      "seqNo" : "16"
   },
   {
      "GoBack" : "1",
      "longitude" : "120.54926",
      "outDis" : "50",
      "Id" : "1088",
      "oid" : "13410",
      "districtId" : "1",
      "nameZh" : "三條圳",
      "pgp" : "0",
      "terminal" : "0",
      "latitude" : "24.24518",
      "inDis" : "50",
      "routeId" : "57區",
      "seqNo" : "17"
   },
   {
      "GoBack" : "1",
      "longitude" : "120.54645",
      "outDis" : "50",
      "Id" : "2380",
      "oid" : "13503",
      "districtId" : "1",
      "nameZh" : "東大庄",
      "pgp" : "0",
      "terminal" : "0",
      "latitude" : "24.24624",
      "inDis" : "50",
      "routeId" : "57區",
      "seqNo" : "18"
   },
   {
      "GoBack" : "1",
      "longitude" : "120.54472",
      "outDis" : "50",
      "Id" : "4007",
      "oid" : "17392",
      "districtId" : "1",
      "nameZh" : "體育館前",
      "pgp" : "0",
      "terminal" : "0",
      "latitude" : "24.2471",
      "inDis" : "50",
      "routeId" : "57區",
      "seqNo" : "19"
   },
   {
      "GoBack" : "1",
      "longitude" : "120.5426",
      "outDis" : "50",
      "Id" : "4041",
      "oid" : "13556",
      "districtId" : "1",
      "nameZh" : "童綜合醫院(梧棲院區)",
      "pgp" : "0",
      "terminal" : "0",
      "latitude" : "24.24763",
      "inDis" : "50",
      "routeId" : "57區",
      "seqNo" : "20"
   },
   {
      "GoBack" : "1",
      "longitude" : "120.54117",
      "outDis" : "50",
      "Id" : "4824",
      "oid" : "17394",
      "districtId" : "1",
      "nameZh" : "邱厝庄",
      "pgp" : "0",
      "terminal" : "0",
      "latitude" : "24.24818",
      "inDis" : "50",
      "routeId" : "57區",
      "seqNo" : "21"
   },
   {
      "GoBack" : "1",
      "longitude" : "120.53911",
      "outDis" : "50",
      "Id" : "1334",
      "oid" : "13421",
      "districtId" : "1",
      "nameZh" : "大莊",
      "pgp" : "0",
      "terminal" : "0",
      "latitude" : "24.24891",
      "inDis" : "50",
      "routeId" : "57區",
      "seqNo" : "22"
   },
   {
      "GoBack" : "1",
      "longitude" : "120.53254",
      "outDis" : "50",
      "Id" : "3250",
      "oid" : "13544",
      "districtId" : "1",
      "nameZh" : "臺灣大道港埠路口",
      "pgp" : "0",
      "terminal" : "0",
      "latitude" : "24.2513",
      "inDis" : "50",
      "routeId" : "57區",
      "seqNo" : "23"
   },
   {
      "GoBack" : "1",
      "longitude" : "120.53075",
      "outDis" : "50",
      "Id" : "2999",
      "oid" : "13522",
      "districtId" : "1",
      "nameZh" : "梧棲國小",
      "pgp" : "0",
      "terminal" : "0",
      "latitude" : "24.25184",
      "inDis" : "50",
      "routeId" : "57區",
      "seqNo" : "24"
   },
   {
      "GoBack" : "1",
      "longitude" : "120.53029",
      "outDis" : "50",
      "Id" : "4393",
      "oid" : "13524",
      "districtId" : "1",
      "nameZh" : "梧棲農會",
      "pgp" : "0",
      "terminal" : "0",
      "latitude" : "24.25433",
      "inDis" : "50",
      "routeId" : "57區",
      "seqNo" : "25"
   },
   {
      "GoBack" : "1",
      "longitude" : "120.53155",
      "outDis" : "50",
      "Id" : "2997",
      "oid" : "13520",
      "districtId" : "1",
      "nameZh" : "梧棲(文化路)",
      "pgp" : "0",
      "terminal" : "0",
      "latitude" : "24.2572",
      "inDis" : "50",
      "routeId" : "57區",
      "seqNo" : "26"
   },
   {
      "GoBack" : "1",
      "longitude" : "120.53213",
      "outDis" : "50",
      "Id" : "4668",
      "oid" : "13518",
      "districtId" : "1",
      "nameZh" : "頂寮里",
      "pgp" : "0",
      "terminal" : "0",
      "latitude" : "24.26035",
      "inDis" : "50",
      "routeId" : "57區",
      "seqNo" : "27"
   },
   {
      "GoBack" : "1",
      "longitude" : "120.52999",
      "outDis" : "50",
      "Id" : "4374",
      "oid" : "13423",
      "districtId" : "1",
      "nameZh" : "大智梧北路口",
      "pgp" : "0",
      "terminal" : "0",
      "latitude" : "24.26117",
      "inDis" : "50",
      "routeId" : "57區",
      "seqNo" : "28"
   },
   {
      "GoBack" : "1",
      "longitude" : "120.53144",
      "outDis" : "50",
      "Id" : "4397",
      "oid" : "13547",
      "districtId" : "1",
      "nameZh" : "港灣技術中心",
      "pgp" : "0",
      "terminal" : "0",
      "latitude" : "24.26981",
      "inDis" : "50",
      "routeId" : "57區",
      "seqNo" : "29"
   },
   {
      "GoBack" : "1",
      "longitude" : "120.53229",
      "outDis" : "50",
      "Id" : "5058",
      "oid" : "309863808",
      "districtId" : "1",
      "nameZh" : "舶來品商圈",
      "pgp" : "0",
      "terminal" : "0",
      "latitude" : "24.27162",
      "inDis" : "50",
      "routeId" : "57區",
      "seqNo" : "30"
   },
   {
      "GoBack" : "1",
      "longitude" : "120.5331",
      "outDis" : "50",
      "Id" : "5066",
      "oid" : "309863816",
      "districtId" : "1",
      "nameZh" : "環球大樓",
      "pgp" : "0",
      "terminal" : "0",
      "latitude" : "24.27372",
      "inDis" : "50",
      "routeId" : "57區",
      "seqNo" : "31"
   },
   {
      "GoBack" : "1",
      "longitude" : "120.53443",
      "outDis" : "50",
      "Id" : "2996",
      "oid" : "13519",
      "districtId" : "1",
      "nameZh" : "梧棟",
      "pgp" : "0",
      "terminal" : "0",
      "latitude" : "24.27683",
      "inDis" : "50",
      "routeId" : "57區",
      "seqNo" : "32"
   },
   {
      "GoBack" : "1",
      "longitude" : "120.53535",
      "outDis" : "50",
      "Id" : "2657",
      "oid" : "13508",
      "districtId" : "1",
      "nameZh" : "後營門口",
      "pgp" : "0",
      "terminal" : "0",
      "latitude" : "24.279",
      "inDis" : "50",
      "routeId" : "57區",
      "seqNo" : "33"
   },
   {
      "GoBack" : "1",
      "longitude" : "120.53681",
      "outDis" : "50",
      "Id" : "2180",
      "oid" : "13489",
      "districtId" : "1",
      "nameZh" : "西瓜寮",
      "pgp" : "0",
      "terminal" : "0",
      "latitude" : "24.28245",
      "inDis" : "50",
      "routeId" : "57區",
      "seqNo" : "34"
   },
   {
      "GoBack" : "1",
      "longitude" : "120.5395",
      "outDis" : "50",
      "Id" : "5063",
      "oid" : "13453",
      "districtId" : "1",
      "nameZh" : "臺中港北堤",
      "pgp" : "0",
      "terminal" : "0",
      "latitude" : "24.28828",
      "inDis" : "50",
      "routeId" : "57區",
      "seqNo" : "35"
   },
   {
      "GoBack" : "1",
      "longitude" : "120.52527",
      "outDis" : "50",
      "Id" : "4394",
      "oid" : "13525",
      "districtId" : "1",
      "nameZh" : "梧棲觀光漁港",
      "pgp" : "0",
      "terminal" : "0",
      "latitude" : "24.2923",
      "inDis" : "50",
      "routeId" : "57區",
      "seqNo" : "36"
   },
   {
      "GoBack" : "2",
      "longitude" : "120.52527",
      "outDis" : "50",
      "Id" : "4394",
      "oid" : "13525",
      "districtId" : "1",
      "nameZh" : "梧棲觀光漁港",
      "pgp" : "0",
      "terminal" : "0",
      "latitude" : "24.2923",
      "inDis" : "50",
      "routeId" : "57區",
      "seqNo" : "1"
   },
   {
      "GoBack" : "2",
      "longitude" : "120.5395",
      "outDis" : "50",
      "Id" : "5063",
      "oid" : "13453",
      "districtId" : "1",
      "nameZh" : "臺中港北堤",
      "pgp" : "0",
      "terminal" : "0",
      "latitude" : "24.28828",
      "inDis" : "50",
      "routeId" : "57區",
      "seqNo" : "2"
   },
   {
      "GoBack" : "2",
      "longitude" : "120.53681",
      "outDis" : "50",
      "Id" : "2180",
      "oid" : "13489",
      "districtId" : "1",
      "nameZh" : "西瓜寮",
      "pgp" : "0",
      "terminal" : "0",
      "latitude" : "24.28245",
      "inDis" : "50",
      "routeId" : "57區",
      "seqNo" : "3"
   },
   {
      "GoBack" : "2",
      "longitude" : "120.53535",
      "outDis" : "50",
      "Id" : "2657",
      "oid" : "13508",
      "districtId" : "1",
      "nameZh" : "後營門口",
      "pgp" : "0",
      "terminal" : "0",
      "latitude" : "24.279",
      "inDis" : "50",
      "routeId" : "57區",
      "seqNo" : "4"
   },
   {
      "GoBack" : "2",
      "longitude" : "120.53443",
      "outDis" : "50",
      "Id" : "2996",
      "oid" : "13519",
      "districtId" : "1",
      "nameZh" : "梧棟",
      "pgp" : "0",
      "terminal" : "0",
      "latitude" : "24.27683",
      "inDis" : "50",
      "routeId" : "57區",
      "seqNo" : "5"
   },
   {
      "GoBack" : "2",
      "longitude" : "120.5331",
      "outDis" : "50",
      "Id" : "5066",
      "oid" : "309863816",
      "districtId" : "1",
      "nameZh" : "環球大樓",
      "pgp" : "0",
      "terminal" : "0",
      "latitude" : "24.27372",
      "inDis" : "50",
      "routeId" : "57區",
      "seqNo" : "6"
   },
   {
      "GoBack" : "2",
      "longitude" : "120.53229",
      "outDis" : "50",
      "Id" : "5058",
      "oid" : "309863808",
      "districtId" : "1",
      "nameZh" : "舶來品商圈",
      "pgp" : "0",
      "terminal" : "0",
      "latitude" : "24.27162",
      "inDis" : "50",
      "routeId" : "57區",
      "seqNo" : "7"
   },
   {
      "GoBack" : "2",
      "longitude" : "120.53144",
      "outDis" : "50",
      "Id" : "4397",
      "oid" : "13547",
      "districtId" : "1",
      "nameZh" : "港灣技術中心",
      "pgp" : "0",
      "terminal" : "0",
      "latitude" : "24.26981",
      "inDis" : "50",
      "routeId" : "57區",
      "seqNo" : "8"
   },
   {
      "GoBack" : "2",
      "longitude" : "120.52999",
      "outDis" : "50",
      "Id" : "4374",
      "oid" : "13423",
      "districtId" : "1",
      "nameZh" : "大智梧北路口",
      "pgp" : "0",
      "terminal" : "0",
      "latitude" : "24.26117",
      "inDis" : "50",
      "routeId" : "57區",
      "seqNo" : "9"
   },
   {
      "GoBack" : "2",
      "longitude" : "120.53213",
      "outDis" : "50",
      "Id" : "4668",
      "oid" : "13518",
      "districtId" : "1",
      "nameZh" : "頂寮里",
      "pgp" : "0",
      "terminal" : "0",
      "latitude" : "24.26035",
      "inDis" : "50",
      "routeId" : "57區",
      "seqNo" : "10"
   },
   {
      "GoBack" : "2",
      "longitude" : "120.53155",
      "outDis" : "50",
      "Id" : "2997",
      "oid" : "13520",
      "districtId" : "1",
      "nameZh" : "梧棲(文化路)",
      "pgp" : "0",
      "terminal" : "0",
      "latitude" : "24.2572",
      "inDis" : "50",
      "routeId" : "57區",
      "seqNo" : "11"
   },
   {
      "GoBack" : "2",
      "longitude" : "120.53029",
      "outDis" : "50",
      "Id" : "4393",
      "oid" : "13524",
      "districtId" : "1",
      "nameZh" : "梧棲農會",
      "pgp" : "0",
      "terminal" : "0",
      "latitude" : "24.25433",
      "inDis" : "50",
      "routeId" : "57區",
      "seqNo" : "12"
   },
   {
      "GoBack" : "2",
      "longitude" : "120.53075",
      "outDis" : "50",
      "Id" : "2999",
      "oid" : "13522",
      "districtId" : "1",
      "nameZh" : "梧棲國小",
      "pgp" : "0",
      "terminal" : "0",
      "latitude" : "24.25184",
      "inDis" : "50",
      "routeId" : "57區",
      "seqNo" : "13"
   },
   {
      "GoBack" : "2",
      "longitude" : "120.53254",
      "outDis" : "50",
      "Id" : "3250",
      "oid" : "13544",
      "districtId" : "1",
      "nameZh" : "臺灣大道港埠路口",
      "pgp" : "0",
      "terminal" : "0",
      "latitude" : "24.2513",
      "inDis" : "50",
      "routeId" : "57區",
      "seqNo" : "14"
   },
   {
      "GoBack" : "2",
      "longitude" : "120.53911",
      "outDis" : "50",
      "Id" : "1334",
      "oid" : "13421",
      "districtId" : "1",
      "nameZh" : "大莊",
      "pgp" : "0",
      "terminal" : "0",
      "latitude" : "24.24891",
      "inDis" : "50",
      "routeId" : "57區",
      "seqNo" : "15"
   },
   {
      "GoBack" : "2",
      "longitude" : "120.54117",
      "outDis" : "50",
      "Id" : "4824",
      "oid" : "17445",
      "districtId" : "1",
      "nameZh" : "邱厝庄",
      "pgp" : "0",
      "terminal" : "0",
      "latitude" : "24.24818",
      "inDis" : "50",
      "routeId" : "57區",
      "seqNo" : "16"
   },
   {
      "GoBack" : "2",
      "longitude" : "120.5426",
      "outDis" : "50",
      "Id" : "4041",
      "oid" : "13556",
      "districtId" : "1",
      "nameZh" : "童綜合醫院(梧棲院區)",
      "pgp" : "0",
      "terminal" : "0",
      "latitude" : "24.24763",
      "inDis" : "50",
      "routeId" : "57區",
      "seqNo" : "17"
   },
   {
      "GoBack" : "2",
      "longitude" : "120.54472",
      "outDis" : "50",
      "Id" : "4007",
      "oid" : "17447",
      "districtId" : "1",
      "nameZh" : "體育館前",
      "pgp" : "0",
      "terminal" : "0",
      "latitude" : "24.2471",
      "inDis" : "50",
      "routeId" : "57區",
      "seqNo" : "18"
   },
   {
      "GoBack" : "2",
      "longitude" : "120.54645",
      "outDis" : "50",
      "Id" : "2380",
      "oid" : "13503",
      "districtId" : "1",
      "nameZh" : "東大庄",
      "pgp" : "0",
      "terminal" : "0",
      "latitude" : "24.24624",
      "inDis" : "50",
      "routeId" : "57區",
      "seqNo" : "19"
   },
   {
      "GoBack" : "2",
      "longitude" : "120.54926",
      "outDis" : "50",
      "Id" : "1088",
      "oid" : "13410",
      "districtId" : "1",
      "nameZh" : "三條圳",
      "pgp" : "0",
      "terminal" : "0",
      "latitude" : "24.24518",
      "inDis" : "50",
      "routeId" : "57區",
      "seqNo" : "20"
   },
   {
      "GoBack" : "2",
      "longitude" : "120.55632",
      "outDis" : "50",
      "Id" : "1482",
      "oid" : "13441",
      "districtId" : "1",
      "nameZh" : "中港國小",
      "pgp" : "0",
      "terminal" : "0",
      "latitude" : "24.24264",
      "inDis" : "50",
      "routeId" : "57區",
      "seqNo" : "21"
   },
   {
      "GoBack" : "2",
      "longitude" : "120.5612",
      "outDis" : "50",
      "Id" : "5388",
      "oid" : "312690453",
      "districtId" : "1",
      "nameZh" : "臺灣大道中山路口",
      "pgp" : "0",
      "terminal" : "0",
      "latitude" : "24.24064",
      "inDis" : "50",
      "routeId" : "57區",
      "seqNo" : "22"
   },
   {
      "GoBack" : "2",
      "longitude" : "120.56346",
      "outDis" : "50",
      "Id" : "2335",
      "oid" : "13498",
      "districtId" : "1",
      "nameZh" : "居仁里",
      "pgp" : "0",
      "terminal" : "0",
      "latitude" : "24.24007",
      "inDis" : "50",
      "routeId" : "57區",
      "seqNo" : "23"
   },
   {
      "GoBack" : "2",
      "longitude" : "120.56535",
      "outDis" : "50",
      "Id" : "0005",
      "oid" : "13493",
      "districtId" : "1",
      "nameZh" : "沙鹿高工(臺灣大道)",
      "pgp" : "0",
      "terminal" : "0",
      "latitude" : "24.23926",
      "inDis" : "50",
      "routeId" : "57區",
      "seqNo" : "24"
   },
   {
      "GoBack" : "2",
      "longitude" : "120.56774",
      "outDis" : "50",
      "Id" : "2147",
      "oid" : "13487",
      "districtId" : "1",
      "nameZh" : "竹林國小",
      "pgp" : "0",
      "terminal" : "0",
      "latitude" : "24.23847",
      "inDis" : "50",
      "routeId" : "57區",
      "seqNo" : "25"
   },
   {
      "GoBack" : "2",
      "longitude" : "120.57013",
      "outDis" : "50",
      "Id" : "4389",
      "oid" : "13483",
      "districtId" : "1",
      "nameZh" : "竹林里",
      "pgp" : "0",
      "terminal" : "0",
      "latitude" : "24.23609",
      "inDis" : "50",
      "routeId" : "57區",
      "seqNo" : "26"
   },
   {
      "GoBack" : "2",
      "longitude" : "120.57198",
      "outDis" : "100",
      "Id" : "4392",
      "oid" : "13510",
      "districtId" : "1",
      "nameZh" : "紅竹巷",
      "pgp" : "0",
      "terminal" : "0",
      "latitude" : "24.23325",
      "inDis" : "50",
      "routeId" : "57區",
      "seqNo" : "27"
   },
   {
      "GoBack" : "2",
      "longitude" : "120.57389",
      "outDis" : "50",
      "Id" : "4086",
      "oid" : "13456",
      "districtId" : "1",
      "nameZh" : "臺灣大道北勢路口",
      "pgp" : "0",
      "terminal" : "0",
      "latitude" : "24.23028",
      "inDis" : "50",
      "routeId" : "57區",
      "seqNo" : "28"
   },
   {
      "GoBack" : "2",
      "longitude" : "120.57674",
      "outDis" : "50",
      "Id" : "4147",
      "oid" : "13568",
      "districtId" : "1",
      "nameZh" : "靜宜大學",
      "pgp" : "0",
      "terminal" : "0",
      "latitude" : "24.22583",
      "inDis" : "50",
      "routeId" : "57區",
      "seqNo" : "29"
   },
   {
      "GoBack" : "2",
      "longitude" : "120.57829",
      "outDis" : "50",
      "Id" : "4062",
      "oid" : "13417",
      "districtId" : "1",
      "nameZh" : "下晉江",
      "pgp" : "0",
      "terminal" : "0",
      "latitude" : "24.22342",
      "inDis" : "50",
      "routeId" : "57區",
      "seqNo" : "30"
   },
   {
      "GoBack" : "2",
      "longitude" : "120.57956",
      "outDis" : "50",
      "Id" : "4111",
      "oid" : "13515",
      "districtId" : "1",
      "nameZh" : "晉江里",
      "pgp" : "0",
      "terminal" : "0",
      "latitude" : "24.22143",
      "inDis" : "50",
      "routeId" : "57區",
      "seqNo" : "31"
   },
   {
      "GoBack" : "2",
      "longitude" : "120.58041",
      "outDis" : "50",
      "Id" : "4386",
      "oid" : "13477",
      "districtId" : "1",
      "nameZh" : "弘光科技大學",
      "pgp" : "0",
      "terminal" : "0",
      "latitude" : "24.21743",
      "inDis" : "50",
      "routeId" : "57區",
      "seqNo" : "32"
   },
   {
      "GoBack" : "2",
      "longitude" : "120.58096",
      "outDis" : "50",
      "Id" : "4124",
      "oid" : "13535",
      "districtId" : "1",
      "nameZh" : "頂六路",
      "pgp" : "0",
      "terminal" : "0",
      "latitude" : "24.21314",
      "inDis" : "50",
      "routeId" : "57區",
      "seqNo" : "33"
   },
   {
      "GoBack" : "2",
      "longitude" : "120.58144",
      "outDis" : "50",
      "Id" : "4136",
      "oid" : "13558",
      "districtId" : "1",
      "nameZh" : "祿清宮",
      "pgp" : "0",
      "terminal" : "0",
      "latitude" : "24.209",
      "inDis" : "50",
      "routeId" : "57區",
      "seqNo" : "34"
   },
   {
      "GoBack" : "2",
      "longitude" : "120.58065",
      "outDis" : "50",
      "Id" : "4388",
      "oid" : "13482",
      "districtId" : "1",
      "nameZh" : "后厝仔",
      "pgp" : "0",
      "terminal" : "0",
      "latitude" : "24.19911",
      "inDis" : "50",
      "routeId" : "57區",
      "seqNo" : "35"
   },
   {
      "GoBack" : "2",
      "longitude" : "120.58253",
      "outDis" : "50",
      "Id" : "4061",
      "oid" : "13415",
      "districtId" : "1",
      "nameZh" : "下坪頂",
      "pgp" : "0",
      "terminal" : "0",
      "latitude" : "24.18754",
      "inDis" : "50",
      "routeId" : "57區",
      "seqNo" : "36"
   }
]
