[
   {
      "GoBack" : "1",
      "longitude" : "120.58224",
      "outDis" : "50",
      "Id" : "4137",
      "oid" : "13560",
      "districtId" : "1",
      "nameZh" : "嘉陽高中",
      "pgp" : "0",
      "terminal" : "0",
      "latitude" : "24.26578",
      "inDis" : "50",
      "routeId" : "162",
      "seqNo" : "1"
   },
   {
      "GoBack" : "1",
      "longitude" : "120.58787",
      "outDis" : "50",
      "Id" : "5033",
      "oid" : "309555541",
      "districtId" : "1",
      "nameZh" : "國仕加油站",
      "pgp" : "0",
      "terminal" : "0",
      "latitude" : "24.26416",
      "inDis" : "50",
      "routeId" : "162",
      "seqNo" : "2"
   },
   {
      "GoBack" : "1",
      "longitude" : "120.59513",
      "outDis" : "50",
      "Id" : "4083",
      "oid" : "13450",
      "districtId" : "1",
      "nameZh" : "公館國小",
      "pgp" : "0",
      "terminal" : "0",
      "latitude" : "24.26084",
      "inDis" : "50",
      "routeId" : "162",
      "seqNo" : "3"
   },
   {
      "GoBack" : "1",
      "longitude" : "120.5987",
      "outDis" : "50",
      "Id" : "4101",
      "oid" : "317773389",
      "districtId" : "1",
      "nameZh" : "西勢里",
      "pgp" : "0",
      "terminal" : "0",
      "latitude" : "24.25982",
      "inDis" : "50",
      "routeId" : "162",
      "seqNo" : "4"
   },
   {
      "GoBack" : "1",
      "longitude" : "120.60119",
      "outDis" : "50",
      "Id" : "5662",
      "oid" : "317773386",
      "districtId" : "1",
      "nameZh" : "中航和睦路口",
      "pgp" : "0",
      "terminal" : "0",
      "latitude" : "24.2578",
      "inDis" : "50",
      "routeId" : "162",
      "seqNo" : "5"
   },
   {
      "GoBack" : "1",
      "longitude" : "120.60003",
      "outDis" : "50",
      "Id" : "5381",
      "oid" : "312172944",
      "districtId" : "1",
      "nameZh" : "西勢十巷口",
      "pgp" : "0",
      "terminal" : "0",
      "latitude" : "24.25557",
      "inDis" : "50",
      "routeId" : "162",
      "seqNo" : "6"
   },
   {
      "GoBack" : "1",
      "longitude" : "120.59899",
      "outDis" : "50",
      "Id" : "0135",
      "oid" : "312174380",
      "districtId" : "1",
      "nameZh" : "臺中航空站",
      "pgp" : "0",
      "terminal" : "0",
      "latitude" : "24.25348",
      "inDis" : "50",
      "routeId" : "162",
      "seqNo" : "7"
   },
   {
      "GoBack" : "1",
      "longitude" : "120.59626",
      "outDis" : "50",
      "Id" : "2202",
      "oid" : "5767",
      "districtId" : "1",
      "nameZh" : "西勢寮",
      "pgp" : "0",
      "terminal" : "0",
      "latitude" : "24.25027",
      "inDis" : "50",
      "routeId" : "162",
      "seqNo" : "8"
   },
   {
      "GoBack" : "1",
      "longitude" : "120.57118",
      "outDis" : "50",
      "Id" : "3035",
      "oid" : "319559965",
      "districtId" : "1",
      "nameZh" : "犁分",
      "pgp" : "0",
      "terminal" : "0",
      "latitude" : "24.24204",
      "inDis" : "50",
      "routeId" : "162",
      "seqNo" : "11"
   },
   {
      "GoBack" : "1",
      "longitude" : "120.57012",
      "outDis" : "100",
      "Id" : "4389",
      "oid" : "13484",
      "districtId" : "1",
      "nameZh" : "竹林里",
      "pgp" : "0",
      "terminal" : "0",
      "latitude" : "24.23617",
      "inDis" : "50",
      "routeId" : "162",
      "seqNo" : "12"
   },
   {
      "GoBack" : "1",
      "longitude" : "120.57198",
      "outDis" : "100",
      "Id" : "4392",
      "oid" : "13510",
      "districtId" : "1",
      "nameZh" : "紅竹巷",
      "pgp" : "0",
      "terminal" : "0",
      "latitude" : "24.23325",
      "inDis" : "50",
      "routeId" : "162",
      "seqNo" : "13"
   },
   {
      "GoBack" : "1",
      "longitude" : "120.57408",
      "outDis" : "50",
      "Id" : "4086",
      "oid" : "314838068",
      "districtId" : "1",
      "nameZh" : "臺灣大道北勢路口",
      "pgp" : "0",
      "terminal" : "0",
      "latitude" : "24.2301",
      "inDis" : "50",
      "routeId" : "162",
      "seqNo" : "14"
   },
   {
      "GoBack" : "1",
      "longitude" : "120.57533",
      "outDis" : "50",
      "Id" : "0498",
      "oid" : "319559959",
      "districtId" : "1",
      "nameZh" : "靜宜大學(英才路)",
      "pgp" : "0",
      "terminal" : "0",
      "latitude" : "24.22699",
      "inDis" : "50",
      "routeId" : "162",
      "seqNo" : "15"
   },
   {
      "GoBack" : "1",
      "longitude" : "120.5731",
      "outDis" : "100",
      "Id" : "5370",
      "oid" : "311864570",
      "districtId" : "1",
      "nameZh" : "英才東英路口",
      "pgp" : "0",
      "terminal" : "0",
      "latitude" : "24.2263",
      "inDis" : "50",
      "routeId" : "162",
      "seqNo" : "16"
   },
   {
      "GoBack" : "1",
      "longitude" : "120.5692",
      "outDis" : "100",
      "Id" : "4794",
      "oid" : "311864569",
      "districtId" : "1",
      "nameZh" : "北勢國中",
      "pgp" : "0",
      "terminal" : "0",
      "latitude" : "24.2251",
      "inDis" : "50",
      "routeId" : "162",
      "seqNo" : "17"
   },
   {
      "GoBack" : "1",
      "longitude" : "120.56715",
      "outDis" : "50",
      "Id" : "2362",
      "oid" : "5871",
      "districtId" : "1",
      "nameZh" : "明泰社區",
      "pgp" : "0",
      "terminal" : "0",
      "latitude" : "24.22861",
      "inDis" : "50",
      "routeId" : "162",
      "seqNo" : "18"
   },
   {
      "GoBack" : "1",
      "longitude" : "120.56548",
      "outDis" : "50",
      "Id" : "4817",
      "oid" : "312512873",
      "districtId" : "1",
      "nameZh" : "沙鹿區公所",
      "pgp" : "0",
      "terminal" : "0",
      "latitude" : "24.23245",
      "inDis" : "50",
      "routeId" : "162",
      "seqNo" : "19"
   },
   {
      "GoBack" : "1",
      "longitude" : "120.5632",
      "outDis" : "50",
      "Id" : "5794",
      "oid" : "15264",
      "districtId" : "1",
      "nameZh" : "沙鹿國中(鎮南路)",
      "pgp" : "0",
      "terminal" : "0",
      "latitude" : "24.23335",
      "inDis" : "50",
      "routeId" : "162",
      "seqNo" : "20"
   },
   {
      "GoBack" : "1",
      "longitude" : "120.5591",
      "outDis" : "50",
      "Id" : "4816",
      "oid" : "15266",
      "districtId" : "1",
      "nameZh" : "沙鹿光田醫院",
      "pgp" : "0",
      "terminal" : "0",
      "latitude" : "24.23511",
      "inDis" : "50",
      "routeId" : "162",
      "seqNo" : "21"
   },
   {
      "GoBack" : "1",
      "longitude" : "120.55931",
      "outDis" : "50",
      "Id" : "4815",
      "oid" : "15238",
      "districtId" : "1",
      "nameZh" : "沙鹿火車站",
      "pgp" : "0",
      "terminal" : "0",
      "latitude" : "24.23602",
      "inDis" : "50",
      "routeId" : "162",
      "seqNo" : "22"
   },
   {
      "GoBack" : "1",
      "longitude" : "120.5597",
      "outDis" : "50",
      "Id" : "4681",
      "oid" : "312074368",
      "districtId" : "1",
      "nameZh" : "沙鹿市場",
      "pgp" : "0",
      "terminal" : "0",
      "latitude" : "24.23736",
      "inDis" : "50",
      "routeId" : "162",
      "seqNo" : "23"
   },
   {
      "GoBack" : "2",
      "longitude" : "120.55931",
      "outDis" : "50",
      "Id" : "4815",
      "oid" : "15238",
      "districtId" : "1",
      "nameZh" : "沙鹿火車站",
      "pgp" : "0",
      "terminal" : "0",
      "latitude" : "24.23602",
      "inDis" : "50",
      "routeId" : "162",
      "seqNo" : "1"
   },
   {
      "GoBack" : "2",
      "longitude" : "120.5597",
      "outDis" : "50",
      "Id" : "4681",
      "oid" : "312074368",
      "districtId" : "1",
      "nameZh" : "沙鹿市場",
      "pgp" : "0",
      "terminal" : "0",
      "latitude" : "24.23736",
      "inDis" : "50",
      "routeId" : "162",
      "seqNo" : "2"
   },
   {
      "GoBack" : "2",
      "longitude" : "120.56255",
      "outDis" : "50",
      "Id" : "0289",
      "oid" : "318434399",
      "districtId" : "1",
      "nameZh" : "中山文昌街口",
      "pgp" : "0",
      "terminal" : "0",
      "latitude" : "24.23762",
      "inDis" : "50",
      "routeId" : "162",
      "seqNo" : "3"
   },
   {
      "GoBack" : "2",
      "longitude" : "120.56455",
      "outDis" : "50",
      "Id" : "4390",
      "oid" : "307279327",
      "districtId" : "1",
      "nameZh" : "沙鹿高工(中山路)",
      "pgp" : "0",
      "terminal" : "0",
      "latitude" : "24.23731",
      "inDis" : "50",
      "routeId" : "162",
      "seqNo" : "4"
   },
   {
      "GoBack" : "2",
      "longitude" : "120.56673",
      "outDis" : "50",
      "Id" : "5222",
      "oid" : "310787750",
      "districtId" : "1",
      "nameZh" : "中山鎮政路口",
      "pgp" : "0",
      "terminal" : "0",
      "latitude" : "24.23698",
      "inDis" : "50",
      "routeId" : "162",
      "seqNo" : "5"
   },
   {
      "GoBack" : "2",
      "longitude" : "120.5659",
      "outDis" : "50",
      "Id" : "5504",
      "oid" : "314838065",
      "districtId" : "1",
      "nameZh" : "沙鹿戶政事務所",
      "pgp" : "0",
      "terminal" : "0",
      "latitude" : "24.2335",
      "inDis" : "50",
      "routeId" : "162",
      "seqNo" : "6"
   },
   {
      "GoBack" : "2",
      "longitude" : "120.56548",
      "outDis" : "50",
      "Id" : "4817",
      "oid" : "312512873",
      "districtId" : "1",
      "nameZh" : "沙鹿區公所",
      "pgp" : "0",
      "terminal" : "0",
      "latitude" : "24.23245",
      "inDis" : "50",
      "routeId" : "162",
      "seqNo" : "7"
   },
   {
      "GoBack" : "2",
      "longitude" : "120.56715",
      "outDis" : "50",
      "Id" : "2362",
      "oid" : "5871",
      "districtId" : "1",
      "nameZh" : "明泰社區",
      "pgp" : "0",
      "terminal" : "0",
      "latitude" : "24.22861",
      "inDis" : "50",
      "routeId" : "162",
      "seqNo" : "8"
   },
   {
      "GoBack" : "2",
      "longitude" : "120.5692",
      "outDis" : "100",
      "Id" : "4794",
      "oid" : "311864569",
      "districtId" : "1",
      "nameZh" : "北勢國中",
      "pgp" : "0",
      "terminal" : "0",
      "latitude" : "24.2251",
      "inDis" : "50",
      "routeId" : "162",
      "seqNo" : "9"
   },
   {
      "GoBack" : "2",
      "longitude" : "120.5731",
      "outDis" : "100",
      "Id" : "5370",
      "oid" : "311864570",
      "districtId" : "1",
      "nameZh" : "英才東英路口",
      "pgp" : "0",
      "terminal" : "0",
      "latitude" : "24.2263",
      "inDis" : "50",
      "routeId" : "162",
      "seqNo" : "10"
   },
   {
      "GoBack" : "2",
      "longitude" : "120.57533",
      "outDis" : "50",
      "Id" : "0498",
      "oid" : "319559959",
      "districtId" : "1",
      "nameZh" : "靜宜大學(英才路)",
      "pgp" : "0",
      "terminal" : "0",
      "latitude" : "24.22699",
      "inDis" : "50",
      "routeId" : "162",
      "seqNo" : "11"
   },
   {
      "GoBack" : "2",
      "longitude" : "120.57408",
      "outDis" : "50",
      "Id" : "4086",
      "oid" : "314838068",
      "districtId" : "1",
      "nameZh" : "臺灣大道北勢路口",
      "pgp" : "0",
      "terminal" : "0",
      "latitude" : "24.2301",
      "inDis" : "50",
      "routeId" : "162",
      "seqNo" : "12"
   },
   {
      "GoBack" : "2",
      "longitude" : "120.57198",
      "outDis" : "100",
      "Id" : "4392",
      "oid" : "13510",
      "districtId" : "1",
      "nameZh" : "紅竹巷",
      "pgp" : "0",
      "terminal" : "0",
      "latitude" : "24.23325",
      "inDis" : "50",
      "routeId" : "162",
      "seqNo" : "13"
   },
   {
      "GoBack" : "2",
      "longitude" : "120.57012",
      "outDis" : "100",
      "Id" : "4389",
      "oid" : "13484",
      "districtId" : "1",
      "nameZh" : "竹林里",
      "pgp" : "0",
      "terminal" : "0",
      "latitude" : "24.23617",
      "inDis" : "50",
      "routeId" : "162",
      "seqNo" : "14"
   },
   {
      "GoBack" : "2",
      "longitude" : "120.57118",
      "outDis" : "50",
      "Id" : "3035",
      "oid" : "319559965",
      "districtId" : "1",
      "nameZh" : "犁分",
      "pgp" : "0",
      "terminal" : "0",
      "latitude" : "24.24204",
      "inDis" : "50",
      "routeId" : "162",
      "seqNo" : "15"
   },
   {
      "GoBack" : "2",
      "longitude" : "120.59899",
      "outDis" : "50",
      "Id" : "0135",
      "oid" : "312174380",
      "districtId" : "1",
      "nameZh" : "臺中航空站",
      "pgp" : "0",
      "terminal" : "0",
      "latitude" : "24.25348",
      "inDis" : "50",
      "routeId" : "162",
      "seqNo" : "18"
   },
   {
      "GoBack" : "2",
      "longitude" : "120.60003",
      "outDis" : "50",
      "Id" : "5381",
      "oid" : "312172944",
      "districtId" : "1",
      "nameZh" : "西勢十巷口",
      "pgp" : "0",
      "terminal" : "0",
      "latitude" : "24.25557",
      "inDis" : "50",
      "routeId" : "162",
      "seqNo" : "19"
   },
   {
      "GoBack" : "2",
      "longitude" : "120.60119",
      "outDis" : "50",
      "Id" : "5662",
      "oid" : "317773386",
      "districtId" : "1",
      "nameZh" : "中航和睦路口",
      "pgp" : "0",
      "terminal" : "0",
      "latitude" : "24.2578",
      "inDis" : "50",
      "routeId" : "162",
      "seqNo" : "20"
   },
   {
      "GoBack" : "2",
      "longitude" : "120.5987",
      "outDis" : "50",
      "Id" : "4101",
      "oid" : "317773389",
      "districtId" : "1",
      "nameZh" : "西勢里",
      "pgp" : "0",
      "terminal" : "0",
      "latitude" : "24.25982",
      "inDis" : "50",
      "routeId" : "162",
      "seqNo" : "21"
   },
   {
      "GoBack" : "2",
      "longitude" : "120.59513",
      "outDis" : "50",
      "Id" : "4083",
      "oid" : "13450",
      "districtId" : "1",
      "nameZh" : "公館國小",
      "pgp" : "0",
      "terminal" : "0",
      "latitude" : "24.26084",
      "inDis" : "50",
      "routeId" : "162",
      "seqNo" : "22"
   },
   {
      "GoBack" : "2",
      "longitude" : "120.58787",
      "outDis" : "50",
      "Id" : "5033",
      "oid" : "309555541",
      "districtId" : "1",
      "nameZh" : "國仕加油站",
      "pgp" : "0",
      "terminal" : "0",
      "latitude" : "24.26416",
      "inDis" : "50",
      "routeId" : "162",
      "seqNo" : "23"
   },
   {
      "GoBack" : "2",
      "longitude" : "120.58224",
      "outDis" : "50",
      "Id" : "4137",
      "oid" : "13560",
      "districtId" : "1",
      "nameZh" : "嘉陽高中",
      "pgp" : "0",
      "terminal" : "0",
      "latitude" : "24.26578",
      "inDis" : "50",
      "routeId" : "162",
      "seqNo" : "24"
   }
]
