[
   {
      "GoBack" : "1",
      "longitude" : "120.64385",
      "outDis" : "50",
      "Id" : "4497",
      "oid" : "138961821",
      "districtId" : "1",
      "nameZh" : "臺中市議會",
      "pgp" : "0",
      "terminal" : "0",
      "latitude" : "24.15825",
      "inDis" : "50",
      "routeId" : "152",
      "seqNo" : "1"
   },
   {
      "GoBack" : "1",
      "longitude" : "120.64682",
      "outDis" : "50",
      "Id" : "1433",
      "oid" : "13256",
      "districtId" : "1",
      "nameZh" : "中央健保局(文心路)",
      "pgp" : "0",
      "terminal" : "0",
      "latitude" : "24.15762",
      "inDis" : "50",
      "routeId" : "152",
      "seqNo" : "2"
   },
   {
      "GoBack" : "1",
      "longitude" : "120.64759",
      "outDis" : "50",
      "Id" : "0019",
      "oid" : "12564",
      "districtId" : "1",
      "nameZh" : "市警局",
      "pgp" : "0",
      "terminal" : "0",
      "latitude" : "24.15975",
      "inDis" : "50",
      "routeId" : "152",
      "seqNo" : "3"
   },
   {
      "GoBack" : "1",
      "longitude" : "120.64692",
      "outDis" : "50",
      "Id" : "0017",
      "oid" : "17506",
      "districtId" : "1",
      "nameZh" : "臺中市政府",
      "pgp" : "0",
      "terminal" : "0",
      "latitude" : "24.16435",
      "inDis" : "50",
      "routeId" : "152",
      "seqNo" : "4"
   },
   {
      "GoBack" : "1",
      "longitude" : "120.64426",
      "outDis" : "50",
      "Id" : "0016",
      "oid" : "F33EC9CFEBA14AA4B0B9D9B1FD66BF75",
      "districtId" : "1",
      "nameZh" : "新光三越",
      "pgp" : "0",
      "terminal" : "0",
      "latitude" : "24.16589",
      "inDis" : "50",
      "routeId" : "152",
      "seqNo" : "5"
   },
   {
      "GoBack" : "1",
      "longitude" : "120.63957",
      "outDis" : "50",
      "Id" : "0826",
      "oid" : "13543",
      "districtId" : "1",
      "nameZh" : "秋紅谷(朝陽橋)",
      "pgp" : "0",
      "terminal" : "0",
      "latitude" : "24.16865",
      "inDis" : "50",
      "routeId" : "152",
      "seqNo" : "6"
   },
   {
      "GoBack" : "1",
      "longitude" : "120.63717",
      "outDis" : "50",
      "Id" : "0054",
      "oid" : "313524993",
      "districtId" : "1",
      "nameZh" : "朝馬(臺灣大道)",
      "pgp" : "0",
      "terminal" : "0",
      "latitude" : "24.17059",
      "inDis" : "50",
      "routeId" : "152",
      "seqNo" : "7"
   },
   {
      "GoBack" : "1",
      "longitude" : "120.69323",
      "outDis" : "50",
      "Id" : "2993",
      "oid" : "6203",
      "districtId" : "1",
      "nameZh" : "望寮",
      "pgp" : "0",
      "terminal" : "0",
      "latitude" : "24.24841",
      "inDis" : "50",
      "routeId" : "152",
      "seqNo" : "15"
   },
   {
      "GoBack" : "1",
      "longitude" : "120.69783",
      "outDis" : "50",
      "Id" : "5438",
      "oid" : "313608813",
      "districtId" : "1",
      "nameZh" : "岸裡國小",
      "pgp" : "0",
      "terminal" : "0",
      "latitude" : "24.24873",
      "inDis" : "50",
      "routeId" : "152",
      "seqNo" : "16"
   },
   {
      "GoBack" : "1",
      "longitude" : "120.70003",
      "outDis" : "50",
      "Id" : "4498",
      "oid" : "13826",
      "districtId" : "1",
      "nameZh" : "臺豐社區",
      "pgp" : "0",
      "terminal" : "0",
      "latitude" : "24.249",
      "inDis" : "50",
      "routeId" : "152",
      "seqNo" : "17"
   },
   {
      "GoBack" : "1",
      "longitude" : "120.70229",
      "outDis" : "50",
      "Id" : "2489",
      "oid" : "5943",
      "districtId" : "1",
      "nameZh" : "社皮鐵路巷",
      "pgp" : "0",
      "terminal" : "0",
      "latitude" : "24.24951",
      "inDis" : "50",
      "routeId" : "152",
      "seqNo" : "18"
   },
   {
      "GoBack" : "1",
      "longitude" : "120.70434",
      "outDis" : "50",
      "Id" : "2349",
      "oid" : "5856",
      "districtId" : "1",
      "nameZh" : "忠勤新村",
      "pgp" : "0",
      "terminal" : "0",
      "latitude" : "24.24962",
      "inDis" : "50",
      "routeId" : "152",
      "seqNo" : "19"
   },
   {
      "GoBack" : "1",
      "longitude" : "120.70672",
      "outDis" : "50",
      "Id" : "1065",
      "oid" : "5072",
      "districtId" : "1",
      "nameZh" : "三光新村",
      "pgp" : "0",
      "terminal" : "0",
      "latitude" : "24.24999",
      "inDis" : "50",
      "routeId" : "152",
      "seqNo" : "20"
   },
   {
      "GoBack" : "1",
      "longitude" : "120.71011",
      "outDis" : "50",
      "Id" : "4487",
      "oid" : "13859",
      "districtId" : "1",
      "nameZh" : "圓環南永安街口",
      "pgp" : "0",
      "terminal" : "0",
      "latitude" : "24.24765",
      "inDis" : "50",
      "routeId" : "152",
      "seqNo" : "21"
   },
   {
      "GoBack" : "1",
      "longitude" : "120.71164",
      "outDis" : "50",
      "Id" : "5440",
      "oid" : "10710",
      "districtId" : "1",
      "nameZh" : "中興圓環南路口",
      "pgp" : "0",
      "terminal" : "0",
      "latitude" : "24.24666",
      "inDis" : "50",
      "routeId" : "152",
      "seqNo" : "22"
   },
   {
      "GoBack" : "1",
      "longitude" : "120.7137",
      "outDis" : "50",
      "Id" : "5441",
      "oid" : "313609513",
      "districtId" : "1",
      "nameZh" : "臺中市政府衛生局",
      "pgp" : "0",
      "terminal" : "0",
      "latitude" : "24.2479",
      "inDis" : "50",
      "routeId" : "152",
      "seqNo" : "23"
   },
   {
      "GoBack" : "1",
      "longitude" : "120.71729",
      "outDis" : "50",
      "Id" : "5442",
      "oid" : "313609515",
      "districtId" : "1",
      "nameZh" : "中興田心路口",
      "pgp" : "0",
      "terminal" : "0",
      "latitude" : "24.2482",
      "inDis" : "50",
      "routeId" : "152",
      "seqNo" : "24"
   },
   {
      "GoBack" : "1",
      "longitude" : "120.7211",
      "outDis" : "50",
      "Id" : "5443",
      "oid" : "313609516",
      "districtId" : "1",
      "nameZh" : "臺中市政府陽明大樓",
      "pgp" : "0",
      "terminal" : "0",
      "latitude" : "24.2469",
      "inDis" : "50",
      "routeId" : "152",
      "seqNo" : "25"
   },
   {
      "GoBack" : "1",
      "longitude" : "120.72278",
      "outDis" : "50",
      "Id" : "5142",
      "oid" : "6629",
      "districtId" : "1",
      "nameZh" : "陽明自強南街口",
      "pgp" : "0",
      "terminal" : "0",
      "latitude" : "24.24603",
      "inDis" : "50",
      "routeId" : "152",
      "seqNo" : "26"
   },
   {
      "GoBack" : "1",
      "longitude" : "120.72562",
      "outDis" : "50",
      "Id" : "4484",
      "oid" : "13856",
      "districtId" : "1",
      "nameZh" : "圓環東南陽路口",
      "pgp" : "0",
      "terminal" : "0",
      "latitude" : "24.246",
      "inDis" : "50",
      "routeId" : "152",
      "seqNo" : "27"
   },
   {
      "GoBack" : "1",
      "longitude" : "120.72677",
      "outDis" : "50",
      "Id" : "4480",
      "oid" : "13852",
      "districtId" : "1",
      "nameZh" : "圓環東同安街口",
      "pgp" : "0",
      "terminal" : "0",
      "latitude" : "24.24764",
      "inDis" : "50",
      "routeId" : "152",
      "seqNo" : "28"
   },
   {
      "GoBack" : "1",
      "longitude" : "120.72855",
      "outDis" : "50",
      "Id" : "4481",
      "oid" : "13853",
      "districtId" : "1",
      "nameZh" : "圓環東向陽路口",
      "pgp" : "0",
      "terminal" : "0",
      "latitude" : "24.25077",
      "inDis" : "50",
      "routeId" : "152",
      "seqNo" : "29"
   },
   {
      "GoBack" : "1",
      "longitude" : "120.72976",
      "outDis" : "50",
      "Id" : "5544",
      "oid" : "316462696",
      "districtId" : "1",
      "nameZh" : "葫蘆墩文化中心",
      "pgp" : "0",
      "terminal" : "0",
      "latitude" : "24.25299",
      "inDis" : "50",
      "routeId" : "152",
      "seqNo" : "30"
   },
   {
      "GoBack" : "1",
      "longitude" : "120.72983",
      "outDis" : "50",
      "Id" : "4478",
      "oid" : "5488",
      "districtId" : "1",
      "nameZh" : "圓環東水源路口",
      "pgp" : "0",
      "terminal" : "0",
      "latitude" : "24.25577",
      "inDis" : "50",
      "routeId" : "152",
      "seqNo" : "31"
   },
   {
      "GoBack" : "1",
      "longitude" : "120.73227",
      "outDis" : "50",
      "Id" : "4407",
      "oid" : "13615",
      "districtId" : "1",
      "nameZh" : "永豐原紙廠",
      "pgp" : "0",
      "terminal" : "0",
      "latitude" : "24.2587",
      "inDis" : "50",
      "routeId" : "152",
      "seqNo" : "32"
   },
   {
      "GoBack" : "1",
      "longitude" : "120.73648",
      "outDis" : "50",
      "Id" : "5684",
      "oid" : "319637787",
      "districtId" : "1",
      "nameZh" : "義士祠",
      "pgp" : "0",
      "terminal" : "0",
      "latitude" : "24.25968",
      "inDis" : "50",
      "routeId" : "152",
      "seqNo" : "33"
   },
   {
      "GoBack" : "2",
      "longitude" : "120.73648",
      "outDis" : "50",
      "Id" : "5684",
      "oid" : "319637787",
      "districtId" : "1",
      "nameZh" : "義士祠",
      "pgp" : "0",
      "terminal" : "0",
      "latitude" : "24.25968",
      "inDis" : "50",
      "routeId" : "152",
      "seqNo" : "1"
   },
   {
      "GoBack" : "2",
      "longitude" : "120.73227",
      "outDis" : "50",
      "Id" : "4407",
      "oid" : "13615",
      "districtId" : "1",
      "nameZh" : "永豐原紙廠",
      "pgp" : "0",
      "terminal" : "0",
      "latitude" : "24.2587",
      "inDis" : "50",
      "routeId" : "152",
      "seqNo" : "2"
   },
   {
      "GoBack" : "2",
      "longitude" : "120.72983",
      "outDis" : "50",
      "Id" : "4478",
      "oid" : "5488",
      "districtId" : "1",
      "nameZh" : "圓環東水源路口",
      "pgp" : "0",
      "terminal" : "0",
      "latitude" : "24.25577",
      "inDis" : "50",
      "routeId" : "152",
      "seqNo" : "3"
   },
   {
      "GoBack" : "2",
      "longitude" : "120.72976",
      "outDis" : "50",
      "Id" : "5544",
      "oid" : "316462696",
      "districtId" : "1",
      "nameZh" : "葫蘆墩文化中心",
      "pgp" : "0",
      "terminal" : "0",
      "latitude" : "24.25299",
      "inDis" : "50",
      "routeId" : "152",
      "seqNo" : "4"
   },
   {
      "GoBack" : "2",
      "longitude" : "120.72855",
      "outDis" : "50",
      "Id" : "4481",
      "oid" : "13853",
      "districtId" : "1",
      "nameZh" : "圓環東向陽路口",
      "pgp" : "0",
      "terminal" : "0",
      "latitude" : "24.25077",
      "inDis" : "50",
      "routeId" : "152",
      "seqNo" : "5"
   },
   {
      "GoBack" : "2",
      "longitude" : "120.72677",
      "outDis" : "50",
      "Id" : "4480",
      "oid" : "13852",
      "districtId" : "1",
      "nameZh" : "圓環東同安街口",
      "pgp" : "0",
      "terminal" : "0",
      "latitude" : "24.24764",
      "inDis" : "50",
      "routeId" : "152",
      "seqNo" : "6"
   },
   {
      "GoBack" : "2",
      "longitude" : "120.72562",
      "outDis" : "50",
      "Id" : "4484",
      "oid" : "13856",
      "districtId" : "1",
      "nameZh" : "圓環東南陽路口",
      "pgp" : "0",
      "terminal" : "0",
      "latitude" : "24.246",
      "inDis" : "50",
      "routeId" : "152",
      "seqNo" : "7"
   },
   {
      "GoBack" : "2",
      "longitude" : "120.72278",
      "outDis" : "50",
      "Id" : "5142",
      "oid" : "6629",
      "districtId" : "1",
      "nameZh" : "陽明自強南街口",
      "pgp" : "0",
      "terminal" : "0",
      "latitude" : "24.24603",
      "inDis" : "50",
      "routeId" : "152",
      "seqNo" : "8"
   },
   {
      "GoBack" : "2",
      "longitude" : "120.7211",
      "outDis" : "50",
      "Id" : "5443",
      "oid" : "313609516",
      "districtId" : "1",
      "nameZh" : "臺中市政府陽明大樓",
      "pgp" : "0",
      "terminal" : "0",
      "latitude" : "24.2469",
      "inDis" : "50",
      "routeId" : "152",
      "seqNo" : "9"
   },
   {
      "GoBack" : "2",
      "longitude" : "120.71729",
      "outDis" : "50",
      "Id" : "5442",
      "oid" : "313609515",
      "districtId" : "1",
      "nameZh" : "中興田心路口",
      "pgp" : "0",
      "terminal" : "0",
      "latitude" : "24.2482",
      "inDis" : "50",
      "routeId" : "152",
      "seqNo" : "10"
   },
   {
      "GoBack" : "2",
      "longitude" : "120.7137",
      "outDis" : "50",
      "Id" : "5441",
      "oid" : "313609513",
      "districtId" : "1",
      "nameZh" : "臺中市政府衛生局",
      "pgp" : "0",
      "terminal" : "0",
      "latitude" : "24.2479",
      "inDis" : "50",
      "routeId" : "152",
      "seqNo" : "11"
   },
   {
      "GoBack" : "2",
      "longitude" : "120.71164",
      "outDis" : "50",
      "Id" : "5440",
      "oid" : "313609512",
      "districtId" : "1",
      "nameZh" : "中興圓環南路口",
      "pgp" : "0",
      "terminal" : "0",
      "latitude" : "24.24666",
      "inDis" : "50",
      "routeId" : "152",
      "seqNo" : "12"
   },
   {
      "GoBack" : "2",
      "longitude" : "120.71011",
      "outDis" : "50",
      "Id" : "4487",
      "oid" : "13859",
      "districtId" : "1",
      "nameZh" : "圓環南永安街口",
      "pgp" : "0",
      "terminal" : "0",
      "latitude" : "24.24765",
      "inDis" : "50",
      "routeId" : "152",
      "seqNo" : "13"
   },
   {
      "GoBack" : "2",
      "longitude" : "120.70672",
      "outDis" : "50",
      "Id" : "1065",
      "oid" : "5072",
      "districtId" : "1",
      "nameZh" : "三光新村",
      "pgp" : "0",
      "terminal" : "0",
      "latitude" : "24.24999",
      "inDis" : "50",
      "routeId" : "152",
      "seqNo" : "14"
   },
   {
      "GoBack" : "2",
      "longitude" : "120.70434",
      "outDis" : "50",
      "Id" : "2349",
      "oid" : "5856",
      "districtId" : "1",
      "nameZh" : "忠勤新村",
      "pgp" : "0",
      "terminal" : "0",
      "latitude" : "24.24962",
      "inDis" : "50",
      "routeId" : "152",
      "seqNo" : "15"
   },
   {
      "GoBack" : "2",
      "longitude" : "120.70229",
      "outDis" : "50",
      "Id" : "2489",
      "oid" : "5943",
      "districtId" : "1",
      "nameZh" : "社皮鐵路巷",
      "pgp" : "0",
      "terminal" : "0",
      "latitude" : "24.24951",
      "inDis" : "50",
      "routeId" : "152",
      "seqNo" : "16"
   },
   {
      "GoBack" : "2",
      "longitude" : "120.70003",
      "outDis" : "50",
      "Id" : "4498",
      "oid" : "13826",
      "districtId" : "1",
      "nameZh" : "臺豐社區",
      "pgp" : "0",
      "terminal" : "0",
      "latitude" : "24.249",
      "inDis" : "50",
      "routeId" : "152",
      "seqNo" : "17"
   },
   {
      "GoBack" : "2",
      "longitude" : "120.69783",
      "outDis" : "50",
      "Id" : "5438",
      "oid" : "313608813",
      "districtId" : "1",
      "nameZh" : "岸裡國小",
      "pgp" : "0",
      "terminal" : "0",
      "latitude" : "24.24873",
      "inDis" : "50",
      "routeId" : "152",
      "seqNo" : "18"
   },
   {
      "GoBack" : "2",
      "longitude" : "120.63717",
      "outDis" : "50",
      "Id" : "0054",
      "oid" : "313524993",
      "districtId" : "1",
      "nameZh" : "朝馬(臺灣大道)",
      "pgp" : "0",
      "terminal" : "0",
      "latitude" : "24.17059",
      "inDis" : "50",
      "routeId" : "152",
      "seqNo" : "26"
   },
   {
      "GoBack" : "2",
      "longitude" : "120.63957",
      "outDis" : "50",
      "Id" : "0826",
      "oid" : "13543",
      "districtId" : "1",
      "nameZh" : "秋紅谷(朝陽橋)",
      "pgp" : "0",
      "terminal" : "0",
      "latitude" : "24.16865",
      "inDis" : "50",
      "routeId" : "152",
      "seqNo" : "27"
   },
   {
      "GoBack" : "2",
      "longitude" : "120.64426",
      "outDis" : "50",
      "Id" : "0016",
      "oid" : "F33EC9CFEBA14AA4B0B9D9B1FD66BF75",
      "districtId" : "1",
      "nameZh" : "新光三越",
      "pgp" : "0",
      "terminal" : "0",
      "latitude" : "24.16589",
      "inDis" : "50",
      "routeId" : "152",
      "seqNo" : "28"
   },
   {
      "GoBack" : "2",
      "longitude" : "120.64738",
      "outDis" : "50",
      "Id" : "0017",
      "oid" : "17597",
      "districtId" : "1",
      "nameZh" : "臺中市政府",
      "pgp" : "0",
      "terminal" : "0",
      "latitude" : "24.16364",
      "inDis" : "50",
      "routeId" : "152",
      "seqNo" : "29"
   },
   {
      "GoBack" : "2",
      "longitude" : "120.64751",
      "outDis" : "50",
      "Id" : "0019",
      "oid" : "13298",
      "districtId" : "1",
      "nameZh" : "市警局",
      "pgp" : "0",
      "terminal" : "0",
      "latitude" : "24.15938",
      "inDis" : "50",
      "routeId" : "152",
      "seqNo" : "30"
   },
   {
      "GoBack" : "2",
      "longitude" : "120.64682",
      "outDis" : "50",
      "Id" : "1433",
      "oid" : "13256",
      "districtId" : "1",
      "nameZh" : "中央健保局(文心路)",
      "pgp" : "0",
      "terminal" : "0",
      "latitude" : "24.15762",
      "inDis" : "50",
      "routeId" : "152",
      "seqNo" : "31"
   }
]
