[
   {
      "GoBack" : "1",
      "longitude" : "120.57005",
      "outDis" : "50",
      "Id" : "5471",
      "oid" : "314200099",
      "districtId" : "1",
      "nameZh" : "清水火車站",
      "pgp" : "0",
      "terminal" : "0",
      "latitude" : "24.26341",
      "inDis" : "50",
      "routeId" : "111",
      "seqNo" : "1"
   },
   {
      "GoBack" : "1",
      "longitude" : "120.57421",
      "outDis" : "50",
      "Id" : "0314",
      "oid" : "14243",
      "districtId" : "1",
      "nameZh" : "清水高中(中山路)",
      "pgp" : "0",
      "terminal" : "0",
      "latitude" : "24.26615",
      "inDis" : "50",
      "routeId" : "111",
      "seqNo" : "2"
   },
   {
      "GoBack" : "1",
      "longitude" : "120.57492",
      "outDis" : "50",
      "Id" : "5568",
      "oid" : "318546054",
      "districtId" : "1",
      "nameZh" : "清水高中(學園街)",
      "pgp" : "0",
      "terminal" : "0",
      "latitude" : "24.26615",
      "inDis" : "50",
      "routeId" : "111",
      "seqNo" : "3"
   },
   {
      "GoBack" : "1",
      "longitude" : "120.58021",
      "outDis" : "50",
      "Id" : "0296",
      "oid" : "318517261",
      "districtId" : "1",
      "nameZh" : "牛罵頭遺址",
      "pgp" : "0",
      "terminal" : "0",
      "latitude" : "24.26804",
      "inDis" : "50",
      "routeId" : "111",
      "seqNo" : "4"
   },
   {
      "GoBack" : "1",
      "longitude" : "120.58162",
      "outDis" : "50",
      "Id" : "0297",
      "oid" : "318517257",
      "districtId" : "1",
      "nameZh" : "鰲峰山公園",
      "pgp" : "0",
      "terminal" : "0",
      "latitude" : "24.26888",
      "inDis" : "50",
      "routeId" : "111",
      "seqNo" : "5"
   },
   {
      "GoBack" : "1",
      "longitude" : "120.58161",
      "outDis" : "50",
      "Id" : "0298",
      "oid" : "318517259",
      "districtId" : "1",
      "nameZh" : "清水鬼洞",
      "pgp" : "0",
      "terminal" : "0",
      "latitude" : "24.272",
      "inDis" : "50",
      "routeId" : "111",
      "seqNo" : "6"
   },
   {
      "GoBack" : "1",
      "longitude" : "120.58184",
      "outDis" : "50",
      "Id" : "0297",
      "oid" : "318517260",
      "districtId" : "1",
      "nameZh" : "鰲峰山公園",
      "pgp" : "0",
      "terminal" : "0",
      "latitude" : "24.26911",
      "inDis" : "50",
      "routeId" : "111",
      "seqNo" : "7"
   },
   {
      "GoBack" : "1",
      "longitude" : "120.58026",
      "outDis" : "50",
      "Id" : "0296",
      "oid" : "318517256",
      "districtId" : "1",
      "nameZh" : "牛罵頭遺址",
      "pgp" : "0",
      "terminal" : "0",
      "latitude" : "24.26815",
      "inDis" : "50",
      "routeId" : "111",
      "seqNo" : "8"
   },
   {
      "GoBack" : "1",
      "longitude" : "120.57492",
      "outDis" : "50",
      "Id" : "5568",
      "oid" : "316572735",
      "districtId" : "1",
      "nameZh" : "清水高中(學園街)",
      "pgp" : "0",
      "terminal" : "0",
      "latitude" : "24.26615",
      "inDis" : "50",
      "routeId" : "111",
      "seqNo" : "9"
   },
   {
      "GoBack" : "1",
      "longitude" : "120.57506",
      "outDis" : "50",
      "Id" : "5141",
      "oid" : "10590",
      "districtId" : "1",
      "nameZh" : "華南銀行(清水分行)",
      "pgp" : "0",
      "terminal" : "0",
      "latitude" : "24.2679",
      "inDis" : "50",
      "routeId" : "111",
      "seqNo" : "10"
   },
   {
      "GoBack" : "1",
      "longitude" : "120.57503",
      "outDis" : "50",
      "Id" : "1615",
      "oid" : "5423",
      "districtId" : "1",
      "nameZh" : "分局前",
      "pgp" : "0",
      "terminal" : "0",
      "latitude" : "24.26922",
      "inDis" : "50",
      "routeId" : "111",
      "seqNo" : "11"
   },
   {
      "GoBack" : "1",
      "longitude" : "120.57004",
      "outDis" : "50",
      "Id" : "5655",
      "oid" : "317714376",
      "districtId" : "1",
      "nameZh" : "鰲峰西社路口",
      "pgp" : "0",
      "terminal" : "0",
      "latitude" : "24.26923",
      "inDis" : "50",
      "routeId" : "111",
      "seqNo" : "12"
   },
   {
      "GoBack" : "1",
      "longitude" : "120.56832",
      "outDis" : "50",
      "Id" : "2486",
      "oid" : "5940",
      "districtId" : "1",
      "nameZh" : "社口",
      "pgp" : "0",
      "terminal" : "0",
      "latitude" : "24.26845",
      "inDis" : "50",
      "routeId" : "111",
      "seqNo" : "13"
   },
   {
      "GoBack" : "1",
      "longitude" : "120.56469",
      "outDis" : "50",
      "Id" : "3700",
      "oid" : "10898",
      "districtId" : "1",
      "nameZh" : "銀聯二村",
      "pgp" : "0",
      "terminal" : "0",
      "latitude" : "24.26832",
      "inDis" : "50",
      "routeId" : "111",
      "seqNo" : "14"
   },
   {
      "GoBack" : "1",
      "longitude" : "120.56356",
      "outDis" : "50",
      "Id" : "3017",
      "oid" : "10847",
      "districtId" : "1",
      "nameZh" : "清水國中",
      "pgp" : "0",
      "terminal" : "0",
      "latitude" : "24.26801",
      "inDis" : "50",
      "routeId" : "111",
      "seqNo" : "15"
   },
   {
      "GoBack" : "1",
      "longitude" : "120.56073",
      "outDis" : "50",
      "Id" : "5720",
      "oid" : "320604380",
      "districtId" : "1",
      "nameZh" : "清水第二市場",
      "pgp" : "0",
      "terminal" : "0",
      "latitude" : "24.2681",
      "inDis" : "50",
      "routeId" : "111",
      "seqNo" : "16"
   },
   {
      "GoBack" : "1",
      "longitude" : "120.55958",
      "outDis" : "50",
      "Id" : "4904",
      "oid" : "15814",
      "districtId" : "1",
      "nameZh" : "港區藝術中心",
      "pgp" : "0",
      "terminal" : "0",
      "latitude" : "24.2698",
      "inDis" : "50",
      "routeId" : "111",
      "seqNo" : "17"
   },
   {
      "GoBack" : "1",
      "longitude" : "120.55687",
      "outDis" : "50",
      "Id" : "4891",
      "oid" : "318517255",
      "districtId" : "1",
      "nameZh" : "秀水里",
      "pgp" : "0",
      "terminal" : "0",
      "latitude" : "24.27207",
      "inDis" : "50",
      "routeId" : "111",
      "seqNo" : "18"
   },
   {
      "GoBack" : "1",
      "longitude" : "120.55443",
      "outDis" : "50",
      "Id" : "5767",
      "oid" : "318517254",
      "districtId" : "1",
      "nameZh" : "首園",
      "pgp" : "0",
      "terminal" : "0",
      "latitude" : "24.27298",
      "inDis" : "50",
      "routeId" : "111",
      "seqNo" : "19"
   },
   {
      "GoBack" : "1",
      "longitude" : "120.55141",
      "outDis" : "50",
      "Id" : "5719",
      "oid" : "320604383",
      "districtId" : "1",
      "nameZh" : "武鹿里",
      "pgp" : "0",
      "terminal" : "0",
      "latitude" : "24.27403",
      "inDis" : "50",
      "routeId" : "111",
      "seqNo" : "20"
   },
   {
      "GoBack" : "1",
      "longitude" : "120.54947",
      "outDis" : "50",
      "Id" : "0300",
      "oid" : "318517253",
      "districtId" : "1",
      "nameZh" : "甲桂林社區",
      "pgp" : "0",
      "terminal" : "0",
      "latitude" : "24.27477",
      "inDis" : "50",
      "routeId" : "111",
      "seqNo" : "21"
   },
   {
      "GoBack" : "1",
      "longitude" : "120.54869",
      "outDis" : "50",
      "Id" : "0301",
      "oid" : "318517252",
      "districtId" : "1",
      "nameZh" : "港埠中清路口",
      "pgp" : "0",
      "terminal" : "0",
      "latitude" : "24.27927",
      "inDis" : "50",
      "routeId" : "111",
      "seqNo" : "22"
   },
   {
      "GoBack" : "1",
      "longitude" : "120.54931",
      "outDis" : "50",
      "Id" : "0302",
      "oid" : "318517251",
      "districtId" : "1",
      "nameZh" : "港埠五權路口",
      "pgp" : "0",
      "terminal" : "0",
      "latitude" : "24.28189",
      "inDis" : "50",
      "routeId" : "111",
      "seqNo" : "23"
   },
   {
      "GoBack" : "1",
      "longitude" : "120.55005",
      "outDis" : "50",
      "Id" : "0303",
      "oid" : "318517250",
      "districtId" : "1",
      "nameZh" : "港埠海濱路口",
      "pgp" : "0",
      "terminal" : "0",
      "latitude" : "24.28493",
      "inDis" : "50",
      "routeId" : "111",
      "seqNo" : "24"
   },
   {
      "GoBack" : "1",
      "longitude" : "120.55188",
      "outDis" : "50",
      "Id" : "0304",
      "oid" : "318517248",
      "districtId" : "1",
      "nameZh" : "港埠臨海路口",
      "pgp" : "0",
      "terminal" : "0",
      "latitude" : "24.29235",
      "inDis" : "50",
      "routeId" : "111",
      "seqNo" : "25"
   },
   {
      "GoBack" : "1",
      "longitude" : "120.55224",
      "outDis" : "50",
      "Id" : "0306",
      "oid" : "318517247",
      "districtId" : "1",
      "nameZh" : "長明公司",
      "pgp" : "0",
      "terminal" : "0",
      "latitude" : "24.29666",
      "inDis" : "50",
      "routeId" : "111",
      "seqNo" : "26"
   },
   {
      "GoBack" : "1",
      "longitude" : "120.54647",
      "outDis" : "50",
      "Id" : "5760",
      "oid" : "318517246",
      "districtId" : "1",
      "nameZh" : "高美濕地遊客中心",
      "pgp" : "0",
      "terminal" : "0",
      "latitude" : "24.29965",
      "inDis" : "50",
      "routeId" : "111",
      "seqNo" : "27"
   },
   {
      "GoBack" : "1",
      "longitude" : "120.5447",
      "outDis" : "50",
      "Id" : "0308",
      "oid" : "318517245",
      "districtId" : "1",
      "nameZh" : "18號風車",
      "pgp" : "0",
      "terminal" : "0",
      "latitude" : "24.30382",
      "inDis" : "50",
      "routeId" : "111",
      "seqNo" : "28"
   },
   {
      "GoBack" : "1",
      "longitude" : "120.52956",
      "outDis" : "50",
      "Id" : "0309",
      "oid" : "318517244",
      "districtId" : "1",
      "nameZh" : "9號風車",
      "pgp" : "0",
      "terminal" : "0",
      "latitude" : "24.31245",
      "inDis" : "50",
      "routeId" : "111",
      "seqNo" : "29"
   },
   {
      "GoBack" : "1",
      "longitude" : "120.52527",
      "outDis" : "50",
      "Id" : "4394",
      "oid" : "13525",
      "districtId" : "1",
      "nameZh" : "梧棲觀光漁港",
      "pgp" : "0",
      "terminal" : "0",
      "latitude" : "24.2923",
      "inDis" : "50",
      "routeId" : "111",
      "seqNo" : "30"
   },
   {
      "GoBack" : "2",
      "longitude" : "120.52527",
      "outDis" : "50",
      "Id" : "4394",
      "oid" : "13525",
      "districtId" : "1",
      "nameZh" : "梧棲觀光漁港",
      "pgp" : "0",
      "terminal" : "0",
      "latitude" : "24.2923",
      "inDis" : "50",
      "routeId" : "111",
      "seqNo" : "1"
   },
   {
      "GoBack" : "2",
      "longitude" : "120.52684",
      "outDis" : "50",
      "Id" : "0309",
      "oid" : "318517272",
      "districtId" : "1",
      "nameZh" : "9號風車",
      "pgp" : "0",
      "terminal" : "0",
      "latitude" : "24.31129",
      "inDis" : "50",
      "routeId" : "111",
      "seqNo" : "2"
   },
   {
      "GoBack" : "2",
      "longitude" : "120.54456",
      "outDis" : "50",
      "Id" : "0308",
      "oid" : "318517271",
      "districtId" : "1",
      "nameZh" : "18號風車",
      "pgp" : "0",
      "terminal" : "0",
      "latitude" : "24.30372",
      "inDis" : "50",
      "routeId" : "111",
      "seqNo" : "3"
   },
   {
      "GoBack" : "2",
      "longitude" : "120.54646",
      "outDis" : "50",
      "Id" : "5760",
      "oid" : "318517270",
      "districtId" : "1",
      "nameZh" : "高美濕地遊客中心",
      "pgp" : "0",
      "terminal" : "0",
      "latitude" : "24.29961",
      "inDis" : "50",
      "routeId" : "111",
      "seqNo" : "4"
   },
   {
      "GoBack" : "2",
      "longitude" : "120.55237",
      "outDis" : "50",
      "Id" : "0306",
      "oid" : "318517269",
      "districtId" : "1",
      "nameZh" : "長明公司",
      "pgp" : "0",
      "terminal" : "0",
      "latitude" : "24.29651",
      "inDis" : "50",
      "routeId" : "111",
      "seqNo" : "5"
   },
   {
      "GoBack" : "2",
      "longitude" : "120.55165",
      "outDis" : "50",
      "Id" : "0304",
      "oid" : "318517268",
      "districtId" : "1",
      "nameZh" : "港埠臨海路口",
      "pgp" : "0",
      "terminal" : "0",
      "latitude" : "24.29261",
      "inDis" : "50",
      "routeId" : "111",
      "seqNo" : "6"
   },
   {
      "GoBack" : "2",
      "longitude" : "120.54987",
      "outDis" : "50",
      "Id" : "0303",
      "oid" : "318517267",
      "districtId" : "1",
      "nameZh" : "港埠海濱路口",
      "pgp" : "0",
      "terminal" : "0",
      "latitude" : "24.28558",
      "inDis" : "50",
      "routeId" : "111",
      "seqNo" : "7"
   },
   {
      "GoBack" : "2",
      "longitude" : "120.54897",
      "outDis" : "50",
      "Id" : "0302",
      "oid" : "318517266",
      "districtId" : "1",
      "nameZh" : "港埠五權路口",
      "pgp" : "0",
      "terminal" : "0",
      "latitude" : "24.28194",
      "inDis" : "50",
      "routeId" : "111",
      "seqNo" : "8"
   },
   {
      "GoBack" : "2",
      "longitude" : "120.54827",
      "outDis" : "50",
      "Id" : "0301",
      "oid" : "318517265",
      "districtId" : "1",
      "nameZh" : "港埠中清路口",
      "pgp" : "0",
      "terminal" : "0",
      "latitude" : "24.27907",
      "inDis" : "50",
      "routeId" : "111",
      "seqNo" : "9"
   },
   {
      "GoBack" : "2",
      "longitude" : "120.5493",
      "outDis" : "50",
      "Id" : "0300",
      "oid" : "318517264",
      "districtId" : "1",
      "nameZh" : "甲桂林社區",
      "pgp" : "0",
      "terminal" : "0",
      "latitude" : "24.27469",
      "inDis" : "50",
      "routeId" : "111",
      "seqNo" : "10"
   },
   {
      "GoBack" : "2",
      "longitude" : "120.5514",
      "outDis" : "50",
      "Id" : "5719",
      "oid" : "320604382",
      "districtId" : "1",
      "nameZh" : "武鹿里",
      "pgp" : "0",
      "terminal" : "0",
      "latitude" : "24.27393",
      "inDis" : "50",
      "routeId" : "111",
      "seqNo" : "11"
   },
   {
      "GoBack" : "2",
      "longitude" : "120.55441",
      "outDis" : "50",
      "Id" : "0299",
      "oid" : "318517263",
      "districtId" : "1",
      "nameZh" : "首園",
      "pgp" : "0",
      "terminal" : "0",
      "latitude" : "24.27293",
      "inDis" : "50",
      "routeId" : "111",
      "seqNo" : "12"
   },
   {
      "GoBack" : "2",
      "longitude" : "120.55687",
      "outDis" : "50",
      "Id" : "4891",
      "oid" : "318517255",
      "districtId" : "1",
      "nameZh" : "秀水里",
      "pgp" : "0",
      "terminal" : "0",
      "latitude" : "24.27207",
      "inDis" : "50",
      "routeId" : "111",
      "seqNo" : "13"
   },
   {
      "GoBack" : "2",
      "longitude" : "120.55958",
      "outDis" : "50",
      "Id" : "4904",
      "oid" : "15814",
      "districtId" : "1",
      "nameZh" : "港區藝術中心",
      "pgp" : "0",
      "terminal" : "0",
      "latitude" : "24.2698",
      "inDis" : "50",
      "routeId" : "111",
      "seqNo" : "14"
   },
   {
      "GoBack" : "2",
      "longitude" : "120.56079",
      "outDis" : "50",
      "Id" : "5720",
      "oid" : "320604381",
      "districtId" : "1",
      "nameZh" : "清水第二市場",
      "pgp" : "0",
      "terminal" : "0",
      "latitude" : "24.26786",
      "inDis" : "50",
      "routeId" : "111",
      "seqNo" : "15"
   },
   {
      "GoBack" : "2",
      "longitude" : "120.56271",
      "outDis" : "50",
      "Id" : "3017",
      "oid" : "14875",
      "districtId" : "1",
      "nameZh" : "清水國中",
      "pgp" : "0",
      "terminal" : "0",
      "latitude" : "24.26778",
      "inDis" : "50",
      "routeId" : "111",
      "seqNo" : "16"
   },
   {
      "GoBack" : "2",
      "longitude" : "120.5648",
      "outDis" : "50",
      "Id" : "3700",
      "oid" : "14947",
      "districtId" : "1",
      "nameZh" : "銀聯二村",
      "pgp" : "0",
      "terminal" : "0",
      "latitude" : "24.26832",
      "inDis" : "50",
      "routeId" : "111",
      "seqNo" : "17"
   },
   {
      "GoBack" : "2",
      "longitude" : "120.56825",
      "outDis" : "50",
      "Id" : "2486",
      "oid" : "14946",
      "districtId" : "1",
      "nameZh" : "社口",
      "pgp" : "0",
      "terminal" : "0",
      "latitude" : "24.26845",
      "inDis" : "50",
      "routeId" : "111",
      "seqNo" : "18"
   },
   {
      "GoBack" : "2",
      "longitude" : "120.57004",
      "outDis" : "50",
      "Id" : "5655",
      "oid" : "317714376",
      "districtId" : "1",
      "nameZh" : "鰲峰西社路口",
      "pgp" : "0",
      "terminal" : "0",
      "latitude" : "24.26923",
      "inDis" : "50",
      "routeId" : "111",
      "seqNo" : "19"
   },
   {
      "GoBack" : "2",
      "longitude" : "120.57531",
      "outDis" : "50",
      "Id" : "1615",
      "oid" : "14944",
      "districtId" : "1",
      "nameZh" : "分局前",
      "pgp" : "0",
      "terminal" : "0",
      "latitude" : "24.26919",
      "inDis" : "50",
      "routeId" : "111",
      "seqNo" : "20"
   },
   {
      "GoBack" : "2",
      "longitude" : "120.57516",
      "outDis" : "50",
      "Id" : "5141",
      "oid" : "14057",
      "districtId" : "1",
      "nameZh" : "華南銀行(清水分行)",
      "pgp" : "0",
      "terminal" : "0",
      "latitude" : "24.2683",
      "inDis" : "50",
      "routeId" : "111",
      "seqNo" : "21"
   },
   {
      "GoBack" : "2",
      "longitude" : "120.57492",
      "outDis" : "50",
      "Id" : "5568",
      "oid" : "316572735",
      "districtId" : "1",
      "nameZh" : "清水高中(學園街)",
      "pgp" : "0",
      "terminal" : "0",
      "latitude" : "24.26615",
      "inDis" : "50",
      "routeId" : "111",
      "seqNo" : "22"
   },
   {
      "GoBack" : "2",
      "longitude" : "120.58021",
      "outDis" : "50",
      "Id" : "0296",
      "oid" : "318517261",
      "districtId" : "1",
      "nameZh" : "牛罵頭遺址",
      "pgp" : "0",
      "terminal" : "0",
      "latitude" : "24.26804",
      "inDis" : "50",
      "routeId" : "111",
      "seqNo" : "23"
   },
   {
      "GoBack" : "2",
      "longitude" : "120.58162",
      "outDis" : "50",
      "Id" : "0297",
      "oid" : "318517257",
      "districtId" : "1",
      "nameZh" : "鰲峰山公園",
      "pgp" : "0",
      "terminal" : "0",
      "latitude" : "24.26888",
      "inDis" : "50",
      "routeId" : "111",
      "seqNo" : "24"
   },
   {
      "GoBack" : "2",
      "longitude" : "120.58161",
      "outDis" : "50",
      "Id" : "0298",
      "oid" : "318517259",
      "districtId" : "1",
      "nameZh" : "清水鬼洞",
      "pgp" : "0",
      "terminal" : "0",
      "latitude" : "24.272",
      "inDis" : "50",
      "routeId" : "111",
      "seqNo" : "25"
   },
   {
      "GoBack" : "2",
      "longitude" : "120.58184",
      "outDis" : "50",
      "Id" : "0297",
      "oid" : "318517260",
      "districtId" : "1",
      "nameZh" : "鰲峰山公園",
      "pgp" : "0",
      "terminal" : "0",
      "latitude" : "24.26911",
      "inDis" : "50",
      "routeId" : "111",
      "seqNo" : "26"
   },
   {
      "GoBack" : "2",
      "longitude" : "120.58026",
      "outDis" : "50",
      "Id" : "0296",
      "oid" : "318517256",
      "districtId" : "1",
      "nameZh" : "牛罵頭遺址",
      "pgp" : "0",
      "terminal" : "0",
      "latitude" : "24.26815",
      "inDis" : "50",
      "routeId" : "111",
      "seqNo" : "27"
   },
   {
      "GoBack" : "2",
      "longitude" : "120.57492",
      "outDis" : "50",
      "Id" : "5568",
      "oid" : "318546054",
      "districtId" : "1",
      "nameZh" : "清水高中(學園街)",
      "pgp" : "0",
      "terminal" : "0",
      "latitude" : "24.26615",
      "inDis" : "50",
      "routeId" : "111",
      "seqNo" : "28"
   },
   {
      "GoBack" : "2",
      "longitude" : "120.5742",
      "outDis" : "50",
      "Id" : "0314",
      "oid" : "15186",
      "districtId" : "1",
      "nameZh" : "清水高中(中山路)",
      "pgp" : "0",
      "terminal" : "0",
      "latitude" : "24.2658",
      "inDis" : "50",
      "routeId" : "111",
      "seqNo" : "29"
   },
   {
      "GoBack" : "2",
      "longitude" : "120.57005",
      "outDis" : "50",
      "Id" : "5471",
      "oid" : "314200099",
      "districtId" : "1",
      "nameZh" : "清水火車站",
      "pgp" : "0",
      "terminal" : "0",
      "latitude" : "24.26341",
      "inDis" : "50",
      "routeId" : "111",
      "seqNo" : "30"
   }
]
