[
   {
      "GoBack" : "1",
      "longitude" : "120.62553",
      "outDis" : "50",
      "Id" : "5084",
      "oid" : "5215",
      "districtId" : "1",
      "nameZh" : "大甲",
      "pgp" : "0",
      "terminal" : "0",
      "latitude" : "24.34321",
      "inDis" : "50",
      "routeId" : "216",
      "seqNo" : "1"
   },
   {
      "GoBack" : "1",
      "longitude" : "120.61993",
      "outDis" : "50",
      "Id" : "3064",
      "oid" : "6264",
      "districtId" : "1",
      "nameZh" : "庄美里",
      "pgp" : "0",
      "terminal" : "0",
      "latitude" : "24.34527",
      "inDis" : "50",
      "routeId" : "216",
      "seqNo" : "2"
   },
   {
      "GoBack" : "1",
      "longitude" : "120.61799",
      "outDis" : "50",
      "Id" : "2589",
      "oid" : "5994",
      "districtId" : "1",
      "nameZh" : "南門",
      "pgp" : "0",
      "terminal" : "0",
      "latitude" : "24.34645",
      "inDis" : "50",
      "routeId" : "216",
      "seqNo" : "3"
   },
   {
      "GoBack" : "1",
      "longitude" : "120.61645",
      "outDis" : "50",
      "Id" : "2038",
      "oid" : "5679",
      "districtId" : "1",
      "nameZh" : "光田",
      "pgp" : "0",
      "terminal" : "0",
      "latitude" : "24.34723",
      "inDis" : "50",
      "routeId" : "216",
      "seqNo" : "4"
   },
   {
      "GoBack" : "1",
      "longitude" : "120.61181",
      "outDis" : "50",
      "Id" : "1732",
      "oid" : "5498",
      "districtId" : "1",
      "nameZh" : "牛埔",
      "pgp" : "0",
      "terminal" : "0",
      "latitude" : "24.34844",
      "inDis" : "50",
      "routeId" : "216",
      "seqNo" : "5"
   },
   {
      "GoBack" : "1",
      "longitude" : "120.60928",
      "outDis" : "50",
      "Id" : "4467",
      "oid" : "6100",
      "districtId" : "1",
      "nameZh" : "家畜市場",
      "pgp" : "0",
      "terminal" : "0",
      "latitude" : "24.34789",
      "inDis" : "50",
      "routeId" : "216",
      "seqNo" : "6"
   },
   {
      "GoBack" : "1",
      "longitude" : "120.60498",
      "outDis" : "50",
      "Id" : "3697",
      "oid" : "6585",
      "districtId" : "1",
      "nameZh" : "遠東手套",
      "pgp" : "0",
      "terminal" : "0",
      "latitude" : "24.34728",
      "inDis" : "50",
      "routeId" : "216",
      "seqNo" : "7"
   },
   {
      "GoBack" : "1",
      "longitude" : "120.60146",
      "outDis" : "50",
      "Id" : "5362",
      "oid" : "311796743",
      "districtId" : "1",
      "nameZh" : "興安福東路口",
      "pgp" : "0",
      "terminal" : "0",
      "latitude" : "24.34622",
      "inDis" : "50",
      "routeId" : "216",
      "seqNo" : "8"
   },
   {
      "GoBack" : "1",
      "longitude" : "120.59733",
      "outDis" : "50",
      "Id" : "5784",
      "oid" : "320761418",
      "districtId" : "1",
      "nameZh" : "福興(興安路)",
      "pgp" : "0",
      "terminal" : "0",
      "latitude" : "24.34585",
      "inDis" : "50",
      "routeId" : "216",
      "seqNo" : "9"
   },
   {
      "GoBack" : "1",
      "longitude" : "120.59084",
      "outDis" : "50",
      "Id" : "1061",
      "oid" : "5068",
      "districtId" : "1",
      "nameZh" : "三元莊",
      "pgp" : "0",
      "terminal" : "0",
      "latitude" : "24.34598",
      "inDis" : "50",
      "routeId" : "216",
      "seqNo" : "10"
   },
   {
      "GoBack" : "1",
      "longitude" : "120.5892",
      "outDis" : "50",
      "Id" : "5364",
      "oid" : "311815001",
      "districtId" : "1",
      "nameZh" : "大安區圖書館",
      "pgp" : "0",
      "terminal" : "0",
      "latitude" : "24.34545",
      "inDis" : "50",
      "routeId" : "216",
      "seqNo" : "11"
   },
   {
      "GoBack" : "1",
      "longitude" : "120.58701",
      "outDis" : "50",
      "Id" : "4436",
      "oid" : "13833",
      "districtId" : "1",
      "nameZh" : "大安區公所",
      "pgp" : "0",
      "terminal" : "0",
      "latitude" : "24.34565",
      "inDis" : "50",
      "routeId" : "216",
      "seqNo" : "12"
   },
   {
      "GoBack" : "1",
      "longitude" : "120.58402",
      "outDis" : "50",
      "Id" : "1476",
      "oid" : "5336",
      "districtId" : "1",
      "nameZh" : "中庄",
      "pgp" : "0",
      "terminal" : "0",
      "latitude" : "24.35013",
      "inDis" : "50",
      "routeId" : "216",
      "seqNo" : "13"
   },
   {
      "GoBack" : "1",
      "longitude" : "120.57673",
      "outDis" : "50",
      "Id" : "2601",
      "oid" : "6004",
      "districtId" : "1",
      "nameZh" : "南庄",
      "pgp" : "0",
      "terminal" : "0",
      "latitude" : "24.34988",
      "inDis" : "50",
      "routeId" : "216",
      "seqNo" : "14"
   },
   {
      "GoBack" : "1",
      "longitude" : "120.57371",
      "outDis" : "50",
      "Id" : "1989",
      "oid" : "5640",
      "districtId" : "1",
      "nameZh" : "田寮",
      "pgp" : "0",
      "terminal" : "0",
      "latitude" : "24.34629",
      "inDis" : "50",
      "routeId" : "216",
      "seqNo" : "15"
   },
   {
      "GoBack" : "1",
      "longitude" : "120.569",
      "outDis" : "50",
      "Id" : "2595",
      "oid" : "6003",
      "districtId" : "1",
      "nameZh" : "南埔  　",
      "pgp" : "0",
      "terminal" : "0",
      "latitude" : "24.3406",
      "inDis" : "50",
      "routeId" : "216",
      "seqNo" : "16"
   },
   {
      "GoBack" : "2",
      "longitude" : "120.569",
      "outDis" : "50",
      "Id" : "2595",
      "oid" : "6003",
      "districtId" : "1",
      "nameZh" : "南埔  　",
      "pgp" : "0",
      "terminal" : "0",
      "latitude" : "24.3406",
      "inDis" : "50",
      "routeId" : "216",
      "seqNo" : "1"
   },
   {
      "GoBack" : "2",
      "longitude" : "120.57371",
      "outDis" : "50",
      "Id" : "1989",
      "oid" : "5640",
      "districtId" : "1",
      "nameZh" : "田寮",
      "pgp" : "0",
      "terminal" : "0",
      "latitude" : "24.34629",
      "inDis" : "50",
      "routeId" : "216",
      "seqNo" : "2"
   },
   {
      "GoBack" : "2",
      "longitude" : "120.57673",
      "outDis" : "50",
      "Id" : "2601",
      "oid" : "6004",
      "districtId" : "1",
      "nameZh" : "南庄",
      "pgp" : "0",
      "terminal" : "0",
      "latitude" : "24.34988",
      "inDis" : "50",
      "routeId" : "216",
      "seqNo" : "3"
   },
   {
      "GoBack" : "2",
      "longitude" : "120.58402",
      "outDis" : "50",
      "Id" : "1476",
      "oid" : "5336",
      "districtId" : "1",
      "nameZh" : "中庄",
      "pgp" : "0",
      "terminal" : "0",
      "latitude" : "24.35013",
      "inDis" : "50",
      "routeId" : "216",
      "seqNo" : "4"
   },
   {
      "GoBack" : "2",
      "longitude" : "120.58701",
      "outDis" : "50",
      "Id" : "4436",
      "oid" : "13833",
      "districtId" : "1",
      "nameZh" : "大安區公所",
      "pgp" : "0",
      "terminal" : "0",
      "latitude" : "24.34565",
      "inDis" : "50",
      "routeId" : "216",
      "seqNo" : "5"
   },
   {
      "GoBack" : "2",
      "longitude" : "120.5892",
      "outDis" : "50",
      "Id" : "5364",
      "oid" : "311815001",
      "districtId" : "1",
      "nameZh" : "大安區圖書館",
      "pgp" : "0",
      "terminal" : "0",
      "latitude" : "24.34545",
      "inDis" : "50",
      "routeId" : "216",
      "seqNo" : "6"
   },
   {
      "GoBack" : "2",
      "longitude" : "120.59084",
      "outDis" : "50",
      "Id" : "1061",
      "oid" : "5068",
      "districtId" : "1",
      "nameZh" : "三元莊",
      "pgp" : "0",
      "terminal" : "0",
      "latitude" : "24.34598",
      "inDis" : "50",
      "routeId" : "216",
      "seqNo" : "7"
   },
   {
      "GoBack" : "2",
      "longitude" : "120.59733",
      "outDis" : "50",
      "Id" : "5784",
      "oid" : "320761418",
      "districtId" : "1",
      "nameZh" : "福興(興安路)",
      "pgp" : "0",
      "terminal" : "0",
      "latitude" : "24.34585",
      "inDis" : "50",
      "routeId" : "216",
      "seqNo" : "8"
   },
   {
      "GoBack" : "2",
      "longitude" : "120.60146",
      "outDis" : "50",
      "Id" : "5362",
      "oid" : "311796743",
      "districtId" : "1",
      "nameZh" : "興安福東路口",
      "pgp" : "0",
      "terminal" : "0",
      "latitude" : "24.34622",
      "inDis" : "50",
      "routeId" : "216",
      "seqNo" : "9"
   },
   {
      "GoBack" : "2",
      "longitude" : "120.60498",
      "outDis" : "50",
      "Id" : "3697",
      "oid" : "6585",
      "districtId" : "1",
      "nameZh" : "遠東手套",
      "pgp" : "0",
      "terminal" : "0",
      "latitude" : "24.34728",
      "inDis" : "50",
      "routeId" : "216",
      "seqNo" : "10"
   },
   {
      "GoBack" : "2",
      "longitude" : "120.60928",
      "outDis" : "50",
      "Id" : "4467",
      "oid" : "6100",
      "districtId" : "1",
      "nameZh" : "家畜市場",
      "pgp" : "0",
      "terminal" : "0",
      "latitude" : "24.34789",
      "inDis" : "50",
      "routeId" : "216",
      "seqNo" : "11"
   },
   {
      "GoBack" : "2",
      "longitude" : "120.61181",
      "outDis" : "50",
      "Id" : "1732",
      "oid" : "5498",
      "districtId" : "1",
      "nameZh" : "牛埔",
      "pgp" : "0",
      "terminal" : "0",
      "latitude" : "24.34844",
      "inDis" : "50",
      "routeId" : "216",
      "seqNo" : "12"
   },
   {
      "GoBack" : "2",
      "longitude" : "120.61645",
      "outDis" : "50",
      "Id" : "2038",
      "oid" : "5679",
      "districtId" : "1",
      "nameZh" : "光田",
      "pgp" : "0",
      "terminal" : "0",
      "latitude" : "24.34723",
      "inDis" : "50",
      "routeId" : "216",
      "seqNo" : "13"
   },
   {
      "GoBack" : "2",
      "longitude" : "120.61799",
      "outDis" : "50",
      "Id" : "2589",
      "oid" : "5994",
      "districtId" : "1",
      "nameZh" : "南門",
      "pgp" : "0",
      "terminal" : "0",
      "latitude" : "24.34645",
      "inDis" : "50",
      "routeId" : "216",
      "seqNo" : "14"
   },
   {
      "GoBack" : "2",
      "longitude" : "120.61993",
      "outDis" : "50",
      "Id" : "3064",
      "oid" : "6264",
      "districtId" : "1",
      "nameZh" : "庄美里",
      "pgp" : "0",
      "terminal" : "0",
      "latitude" : "24.34527",
      "inDis" : "50",
      "routeId" : "216",
      "seqNo" : "15"
   },
   {
      "GoBack" : "2",
      "longitude" : "120.62553",
      "outDis" : "50",
      "Id" : "5084",
      "oid" : "5215",
      "districtId" : "1",
      "nameZh" : "大甲",
      "pgp" : "0",
      "terminal" : "0",
      "latitude" : "24.34321",
      "inDis" : "50",
      "routeId" : "216",
      "seqNo" : "16"
   }
]
