[
   {
      "GoBack" : "1",
      "longitude" : "120.68814",
      "outDis" : "50",
      "Id" : "0048",
      "oid" : "13220",
      "districtId" : "1",
      "nameZh" : "莒光新城",
      "pgp" : "0",
      "terminal" : "0",
      "latitude" : "24.15408",
      "inDis" : "50",
      "routeId" : "51",
      "seqNo" : "1"
   },
   {
      "GoBack" : "1",
      "longitude" : "120.68385",
      "outDis" : "50",
      "Id" : "3772",
      "oid" : "13334",
      "districtId" : "1",
      "nameZh" : "五權學士路口",
      "pgp" : "0",
      "terminal" : "0",
      "latitude" : "24.15372",
      "inDis" : "50",
      "routeId" : "51",
      "seqNo" : "2"
   },
   {
      "GoBack" : "1",
      "longitude" : "120.68024",
      "outDis" : "50",
      "Id" : "0146",
      "oid" : "13261",
      "districtId" : "1",
      "nameZh" : "五常里",
      "pgp" : "0",
      "terminal" : "0",
      "latitude" : "24.15236",
      "inDis" : "50",
      "routeId" : "51",
      "seqNo" : "3"
   },
   {
      "GoBack" : "1",
      "longitude" : "120.67825",
      "outDis" : "50",
      "Id" : "0145",
      "oid" : "13151",
      "districtId" : "1",
      "nameZh" : "光大里",
      "pgp" : "0",
      "terminal" : "0",
      "latitude" : "24.1518",
      "inDis" : "50",
      "routeId" : "51",
      "seqNo" : "4"
   },
   {
      "GoBack" : "1",
      "longitude" : "120.67737",
      "outDis" : "50",
      "Id" : "0503",
      "oid" : "13132",
      "districtId" : "1",
      "nameZh" : "臺中二中",
      "pgp" : "0",
      "terminal" : "0",
      "latitude" : "24.15266",
      "inDis" : "50",
      "routeId" : "51",
      "seqNo" : "5"
   },
   {
      "GoBack" : "1",
      "longitude" : "120.67737",
      "outDis" : "50",
      "Id" : "0481",
      "oid" : "13130",
      "districtId" : "1",
      "nameZh" : "文莊里",
      "pgp" : "0",
      "terminal" : "0",
      "latitude" : "24.15472",
      "inDis" : "50",
      "routeId" : "51",
      "seqNo" : "6"
   },
   {
      "GoBack" : "1",
      "longitude" : "120.67299",
      "outDis" : "50",
      "Id" : "4177",
      "oid" : "13237",
      "districtId" : "1",
      "nameZh" : "篤行國小",
      "pgp" : "0",
      "terminal" : "0",
      "latitude" : "24.15578",
      "inDis" : "50",
      "routeId" : "51",
      "seqNo" : "7"
   },
   {
      "GoBack" : "1",
      "longitude" : "120.66858",
      "outDis" : "50",
      "Id" : "4634",
      "oid" : "13161",
      "districtId" : "1",
      "nameZh" : "英才西屯路口",
      "pgp" : "0",
      "terminal" : "0",
      "latitude" : "24.15469",
      "inDis" : "50",
      "routeId" : "51",
      "seqNo" : "8"
   },
   {
      "GoBack" : "1",
      "longitude" : "120.66723",
      "outDis" : "50",
      "Id" : "4531",
      "oid" : "13258",
      "districtId" : "1",
      "nameZh" : "英才臺灣大道口",
      "pgp" : "0",
      "terminal" : "0",
      "latitude" : "24.15312",
      "inDis" : "50",
      "routeId" : "51",
      "seqNo" : "9"
   },
   {
      "GoBack" : "1",
      "longitude" : "120.66525",
      "outDis" : "50",
      "Id" : "5120",
      "oid" : "13106",
      "districtId" : "1",
      "nameZh" : "英才公益路口",
      "pgp" : "0",
      "terminal" : "0",
      "latitude" : "24.15032",
      "inDis" : "50",
      "routeId" : "51",
      "seqNo" : "10"
   },
   {
      "GoBack" : "1",
      "longitude" : "120.66518",
      "outDis" : "50",
      "Id" : "2077",
      "oid" : "13157",
      "districtId" : "1",
      "nameZh" : "英才向上北路口",
      "pgp" : "0",
      "terminal" : "0",
      "latitude" : "24.14885",
      "inDis" : "50",
      "routeId" : "51",
      "seqNo" : "11"
   },
   {
      "GoBack" : "1",
      "longitude" : "120.66523",
      "outDis" : "50",
      "Id" : "4059",
      "oid" : "13187",
      "districtId" : "1",
      "nameZh" : "英才郵局",
      "pgp" : "0",
      "terminal" : "0",
      "latitude" : "24.14514",
      "inDis" : "50",
      "routeId" : "51",
      "seqNo" : "12"
   },
   {
      "GoBack" : "1",
      "longitude" : "120.66584",
      "outDis" : "50",
      "Id" : "4557",
      "oid" : "A9BC483CFD6142C08CC3406353F4945E",
      "districtId" : "1",
      "nameZh" : "大墩文化中心(英才路)",
      "pgp" : "0",
      "terminal" : "0",
      "latitude" : "24.14195",
      "inDis" : "50",
      "routeId" : "51",
      "seqNo" : "13"
   },
   {
      "GoBack" : "1",
      "longitude" : "120.66863",
      "outDis" : "50",
      "Id" : "0068",
      "oid" : "13171",
      "districtId" : "1",
      "nameZh" : "忠信國小",
      "pgp" : "0",
      "terminal" : "0",
      "latitude" : "24.13944",
      "inDis" : "50",
      "routeId" : "51",
      "seqNo" : "14"
   },
   {
      "GoBack" : "1",
      "longitude" : "120.6724",
      "outDis" : "50",
      "Id" : "4317",
      "oid" : "13179",
      "districtId" : "1",
      "nameZh" : "林森三民路口",
      "pgp" : "0",
      "terminal" : "0",
      "latitude" : "24.13615",
      "inDis" : "50",
      "routeId" : "51",
      "seqNo" : "15"
   },
   {
      "GoBack" : "1",
      "longitude" : "120.67607",
      "outDis" : "50",
      "Id" : "0070",
      "oid" : "13306",
      "districtId" : "1",
      "nameZh" : "地方法院",
      "pgp" : "0",
      "terminal" : "0",
      "latitude" : "24.13406",
      "inDis" : "50",
      "routeId" : "51",
      "seqNo" : "16"
   },
   {
      "GoBack" : "1",
      "longitude" : "120.67803",
      "outDis" : "50",
      "Id" : "0071",
      "oid" : "13288",
      "districtId" : "1",
      "nameZh" : "臺中女中",
      "pgp" : "0",
      "terminal" : "0",
      "latitude" : "24.13596",
      "inDis" : "50",
      "routeId" : "51",
      "seqNo" : "17"
   },
   {
      "GoBack" : "1",
      "longitude" : "120.68112",
      "outDis" : "50",
      "Id" : "4284",
      "oid" : "13344",
      "districtId" : "1",
      "nameZh" : "民權繼光街口",
      "pgp" : "0",
      "terminal" : "0",
      "latitude" : "24.13698",
      "inDis" : "50",
      "routeId" : "51",
      "seqNo" : "18"
   },
   {
      "GoBack" : "1",
      "longitude" : "120.68379",
      "outDis" : "50",
      "Id" : "0183",
      "oid" : "13139",
      "districtId" : "1",
      "nameZh" : "臺中家商",
      "pgp" : "0",
      "terminal" : "0",
      "latitude" : "24.13473",
      "inDis" : "50",
      "routeId" : "51",
      "seqNo" : "19"
   },
   {
      "GoBack" : "1",
      "longitude" : "120.68632",
      "outDis" : "50",
      "Id" : "0184",
      "oid" : "13137",
      "districtId" : "1",
      "nameZh" : "後火車站",
      "pgp" : "0",
      "terminal" : "0",
      "latitude" : "24.13583",
      "inDis" : "50",
      "routeId" : "51",
      "seqNo" : "20"
   },
   {
      "GoBack" : "1",
      "longitude" : "120.68806",
      "outDis" : "50",
      "Id" : "0185",
      "oid" : "13227",
      "districtId" : "1",
      "nameZh" : "新時代購物中心",
      "pgp" : "0",
      "terminal" : "0",
      "latitude" : "24.13603",
      "inDis" : "50",
      "routeId" : "51",
      "seqNo" : "21"
   },
   {
      "GoBack" : "1",
      "longitude" : "120.6899",
      "outDis" : "50",
      "Id" : "0186",
      "oid" : "13169",
      "districtId" : "1",
      "nameZh" : "大智忠孝路口",
      "pgp" : "0",
      "terminal" : "0",
      "latitude" : "24.13245",
      "inDis" : "50",
      "routeId" : "51",
      "seqNo" : "22"
   },
   {
      "GoBack" : "1",
      "longitude" : "120.69146",
      "outDis" : "50",
      "Id" : "4362",
      "oid" : "13183",
      "districtId" : "1",
      "nameZh" : "建成大振街口",
      "pgp" : "0",
      "terminal" : "0",
      "latitude" : "24.13218",
      "inDis" : "50",
      "routeId" : "51",
      "seqNo" : "23"
   },
   {
      "GoBack" : "1",
      "longitude" : "120.69413",
      "outDis" : "50",
      "Id" : "4654",
      "oid" : "13081",
      "districtId" : "1",
      "nameZh" : "大東紡織(振興路)",
      "pgp" : "0",
      "terminal" : "0",
      "latitude" : "24.13293",
      "inDis" : "50",
      "routeId" : "51",
      "seqNo" : "24"
   },
   {
      "GoBack" : "1",
      "longitude" : "120.6964",
      "outDis" : "50",
      "Id" : "3617",
      "oid" : "13234",
      "districtId" : "1",
      "nameZh" : "漢聲電臺",
      "pgp" : "0",
      "terminal" : "0",
      "latitude" : "24.13307",
      "inDis" : "50",
      "routeId" : "51",
      "seqNo" : "25"
   },
   {
      "GoBack" : "1",
      "longitude" : "120.69819",
      "outDis" : "50",
      "Id" : "0190",
      "oid" : "13177",
      "districtId" : "1",
      "nameZh" : "東門橋",
      "pgp" : "0",
      "terminal" : "0",
      "latitude" : "24.13308",
      "inDis" : "50",
      "routeId" : "51",
      "seqNo" : "26"
   },
   {
      "GoBack" : "1",
      "longitude" : "120.703",
      "outDis" : "50",
      "Id" : "2236",
      "oid" : "13307",
      "districtId" : "1",
      "nameZh" : "旱溪",
      "pgp" : "0",
      "terminal" : "0",
      "latitude" : "24.13137",
      "inDis" : "50",
      "routeId" : "51",
      "seqNo" : "27"
   },
   {
      "GoBack" : "1",
      "longitude" : "120.7059",
      "outDis" : "50",
      "Id" : "1642",
      "oid" : "13111",
      "districtId" : "1",
      "nameZh" : "太平橋前",
      "pgp" : "0",
      "terminal" : "0",
      "latitude" : "24.12988",
      "inDis" : "50",
      "routeId" : "51",
      "seqNo" : "28"
   },
   {
      "GoBack" : "1",
      "longitude" : "120.7088",
      "outDis" : "50",
      "Id" : "1185",
      "oid" : "13070",
      "districtId" : "1",
      "nameZh" : "下部仔",
      "pgp" : "0",
      "terminal" : "0",
      "latitude" : "24.12813",
      "inDis" : "50",
      "routeId" : "51",
      "seqNo" : "29"
   },
   {
      "GoBack" : "1",
      "longitude" : "120.71064",
      "outDis" : "50",
      "Id" : "4218",
      "oid" : "13091",
      "districtId" : "1",
      "nameZh" : "中油太平站",
      "pgp" : "0",
      "terminal" : "0",
      "latitude" : "24.12702",
      "inDis" : "50",
      "routeId" : "51",
      "seqNo" : "30"
   },
   {
      "GoBack" : "1",
      "longitude" : "120.71264",
      "outDis" : "50",
      "Id" : "1128",
      "oid" : "13068",
      "districtId" : "1",
      "nameZh" : "下太平",
      "pgp" : "0",
      "terminal" : "0",
      "latitude" : "24.1258",
      "inDis" : "50",
      "routeId" : "51",
      "seqNo" : "31"
   },
   {
      "GoBack" : "1",
      "longitude" : "120.71507",
      "outDis" : "50",
      "Id" : "1427",
      "oid" : "13090",
      "districtId" : "1",
      "nameZh" : "中太平",
      "pgp" : "0",
      "terminal" : "0",
      "latitude" : "24.12683",
      "inDis" : "50",
      "routeId" : "51",
      "seqNo" : "32"
   },
   {
      "GoBack" : "1",
      "longitude" : "120.71733",
      "outDis" : "50",
      "Id" : "4220",
      "oid" : "13108",
      "districtId" : "1",
      "nameZh" : "太平國小",
      "pgp" : "0",
      "terminal" : "0",
      "latitude" : "24.12826",
      "inDis" : "50",
      "routeId" : "51",
      "seqNo" : "33"
   },
   {
      "GoBack" : "1",
      "longitude" : "120.72147",
      "outDis" : "50",
      "Id" : "4221",
      "oid" : "13110",
      "districtId" : "1",
      "nameZh" : "太平運動場",
      "pgp" : "0",
      "terminal" : "0",
      "latitude" : "24.13091",
      "inDis" : "50",
      "routeId" : "51",
      "seqNo" : "34"
   },
   {
      "GoBack" : "1",
      "longitude" : "120.72278",
      "outDis" : "50",
      "Id" : "4666",
      "oid" : "13174",
      "districtId" : "1",
      "nameZh" : "東平國小(中興東路)",
      "pgp" : "0",
      "terminal" : "0",
      "latitude" : "24.13161",
      "inDis" : "50",
      "routeId" : "51",
      "seqNo" : "35"
   },
   {
      "GoBack" : "1",
      "longitude" : "120.72519",
      "outDis" : "50",
      "Id" : "4219",
      "oid" : "13098",
      "districtId" : "1",
      "nameZh" : "中興東成功路口",
      "pgp" : "0",
      "terminal" : "0",
      "latitude" : "24.13308",
      "inDis" : "50",
      "routeId" : "51",
      "seqNo" : "36"
   },
   {
      "GoBack" : "1",
      "longitude" : "120.72876",
      "outDis" : "50",
      "Id" : "3088",
      "oid" : "13221",
      "districtId" : "1",
      "nameZh" : "頂三叉",
      "pgp" : "0",
      "terminal" : "0",
      "latitude" : "24.13474",
      "inDis" : "50",
      "routeId" : "51",
      "seqNo" : "37"
   },
   {
      "GoBack" : "1",
      "longitude" : "120.73193",
      "outDis" : "50",
      "Id" : "1396",
      "oid" : "13084",
      "districtId" : "1",
      "nameZh" : "山腳",
      "pgp" : "0",
      "terminal" : "0",
      "latitude" : "24.13475",
      "inDis" : "50",
      "routeId" : "51",
      "seqNo" : "38"
   },
   {
      "GoBack" : "1",
      "longitude" : "120.7325",
      "outDis" : "50",
      "Id" : "4229",
      "oid" : "13164",
      "districtId" : "1",
      "nameZh" : "亞姆拉公司",
      "pgp" : "0",
      "terminal" : "0",
      "latitude" : "24.13701",
      "inDis" : "50",
      "routeId" : "51",
      "seqNo" : "39"
   },
   {
      "GoBack" : "1",
      "longitude" : "120.73197",
      "outDis" : "50",
      "Id" : "5547",
      "oid" : "316462700",
      "districtId" : "1",
      "nameZh" : "洪厝庄",
      "pgp" : "0",
      "terminal" : "0",
      "latitude" : "24.13912",
      "inDis" : "50",
      "routeId" : "51",
      "seqNo" : "40"
   },
   {
      "GoBack" : "1",
      "longitude" : "120.73219",
      "outDis" : "50",
      "Id" : "0631",
      "oid" : "13168",
      "districtId" : "1",
      "nameZh" : "和平橋",
      "pgp" : "0",
      "terminal" : "0",
      "latitude" : "24.141",
      "inDis" : "50",
      "routeId" : "51",
      "seqNo" : "41"
   },
   {
      "GoBack" : "1",
      "longitude" : "120.73245",
      "outDis" : "50",
      "Id" : "1637",
      "oid" : "8E0118F37A774922B5D7562D1170B6D6",
      "districtId" : "1",
      "nameZh" : "太平分局",
      "pgp" : "0",
      "terminal" : "0",
      "latitude" : "24.14151",
      "inDis" : "50",
      "routeId" : "51",
      "seqNo" : "42"
   },
   {
      "GoBack" : "1",
      "longitude" : "120.73343",
      "outDis" : "50",
      "Id" : "4364",
      "oid" : "13225",
      "districtId" : "1",
      "nameZh" : "勤益科技大學",
      "pgp" : "0",
      "terminal" : "0",
      "latitude" : "24.14279",
      "inDis" : "50",
      "routeId" : "51",
      "seqNo" : "43"
   },
   {
      "GoBack" : "1",
      "longitude" : "120.73424",
      "outDis" : "50",
      "Id" : "0632",
      "oid" : "13309",
      "districtId" : "1",
      "nameZh" : "坪林",
      "pgp" : "0",
      "terminal" : "0",
      "latitude" : "24.14494",
      "inDis" : "50",
      "routeId" : "51",
      "seqNo" : "44"
   },
   {
      "GoBack" : "1",
      "longitude" : "120.73357",
      "outDis" : "50",
      "Id" : "0319",
      "oid" : "E5AE2C13F88D4513BF4B0FDD40243D03",
      "districtId" : "1",
      "nameZh" : "三中心",
      "pgp" : "0",
      "terminal" : "0",
      "latitude" : "24.14644",
      "inDis" : "50",
      "routeId" : "51",
      "seqNo" : "45"
   },
   {
      "GoBack" : "1",
      "longitude" : "120.73435",
      "outDis" : "50",
      "Id" : "4350",
      "oid" : "13262",
      "districtId" : "1",
      "nameZh" : "太平國中",
      "pgp" : "0",
      "terminal" : "0",
      "latitude" : "24.1491",
      "inDis" : "50",
      "routeId" : "51",
      "seqNo" : "46"
   },
   {
      "GoBack" : "1",
      "longitude" : "120.73317",
      "outDis" : "50",
      "Id" : "5618",
      "oid" : "13252",
      "districtId" : "1",
      "nameZh" : "大興一街口",
      "pgp" : "0",
      "terminal" : "0",
      "latitude" : "24.1513",
      "inDis" : "50",
      "routeId" : "51",
      "seqNo" : "47"
   },
   {
      "GoBack" : "1",
      "longitude" : "120.73333",
      "outDis" : "50",
      "Id" : "5619",
      "oid" : "305514292",
      "districtId" : "1",
      "nameZh" : "大興五街口",
      "pgp" : "0",
      "terminal" : "0",
      "latitude" : "24.15291",
      "inDis" : "50",
      "routeId" : "51",
      "seqNo" : "48"
   },
   {
      "GoBack" : "1",
      "longitude" : "120.73374",
      "outDis" : "50",
      "Id" : "4352",
      "oid" : "13113",
      "districtId" : "1",
      "nameZh" : "屯區藝文中心",
      "pgp" : "0",
      "terminal" : "0",
      "latitude" : "24.15646",
      "inDis" : "50",
      "routeId" : "51",
      "seqNo" : "49"
   },
   {
      "GoBack" : "2",
      "longitude" : "120.73361",
      "outDis" : "50",
      "Id" : "4352",
      "oid" : "13114",
      "districtId" : "1",
      "nameZh" : "屯區藝文中心",
      "pgp" : "0",
      "terminal" : "0",
      "latitude" : "24.15636",
      "inDis" : "50",
      "routeId" : "51",
      "seqNo" : "1"
   },
   {
      "GoBack" : "2",
      "longitude" : "120.73333",
      "outDis" : "50",
      "Id" : "5619",
      "oid" : "305514292",
      "districtId" : "1",
      "nameZh" : "大興五街口",
      "pgp" : "0",
      "terminal" : "0",
      "latitude" : "24.15291",
      "inDis" : "50",
      "routeId" : "51",
      "seqNo" : "2"
   },
   {
      "GoBack" : "2",
      "longitude" : "120.73317",
      "outDis" : "50",
      "Id" : "5618",
      "oid" : "13252",
      "districtId" : "1",
      "nameZh" : "大興一街口",
      "pgp" : "0",
      "terminal" : "0",
      "latitude" : "24.1513",
      "inDis" : "50",
      "routeId" : "51",
      "seqNo" : "3"
   },
   {
      "GoBack" : "2",
      "longitude" : "120.73435",
      "outDis" : "50",
      "Id" : "4350",
      "oid" : "13262",
      "districtId" : "1",
      "nameZh" : "太平國中",
      "pgp" : "0",
      "terminal" : "0",
      "latitude" : "24.1491",
      "inDis" : "50",
      "routeId" : "51",
      "seqNo" : "4"
   },
   {
      "GoBack" : "2",
      "longitude" : "120.73357",
      "outDis" : "50",
      "Id" : "0319",
      "oid" : "E5AE2C13F88D4513BF4B0FDD40243D03",
      "districtId" : "1",
      "nameZh" : "三中心",
      "pgp" : "0",
      "terminal" : "0",
      "latitude" : "24.14644",
      "inDis" : "50",
      "routeId" : "51",
      "seqNo" : "5"
   },
   {
      "GoBack" : "2",
      "longitude" : "120.73424",
      "outDis" : "50",
      "Id" : "0632",
      "oid" : "13309",
      "districtId" : "1",
      "nameZh" : "坪林",
      "pgp" : "0",
      "terminal" : "0",
      "latitude" : "24.14494",
      "inDis" : "50",
      "routeId" : "51",
      "seqNo" : "6"
   },
   {
      "GoBack" : "2",
      "longitude" : "120.73376",
      "outDis" : "50",
      "Id" : "4364",
      "oid" : "13226",
      "districtId" : "1",
      "nameZh" : "勤益科技大學",
      "pgp" : "0",
      "terminal" : "0",
      "latitude" : "24.1434",
      "inDis" : "50",
      "routeId" : "51",
      "seqNo" : "7"
   },
   {
      "GoBack" : "2",
      "longitude" : "120.73149",
      "outDis" : "50",
      "Id" : "0631",
      "oid" : "13167",
      "districtId" : "1",
      "nameZh" : "和平橋",
      "pgp" : "0",
      "terminal" : "0",
      "latitude" : "24.13997",
      "inDis" : "50",
      "routeId" : "51",
      "seqNo" : "8"
   },
   {
      "GoBack" : "2",
      "longitude" : "120.73204",
      "outDis" : "50",
      "Id" : "5547",
      "oid" : "316462701",
      "districtId" : "1",
      "nameZh" : "洪厝庄",
      "pgp" : "0",
      "terminal" : "0",
      "latitude" : "24.13917",
      "inDis" : "50",
      "routeId" : "51",
      "seqNo" : "9"
   },
   {
      "GoBack" : "2",
      "longitude" : "120.73247",
      "outDis" : "50",
      "Id" : "4229",
      "oid" : "13163",
      "districtId" : "1",
      "nameZh" : "亞姆拉公司",
      "pgp" : "0",
      "terminal" : "0",
      "latitude" : "24.13664",
      "inDis" : "50",
      "routeId" : "51",
      "seqNo" : "10"
   },
   {
      "GoBack" : "2",
      "longitude" : "120.73189",
      "outDis" : "50",
      "Id" : "1396",
      "oid" : "13083",
      "districtId" : "1",
      "nameZh" : "山腳",
      "pgp" : "0",
      "terminal" : "0",
      "latitude" : "24.13484",
      "inDis" : "50",
      "routeId" : "51",
      "seqNo" : "11"
   },
   {
      "GoBack" : "2",
      "longitude" : "120.72877",
      "outDis" : "50",
      "Id" : "3088",
      "oid" : "13222",
      "districtId" : "1",
      "nameZh" : "頂三叉",
      "pgp" : "0",
      "terminal" : "0",
      "latitude" : "24.13485",
      "inDis" : "50",
      "routeId" : "51",
      "seqNo" : "12"
   },
   {
      "GoBack" : "2",
      "longitude" : "120.72511",
      "outDis" : "50",
      "Id" : "4219",
      "oid" : "13097",
      "districtId" : "1",
      "nameZh" : "中興東成功路口",
      "pgp" : "0",
      "terminal" : "0",
      "latitude" : "24.13321",
      "inDis" : "50",
      "routeId" : "51",
      "seqNo" : "13"
   },
   {
      "GoBack" : "2",
      "longitude" : "120.72267",
      "outDis" : "50",
      "Id" : "4666",
      "oid" : "13173",
      "districtId" : "1",
      "nameZh" : "東平國小(中興東路)",
      "pgp" : "0",
      "terminal" : "0",
      "latitude" : "24.13168",
      "inDis" : "50",
      "routeId" : "51",
      "seqNo" : "14"
   },
   {
      "GoBack" : "2",
      "longitude" : "120.72125",
      "outDis" : "50",
      "Id" : "4221",
      "oid" : "13109",
      "districtId" : "1",
      "nameZh" : "太平運動場",
      "pgp" : "0",
      "terminal" : "0",
      "latitude" : "24.13083",
      "inDis" : "50",
      "routeId" : "51",
      "seqNo" : "15"
   },
   {
      "GoBack" : "2",
      "longitude" : "120.71726",
      "outDis" : "50",
      "Id" : "4220",
      "oid" : "13107",
      "districtId" : "1",
      "nameZh" : "太平國小",
      "pgp" : "0",
      "terminal" : "0",
      "latitude" : "24.12826",
      "inDis" : "50",
      "routeId" : "51",
      "seqNo" : "16"
   },
   {
      "GoBack" : "2",
      "longitude" : "120.71499",
      "outDis" : "50",
      "Id" : "1427",
      "oid" : "13089",
      "districtId" : "1",
      "nameZh" : "中太平",
      "pgp" : "0",
      "terminal" : "0",
      "latitude" : "24.12687",
      "inDis" : "50",
      "routeId" : "51",
      "seqNo" : "17"
   },
   {
      "GoBack" : "2",
      "longitude" : "120.71247",
      "outDis" : "50",
      "Id" : "1128",
      "oid" : "13067",
      "districtId" : "1",
      "nameZh" : "下太平",
      "pgp" : "0",
      "terminal" : "0",
      "latitude" : "24.1258",
      "inDis" : "50",
      "routeId" : "51",
      "seqNo" : "18"
   },
   {
      "GoBack" : "2",
      "longitude" : "120.71076",
      "outDis" : "50",
      "Id" : "4218",
      "oid" : "13092",
      "districtId" : "1",
      "nameZh" : "中油太平站",
      "pgp" : "0",
      "terminal" : "0",
      "latitude" : "24.12691",
      "inDis" : "50",
      "routeId" : "51",
      "seqNo" : "19"
   },
   {
      "GoBack" : "2",
      "longitude" : "120.70872",
      "outDis" : "50",
      "Id" : "1185",
      "oid" : "13069",
      "districtId" : "1",
      "nameZh" : "下部仔",
      "pgp" : "0",
      "terminal" : "0",
      "latitude" : "24.12811",
      "inDis" : "50",
      "routeId" : "51",
      "seqNo" : "20"
   },
   {
      "GoBack" : "2",
      "longitude" : "120.70577",
      "outDis" : "50",
      "Id" : "1642",
      "oid" : "13112",
      "districtId" : "1",
      "nameZh" : "太平橋前",
      "pgp" : "0",
      "terminal" : "0",
      "latitude" : "24.12991",
      "inDis" : "50",
      "routeId" : "51",
      "seqNo" : "21"
   },
   {
      "GoBack" : "2",
      "longitude" : "120.703",
      "outDis" : "50",
      "Id" : "2236",
      "oid" : "13307",
      "districtId" : "1",
      "nameZh" : "旱溪",
      "pgp" : "0",
      "terminal" : "0",
      "latitude" : "24.13137",
      "inDis" : "50",
      "routeId" : "51",
      "seqNo" : "22"
   },
   {
      "GoBack" : "2",
      "longitude" : "120.6982",
      "outDis" : "50",
      "Id" : "0190",
      "oid" : "13178",
      "districtId" : "1",
      "nameZh" : "東門橋",
      "pgp" : "0",
      "terminal" : "0",
      "latitude" : "24.13321",
      "inDis" : "50",
      "routeId" : "51",
      "seqNo" : "23"
   },
   {
      "GoBack" : "2",
      "longitude" : "120.69628",
      "outDis" : "50",
      "Id" : "3617",
      "oid" : "13233",
      "districtId" : "1",
      "nameZh" : "漢聲電臺",
      "pgp" : "0",
      "terminal" : "0",
      "latitude" : "24.13319",
      "inDis" : "50",
      "routeId" : "51",
      "seqNo" : "24"
   },
   {
      "GoBack" : "2",
      "longitude" : "120.69431",
      "outDis" : "50",
      "Id" : "4654",
      "oid" : "13082",
      "districtId" : "1",
      "nameZh" : "大東紡織(振興路)",
      "pgp" : "0",
      "terminal" : "0",
      "latitude" : "24.13303",
      "inDis" : "50",
      "routeId" : "51",
      "seqNo" : "25"
   },
   {
      "GoBack" : "2",
      "longitude" : "120.69119",
      "outDis" : "50",
      "Id" : "4362",
      "oid" : "13184",
      "districtId" : "1",
      "nameZh" : "建成大振街口",
      "pgp" : "0",
      "terminal" : "0",
      "latitude" : "24.13219",
      "inDis" : "50",
      "routeId" : "51",
      "seqNo" : "26"
   },
   {
      "GoBack" : "2",
      "longitude" : "120.68999",
      "outDis" : "50",
      "Id" : "0186",
      "oid" : "13170",
      "districtId" : "1",
      "nameZh" : "大智忠孝路口",
      "pgp" : "0",
      "terminal" : "0",
      "latitude" : "24.13231",
      "inDis" : "50",
      "routeId" : "51",
      "seqNo" : "27"
   },
   {
      "GoBack" : "2",
      "longitude" : "120.68814",
      "outDis" : "50",
      "Id" : "0185",
      "oid" : "13228",
      "districtId" : "1",
      "nameZh" : "新時代購物中心",
      "pgp" : "0",
      "terminal" : "0",
      "latitude" : "24.13583",
      "inDis" : "50",
      "routeId" : "51",
      "seqNo" : "28"
   },
   {
      "GoBack" : "2",
      "longitude" : "120.68617",
      "outDis" : "50",
      "Id" : "0184",
      "oid" : "13138",
      "districtId" : "1",
      "nameZh" : "後火車站",
      "pgp" : "0",
      "terminal" : "0",
      "latitude" : "24.13583",
      "inDis" : "50",
      "routeId" : "51",
      "seqNo" : "29"
   },
   {
      "GoBack" : "2",
      "longitude" : "120.68386",
      "outDis" : "50",
      "Id" : "0183",
      "oid" : "13140",
      "districtId" : "1",
      "nameZh" : "臺中家商",
      "pgp" : "0",
      "terminal" : "0",
      "latitude" : "24.13478",
      "inDis" : "50",
      "routeId" : "51",
      "seqNo" : "30"
   },
   {
      "GoBack" : "2",
      "longitude" : "120.68111",
      "outDis" : "50",
      "Id" : "4284",
      "oid" : "13343",
      "districtId" : "1",
      "nameZh" : "民權繼光街口",
      "pgp" : "0",
      "terminal" : "0",
      "latitude" : "24.1366",
      "inDis" : "50",
      "routeId" : "51",
      "seqNo" : "31"
   },
   {
      "GoBack" : "2",
      "longitude" : "120.67785",
      "outDis" : "50",
      "Id" : "0071",
      "oid" : "13287",
      "districtId" : "1",
      "nameZh" : "臺中女中",
      "pgp" : "0",
      "terminal" : "0",
      "latitude" : "24.13571",
      "inDis" : "50",
      "routeId" : "51",
      "seqNo" : "32"
   },
   {
      "GoBack" : "2",
      "longitude" : "120.67577",
      "outDis" : "50",
      "Id" : "0070",
      "oid" : "13305",
      "districtId" : "1",
      "nameZh" : "地方法院",
      "pgp" : "0",
      "terminal" : "0",
      "latitude" : "24.13387",
      "inDis" : "50",
      "routeId" : "51",
      "seqNo" : "33"
   },
   {
      "GoBack" : "2",
      "longitude" : "120.67261",
      "outDis" : "50",
      "Id" : "4317",
      "oid" : "13180",
      "districtId" : "1",
      "nameZh" : "林森三民路口",
      "pgp" : "0",
      "terminal" : "0",
      "latitude" : "24.13612",
      "inDis" : "50",
      "routeId" : "51",
      "seqNo" : "34"
   },
   {
      "GoBack" : "2",
      "longitude" : "120.66882",
      "outDis" : "50",
      "Id" : "0068",
      "oid" : "13172",
      "districtId" : "1",
      "nameZh" : "忠信國小",
      "pgp" : "0",
      "terminal" : "0",
      "latitude" : "24.13934",
      "inDis" : "50",
      "routeId" : "51",
      "seqNo" : "35"
   },
   {
      "GoBack" : "2",
      "longitude" : "120.66537",
      "outDis" : "50",
      "Id" : "4557",
      "oid" : "7A9D6108CA084863A79CA3C1D95DB1D0",
      "districtId" : "1",
      "nameZh" : "大墩文化中心(英才路)",
      "pgp" : "0",
      "terminal" : "0",
      "latitude" : "24.1424",
      "inDis" : "50",
      "routeId" : "51",
      "seqNo" : "36"
   },
   {
      "GoBack" : "2",
      "longitude" : "120.6654",
      "outDis" : "50",
      "Id" : "4059",
      "oid" : "13188",
      "districtId" : "1",
      "nameZh" : "英才郵局",
      "pgp" : "0",
      "terminal" : "0",
      "latitude" : "24.14511",
      "inDis" : "50",
      "routeId" : "51",
      "seqNo" : "37"
   },
   {
      "GoBack" : "2",
      "longitude" : "120.66544",
      "outDis" : "50",
      "Id" : "2077",
      "oid" : "13158",
      "districtId" : "1",
      "nameZh" : "英才向上北路口",
      "pgp" : "0",
      "terminal" : "0",
      "latitude" : "24.14828",
      "inDis" : "50",
      "routeId" : "51",
      "seqNo" : "38"
   },
   {
      "GoBack" : "2",
      "longitude" : "120.66523",
      "outDis" : "50",
      "Id" : "5120",
      "oid" : "13105",
      "districtId" : "1",
      "nameZh" : "英才公益路口",
      "pgp" : "0",
      "terminal" : "0",
      "latitude" : "24.15055",
      "inDis" : "50",
      "routeId" : "51",
      "seqNo" : "39"
   },
   {
      "GoBack" : "2",
      "longitude" : "120.66723",
      "outDis" : "50",
      "Id" : "4531",
      "oid" : "13258",
      "districtId" : "1",
      "nameZh" : "英才臺灣大道口",
      "pgp" : "0",
      "terminal" : "0",
      "latitude" : "24.15312",
      "inDis" : "50",
      "routeId" : "51",
      "seqNo" : "40"
   },
   {
      "GoBack" : "2",
      "longitude" : "120.66864",
      "outDis" : "50",
      "Id" : "4634",
      "oid" : "13162",
      "districtId" : "1",
      "nameZh" : "英才西屯路口",
      "pgp" : "0",
      "terminal" : "0",
      "latitude" : "24.15489",
      "inDis" : "50",
      "routeId" : "51",
      "seqNo" : "41"
   },
   {
      "GoBack" : "2",
      "longitude" : "120.67301",
      "outDis" : "50",
      "Id" : "4177",
      "oid" : "13238",
      "districtId" : "1",
      "nameZh" : "篤行國小",
      "pgp" : "0",
      "terminal" : "0",
      "latitude" : "24.1557",
      "inDis" : "50",
      "routeId" : "51",
      "seqNo" : "42"
   },
   {
      "GoBack" : "2",
      "longitude" : "120.67731",
      "outDis" : "50",
      "Id" : "0481",
      "oid" : "13129",
      "districtId" : "1",
      "nameZh" : "文莊里",
      "pgp" : "0",
      "terminal" : "0",
      "latitude" : "24.1549",
      "inDis" : "50",
      "routeId" : "51",
      "seqNo" : "43"
   },
   {
      "GoBack" : "2",
      "longitude" : "120.6773",
      "outDis" : "50",
      "Id" : "0503",
      "oid" : "13131",
      "districtId" : "1",
      "nameZh" : "臺中二中",
      "pgp" : "0",
      "terminal" : "0",
      "latitude" : "24.15253",
      "inDis" : "50",
      "routeId" : "51",
      "seqNo" : "44"
   },
   {
      "GoBack" : "2",
      "longitude" : "120.67879",
      "outDis" : "50",
      "Id" : "0145",
      "oid" : "13152",
      "districtId" : "1",
      "nameZh" : "光大里",
      "pgp" : "0",
      "terminal" : "0",
      "latitude" : "24.15177",
      "inDis" : "50",
      "routeId" : "51",
      "seqNo" : "45"
   },
   {
      "GoBack" : "2",
      "longitude" : "120.68024",
      "outDis" : "50",
      "Id" : "0146",
      "oid" : "13261",
      "districtId" : "1",
      "nameZh" : "五常里",
      "pgp" : "0",
      "terminal" : "0",
      "latitude" : "24.15236",
      "inDis" : "50",
      "routeId" : "51",
      "seqNo" : "46"
   },
   {
      "GoBack" : "2",
      "longitude" : "120.68385",
      "outDis" : "50",
      "Id" : "3772",
      "oid" : "13334",
      "districtId" : "1",
      "nameZh" : "五權學士路口",
      "pgp" : "0",
      "terminal" : "0",
      "latitude" : "24.15372",
      "inDis" : "50",
      "routeId" : "51",
      "seqNo" : "47"
   },
   {
      "GoBack" : "2",
      "longitude" : "120.6879",
      "outDis" : "50",
      "Id" : "0048",
      "oid" : "13219",
      "districtId" : "1",
      "nameZh" : "莒光新城",
      "pgp" : "0",
      "terminal" : "0",
      "latitude" : "24.15406",
      "inDis" : "50",
      "routeId" : "51",
      "seqNo" : "48"
   }
]
