[
   {
      "GoBack" : "1",
      "longitude" : "120.72156",
      "outDis" : "50",
      "Id" : "5753",
      "oid" : "320222434",
      "districtId" : "1",
      "nameZh" : "台中慈濟醫院",
      "pgp" : "0",
      "terminal" : "0",
      "latitude" : "24.19578",
      "inDis" : "50",
      "routeId" : "123",
      "seqNo" : "1"
   },
   {
      "GoBack" : "1",
      "longitude" : "120.72211",
      "outDis" : "50",
      "Id" : "1504",
      "oid" : "320222435",
      "districtId" : "1",
      "nameZh" : "中興",
      "pgp" : "0",
      "terminal" : "0",
      "latitude" : "24.19937",
      "inDis" : "50",
      "routeId" : "123",
      "seqNo" : "2"
   },
   {
      "GoBack" : "1",
      "longitude" : "120.72268",
      "outDis" : "50",
      "Id" : "3432",
      "oid" : "320222436",
      "districtId" : "1",
      "nameZh" : "新興",
      "pgp" : "0",
      "terminal" : "0",
      "latitude" : "24.20331",
      "inDis" : "50",
      "routeId" : "123",
      "seqNo" : "3"
   },
   {
      "GoBack" : "1",
      "longitude" : "120.72016",
      "outDis" : "50",
      "Id" : "5745",
      "oid" : "320222437",
      "districtId" : "1",
      "nameZh" : "祥仁社區",
      "pgp" : "0",
      "terminal" : "0",
      "latitude" : "24.20424",
      "inDis" : "50",
      "routeId" : "123",
      "seqNo" : "4"
   },
   {
      "GoBack" : "1",
      "longitude" : "120.71791",
      "outDis" : "50",
      "Id" : "5620",
      "oid" : "320222438",
      "districtId" : "1",
      "nameZh" : "聚興福德祠",
      "pgp" : "0",
      "terminal" : "0",
      "latitude" : "24.20411",
      "inDis" : "50",
      "routeId" : "123",
      "seqNo" : "5"
   },
   {
      "GoBack" : "1",
      "longitude" : "120.71068",
      "outDis" : "50",
      "Id" : "5623",
      "oid" : "320222439",
      "districtId" : "1",
      "nameZh" : "潭興新興路口",
      "pgp" : "0",
      "terminal" : "0",
      "latitude" : "24.20769",
      "inDis" : "50",
      "routeId" : "123",
      "seqNo" : "6"
   },
   {
      "GoBack" : "1",
      "longitude" : "120.7095",
      "outDis" : "50",
      "Id" : "5738",
      "oid" : "320222440",
      "districtId" : "1",
      "nameZh" : "保安寺",
      "pgp" : "0",
      "terminal" : "0",
      "latitude" : "24.20293",
      "inDis" : "50",
      "routeId" : "123",
      "seqNo" : "7"
   },
   {
      "GoBack" : "1",
      "longitude" : "120.70781",
      "outDis" : "50",
      "Id" : "5739",
      "oid" : "320222441",
      "districtId" : "1",
      "nameZh" : "天寶彌勒佛院",
      "pgp" : "0",
      "terminal" : "0",
      "latitude" : "24.20232",
      "inDis" : "50",
      "routeId" : "123",
      "seqNo" : "8"
   },
   {
      "GoBack" : "1",
      "longitude" : "120.70633",
      "outDis" : "50",
      "Id" : "5740",
      "oid" : "320222442",
      "districtId" : "1",
      "nameZh" : "復興大新路口",
      "pgp" : "0",
      "terminal" : "0",
      "latitude" : "24.20232",
      "inDis" : "50",
      "routeId" : "123",
      "seqNo" : "9"
   },
   {
      "GoBack" : "1",
      "longitude" : "120.70678",
      "outDis" : "50",
      "Id" : "5741",
      "oid" : "320222443",
      "districtId" : "1",
      "nameZh" : "復興圓通南路口",
      "pgp" : "0",
      "terminal" : "0",
      "latitude" : "24.20673",
      "inDis" : "50",
      "routeId" : "123",
      "seqNo" : "10"
   },
   {
      "GoBack" : "1",
      "longitude" : "120.70522",
      "outDis" : "50",
      "Id" : "4370",
      "oid" : "320222444",
      "districtId" : "1",
      "nameZh" : "中山圓通南路口",
      "pgp" : "0",
      "terminal" : "0",
      "latitude" : "24.20786",
      "inDis" : "50",
      "routeId" : "123",
      "seqNo" : "11"
   },
   {
      "GoBack" : "1",
      "longitude" : "120.70538",
      "outDis" : "50",
      "Id" : "3742",
      "oid" : "320222445",
      "districtId" : "1",
      "nameZh" : "潭子區公所",
      "pgp" : "0",
      "terminal" : "0",
      "latitude" : "24.20962",
      "inDis" : "50",
      "routeId" : "123",
      "seqNo" : "12"
   },
   {
      "GoBack" : "1",
      "longitude" : "120.70545",
      "outDis" : "50",
      "Id" : "4240",
      "oid" : "320222446",
      "districtId" : "1",
      "nameZh" : "潭子火車站",
      "pgp" : "0",
      "terminal" : "0",
      "latitude" : "24.21254",
      "inDis" : "50",
      "routeId" : "123",
      "seqNo" : "13"
   },
   {
      "GoBack" : "1",
      "longitude" : "120.70533",
      "outDis" : "50",
      "Id" : "3740",
      "oid" : "320222447",
      "districtId" : "1",
      "nameZh" : "潭子",
      "pgp" : "0",
      "terminal" : "0",
      "latitude" : "24.21456",
      "inDis" : "50",
      "routeId" : "123",
      "seqNo" : "14"
   },
   {
      "GoBack" : "1",
      "longitude" : "120.7032",
      "outDis" : "50",
      "Id" : "4235",
      "oid" : "320222448",
      "districtId" : "1",
      "nameZh" : "雅潭中山路口",
      "pgp" : "0",
      "terminal" : "0",
      "latitude" : "24.21601",
      "inDis" : "50",
      "routeId" : "123",
      "seqNo" : "15"
   },
   {
      "GoBack" : "1",
      "longitude" : "120.69998",
      "outDis" : "50",
      "Id" : "4242",
      "oid" : "320222449",
      "districtId" : "1",
      "nameZh" : "潭秀國中",
      "pgp" : "0",
      "terminal" : "0",
      "latitude" : "24.21642",
      "inDis" : "50",
      "routeId" : "123",
      "seqNo" : "16"
   },
   {
      "GoBack" : "1",
      "longitude" : "120.69436",
      "outDis" : "50",
      "Id" : "4222",
      "oid" : "320222450",
      "districtId" : "1",
      "nameZh" : "北基加油站雅潭站",
      "pgp" : "0",
      "terminal" : "0",
      "latitude" : "24.21613",
      "inDis" : "50",
      "routeId" : "123",
      "seqNo" : "17"
   },
   {
      "GoBack" : "1",
      "longitude" : "120.69172",
      "outDis" : "50",
      "Id" : "4303",
      "oid" : "320222451",
      "districtId" : "1",
      "nameZh" : "雅潭大豐路口",
      "pgp" : "0",
      "terminal" : "0",
      "latitude" : "24.21606",
      "inDis" : "50",
      "routeId" : "123",
      "seqNo" : "18"
   },
   {
      "GoBack" : "1",
      "longitude" : "120.6855",
      "outDis" : "50",
      "Id" : "4938",
      "oid" : "320222452",
      "districtId" : "1",
      "nameZh" : "東寶國小",
      "pgp" : "0",
      "terminal" : "0",
      "latitude" : "24.21628",
      "inDis" : "50",
      "routeId" : "123",
      "seqNo" : "19"
   },
   {
      "GoBack" : "1",
      "longitude" : "120.67961",
      "outDis" : "50",
      "Id" : "4939",
      "oid" : "320222453",
      "districtId" : "1",
      "nameZh" : "雅潭民族路口",
      "pgp" : "0",
      "terminal" : "0",
      "latitude" : "24.21592",
      "inDis" : "50",
      "routeId" : "123",
      "seqNo" : "20"
   },
   {
      "GoBack" : "1",
      "longitude" : "120.6723",
      "outDis" : "50",
      "Id" : "5037",
      "oid" : "320222454",
      "districtId" : "1",
      "nameZh" : "西寶里",
      "pgp" : "0",
      "terminal" : "0",
      "latitude" : "24.21579",
      "inDis" : "50",
      "routeId" : "123",
      "seqNo" : "21"
   },
   {
      "GoBack" : "1",
      "longitude" : "120.66859",
      "outDis" : "50",
      "Id" : "4940",
      "oid" : "320222456",
      "districtId" : "1",
      "nameZh" : "員寶庄福德祠",
      "pgp" : "0",
      "terminal" : "0",
      "latitude" : "24.21609",
      "inDis" : "50",
      "routeId" : "123",
      "seqNo" : "22"
   },
   {
      "GoBack" : "1",
      "longitude" : "120.66671",
      "outDis" : "50",
      "Id" : "3027",
      "oid" : "320222457",
      "districtId" : "1",
      "nameZh" : "清泉醫院",
      "pgp" : "0",
      "terminal" : "0",
      "latitude" : "24.21654",
      "inDis" : "50",
      "routeId" : "123",
      "seqNo" : "23"
   },
   {
      "GoBack" : "1",
      "longitude" : "120.66488",
      "outDis" : "50",
      "Id" : "2895",
      "oid" : "320222458",
      "districtId" : "1",
      "nameZh" : "馬岡厝加油站",
      "pgp" : "0",
      "terminal" : "0",
      "latitude" : "24.21793",
      "inDis" : "50",
      "routeId" : "123",
      "seqNo" : "24"
   },
   {
      "GoBack" : "1",
      "longitude" : "120.66092",
      "outDis" : "50",
      "Id" : "3237",
      "oid" : "320222459",
      "districtId" : "1",
      "nameZh" : "惠明盲校",
      "pgp" : "0",
      "terminal" : "0",
      "latitude" : "24.21983",
      "inDis" : "50",
      "routeId" : "123",
      "seqNo" : "25"
   },
   {
      "GoBack" : "1",
      "longitude" : "120.65843",
      "outDis" : "50",
      "Id" : "5752",
      "oid" : "320222460",
      "districtId" : "1",
      "nameZh" : "台電大雅服務所",
      "pgp" : "0",
      "terminal" : "0",
      "latitude" : "24.22035",
      "inDis" : "50",
      "routeId" : "123",
      "seqNo" : "26"
   },
   {
      "GoBack" : "1",
      "longitude" : "120.6569",
      "outDis" : "50",
      "Id" : "2943",
      "oid" : "320222461",
      "districtId" : "1",
      "nameZh" : "國際花市",
      "pgp" : "0",
      "terminal" : "0",
      "latitude" : "24.22074",
      "inDis" : "50",
      "routeId" : "123",
      "seqNo" : "27"
   },
   {
      "GoBack" : "1",
      "longitude" : "120.6505",
      "outDis" : "50",
      "Id" : "4944",
      "oid" : "320222462",
      "districtId" : "1",
      "nameZh" : "大雅國小",
      "pgp" : "0",
      "terminal" : "0",
      "latitude" : "24.22172",
      "inDis" : "50",
      "routeId" : "123",
      "seqNo" : "28"
   },
   {
      "GoBack" : "1",
      "longitude" : "120.64794",
      "outDis" : "50",
      "Id" : "1346",
      "oid" : "320222463",
      "districtId" : "1",
      "nameZh" : "大雅",
      "pgp" : "0",
      "terminal" : "0",
      "latitude" : "24.22353",
      "inDis" : "50",
      "routeId" : "123",
      "seqNo" : "29"
   },
   {
      "GoBack" : "1",
      "longitude" : "120.6468",
      "outDis" : "50",
      "Id" : "1620",
      "oid" : "320222464",
      "districtId" : "1",
      "nameZh" : "大雅分駐所",
      "pgp" : "0",
      "terminal" : "0",
      "latitude" : "24.22493",
      "inDis" : "50",
      "routeId" : "123",
      "seqNo" : "30"
   },
   {
      "GoBack" : "1",
      "longitude" : "120.64448",
      "outDis" : "50",
      "Id" : "5423",
      "oid" : "320222465",
      "districtId" : "1",
      "nameZh" : "大雅澄清醫院",
      "pgp" : "0",
      "terminal" : "0",
      "latitude" : "24.22715",
      "inDis" : "50",
      "routeId" : "123",
      "seqNo" : "31"
   },
   {
      "GoBack" : "1",
      "longitude" : "120.64289",
      "outDis" : "50",
      "Id" : "4651",
      "oid" : "320222466",
      "districtId" : "1",
      "nameZh" : "大明國小(中清路)",
      "pgp" : "0",
      "terminal" : "0",
      "latitude" : "24.22881",
      "inDis" : "50",
      "routeId" : "123",
      "seqNo" : "32"
   },
   {
      "GoBack" : "1",
      "longitude" : "120.64125",
      "outDis" : "50",
      "Id" : "2253",
      "oid" : "320222467",
      "districtId" : "1",
      "nameZh" : "秀山里",
      "pgp" : "0",
      "terminal" : "0",
      "latitude" : "24.23042",
      "inDis" : "50",
      "routeId" : "123",
      "seqNo" : "33"
   },
   {
      "GoBack" : "1",
      "longitude" : "120.63829",
      "outDis" : "50",
      "Id" : "2798",
      "oid" : "320222468",
      "districtId" : "1",
      "nameZh" : "泰聯公司",
      "pgp" : "0",
      "terminal" : "0",
      "latitude" : "24.2333",
      "inDis" : "50",
      "routeId" : "123",
      "seqNo" : "34"
   },
   {
      "GoBack" : "1",
      "longitude" : "120.63498",
      "outDis" : "50",
      "Id" : "1593",
      "oid" : "320222469",
      "districtId" : "1",
      "nameZh" : "六寶里",
      "pgp" : "0",
      "terminal" : "0",
      "latitude" : "24.23653",
      "inDis" : "50",
      "routeId" : "123",
      "seqNo" : "35"
   },
   {
      "GoBack" : "1",
      "longitude" : "120.63235",
      "outDis" : "50",
      "Id" : "2289",
      "oid" : "320222470",
      "districtId" : "1",
      "nameZh" : "亞東公司",
      "pgp" : "0",
      "terminal" : "0",
      "latitude" : "24.23908",
      "inDis" : "50",
      "routeId" : "123",
      "seqNo" : "36"
   },
   {
      "GoBack" : "1",
      "longitude" : "120.63095",
      "outDis" : "50",
      "Id" : "1591",
      "oid" : "320222471",
      "districtId" : "1",
      "nameZh" : "六張犁",
      "pgp" : "0",
      "terminal" : "0",
      "latitude" : "24.24016",
      "inDis" : "50",
      "routeId" : "123",
      "seqNo" : "37"
   },
   {
      "GoBack" : "1",
      "longitude" : "120.62667",
      "outDis" : "50",
      "Id" : "3663",
      "oid" : "320222472",
      "districtId" : "1",
      "nameZh" : "福樂新城",
      "pgp" : "0",
      "terminal" : "0",
      "latitude" : "24.24248",
      "inDis" : "50",
      "routeId" : "123",
      "seqNo" : "38"
   },
   {
      "GoBack" : "1",
      "longitude" : "120.62045",
      "outDis" : "50",
      "Id" : "4669",
      "oid" : "320222473",
      "districtId" : "1",
      "nameZh" : "中清信義路口",
      "pgp" : "0",
      "terminal" : "0",
      "latitude" : "24.24252",
      "inDis" : "50",
      "routeId" : "123",
      "seqNo" : "39"
   },
   {
      "GoBack" : "1",
      "longitude" : "120.61757",
      "outDis" : "50",
      "Id" : "4960",
      "oid" : "320222474",
      "districtId" : "1",
      "nameZh" : "中清清泉路口",
      "pgp" : "0",
      "terminal" : "0",
      "latitude" : "24.24338",
      "inDis" : "50",
      "routeId" : "123",
      "seqNo" : "40"
   },
   {
      "GoBack" : "1",
      "longitude" : "120.61475",
      "outDis" : "50",
      "Id" : "3023",
      "oid" : "320222475",
      "districtId" : "1",
      "nameZh" : "清泉里",
      "pgp" : "0",
      "terminal" : "0",
      "latitude" : "24.24423",
      "inDis" : "50",
      "routeId" : "123",
      "seqNo" : "41"
   },
   {
      "GoBack" : "1",
      "longitude" : "120.61054",
      "outDis" : "50",
      "Id" : "0169",
      "oid" : "320222476",
      "districtId" : "1",
      "nameZh" : "清泉派出所",
      "pgp" : "0",
      "terminal" : "0",
      "latitude" : "24.2456",
      "inDis" : "50",
      "routeId" : "123",
      "seqNo" : "42"
   },
   {
      "GoBack" : "1",
      "longitude" : "120.60825",
      "outDis" : "50",
      "Id" : "1604",
      "oid" : "320222478",
      "districtId" : "1",
      "nameZh" : "公明里",
      "pgp" : "0",
      "terminal" : "0",
      "latitude" : "24.2465",
      "inDis" : "50",
      "routeId" : "123",
      "seqNo" : "43"
   },
   {
      "GoBack" : "1",
      "longitude" : "120.60567",
      "outDis" : "50",
      "Id" : "3738",
      "oid" : "320222479",
      "districtId" : "1",
      "nameZh" : "樂群二村",
      "pgp" : "0",
      "terminal" : "0",
      "latitude" : "24.24767",
      "inDis" : "50",
      "routeId" : "123",
      "seqNo" : "44"
   },
   {
      "GoBack" : "1",
      "longitude" : "120.60171",
      "outDis" : "50",
      "Id" : "1556",
      "oid" : "320222480",
      "districtId" : "1",
      "nameZh" : "中清仁愛巷口",
      "pgp" : "0",
      "terminal" : "0",
      "latitude" : "24.24946",
      "inDis" : "50",
      "routeId" : "123",
      "seqNo" : "45"
   },
   {
      "GoBack" : "1",
      "longitude" : "120.60099",
      "outDis" : "50",
      "Id" : "4713",
      "oid" : "320222481",
      "districtId" : "1",
      "nameZh" : "公明國中",
      "pgp" : "0",
      "terminal" : "0",
      "latitude" : "24.2498",
      "inDis" : "50",
      "routeId" : "123",
      "seqNo" : "46"
   },
   {
      "GoBack" : "1",
      "longitude" : "120.59816",
      "outDis" : "50",
      "Id" : "4982",
      "oid" : "320222482",
      "districtId" : "1",
      "nameZh" : "漢翔複材中心",
      "pgp" : "0",
      "terminal" : "0",
      "latitude" : "24.25189",
      "inDis" : "50",
      "routeId" : "123",
      "seqNo" : "47"
   },
   {
      "GoBack" : "1",
      "longitude" : "120.59888",
      "outDis" : "50",
      "Id" : "0135",
      "oid" : "320222483",
      "districtId" : "1",
      "nameZh" : "臺中航空站",
      "pgp" : "0",
      "terminal" : "0",
      "latitude" : "24.25313",
      "inDis" : "50",
      "routeId" : "123",
      "seqNo" : "48"
   },
   {
      "GoBack" : "1",
      "longitude" : "120.60008",
      "outDis" : "50",
      "Id" : "5381",
      "oid" : "320222874",
      "districtId" : "1",
      "nameZh" : "西勢十巷口",
      "pgp" : "0",
      "terminal" : "0",
      "latitude" : "24.25557",
      "inDis" : "50",
      "routeId" : "123",
      "seqNo" : "49"
   },
   {
      "GoBack" : "1",
      "longitude" : "120.60142",
      "outDis" : "50",
      "Id" : "5662",
      "oid" : "320222875",
      "districtId" : "1",
      "nameZh" : "中航和睦路口",
      "pgp" : "0",
      "terminal" : "0",
      "latitude" : "24.25854",
      "inDis" : "50",
      "routeId" : "123",
      "seqNo" : "50"
   },
   {
      "GoBack" : "1",
      "longitude" : "120.59842",
      "outDis" : "50",
      "Id" : "4101",
      "oid" : "320222876",
      "districtId" : "1",
      "nameZh" : "西勢里",
      "pgp" : "0",
      "terminal" : "0",
      "latitude" : "24.25987",
      "inDis" : "50",
      "routeId" : "123",
      "seqNo" : "51"
   },
   {
      "GoBack" : "1",
      "longitude" : "120.59545",
      "outDis" : "50",
      "Id" : "4083",
      "oid" : "320222877",
      "districtId" : "1",
      "nameZh" : "公館國小",
      "pgp" : "0",
      "terminal" : "0",
      "latitude" : "24.26088",
      "inDis" : "50",
      "routeId" : "123",
      "seqNo" : "52"
   },
   {
      "GoBack" : "1",
      "longitude" : "120.58794",
      "outDis" : "50",
      "Id" : "5033",
      "oid" : "320222878",
      "districtId" : "1",
      "nameZh" : "國仕加油站",
      "pgp" : "0",
      "terminal" : "0",
      "latitude" : "24.26415",
      "inDis" : "50",
      "routeId" : "123",
      "seqNo" : "53"
   },
   {
      "GoBack" : "1",
      "longitude" : "120.58274",
      "outDis" : "50",
      "Id" : "4137",
      "oid" : "320222879",
      "districtId" : "1",
      "nameZh" : "嘉陽高中",
      "pgp" : "0",
      "terminal" : "0",
      "latitude" : "24.26613",
      "inDis" : "50",
      "routeId" : "123",
      "seqNo" : "54"
   },
   {
      "GoBack" : "1",
      "longitude" : "120.57484",
      "outDis" : "50",
      "Id" : "5568",
      "oid" : "320222880",
      "districtId" : "1",
      "nameZh" : "清水高中(學園街)",
      "pgp" : "0",
      "terminal" : "0",
      "latitude" : "24.26623",
      "inDis" : "50",
      "routeId" : "123",
      "seqNo" : "55"
   },
   {
      "GoBack" : "1",
      "longitude" : "120.57509",
      "outDis" : "50",
      "Id" : "5141",
      "oid" : "320222881",
      "districtId" : "1",
      "nameZh" : "華南銀行(清水)",
      "pgp" : "0",
      "terminal" : "0",
      "latitude" : "24.26792",
      "inDis" : "50",
      "routeId" : "123",
      "seqNo" : "56"
   },
   {
      "GoBack" : "1",
      "longitude" : "120.57521",
      "outDis" : "50",
      "Id" : "1615",
      "oid" : "320222882",
      "districtId" : "1",
      "nameZh" : "分局前",
      "pgp" : "0",
      "terminal" : "0",
      "latitude" : "24.26918",
      "inDis" : "50",
      "routeId" : "123",
      "seqNo" : "57"
   },
   {
      "GoBack" : "1",
      "longitude" : "120.57017",
      "outDis" : "50",
      "Id" : "5655",
      "oid" : "320222883",
      "districtId" : "1",
      "nameZh" : "鰲峰西社路口",
      "pgp" : "0",
      "terminal" : "0",
      "latitude" : "24.2693",
      "inDis" : "50",
      "routeId" : "123",
      "seqNo" : "58"
   },
   {
      "GoBack" : "1",
      "longitude" : "120.56825",
      "outDis" : "50",
      "Id" : "2486",
      "oid" : "320222884",
      "districtId" : "1",
      "nameZh" : "社口",
      "pgp" : "0",
      "terminal" : "0",
      "latitude" : "24.26844",
      "inDis" : "50",
      "routeId" : "123",
      "seqNo" : "59"
   },
   {
      "GoBack" : "1",
      "longitude" : "120.56468",
      "outDis" : "50",
      "Id" : "3700",
      "oid" : "320222885",
      "districtId" : "1",
      "nameZh" : "銀聯二村",
      "pgp" : "0",
      "terminal" : "0",
      "latitude" : "24.26832",
      "inDis" : "50",
      "routeId" : "123",
      "seqNo" : "60"
   },
   {
      "GoBack" : "1",
      "longitude" : "120.56312",
      "outDis" : "50",
      "Id" : "3017",
      "oid" : "320222886",
      "districtId" : "1",
      "nameZh" : "清水國中",
      "pgp" : "0",
      "terminal" : "0",
      "latitude" : "24.2679",
      "inDis" : "50",
      "routeId" : "123",
      "seqNo" : "61"
   },
   {
      "GoBack" : "1",
      "longitude" : "120.55989",
      "outDis" : "50",
      "Id" : "5723",
      "oid" : "320222887",
      "districtId" : "1",
      "nameZh" : "清水區公所",
      "pgp" : "0",
      "terminal" : "0",
      "latitude" : "24.26878",
      "inDis" : "50",
      "routeId" : "123",
      "seqNo" : "62"
   },
   {
      "GoBack" : "1",
      "longitude" : "120.55902",
      "outDis" : "50",
      "Id" : "4904",
      "oid" : "320222888",
      "districtId" : "1",
      "nameZh" : "港區藝術中心",
      "pgp" : "0",
      "terminal" : "0",
      "latitude" : "24.27038",
      "inDis" : "50",
      "routeId" : "123",
      "seqNo" : "63"
   },
   {
      "GoBack" : "1",
      "longitude" : "120.55688",
      "outDis" : "50",
      "Id" : "4891",
      "oid" : "320222889",
      "districtId" : "1",
      "nameZh" : "秀水里",
      "pgp" : "0",
      "terminal" : "0",
      "latitude" : "24.27205",
      "inDis" : "50",
      "routeId" : "123",
      "seqNo" : "64"
   },
   {
      "GoBack" : "1",
      "longitude" : "120.55439",
      "outDis" : "50",
      "Id" : "0000",
      "oid" : "320425366",
      "districtId" : "1",
      "nameZh" : "首園",
      "pgp" : "0",
      "terminal" : "0",
      "latitude" : "24.27284",
      "inDis" : "50",
      "routeId" : "123",
      "seqNo" : "65"
   },
   {
      "GoBack" : "1",
      "longitude" : "120.54929",
      "outDis" : "50",
      "Id" : "0300",
      "oid" : "320222890",
      "districtId" : "1",
      "nameZh" : "甲桂林社區",
      "pgp" : "0",
      "terminal" : "0",
      "latitude" : "24.27473",
      "inDis" : "50",
      "routeId" : "123",
      "seqNo" : "66"
   },
   {
      "GoBack" : "2",
      "longitude" : "120.54929",
      "outDis" : "50",
      "Id" : "0300",
      "oid" : "320222890",
      "districtId" : "1",
      "nameZh" : "甲桂林社區",
      "pgp" : "0",
      "terminal" : "0",
      "latitude" : "24.27473",
      "inDis" : "50",
      "routeId" : "123",
      "seqNo" : "1"
   },
   {
      "GoBack" : "2",
      "longitude" : "120.55439",
      "outDis" : "50",
      "Id" : "0000",
      "oid" : "320425366",
      "districtId" : "1",
      "nameZh" : "首園",
      "pgp" : "0",
      "terminal" : "0",
      "latitude" : "24.27284",
      "inDis" : "50",
      "routeId" : "123",
      "seqNo" : "2"
   },
   {
      "GoBack" : "2",
      "longitude" : "120.55688",
      "outDis" : "50",
      "Id" : "4891",
      "oid" : "320222889",
      "districtId" : "1",
      "nameZh" : "秀水里",
      "pgp" : "0",
      "terminal" : "0",
      "latitude" : "24.27205",
      "inDis" : "50",
      "routeId" : "123",
      "seqNo" : "3"
   },
   {
      "GoBack" : "2",
      "longitude" : "120.55902",
      "outDis" : "50",
      "Id" : "4904",
      "oid" : "320222888",
      "districtId" : "1",
      "nameZh" : "港區藝術中心",
      "pgp" : "0",
      "terminal" : "0",
      "latitude" : "24.27038",
      "inDis" : "50",
      "routeId" : "123",
      "seqNo" : "4"
   },
   {
      "GoBack" : "2",
      "longitude" : "120.55989",
      "outDis" : "50",
      "Id" : "5723",
      "oid" : "320222887",
      "districtId" : "1",
      "nameZh" : "清水區公所",
      "pgp" : "0",
      "terminal" : "0",
      "latitude" : "24.26878",
      "inDis" : "50",
      "routeId" : "123",
      "seqNo" : "5"
   },
   {
      "GoBack" : "2",
      "longitude" : "120.56312",
      "outDis" : "50",
      "Id" : "3017",
      "oid" : "320222886",
      "districtId" : "1",
      "nameZh" : "清水國中",
      "pgp" : "0",
      "terminal" : "0",
      "latitude" : "24.2679",
      "inDis" : "50",
      "routeId" : "123",
      "seqNo" : "6"
   },
   {
      "GoBack" : "2",
      "longitude" : "120.56468",
      "outDis" : "50",
      "Id" : "3700",
      "oid" : "320222885",
      "districtId" : "1",
      "nameZh" : "銀聯二村",
      "pgp" : "0",
      "terminal" : "0",
      "latitude" : "24.26832",
      "inDis" : "50",
      "routeId" : "123",
      "seqNo" : "7"
   },
   {
      "GoBack" : "2",
      "longitude" : "120.56825",
      "outDis" : "50",
      "Id" : "2486",
      "oid" : "320222884",
      "districtId" : "1",
      "nameZh" : "社口",
      "pgp" : "0",
      "terminal" : "0",
      "latitude" : "24.26844",
      "inDis" : "50",
      "routeId" : "123",
      "seqNo" : "8"
   },
   {
      "GoBack" : "2",
      "longitude" : "120.57017",
      "outDis" : "50",
      "Id" : "5655",
      "oid" : "320222883",
      "districtId" : "1",
      "nameZh" : "鰲峰西社路口",
      "pgp" : "0",
      "terminal" : "0",
      "latitude" : "24.2693",
      "inDis" : "50",
      "routeId" : "123",
      "seqNo" : "9"
   },
   {
      "GoBack" : "2",
      "longitude" : "120.57521",
      "outDis" : "50",
      "Id" : "1615",
      "oid" : "320222882",
      "districtId" : "1",
      "nameZh" : "分局前",
      "pgp" : "0",
      "terminal" : "0",
      "latitude" : "24.26918",
      "inDis" : "50",
      "routeId" : "123",
      "seqNo" : "10"
   },
   {
      "GoBack" : "2",
      "longitude" : "120.57509",
      "outDis" : "50",
      "Id" : "5141",
      "oid" : "320222881",
      "districtId" : "1",
      "nameZh" : "華南銀行(清水)",
      "pgp" : "0",
      "terminal" : "0",
      "latitude" : "24.26792",
      "inDis" : "50",
      "routeId" : "123",
      "seqNo" : "11"
   },
   {
      "GoBack" : "2",
      "longitude" : "120.57484",
      "outDis" : "50",
      "Id" : "5568",
      "oid" : "320222880",
      "districtId" : "1",
      "nameZh" : "清水高中(學園街)",
      "pgp" : "0",
      "terminal" : "0",
      "latitude" : "24.26623",
      "inDis" : "50",
      "routeId" : "123",
      "seqNo" : "12"
   },
   {
      "GoBack" : "2",
      "longitude" : "120.58274",
      "outDis" : "50",
      "Id" : "4137",
      "oid" : "320222879",
      "districtId" : "1",
      "nameZh" : "嘉陽高中",
      "pgp" : "0",
      "terminal" : "0",
      "latitude" : "24.26613",
      "inDis" : "50",
      "routeId" : "123",
      "seqNo" : "13"
   },
   {
      "GoBack" : "2",
      "longitude" : "120.58794",
      "outDis" : "50",
      "Id" : "5033",
      "oid" : "320222878",
      "districtId" : "1",
      "nameZh" : "國仕加油站",
      "pgp" : "0",
      "terminal" : "0",
      "latitude" : "24.26415",
      "inDis" : "50",
      "routeId" : "123",
      "seqNo" : "14"
   },
   {
      "GoBack" : "2",
      "longitude" : "120.59545",
      "outDis" : "50",
      "Id" : "4083",
      "oid" : "320222877",
      "districtId" : "1",
      "nameZh" : "公館國小",
      "pgp" : "0",
      "terminal" : "0",
      "latitude" : "24.26088",
      "inDis" : "50",
      "routeId" : "123",
      "seqNo" : "15"
   },
   {
      "GoBack" : "2",
      "longitude" : "120.59842",
      "outDis" : "50",
      "Id" : "4101",
      "oid" : "320222876",
      "districtId" : "1",
      "nameZh" : "西勢里",
      "pgp" : "0",
      "terminal" : "0",
      "latitude" : "24.25987",
      "inDis" : "50",
      "routeId" : "123",
      "seqNo" : "16"
   },
   {
      "GoBack" : "2",
      "longitude" : "120.60142",
      "outDis" : "50",
      "Id" : "5662",
      "oid" : "320222875",
      "districtId" : "1",
      "nameZh" : "中航和睦路口",
      "pgp" : "0",
      "terminal" : "0",
      "latitude" : "24.25854",
      "inDis" : "50",
      "routeId" : "123",
      "seqNo" : "17"
   },
   {
      "GoBack" : "2",
      "longitude" : "120.60008",
      "outDis" : "50",
      "Id" : "5381",
      "oid" : "320222874",
      "districtId" : "1",
      "nameZh" : "西勢十巷口",
      "pgp" : "0",
      "terminal" : "0",
      "latitude" : "24.25557",
      "inDis" : "50",
      "routeId" : "123",
      "seqNo" : "18"
   },
   {
      "GoBack" : "2",
      "longitude" : "120.59888",
      "outDis" : "50",
      "Id" : "0135",
      "oid" : "320222483",
      "districtId" : "1",
      "nameZh" : "臺中航空站",
      "pgp" : "0",
      "terminal" : "0",
      "latitude" : "24.25313",
      "inDis" : "50",
      "routeId" : "123",
      "seqNo" : "19"
   },
   {
      "GoBack" : "2",
      "longitude" : "120.59816",
      "outDis" : "50",
      "Id" : "4982",
      "oid" : "320222482",
      "districtId" : "1",
      "nameZh" : "漢翔複材中心",
      "pgp" : "0",
      "terminal" : "0",
      "latitude" : "24.25189",
      "inDis" : "50",
      "routeId" : "123",
      "seqNo" : "20"
   },
   {
      "GoBack" : "2",
      "longitude" : "120.60099",
      "outDis" : "50",
      "Id" : "4713",
      "oid" : "320222481",
      "districtId" : "1",
      "nameZh" : "公明國中",
      "pgp" : "0",
      "terminal" : "0",
      "latitude" : "24.2498",
      "inDis" : "50",
      "routeId" : "123",
      "seqNo" : "21"
   },
   {
      "GoBack" : "2",
      "longitude" : "120.60171",
      "outDis" : "50",
      "Id" : "1556",
      "oid" : "320222480",
      "districtId" : "1",
      "nameZh" : "中清仁愛巷口",
      "pgp" : "0",
      "terminal" : "0",
      "latitude" : "24.24946",
      "inDis" : "50",
      "routeId" : "123",
      "seqNo" : "22"
   },
   {
      "GoBack" : "2",
      "longitude" : "120.60567",
      "outDis" : "50",
      "Id" : "3738",
      "oid" : "320222479",
      "districtId" : "1",
      "nameZh" : "樂群二村",
      "pgp" : "0",
      "terminal" : "0",
      "latitude" : "24.24767",
      "inDis" : "50",
      "routeId" : "123",
      "seqNo" : "23"
   },
   {
      "GoBack" : "2",
      "longitude" : "120.60825",
      "outDis" : "50",
      "Id" : "1604",
      "oid" : "320222478",
      "districtId" : "1",
      "nameZh" : "公明里",
      "pgp" : "0",
      "terminal" : "0",
      "latitude" : "24.2465",
      "inDis" : "50",
      "routeId" : "123",
      "seqNo" : "24"
   },
   {
      "GoBack" : "2",
      "longitude" : "120.61054",
      "outDis" : "50",
      "Id" : "0169",
      "oid" : "320222476",
      "districtId" : "1",
      "nameZh" : "清泉派出所",
      "pgp" : "0",
      "terminal" : "0",
      "latitude" : "24.2456",
      "inDis" : "50",
      "routeId" : "123",
      "seqNo" : "25"
   },
   {
      "GoBack" : "2",
      "longitude" : "120.61475",
      "outDis" : "50",
      "Id" : "3023",
      "oid" : "320222475",
      "districtId" : "1",
      "nameZh" : "清泉里",
      "pgp" : "0",
      "terminal" : "0",
      "latitude" : "24.24423",
      "inDis" : "50",
      "routeId" : "123",
      "seqNo" : "26"
   },
   {
      "GoBack" : "2",
      "longitude" : "120.61757",
      "outDis" : "50",
      "Id" : "4960",
      "oid" : "320222474",
      "districtId" : "1",
      "nameZh" : "中清清泉路口",
      "pgp" : "0",
      "terminal" : "0",
      "latitude" : "24.24338",
      "inDis" : "50",
      "routeId" : "123",
      "seqNo" : "27"
   },
   {
      "GoBack" : "2",
      "longitude" : "120.62045",
      "outDis" : "50",
      "Id" : "4669",
      "oid" : "320222473",
      "districtId" : "1",
      "nameZh" : "中清信義路口",
      "pgp" : "0",
      "terminal" : "0",
      "latitude" : "24.24252",
      "inDis" : "50",
      "routeId" : "123",
      "seqNo" : "28"
   },
   {
      "GoBack" : "2",
      "longitude" : "120.62667",
      "outDis" : "50",
      "Id" : "3663",
      "oid" : "320222472",
      "districtId" : "1",
      "nameZh" : "福樂新城",
      "pgp" : "0",
      "terminal" : "0",
      "latitude" : "24.24248",
      "inDis" : "50",
      "routeId" : "123",
      "seqNo" : "29"
   },
   {
      "GoBack" : "2",
      "longitude" : "120.63095",
      "outDis" : "50",
      "Id" : "1591",
      "oid" : "320222471",
      "districtId" : "1",
      "nameZh" : "六張犁",
      "pgp" : "0",
      "terminal" : "0",
      "latitude" : "24.24016",
      "inDis" : "50",
      "routeId" : "123",
      "seqNo" : "30"
   },
   {
      "GoBack" : "2",
      "longitude" : "120.63235",
      "outDis" : "50",
      "Id" : "2289",
      "oid" : "320222470",
      "districtId" : "1",
      "nameZh" : "亞東公司",
      "pgp" : "0",
      "terminal" : "0",
      "latitude" : "24.23908",
      "inDis" : "50",
      "routeId" : "123",
      "seqNo" : "31"
   },
   {
      "GoBack" : "2",
      "longitude" : "120.63498",
      "outDis" : "50",
      "Id" : "1593",
      "oid" : "320222469",
      "districtId" : "1",
      "nameZh" : "六寶里",
      "pgp" : "0",
      "terminal" : "0",
      "latitude" : "24.23653",
      "inDis" : "50",
      "routeId" : "123",
      "seqNo" : "32"
   },
   {
      "GoBack" : "2",
      "longitude" : "120.63829",
      "outDis" : "50",
      "Id" : "2798",
      "oid" : "320222468",
      "districtId" : "1",
      "nameZh" : "泰聯公司",
      "pgp" : "0",
      "terminal" : "0",
      "latitude" : "24.2333",
      "inDis" : "50",
      "routeId" : "123",
      "seqNo" : "33"
   },
   {
      "GoBack" : "2",
      "longitude" : "120.64125",
      "outDis" : "50",
      "Id" : "2253",
      "oid" : "320222467",
      "districtId" : "1",
      "nameZh" : "秀山里",
      "pgp" : "0",
      "terminal" : "0",
      "latitude" : "24.23042",
      "inDis" : "50",
      "routeId" : "123",
      "seqNo" : "34"
   },
   {
      "GoBack" : "2",
      "longitude" : "120.64289",
      "outDis" : "50",
      "Id" : "4651",
      "oid" : "320222466",
      "districtId" : "1",
      "nameZh" : "大明國小(中清路)",
      "pgp" : "0",
      "terminal" : "0",
      "latitude" : "24.22881",
      "inDis" : "50",
      "routeId" : "123",
      "seqNo" : "35"
   },
   {
      "GoBack" : "2",
      "longitude" : "120.64448",
      "outDis" : "50",
      "Id" : "5423",
      "oid" : "320222465",
      "districtId" : "1",
      "nameZh" : "大雅澄清醫院",
      "pgp" : "0",
      "terminal" : "0",
      "latitude" : "24.22715",
      "inDis" : "50",
      "routeId" : "123",
      "seqNo" : "36"
   },
   {
      "GoBack" : "2",
      "longitude" : "120.6468",
      "outDis" : "50",
      "Id" : "1620",
      "oid" : "320222464",
      "districtId" : "1",
      "nameZh" : "大雅分駐所",
      "pgp" : "0",
      "terminal" : "0",
      "latitude" : "24.22493",
      "inDis" : "50",
      "routeId" : "123",
      "seqNo" : "37"
   },
   {
      "GoBack" : "2",
      "longitude" : "120.64794",
      "outDis" : "50",
      "Id" : "1346",
      "oid" : "320222463",
      "districtId" : "1",
      "nameZh" : "大雅",
      "pgp" : "0",
      "terminal" : "0",
      "latitude" : "24.22353",
      "inDis" : "50",
      "routeId" : "123",
      "seqNo" : "38"
   },
   {
      "GoBack" : "2",
      "longitude" : "120.6505",
      "outDis" : "50",
      "Id" : "4944",
      "oid" : "320222462",
      "districtId" : "1",
      "nameZh" : "大雅國小",
      "pgp" : "0",
      "terminal" : "0",
      "latitude" : "24.22172",
      "inDis" : "50",
      "routeId" : "123",
      "seqNo" : "39"
   },
   {
      "GoBack" : "2",
      "longitude" : "120.6569",
      "outDis" : "50",
      "Id" : "2943",
      "oid" : "320222461",
      "districtId" : "1",
      "nameZh" : "國際花市",
      "pgp" : "0",
      "terminal" : "0",
      "latitude" : "24.22074",
      "inDis" : "50",
      "routeId" : "123",
      "seqNo" : "40"
   },
   {
      "GoBack" : "2",
      "longitude" : "120.65843",
      "outDis" : "50",
      "Id" : "5752",
      "oid" : "320222460",
      "districtId" : "1",
      "nameZh" : "台電大雅服務所",
      "pgp" : "0",
      "terminal" : "0",
      "latitude" : "24.22035",
      "inDis" : "50",
      "routeId" : "123",
      "seqNo" : "41"
   },
   {
      "GoBack" : "2",
      "longitude" : "120.66092",
      "outDis" : "50",
      "Id" : "3237",
      "oid" : "320222459",
      "districtId" : "1",
      "nameZh" : "惠明盲校",
      "pgp" : "0",
      "terminal" : "0",
      "latitude" : "24.21983",
      "inDis" : "50",
      "routeId" : "123",
      "seqNo" : "42"
   },
   {
      "GoBack" : "2",
      "longitude" : "120.66488",
      "outDis" : "50",
      "Id" : "2895",
      "oid" : "320222458",
      "districtId" : "1",
      "nameZh" : "馬岡厝加油站",
      "pgp" : "0",
      "terminal" : "0",
      "latitude" : "24.21793",
      "inDis" : "50",
      "routeId" : "123",
      "seqNo" : "43"
   },
   {
      "GoBack" : "2",
      "longitude" : "120.66671",
      "outDis" : "50",
      "Id" : "3027",
      "oid" : "320222457",
      "districtId" : "1",
      "nameZh" : "清泉醫院",
      "pgp" : "0",
      "terminal" : "0",
      "latitude" : "24.21654",
      "inDis" : "50",
      "routeId" : "123",
      "seqNo" : "44"
   },
   {
      "GoBack" : "2",
      "longitude" : "120.66859",
      "outDis" : "50",
      "Id" : "4940",
      "oid" : "320222456",
      "districtId" : "1",
      "nameZh" : "員寶庄福德祠",
      "pgp" : "0",
      "terminal" : "0",
      "latitude" : "24.21609",
      "inDis" : "50",
      "routeId" : "123",
      "seqNo" : "45"
   },
   {
      "GoBack" : "2",
      "longitude" : "120.6723",
      "outDis" : "50",
      "Id" : "5037",
      "oid" : "320222454",
      "districtId" : "1",
      "nameZh" : "西寶里",
      "pgp" : "0",
      "terminal" : "0",
      "latitude" : "24.21579",
      "inDis" : "50",
      "routeId" : "123",
      "seqNo" : "46"
   },
   {
      "GoBack" : "2",
      "longitude" : "120.67961",
      "outDis" : "50",
      "Id" : "4939",
      "oid" : "320222453",
      "districtId" : "1",
      "nameZh" : "雅潭民族路口",
      "pgp" : "0",
      "terminal" : "0",
      "latitude" : "24.21592",
      "inDis" : "50",
      "routeId" : "123",
      "seqNo" : "47"
   },
   {
      "GoBack" : "2",
      "longitude" : "120.6855",
      "outDis" : "50",
      "Id" : "4938",
      "oid" : "320222452",
      "districtId" : "1",
      "nameZh" : "東寶國小",
      "pgp" : "0",
      "terminal" : "0",
      "latitude" : "24.21628",
      "inDis" : "50",
      "routeId" : "123",
      "seqNo" : "48"
   },
   {
      "GoBack" : "2",
      "longitude" : "120.69172",
      "outDis" : "50",
      "Id" : "4303",
      "oid" : "320222451",
      "districtId" : "1",
      "nameZh" : "雅潭大豐路口",
      "pgp" : "0",
      "terminal" : "0",
      "latitude" : "24.21606",
      "inDis" : "50",
      "routeId" : "123",
      "seqNo" : "49"
   },
   {
      "GoBack" : "2",
      "longitude" : "120.69436",
      "outDis" : "50",
      "Id" : "4222",
      "oid" : "320222450",
      "districtId" : "1",
      "nameZh" : "北基加油站雅潭站",
      "pgp" : "0",
      "terminal" : "0",
      "latitude" : "24.21613",
      "inDis" : "50",
      "routeId" : "123",
      "seqNo" : "50"
   },
   {
      "GoBack" : "2",
      "longitude" : "120.69998",
      "outDis" : "50",
      "Id" : "4242",
      "oid" : "320222449",
      "districtId" : "1",
      "nameZh" : "潭秀國中",
      "pgp" : "0",
      "terminal" : "0",
      "latitude" : "24.21642",
      "inDis" : "50",
      "routeId" : "123",
      "seqNo" : "51"
   },
   {
      "GoBack" : "2",
      "longitude" : "120.7032",
      "outDis" : "50",
      "Id" : "4235",
      "oid" : "320222448",
      "districtId" : "1",
      "nameZh" : "雅潭中山路口",
      "pgp" : "0",
      "terminal" : "0",
      "latitude" : "24.21601",
      "inDis" : "50",
      "routeId" : "123",
      "seqNo" : "52"
   },
   {
      "GoBack" : "2",
      "longitude" : "120.70533",
      "outDis" : "50",
      "Id" : "3740",
      "oid" : "320222447",
      "districtId" : "1",
      "nameZh" : "潭子",
      "pgp" : "0",
      "terminal" : "0",
      "latitude" : "24.21456",
      "inDis" : "50",
      "routeId" : "123",
      "seqNo" : "53"
   },
   {
      "GoBack" : "2",
      "longitude" : "120.70545",
      "outDis" : "50",
      "Id" : "4240",
      "oid" : "320222446",
      "districtId" : "1",
      "nameZh" : "潭子火車站",
      "pgp" : "0",
      "terminal" : "0",
      "latitude" : "24.21254",
      "inDis" : "50",
      "routeId" : "123",
      "seqNo" : "54"
   },
   {
      "GoBack" : "2",
      "longitude" : "120.70538",
      "outDis" : "50",
      "Id" : "3742",
      "oid" : "320222445",
      "districtId" : "1",
      "nameZh" : "潭子區公所",
      "pgp" : "0",
      "terminal" : "0",
      "latitude" : "24.20962",
      "inDis" : "50",
      "routeId" : "123",
      "seqNo" : "55"
   },
   {
      "GoBack" : "2",
      "longitude" : "120.70678",
      "outDis" : "50",
      "Id" : "5741",
      "oid" : "320222443",
      "districtId" : "1",
      "nameZh" : "復興圓通南路口",
      "pgp" : "0",
      "terminal" : "0",
      "latitude" : "24.20673",
      "inDis" : "50",
      "routeId" : "123",
      "seqNo" : "56"
   },
   {
      "GoBack" : "2",
      "longitude" : "120.70633",
      "outDis" : "50",
      "Id" : "5740",
      "oid" : "320222442",
      "districtId" : "1",
      "nameZh" : "復興大新路口",
      "pgp" : "0",
      "terminal" : "0",
      "latitude" : "24.20232",
      "inDis" : "50",
      "routeId" : "123",
      "seqNo" : "57"
   },
   {
      "GoBack" : "2",
      "longitude" : "120.70781",
      "outDis" : "50",
      "Id" : "5739",
      "oid" : "320222441",
      "districtId" : "1",
      "nameZh" : "天寶彌勒佛院",
      "pgp" : "0",
      "terminal" : "0",
      "latitude" : "24.20232",
      "inDis" : "50",
      "routeId" : "123",
      "seqNo" : "58"
   },
   {
      "GoBack" : "2",
      "longitude" : "120.7095",
      "outDis" : "50",
      "Id" : "5738",
      "oid" : "320222440",
      "districtId" : "1",
      "nameZh" : "保安寺",
      "pgp" : "0",
      "terminal" : "0",
      "latitude" : "24.20293",
      "inDis" : "50",
      "routeId" : "123",
      "seqNo" : "59"
   },
   {
      "GoBack" : "2",
      "longitude" : "120.71068",
      "outDis" : "50",
      "Id" : "5623",
      "oid" : "320222439",
      "districtId" : "1",
      "nameZh" : "潭興新興路口",
      "pgp" : "0",
      "terminal" : "0",
      "latitude" : "24.20769",
      "inDis" : "50",
      "routeId" : "123",
      "seqNo" : "60"
   },
   {
      "GoBack" : "2",
      "longitude" : "120.71791",
      "outDis" : "50",
      "Id" : "5620",
      "oid" : "320222438",
      "districtId" : "1",
      "nameZh" : "聚興福德祠",
      "pgp" : "0",
      "terminal" : "0",
      "latitude" : "24.20411",
      "inDis" : "50",
      "routeId" : "123",
      "seqNo" : "61"
   },
   {
      "GoBack" : "2",
      "longitude" : "120.72016",
      "outDis" : "50",
      "Id" : "5745",
      "oid" : "320222437",
      "districtId" : "1",
      "nameZh" : "祥仁社區",
      "pgp" : "0",
      "terminal" : "0",
      "latitude" : "24.20424",
      "inDis" : "50",
      "routeId" : "123",
      "seqNo" : "62"
   },
   {
      "GoBack" : "2",
      "longitude" : "120.72268",
      "outDis" : "50",
      "Id" : "3432",
      "oid" : "320222436",
      "districtId" : "1",
      "nameZh" : "新興",
      "pgp" : "0",
      "terminal" : "0",
      "latitude" : "24.20331",
      "inDis" : "50",
      "routeId" : "123",
      "seqNo" : "63"
   },
   {
      "GoBack" : "2",
      "longitude" : "120.72211",
      "outDis" : "50",
      "Id" : "1504",
      "oid" : "320222435",
      "districtId" : "1",
      "nameZh" : "中興",
      "pgp" : "0",
      "terminal" : "0",
      "latitude" : "24.19937",
      "inDis" : "50",
      "routeId" : "123",
      "seqNo" : "64"
   },
   {
      "GoBack" : "2",
      "longitude" : "120.72156",
      "outDis" : "50",
      "Id" : "5753",
      "oid" : "320222434",
      "districtId" : "1",
      "nameZh" : "台中慈濟醫院",
      "pgp" : "0",
      "terminal" : "0",
      "latitude" : "24.19578",
      "inDis" : "50",
      "routeId" : "123",
      "seqNo" : "65"
   }
]
