[
   {
      "GoBack" : "1",
      "longitude" : "120.54794",
      "outDis" : "50",
      "Id" : "4460",
      "oid" : "318989364",
      "districtId" : "1",
      "nameZh" : "沙田自由路口",
      "pgp" : "0",
      "terminal" : "0",
      "latitude" : "24.14309",
      "inDis" : "50",
      "routeId" : "藍3",
      "seqNo" : "1"
   },
   {
      "GoBack" : "1",
      "longitude" : "120.54673",
      "outDis" : "50",
      "Id" : "1359",
      "oid" : "318989366",
      "districtId" : "1",
      "nameZh" : "大道國中",
      "pgp" : "0",
      "terminal" : "0",
      "latitude" : "24.14613",
      "inDis" : "50",
      "routeId" : "藍3",
      "seqNo" : "2"
   },
   {
      "GoBack" : "1",
      "longitude" : "120.54565",
      "outDis" : "50",
      "Id" : "1302",
      "oid" : "318989368",
      "districtId" : "1",
      "nameZh" : "大肚",
      "pgp" : "0",
      "terminal" : "0",
      "latitude" : "24.15014",
      "inDis" : "50",
      "routeId" : "藍3",
      "seqNo" : "3"
   },
   {
      "GoBack" : "1",
      "longitude" : "120.54536",
      "outDis" : "50",
      "Id" : "4786",
      "oid" : "318989370",
      "districtId" : "1",
      "nameZh" : "大肚區公所",
      "pgp" : "0",
      "terminal" : "0",
      "latitude" : "24.1512",
      "inDis" : "50",
      "routeId" : "藍3",
      "seqNo" : "4"
   },
   {
      "GoBack" : "1",
      "longitude" : "120.54476",
      "outDis" : "50",
      "Id" : "1303",
      "oid" : "318989372",
      "districtId" : "1",
      "nameZh" : "大肚火車站",
      "pgp" : "0",
      "terminal" : "0",
      "latitude" : "24.15316",
      "inDis" : "50",
      "routeId" : "藍3",
      "seqNo" : "5"
   },
   {
      "GoBack" : "1",
      "longitude" : "120.54393",
      "outDis" : "50",
      "Id" : "5137",
      "oid" : "318989374",
      "districtId" : "1",
      "nameZh" : "頂街(沙田路)",
      "pgp" : "0",
      "terminal" : "0",
      "latitude" : "24.15806",
      "inDis" : "50",
      "routeId" : "藍3",
      "seqNo" : "6"
   },
   {
      "GoBack" : "1",
      "longitude" : "120.54356",
      "outDis" : "50",
      "Id" : "4450",
      "oid" : "318989376",
      "districtId" : "1",
      "nameZh" : "北頂街",
      "pgp" : "0",
      "terminal" : "0",
      "latitude" : "24.15977",
      "inDis" : "50",
      "routeId" : "藍3",
      "seqNo" : "7"
   },
   {
      "GoBack" : "1",
      "longitude" : "120.54283",
      "outDis" : "50",
      "Id" : "1395",
      "oid" : "318989378",
      "districtId" : "1",
      "nameZh" : "山陽",
      "pgp" : "0",
      "terminal" : "0",
      "latitude" : "24.16408",
      "inDis" : "50",
      "routeId" : "藍3",
      "seqNo" : "8"
   },
   {
      "GoBack" : "1",
      "longitude" : "120.54238",
      "outDis" : "50",
      "Id" : "5746",
      "oid" : "318989380",
      "districtId" : "1",
      "nameZh" : "山陽一站",
      "pgp" : "0",
      "terminal" : "0",
      "latitude" : "24.1689",
      "inDis" : "50",
      "routeId" : "藍3",
      "seqNo" : "9"
   },
   {
      "GoBack" : "1",
      "longitude" : "120.54352",
      "outDis" : "50",
      "Id" : "5482",
      "oid" : "318991771",
      "districtId" : "1",
      "nameZh" : "沙田中華路口",
      "pgp" : "0",
      "terminal" : "0",
      "latitude" : "24.17402",
      "inDis" : "50",
      "routeId" : "藍3",
      "seqNo" : "10"
   },
   {
      "GoBack" : "1",
      "longitude" : "120.54379",
      "outDis" : "50",
      "Id" : "2144",
      "oid" : "318991773",
      "districtId" : "1",
      "nameZh" : "竹坑口",
      "pgp" : "0",
      "terminal" : "0",
      "latitude" : "24.17549",
      "inDis" : "50",
      "routeId" : "藍3",
      "seqNo" : "11"
   },
   {
      "GoBack" : "1",
      "longitude" : "120.54461",
      "outDis" : "50",
      "Id" : "2242",
      "oid" : "318991775",
      "districtId" : "1",
      "nameZh" : "村內入口",
      "pgp" : "0",
      "terminal" : "0",
      "latitude" : "24.17876",
      "inDis" : "50",
      "routeId" : "藍3",
      "seqNo" : "12"
   },
   {
      "GoBack" : "1",
      "longitude" : "120.54554",
      "outDis" : "50",
      "Id" : "3031",
      "oid" : "318991777",
      "districtId" : "1",
      "nameZh" : "深水",
      "pgp" : "0",
      "terminal" : "0",
      "latitude" : "24.18257",
      "inDis" : "50",
      "routeId" : "藍3",
      "seqNo" : "13"
   },
   {
      "GoBack" : "1",
      "longitude" : "120.54549",
      "outDis" : "50",
      "Id" : "3853",
      "oid" : "318991779",
      "districtId" : "1",
      "nameZh" : "龍崗",
      "pgp" : "0",
      "terminal" : "0",
      "latitude" : "24.18642",
      "inDis" : "50",
      "routeId" : "藍3",
      "seqNo" : "14"
   },
   {
      "GoBack" : "1",
      "longitude" : "120.54574",
      "outDis" : "50",
      "Id" : "3847",
      "oid" : "318991781",
      "districtId" : "1",
      "nameZh" : "龍井加油站",
      "pgp" : "0",
      "terminal" : "0",
      "latitude" : "24.18898",
      "inDis" : "50",
      "routeId" : "藍3",
      "seqNo" : "15"
   },
   {
      "GoBack" : "1",
      "longitude" : "120.54608",
      "outDis" : "50",
      "Id" : "5160",
      "oid" : "318991783",
      "districtId" : "1",
      "nameZh" : "龍井區公所",
      "pgp" : "0",
      "terminal" : "0",
      "latitude" : "24.19246",
      "inDis" : "50",
      "routeId" : "藍3",
      "seqNo" : "16"
   },
   {
      "GoBack" : "1",
      "longitude" : "120.54659",
      "outDis" : "50",
      "Id" : "3846",
      "oid" : "318991785",
      "districtId" : "1",
      "nameZh" : "龍井火車站",
      "pgp" : "0",
      "terminal" : "0",
      "latitude" : "24.19687",
      "inDis" : "50",
      "routeId" : "藍3",
      "seqNo" : "17"
   },
   {
      "GoBack" : "1",
      "longitude" : "120.54699",
      "outDis" : "50",
      "Id" : "3855",
      "oid" : "318991787",
      "districtId" : "1",
      "nameZh" : "龍泉",
      "pgp" : "0",
      "terminal" : "0",
      "latitude" : "24.19933",
      "inDis" : "50",
      "routeId" : "藍3",
      "seqNo" : "18"
   },
   {
      "GoBack" : "1",
      "longitude" : "120.54798",
      "outDis" : "50",
      "Id" : "3850",
      "oid" : "318991789",
      "districtId" : "1",
      "nameZh" : "龍目井",
      "pgp" : "0",
      "terminal" : "0",
      "latitude" : "24.20249",
      "inDis" : "50",
      "routeId" : "藍3",
      "seqNo" : "19"
   },
   {
      "GoBack" : "1",
      "longitude" : "120.54923",
      "outDis" : "50",
      "Id" : "4010",
      "oid" : "318991791",
      "districtId" : "1",
      "nameZh" : "鷺山",
      "pgp" : "0",
      "terminal" : "0",
      "latitude" : "24.20743",
      "inDis" : "50",
      "routeId" : "藍3",
      "seqNo" : "20"
   },
   {
      "GoBack" : "1",
      "longitude" : "120.55056",
      "outDis" : "50",
      "Id" : "2559",
      "oid" : "318991793",
      "districtId" : "1",
      "nameZh" : "南山腳",
      "pgp" : "0",
      "terminal" : "0",
      "latitude" : "24.21022",
      "inDis" : "50",
      "routeId" : "藍3",
      "seqNo" : "21"
   },
   {
      "GoBack" : "1",
      "longitude" : "120.55157",
      "outDis" : "50",
      "Id" : "5159",
      "oid" : "318991795",
      "districtId" : "1",
      "nameZh" : "龍山國小(山腳里)",
      "pgp" : "0",
      "terminal" : "0",
      "latitude" : "24.21255",
      "inDis" : "50",
      "routeId" : "藍3",
      "seqNo" : "22"
   },
   {
      "GoBack" : "1",
      "longitude" : "120.55612",
      "outDis" : "50",
      "Id" : "0387",
      "oid" : "319045309",
      "districtId" : "1",
      "nameZh" : "自強向上路口",
      "pgp" : "0",
      "terminal" : "0",
      "latitude" : "24.2118",
      "inDis" : "50",
      "routeId" : "藍3",
      "seqNo" : "23"
   },
   {
      "GoBack" : "1",
      "longitude" : "120.55794",
      "outDis" : "50",
      "Id" : "0388",
      "oid" : "319045311",
      "districtId" : "1",
      "nameZh" : "自強路832巷口",
      "pgp" : "0",
      "terminal" : "0",
      "latitude" : "24.20789",
      "inDis" : "50",
      "routeId" : "藍3",
      "seqNo" : "24"
   },
   {
      "GoBack" : "1",
      "longitude" : "120.55936",
      "outDis" : "50",
      "Id" : "0389",
      "oid" : "319045313",
      "districtId" : "1",
      "nameZh" : "自強路780巷口",
      "pgp" : "0",
      "terminal" : "0",
      "latitude" : "24.20722",
      "inDis" : "50",
      "routeId" : "藍3",
      "seqNo" : "25"
   },
   {
      "GoBack" : "1",
      "longitude" : "120.56199",
      "outDis" : "50",
      "Id" : "0390",
      "oid" : "319045315",
      "districtId" : "1",
      "nameZh" : "自強保寧路口",
      "pgp" : "0",
      "terminal" : "0",
      "latitude" : "24.20668",
      "inDis" : "50",
      "routeId" : "藍3",
      "seqNo" : "26"
   },
   {
      "GoBack" : "1",
      "longitude" : "120.5641",
      "outDis" : "50",
      "Id" : "0397",
      "oid" : "319048656",
      "districtId" : "1",
      "nameZh" : "向上保寧路口",
      "pgp" : "0",
      "terminal" : "0",
      "latitude" : "24.20617",
      "inDis" : "50",
      "routeId" : "藍3",
      "seqNo" : "27"
   },
   {
      "GoBack" : "1",
      "longitude" : "120.56786",
      "outDis" : "50",
      "Id" : "5671",
      "oid" : "319048659",
      "districtId" : "1",
      "nameZh" : "向上自立路口",
      "pgp" : "0",
      "terminal" : "0",
      "latitude" : "24.20302",
      "inDis" : "50",
      "routeId" : "藍3",
      "seqNo" : "28"
   },
   {
      "GoBack" : "1",
      "longitude" : "120.57578",
      "outDis" : "50",
      "Id" : "0393",
      "oid" : "319045317",
      "districtId" : "1",
      "nameZh" : "中興向上路口",
      "pgp" : "0",
      "terminal" : "0",
      "latitude" : "24.18488",
      "inDis" : "50",
      "routeId" : "藍3",
      "seqNo" : "29"
   },
   {
      "GoBack" : "1",
      "longitude" : "120.57743",
      "outDis" : "50",
      "Id" : "0395",
      "oid" : "319045319",
      "districtId" : "1",
      "nameZh" : "中興臺灣大道口",
      "pgp" : "0",
      "terminal" : "0",
      "latitude" : "24.18629",
      "inDis" : "50",
      "routeId" : "藍3",
      "seqNo" : "30"
   },
   {
      "GoBack" : "1",
      "longitude" : "120.5829",
      "outDis" : "50",
      "Id" : "4061",
      "oid" : "2211",
      "districtId" : "1",
      "nameZh" : "下坪頂",
      "pgp" : "0",
      "terminal" : "0",
      "latitude" : "24.18717",
      "inDis" : "50",
      "routeId" : "藍3",
      "seqNo" : "31"
   },
   {
      "GoBack" : "1",
      "longitude" : "120.58613",
      "outDis" : "50",
      "Id" : "2325",
      "oid" : "318991799",
      "districtId" : "1",
      "nameZh" : "坪頂",
      "pgp" : "0",
      "terminal" : "0",
      "latitude" : "24.1858",
      "inDis" : "50",
      "routeId" : "藍3",
      "seqNo" : "32"
   },
   {
      "GoBack" : "2",
      "longitude" : "120.58505",
      "outDis" : "50",
      "Id" : "2325",
      "oid" : "318991801",
      "districtId" : "1",
      "nameZh" : "坪頂",
      "pgp" : "0",
      "terminal" : "0",
      "latitude" : "24.1866",
      "inDis" : "50",
      "routeId" : "藍3",
      "seqNo" : "1"
   },
   {
      "GoBack" : "2",
      "longitude" : "120.57828",
      "outDis" : "50",
      "Id" : "0395",
      "oid" : "319045320",
      "districtId" : "1",
      "nameZh" : "中興臺灣大道口",
      "pgp" : "0",
      "terminal" : "0",
      "latitude" : "24.18752",
      "inDis" : "50",
      "routeId" : "藍3",
      "seqNo" : "2"
   },
   {
      "GoBack" : "2",
      "longitude" : "120.57647",
      "outDis" : "50",
      "Id" : "0393",
      "oid" : "319045318",
      "districtId" : "1",
      "nameZh" : "中興向上路口",
      "pgp" : "0",
      "terminal" : "0",
      "latitude" : "24.18536",
      "inDis" : "50",
      "routeId" : "藍3",
      "seqNo" : "3"
   },
   {
      "GoBack" : "2",
      "longitude" : "120.5676",
      "outDis" : "50",
      "Id" : "5671",
      "oid" : "319048660",
      "districtId" : "1",
      "nameZh" : "向上自立路口",
      "pgp" : "0",
      "terminal" : "0",
      "latitude" : "24.20341",
      "inDis" : "50",
      "routeId" : "藍3",
      "seqNo" : "4"
   },
   {
      "GoBack" : "2",
      "longitude" : "120.56457",
      "outDis" : "50",
      "Id" : "0397",
      "oid" : "319048657",
      "districtId" : "1",
      "nameZh" : "向上保寧路口",
      "pgp" : "0",
      "terminal" : "0",
      "latitude" : "24.20597",
      "inDis" : "50",
      "routeId" : "藍3",
      "seqNo" : "5"
   },
   {
      "GoBack" : "2",
      "longitude" : "120.56301",
      "outDis" : "50",
      "Id" : "0390",
      "oid" : "319045316",
      "districtId" : "1",
      "nameZh" : "自強保寧路口",
      "pgp" : "0",
      "terminal" : "0",
      "latitude" : "24.20609",
      "inDis" : "50",
      "routeId" : "藍3",
      "seqNo" : "6"
   },
   {
      "GoBack" : "2",
      "longitude" : "120.55983",
      "outDis" : "50",
      "Id" : "0389",
      "oid" : "319045314",
      "districtId" : "1",
      "nameZh" : "自強路780巷口",
      "pgp" : "0",
      "terminal" : "0",
      "latitude" : "24.20699",
      "inDis" : "50",
      "routeId" : "藍3",
      "seqNo" : "7"
   },
   {
      "GoBack" : "2",
      "longitude" : "120.55847",
      "outDis" : "50",
      "Id" : "0388",
      "oid" : "319045312",
      "districtId" : "1",
      "nameZh" : "自強路832巷口",
      "pgp" : "0",
      "terminal" : "0",
      "latitude" : "24.20754",
      "inDis" : "50",
      "routeId" : "藍3",
      "seqNo" : "8"
   },
   {
      "GoBack" : "2",
      "longitude" : "120.55608",
      "outDis" : "50",
      "Id" : "0387",
      "oid" : "319045310",
      "districtId" : "1",
      "nameZh" : "自強向上路口",
      "pgp" : "0",
      "terminal" : "0",
      "latitude" : "24.20977",
      "inDis" : "50",
      "routeId" : "藍3",
      "seqNo" : "9"
   },
   {
      "GoBack" : "2",
      "longitude" : "120.55157",
      "outDis" : "50",
      "Id" : "5159",
      "oid" : "318991795",
      "districtId" : "1",
      "nameZh" : "龍山國小(山腳里)",
      "pgp" : "0",
      "terminal" : "0",
      "latitude" : "24.21255",
      "inDis" : "50",
      "routeId" : "藍3",
      "seqNo" : "10"
   },
   {
      "GoBack" : "2",
      "longitude" : "120.55056",
      "outDis" : "50",
      "Id" : "2559",
      "oid" : "318991805",
      "districtId" : "1",
      "nameZh" : "南山腳",
      "pgp" : "0",
      "terminal" : "0",
      "latitude" : "24.21022",
      "inDis" : "50",
      "routeId" : "藍3",
      "seqNo" : "11"
   },
   {
      "GoBack" : "2",
      "longitude" : "120.54923",
      "outDis" : "50",
      "Id" : "4010",
      "oid" : "318991807",
      "districtId" : "1",
      "nameZh" : "鷺山",
      "pgp" : "0",
      "terminal" : "0",
      "latitude" : "24.20743",
      "inDis" : "50",
      "routeId" : "藍3",
      "seqNo" : "12"
   },
   {
      "GoBack" : "2",
      "longitude" : "120.54798",
      "outDis" : "50",
      "Id" : "3850",
      "oid" : "318991809",
      "districtId" : "1",
      "nameZh" : "龍目井",
      "pgp" : "0",
      "terminal" : "0",
      "latitude" : "24.20249",
      "inDis" : "50",
      "routeId" : "藍3",
      "seqNo" : "13"
   },
   {
      "GoBack" : "2",
      "longitude" : "120.54699",
      "outDis" : "50",
      "Id" : "3855",
      "oid" : "318991811",
      "districtId" : "1",
      "nameZh" : "龍泉",
      "pgp" : "0",
      "terminal" : "0",
      "latitude" : "24.19933",
      "inDis" : "50",
      "routeId" : "藍3",
      "seqNo" : "14"
   },
   {
      "GoBack" : "2",
      "longitude" : "120.54659",
      "outDis" : "50",
      "Id" : "3846",
      "oid" : "318991813",
      "districtId" : "1",
      "nameZh" : "龍井火車站",
      "pgp" : "0",
      "terminal" : "0",
      "latitude" : "24.19687",
      "inDis" : "50",
      "routeId" : "藍3",
      "seqNo" : "15"
   },
   {
      "GoBack" : "2",
      "longitude" : "120.54608",
      "outDis" : "50",
      "Id" : "5160",
      "oid" : "318991815",
      "districtId" : "1",
      "nameZh" : "龍井區公所",
      "pgp" : "0",
      "terminal" : "0",
      "latitude" : "24.19246",
      "inDis" : "50",
      "routeId" : "藍3",
      "seqNo" : "16"
   },
   {
      "GoBack" : "2",
      "longitude" : "120.54574",
      "outDis" : "50",
      "Id" : "3847",
      "oid" : "318991817",
      "districtId" : "1",
      "nameZh" : "龍井加油站",
      "pgp" : "0",
      "terminal" : "0",
      "latitude" : "24.18898",
      "inDis" : "50",
      "routeId" : "藍3",
      "seqNo" : "17"
   },
   {
      "GoBack" : "2",
      "longitude" : "120.54549",
      "outDis" : "50",
      "Id" : "3853",
      "oid" : "318991819",
      "districtId" : "1",
      "nameZh" : "龍崗",
      "pgp" : "0",
      "terminal" : "0",
      "latitude" : "24.18642",
      "inDis" : "50",
      "routeId" : "藍3",
      "seqNo" : "18"
   },
   {
      "GoBack" : "2",
      "longitude" : "120.54554",
      "outDis" : "50",
      "Id" : "3031",
      "oid" : "318991837",
      "districtId" : "1",
      "nameZh" : "深水",
      "pgp" : "0",
      "terminal" : "0",
      "latitude" : "24.18257",
      "inDis" : "50",
      "routeId" : "藍3",
      "seqNo" : "19"
   },
   {
      "GoBack" : "2",
      "longitude" : "120.54461",
      "outDis" : "50",
      "Id" : "2242",
      "oid" : "318991839",
      "districtId" : "1",
      "nameZh" : "村內入口",
      "pgp" : "0",
      "terminal" : "0",
      "latitude" : "24.17876",
      "inDis" : "50",
      "routeId" : "藍3",
      "seqNo" : "20"
   },
   {
      "GoBack" : "2",
      "longitude" : "120.54379",
      "outDis" : "50",
      "Id" : "2144",
      "oid" : "318991841",
      "districtId" : "1",
      "nameZh" : "竹坑口",
      "pgp" : "0",
      "terminal" : "0",
      "latitude" : "24.17549",
      "inDis" : "50",
      "routeId" : "藍3",
      "seqNo" : "21"
   },
   {
      "GoBack" : "2",
      "longitude" : "120.54266",
      "outDis" : "50",
      "Id" : "5482",
      "oid" : "318991843",
      "districtId" : "1",
      "nameZh" : "沙田中華路口",
      "pgp" : "0",
      "terminal" : "0",
      "latitude" : "24.17189",
      "inDis" : "50",
      "routeId" : "藍3",
      "seqNo" : "22"
   },
   {
      "GoBack" : "2",
      "longitude" : "120.54238",
      "outDis" : "50",
      "Id" : "5746",
      "oid" : "318991845",
      "districtId" : "1",
      "nameZh" : "山陽一站",
      "pgp" : "0",
      "terminal" : "0",
      "latitude" : "24.1689",
      "inDis" : "50",
      "routeId" : "藍3",
      "seqNo" : "23"
   },
   {
      "GoBack" : "2",
      "longitude" : "120.54283",
      "outDis" : "50",
      "Id" : "1395",
      "oid" : "318991847",
      "districtId" : "1",
      "nameZh" : "山陽",
      "pgp" : "0",
      "terminal" : "0",
      "latitude" : "24.16408",
      "inDis" : "50",
      "routeId" : "藍3",
      "seqNo" : "24"
   },
   {
      "GoBack" : "2",
      "longitude" : "120.54356",
      "outDis" : "50",
      "Id" : "4450",
      "oid" : "318991849",
      "districtId" : "1",
      "nameZh" : "北頂街",
      "pgp" : "0",
      "terminal" : "0",
      "latitude" : "24.15977",
      "inDis" : "50",
      "routeId" : "藍3",
      "seqNo" : "25"
   },
   {
      "GoBack" : "2",
      "longitude" : "120.54393",
      "outDis" : "50",
      "Id" : "5137",
      "oid" : "318991851",
      "districtId" : "1",
      "nameZh" : "頂街(沙田路)",
      "pgp" : "0",
      "terminal" : "0",
      "latitude" : "24.15806",
      "inDis" : "50",
      "routeId" : "藍3",
      "seqNo" : "26"
   },
   {
      "GoBack" : "2",
      "longitude" : "120.54476",
      "outDis" : "50",
      "Id" : "1303",
      "oid" : "318991853",
      "districtId" : "1",
      "nameZh" : "大肚火車站",
      "pgp" : "0",
      "terminal" : "0",
      "latitude" : "24.15316",
      "inDis" : "50",
      "routeId" : "藍3",
      "seqNo" : "27"
   },
   {
      "GoBack" : "2",
      "longitude" : "120.54536",
      "outDis" : "50",
      "Id" : "4786",
      "oid" : "318991855",
      "districtId" : "1",
      "nameZh" : "大肚區公所",
      "pgp" : "0",
      "terminal" : "0",
      "latitude" : "24.1512",
      "inDis" : "50",
      "routeId" : "藍3",
      "seqNo" : "28"
   },
   {
      "GoBack" : "2",
      "longitude" : "120.54565",
      "outDis" : "50",
      "Id" : "1302",
      "oid" : "318991857",
      "districtId" : "1",
      "nameZh" : "大肚",
      "pgp" : "0",
      "terminal" : "0",
      "latitude" : "24.15014",
      "inDis" : "50",
      "routeId" : "藍3",
      "seqNo" : "29"
   },
   {
      "GoBack" : "2",
      "longitude" : "120.54673",
      "outDis" : "50",
      "Id" : "1359",
      "oid" : "318991859",
      "districtId" : "1",
      "nameZh" : "大道國中",
      "pgp" : "0",
      "terminal" : "0",
      "latitude" : "24.14613",
      "inDis" : "50",
      "routeId" : "藍3",
      "seqNo" : "30"
   },
   {
      "GoBack" : "2",
      "longitude" : "120.54794",
      "outDis" : "50",
      "Id" : "4460",
      "oid" : "318991861",
      "districtId" : "1",
      "nameZh" : "沙田自由路口",
      "pgp" : "0",
      "terminal" : "0",
      "latitude" : "24.14309",
      "inDis" : "50",
      "routeId" : "藍3",
      "seqNo" : "31"
   }
]
