[
   {
      "GoBack" : "1",
      "longitude" : "120.65581",
      "outDis" : "50",
      "Id" : "5766",
      "oid" : "320612806",
      "districtId" : "1",
      "nameZh" : "豐富公園",
      "pgp" : "0",
      "terminal" : "0",
      "latitude" : "24.12975",
      "inDis" : "50",
      "routeId" : "203",
      "seqNo" : "1"
   },
   {
      "GoBack" : "1",
      "longitude" : "120.66008",
      "outDis" : "50",
      "Id" : "5765",
      "oid" : "320612807",
      "districtId" : "1",
      "nameZh" : "三民西柳川東路口",
      "pgp" : "0",
      "terminal" : "0",
      "latitude" : "24.13012",
      "inDis" : "50",
      "routeId" : "203",
      "seqNo" : "2"
   },
   {
      "GoBack" : "1",
      "longitude" : "120.66317",
      "outDis" : "50",
      "Id" : "5764",
      "oid" : "320612808",
      "districtId" : "1",
      "nameZh" : "三民西民興街口",
      "pgp" : "0",
      "terminal" : "0",
      "latitude" : "24.13014",
      "inDis" : "50",
      "routeId" : "203",
      "seqNo" : "3"
   },
   {
      "GoBack" : "1",
      "longitude" : "120.66682",
      "outDis" : "50",
      "Id" : "5763",
      "oid" : "320612809",
      "districtId" : "1",
      "nameZh" : "奉順宮",
      "pgp" : "0",
      "terminal" : "0",
      "latitude" : "24.13142",
      "inDis" : "50",
      "routeId" : "203",
      "seqNo" : "4"
   },
   {
      "GoBack" : "1",
      "longitude" : "120.66997",
      "outDis" : "50",
      "Id" : "5778",
      "oid" : "320612811",
      "districtId" : "1",
      "nameZh" : "公館公園(自由路)",
      "pgp" : "0",
      "terminal" : "0",
      "latitude" : "24.13199",
      "inDis" : "50",
      "routeId" : "203",
      "seqNo" : "5"
   },
   {
      "GoBack" : "1",
      "longitude" : "120.67607",
      "outDis" : "50",
      "Id" : "0070",
      "oid" : "13306",
      "districtId" : "1",
      "nameZh" : "地方法院",
      "pgp" : "0",
      "terminal" : "0",
      "latitude" : "24.13406",
      "inDis" : "50",
      "routeId" : "203",
      "seqNo" : "6"
   },
   {
      "GoBack" : "1",
      "longitude" : "120.67803",
      "outDis" : "50",
      "Id" : "0071",
      "oid" : "12345",
      "districtId" : "1",
      "nameZh" : "臺中女中",
      "pgp" : "0",
      "terminal" : "0",
      "latitude" : "24.13596",
      "inDis" : "50",
      "routeId" : "203",
      "seqNo" : "7"
   },
   {
      "GoBack" : "1",
      "longitude" : "120.68111",
      "outDis" : "50",
      "Id" : "4284",
      "oid" : "13343",
      "districtId" : "1",
      "nameZh" : "民權繼光街口",
      "pgp" : "0",
      "terminal" : "0",
      "latitude" : "24.1366",
      "inDis" : "50",
      "routeId" : "203",
      "seqNo" : "8"
   },
   {
      "GoBack" : "1",
      "longitude" : "120.68397",
      "outDis" : "50",
      "Id" : "1824",
      "oid" : "320612812",
      "districtId" : "1",
      "nameZh" : "臺中火車站",
      "pgp" : "0",
      "terminal" : "0",
      "latitude" : "24.13672",
      "inDis" : "50",
      "routeId" : "203",
      "seqNo" : "9"
   },
   {
      "GoBack" : "1",
      "longitude" : "120.68522",
      "outDis" : "50",
      "Id" : "0402",
      "oid" : "320612813",
      "districtId" : "1",
      "nameZh" : "干城站",
      "pgp" : "0",
      "terminal" : "0",
      "latitude" : "24.14287",
      "inDis" : "50",
      "routeId" : "203",
      "seqNo" : "10"
   },
   {
      "GoBack" : "1",
      "longitude" : "120.68612",
      "outDis" : "50",
      "Id" : "4544",
      "oid" : "13289",
      "districtId" : "1",
      "nameZh" : "臺中公園(雙十路)",
      "pgp" : "0",
      "terminal" : "0",
      "latitude" : "24.14399",
      "inDis" : "50",
      "routeId" : "203",
      "seqNo" : "11"
   },
   {
      "GoBack" : "1",
      "longitude" : "120.68463",
      "outDis" : "50",
      "Id" : "1513",
      "oid" : "7687",
      "districtId" : "1",
      "nameZh" : "中興堂",
      "pgp" : "0",
      "terminal" : "0",
      "latitude" : "24.14621",
      "inDis" : "50",
      "routeId" : "203",
      "seqNo" : "12"
   },
   {
      "GoBack" : "1",
      "longitude" : "120.68413",
      "outDis" : "50",
      "Id" : "0045",
      "oid" : "5556",
      "districtId" : "1",
      "nameZh" : "國立臺中科技大學",
      "pgp" : "0",
      "terminal" : "0",
      "latitude" : "24.14987",
      "inDis" : "50",
      "routeId" : "203",
      "seqNo" : "13"
   },
   {
      "GoBack" : "1",
      "longitude" : "120.6852",
      "outDis" : "50",
      "Id" : "0046",
      "oid" : "5310",
      "districtId" : "1",
      "nameZh" : "中友百貨",
      "pgp" : "0",
      "terminal" : "0",
      "latitude" : "24.15251",
      "inDis" : "50",
      "routeId" : "203",
      "seqNo" : "14"
   },
   {
      "GoBack" : "1",
      "longitude" : "120.68571",
      "outDis" : "50",
      "Id" : "0047",
      "oid" : "5014",
      "districtId" : "1",
      "nameZh" : "一心市場",
      "pgp" : "0",
      "terminal" : "0",
      "latitude" : "24.15366",
      "inDis" : "50",
      "routeId" : "203",
      "seqNo" : "15"
   },
   {
      "GoBack" : "1",
      "longitude" : "120.68695",
      "outDis" : "50",
      "Id" : "0934",
      "oid" : "0D7AF382298E449C9856AF45F92F27F9",
      "districtId" : "1",
      "nameZh" : "三民錦中街口",
      "pgp" : "0",
      "terminal" : "0",
      "latitude" : "24.15528",
      "inDis" : "50",
      "routeId" : "203",
      "seqNo" : "16"
   },
   {
      "GoBack" : "1",
      "longitude" : "120.6885",
      "outDis" : "50",
      "Id" : "4399",
      "oid" : "6417",
      "districtId" : "1",
      "nameZh" : "新民高中(三民路)",
      "pgp" : "0",
      "terminal" : "0",
      "latitude" : "24.1568",
      "inDis" : "50",
      "routeId" : "203",
      "seqNo" : "17"
   },
   {
      "GoBack" : "1",
      "longitude" : "120.68992",
      "outDis" : "50",
      "Id" : "0960",
      "oid" : "6730",
      "districtId" : "1",
      "nameZh" : "寶覺寺",
      "pgp" : "0",
      "terminal" : "0",
      "latitude" : "24.15803",
      "inDis" : "50",
      "routeId" : "203",
      "seqNo" : "18"
   },
   {
      "GoBack" : "1",
      "longitude" : "120.69209",
      "outDis" : "50",
      "Id" : "0892",
      "oid" : "6537",
      "districtId" : "1",
      "nameZh" : "監理站",
      "pgp" : "0",
      "terminal" : "0",
      "latitude" : "24.16106",
      "inDis" : "50",
      "routeId" : "203",
      "seqNo" : "19"
   },
   {
      "GoBack" : "1",
      "longitude" : "120.69318",
      "outDis" : "50",
      "Id" : "5405",
      "oid" : "13346",
      "districtId" : "1",
      "nameZh" : "北屯國小(北屯路)",
      "pgp" : "0",
      "terminal" : "0",
      "latitude" : "24.16325",
      "inDis" : "50",
      "routeId" : "203",
      "seqNo" : "20"
   },
   {
      "GoBack" : "1",
      "longitude" : "120.69418",
      "outDis" : "50",
      "Id" : "0492",
      "oid" : "5516",
      "districtId" : "1",
      "nameZh" : "北屯",
      "pgp" : "0",
      "terminal" : "0",
      "latitude" : "24.16504",
      "inDis" : "50",
      "routeId" : "203",
      "seqNo" : "21"
   },
   {
      "GoBack" : "1",
      "longitude" : "120.69592",
      "outDis" : "50",
      "Id" : "5511",
      "oid" : "BA3B1CACF37C4F149A7FA88E511BD80E",
      "districtId" : "1",
      "nameZh" : "三光國中",
      "pgp" : "0",
      "terminal" : "0",
      "latitude" : "24.1677",
      "inDis" : "50",
      "routeId" : "203",
      "seqNo" : "22"
   },
   {
      "GoBack" : "1",
      "longitude" : "120.69716",
      "outDis" : "50",
      "Id" : "0103",
      "oid" : "5227",
      "districtId" : "1",
      "nameZh" : "大坑口",
      "pgp" : "0",
      "terminal" : "0",
      "latitude" : "24.16973",
      "inDis" : "50",
      "routeId" : "203",
      "seqNo" : "23"
   },
   {
      "GoBack" : "1",
      "longitude" : "120.69875",
      "outDis" : "50",
      "Id" : "0222",
      "oid" : "13242",
      "districtId" : "1",
      "nameZh" : "聯安醫院",
      "pgp" : "0",
      "terminal" : "0",
      "latitude" : "24.17035",
      "inDis" : "50",
      "routeId" : "203",
      "seqNo" : "24"
   },
   {
      "GoBack" : "1",
      "longitude" : "120.70266",
      "outDis" : "50",
      "Id" : "4312",
      "oid" : "13176",
      "districtId" : "1",
      "nameZh" : "東光國小",
      "pgp" : "0",
      "terminal" : "0",
      "latitude" : "24.16978",
      "inDis" : "50",
      "routeId" : "203",
      "seqNo" : "25"
   },
   {
      "GoBack" : "1",
      "longitude" : "120.70453",
      "outDis" : "50",
      "Id" : "5712",
      "oid" : "5073",
      "districtId" : "1",
      "nameZh" : "三和/東光里",
      "pgp" : "0",
      "terminal" : "0",
      "latitude" : "24.16949",
      "inDis" : "50",
      "routeId" : "203",
      "seqNo" : "26"
   },
   {
      "GoBack" : "1",
      "longitude" : "120.70695",
      "outDis" : "50",
      "Id" : "0679",
      "oid" : "B83FB8123E6E4D6AA4D5815BB7D08071",
      "districtId" : "1",
      "nameZh" : "玫瑰新村",
      "pgp" : "0",
      "terminal" : "0",
      "latitude" : "24.16969",
      "inDis" : "50",
      "routeId" : "203",
      "seqNo" : "27"
   },
   {
      "GoBack" : "1",
      "longitude" : "120.70846",
      "outDis" : "50",
      "Id" : "0484",
      "oid" : "5485",
      "districtId" : "1",
      "nameZh" : "水景里",
      "pgp" : "0",
      "terminal" : "0",
      "latitude" : "24.17051",
      "inDis" : "50",
      "routeId" : "203",
      "seqNo" : "28"
   },
   {
      "GoBack" : "1",
      "longitude" : "120.70938",
      "outDis" : "50",
      "Id" : "0325",
      "oid" : "6E2AC2E8F5E64746954F6CB5CB19E7B2",
      "districtId" : "1",
      "nameZh" : "三和社區",
      "pgp" : "0",
      "terminal" : "0",
      "latitude" : "24.17114",
      "inDis" : "50",
      "routeId" : "203",
      "seqNo" : "29"
   },
   {
      "GoBack" : "1",
      "longitude" : "120.7117",
      "outDis" : "50",
      "Id" : "0485",
      "oid" : "5486",
      "districtId" : "1",
      "nameZh" : "水景頭",
      "pgp" : "0",
      "terminal" : "0",
      "latitude" : "24.17236",
      "inDis" : "50",
      "routeId" : "203",
      "seqNo" : "30"
   },
   {
      "GoBack" : "1",
      "longitude" : "120.71467",
      "outDis" : "50",
      "Id" : "0365",
      "oid" : "5262",
      "districtId" : "1",
      "nameZh" : "大華新村",
      "pgp" : "0",
      "terminal" : "0",
      "latitude" : "24.174",
      "inDis" : "50",
      "routeId" : "203",
      "seqNo" : "31"
   },
   {
      "GoBack" : "1",
      "longitude" : "120.7175",
      "outDis" : "50",
      "Id" : "0703",
      "oid" : "6019",
      "districtId" : "1",
      "nameZh" : "建功國小",
      "pgp" : "0",
      "terminal" : "0",
      "latitude" : "24.17546",
      "inDis" : "50",
      "routeId" : "203",
      "seqNo" : "32"
   },
   {
      "GoBack" : "1",
      "longitude" : "120.71935",
      "outDis" : "80",
      "Id" : "2723",
      "oid" : "1231D4FD99824DA49C314A4A979CA80C",
      "districtId" : "1",
      "nameZh" : "軍功農會",
      "pgp" : "0",
      "terminal" : "0",
      "latitude" : "24.17728",
      "inDis" : "50",
      "routeId" : "203",
      "seqNo" : "33"
   },
   {
      "GoBack" : "1",
      "longitude" : "120.71955",
      "outDis" : "50",
      "Id" : "2631",
      "oid" : "6020",
      "districtId" : "1",
      "nameZh" : "建功橋頭",
      "pgp" : "0",
      "terminal" : "0",
      "latitude" : "24.17989",
      "inDis" : "50",
      "routeId" : "203",
      "seqNo" : "34"
   },
   {
      "GoBack" : "1",
      "longitude" : "120.71934",
      "outDis" : "80",
      "Id" : "0729",
      "oid" : "18383732",
      "districtId" : "1",
      "nameZh" : "軍功松竹路口",
      "pgp" : "0",
      "terminal" : "0",
      "latitude" : "24.18293",
      "inDis" : "30",
      "routeId" : "203",
      "seqNo" : "35"
   },
   {
      "GoBack" : "1",
      "longitude" : "120.71896",
      "outDis" : "50",
      "Id" : "1552",
      "oid" : "5383",
      "districtId" : "1",
      "nameZh" : "仁愛之家",
      "pgp" : "0",
      "terminal" : "0",
      "latitude" : "24.1846",
      "inDis" : "50",
      "routeId" : "203",
      "seqNo" : "36"
   },
   {
      "GoBack" : "1",
      "longitude" : "120.71819",
      "outDis" : "50",
      "Id" : "2078",
      "oid" : "5703",
      "districtId" : "1",
      "nameZh" : "名人球場",
      "pgp" : "0",
      "terminal" : "0",
      "latitude" : "24.1885",
      "inDis" : "50",
      "routeId" : "203",
      "seqNo" : "37"
   },
   {
      "GoBack" : "1",
      "longitude" : "120.71835",
      "outDis" : "50",
      "Id" : "3692",
      "oid" : "6580",
      "districtId" : "1",
      "nameZh" : "聚興",
      "pgp" : "0",
      "terminal" : "0",
      "latitude" : "24.19173",
      "inDis" : "50",
      "routeId" : "203",
      "seqNo" : "38"
   },
   {
      "GoBack" : "1",
      "longitude" : "120.71944",
      "outDis" : "50",
      "Id" : "4769",
      "oid" : "311101855",
      "districtId" : "1",
      "nameZh" : "慈濟中醫院區",
      "pgp" : "0",
      "terminal" : "0",
      "latitude" : "24.19298",
      "inDis" : "50",
      "routeId" : "203",
      "seqNo" : "39"
   },
   {
      "GoBack" : "1",
      "longitude" : "120.71976",
      "outDis" : "50",
      "Id" : "3359",
      "oid" : "6407",
      "districtId" : "1",
      "nameZh" : "慈濟醫院",
      "pgp" : "0",
      "terminal" : "0",
      "latitude" : "24.19372",
      "inDis" : "50",
      "routeId" : "203",
      "seqNo" : "40"
   },
   {
      "GoBack" : "1",
      "longitude" : "120.72196",
      "outDis" : "50",
      "Id" : "1504",
      "oid" : "5352",
      "districtId" : "1",
      "nameZh" : "中興",
      "pgp" : "0",
      "terminal" : "0",
      "latitude" : "24.19924",
      "inDis" : "50",
      "routeId" : "203",
      "seqNo" : "41"
   },
   {
      "GoBack" : "1",
      "longitude" : "120.72265",
      "outDis" : "50",
      "Id" : "3432",
      "oid" : "6452",
      "districtId" : "1",
      "nameZh" : "新興",
      "pgp" : "0",
      "terminal" : "0",
      "latitude" : "24.20362",
      "inDis" : "50",
      "routeId" : "203",
      "seqNo" : "42"
   },
   {
      "GoBack" : "1",
      "longitude" : "120.72178",
      "outDis" : "50",
      "Id" : "2614",
      "oid" : "6014",
      "districtId" : "1",
      "nameZh" : "南新",
      "pgp" : "0",
      "terminal" : "0",
      "latitude" : "24.20973",
      "inDis" : "50",
      "routeId" : "203",
      "seqNo" : "43"
   },
   {
      "GoBack" : "1",
      "longitude" : "120.72258",
      "outDis" : "50",
      "Id" : "1492",
      "oid" : "5344",
      "districtId" : "1",
      "nameZh" : "中新",
      "pgp" : "0",
      "terminal" : "0",
      "latitude" : "24.21323",
      "inDis" : "50",
      "routeId" : "203",
      "seqNo" : "44"
   },
   {
      "GoBack" : "1",
      "longitude" : "120.72361",
      "outDis" : "50",
      "Id" : "3381",
      "oid" : "6419",
      "districtId" : "1",
      "nameZh" : "新田",
      "pgp" : "0",
      "terminal" : "0",
      "latitude" : "24.21844",
      "inDis" : "50",
      "routeId" : "203",
      "seqNo" : "45"
   },
   {
      "GoBack" : "1",
      "longitude" : "120.72407",
      "outDis" : "50",
      "Id" : "3660",
      "oid" : "6557",
      "districtId" : "1",
      "nameZh" : "福德祠",
      "pgp" : "0",
      "terminal" : "0",
      "latitude" : "24.22209",
      "inDis" : "50",
      "routeId" : "203",
      "seqNo" : "46"
   },
   {
      "GoBack" : "1",
      "longitude" : "120.72422",
      "outDis" : "50",
      "Id" : "1219",
      "oid" : "5168",
      "districtId" : "1",
      "nameZh" : "下鐮村",
      "pgp" : "0",
      "terminal" : "0",
      "latitude" : "24.2231",
      "inDis" : "50",
      "routeId" : "203",
      "seqNo" : "47"
   },
   {
      "GoBack" : "1",
      "longitude" : "120.72428",
      "outDis" : "50",
      "Id" : "2527",
      "oid" : "5961",
      "districtId" : "1",
      "nameZh" : "金星觀入口",
      "pgp" : "0",
      "terminal" : "0",
      "latitude" : "24.22677",
      "inDis" : "50",
      "routeId" : "203",
      "seqNo" : "48"
   },
   {
      "GoBack" : "1",
      "longitude" : "120.72427",
      "outDis" : "50",
      "Id" : "2151",
      "oid" : "5743",
      "districtId" : "1",
      "nameZh" : "竹圍口",
      "pgp" : "0",
      "terminal" : "0",
      "latitude" : "24.22999",
      "inDis" : "50",
      "routeId" : "203",
      "seqNo" : "49"
   },
   {
      "GoBack" : "1",
      "longitude" : "120.72476",
      "outDis" : "50",
      "Id" : "5276",
      "oid" : "310787860",
      "districtId" : "1",
      "nameZh" : "鐮村里",
      "pgp" : "0",
      "terminal" : "0",
      "latitude" : "24.23282",
      "inDis" : "50",
      "routeId" : "203",
      "seqNo" : "50"
   },
   {
      "GoBack" : "1",
      "longitude" : "120.72378",
      "outDis" : "50",
      "Id" : "1344",
      "oid" : "5260",
      "districtId" : "1",
      "nameZh" : "大發鑄造",
      "pgp" : "0",
      "terminal" : "0",
      "latitude" : "24.23515",
      "inDis" : "50",
      "routeId" : "203",
      "seqNo" : "51"
   },
   {
      "GoBack" : "1",
      "longitude" : "120.72236",
      "outDis" : "50",
      "Id" : "2666",
      "oid" : "6034",
      "districtId" : "1",
      "nameZh" : "甘宅",
      "pgp" : "0",
      "terminal" : "0",
      "latitude" : "24.23857",
      "inDis" : "50",
      "routeId" : "203",
      "seqNo" : "52"
   },
   {
      "GoBack" : "1",
      "longitude" : "120.71859",
      "outDis" : "50",
      "Id" : "5274",
      "oid" : "310787856",
      "districtId" : "1",
      "nameZh" : "豐原區公所",
      "pgp" : "0",
      "terminal" : "0",
      "latitude" : "24.24194",
      "inDis" : "50",
      "routeId" : "203",
      "seqNo" : "53"
   },
   {
      "GoBack" : "1",
      "longitude" : "120.71716",
      "outDis" : "50",
      "Id" : "4483",
      "oid" : "13855",
      "districtId" : "1",
      "nameZh" : "圓環東自強南街口",
      "pgp" : "0",
      "terminal" : "0",
      "latitude" : "24.24392",
      "inDis" : "50",
      "routeId" : "203",
      "seqNo" : "54"
   },
   {
      "GoBack" : "1",
      "longitude" : "120.7153",
      "outDis" : "50",
      "Id" : "3938",
      "oid" : "6696",
      "districtId" : "1",
      "nameZh" : "豐原高商",
      "pgp" : "0",
      "terminal" : "0",
      "latitude" : "24.24754",
      "inDis" : "50",
      "routeId" : "203",
      "seqNo" : "55"
   },
   {
      "GoBack" : "1",
      "longitude" : "120.71475",
      "outDis" : "50",
      "Id" : "0033",
      "oid" : "13324",
      "districtId" : "1",
      "nameZh" : "豐原電信局",
      "pgp" : "0",
      "terminal" : "0",
      "latitude" : "24.25003",
      "inDis" : "50",
      "routeId" : "203",
      "seqNo" : "56"
   },
   {
      "GoBack" : "1",
      "longitude" : "120.71526",
      "outDis" : "50",
      "Id" : "3939",
      "oid" : "6698",
      "districtId" : "1",
      "nameZh" : "豐原郵局",
      "pgp" : "0",
      "terminal" : "0",
      "latitude" : "24.25136",
      "inDis" : "50",
      "routeId" : "203",
      "seqNo" : "57"
   },
   {
      "GoBack" : "1",
      "longitude" : "120.71851",
      "outDis" : "50",
      "Id" : "3343",
      "oid" : "6397",
      "districtId" : "1",
      "nameZh" : "媽祖廟",
      "pgp" : "0",
      "terminal" : "0",
      "latitude" : "24.25157",
      "inDis" : "50",
      "routeId" : "203",
      "seqNo" : "58"
   },
   {
      "GoBack" : "1",
      "longitude" : "120.71986",
      "outDis" : "50",
      "Id" : "2309",
      "oid" : "5835",
      "districtId" : "1",
      "nameZh" : "和平街",
      "pgp" : "0",
      "terminal" : "0",
      "latitude" : "24.25233",
      "inDis" : "50",
      "routeId" : "203",
      "seqNo" : "59"
   },
   {
      "GoBack" : "1",
      "longitude" : "120.72154",
      "outDis" : "70",
      "Id" : "3935",
      "oid" : "6693",
      "districtId" : "1",
      "nameZh" : "豐原",
      "pgp" : "0",
      "terminal" : "0",
      "latitude" : "24.2538",
      "inDis" : "70",
      "routeId" : "203",
      "seqNo" : "60"
   },
   {
      "GoBack" : "2",
      "longitude" : "120.72154",
      "outDis" : "70",
      "Id" : "3935",
      "oid" : "6693",
      "districtId" : "1",
      "nameZh" : "豐原",
      "pgp" : "0",
      "terminal" : "0",
      "latitude" : "24.2538",
      "inDis" : "70",
      "routeId" : "203",
      "seqNo" : "1"
   },
   {
      "GoBack" : "2",
      "longitude" : "120.71851",
      "outDis" : "50",
      "Id" : "3343",
      "oid" : "6397",
      "districtId" : "1",
      "nameZh" : "媽祖廟",
      "pgp" : "0",
      "terminal" : "0",
      "latitude" : "24.25157",
      "inDis" : "50",
      "routeId" : "203",
      "seqNo" : "2"
   },
   {
      "GoBack" : "2",
      "longitude" : "120.71526",
      "outDis" : "50",
      "Id" : "3939",
      "oid" : "6698",
      "districtId" : "1",
      "nameZh" : "豐原郵局",
      "pgp" : "0",
      "terminal" : "0",
      "latitude" : "24.25136",
      "inDis" : "50",
      "routeId" : "203",
      "seqNo" : "3"
   },
   {
      "GoBack" : "2",
      "longitude" : "120.71475",
      "outDis" : "50",
      "Id" : "0033",
      "oid" : "13324",
      "districtId" : "1",
      "nameZh" : "豐原電信局",
      "pgp" : "0",
      "terminal" : "0",
      "latitude" : "24.25003",
      "inDis" : "50",
      "routeId" : "203",
      "seqNo" : "4"
   },
   {
      "GoBack" : "2",
      "longitude" : "120.7153",
      "outDis" : "50",
      "Id" : "3938",
      "oid" : "6696",
      "districtId" : "1",
      "nameZh" : "豐原高商",
      "pgp" : "0",
      "terminal" : "0",
      "latitude" : "24.24754",
      "inDis" : "50",
      "routeId" : "203",
      "seqNo" : "5"
   },
   {
      "GoBack" : "2",
      "longitude" : "120.71716",
      "outDis" : "50",
      "Id" : "4483",
      "oid" : "13855",
      "districtId" : "1",
      "nameZh" : "圓環東自強南街口",
      "pgp" : "0",
      "terminal" : "0",
      "latitude" : "24.24392",
      "inDis" : "50",
      "routeId" : "203",
      "seqNo" : "6"
   },
   {
      "GoBack" : "2",
      "longitude" : "120.71859",
      "outDis" : "50",
      "Id" : "5274",
      "oid" : "310787856",
      "districtId" : "1",
      "nameZh" : "豐原區公所",
      "pgp" : "0",
      "terminal" : "0",
      "latitude" : "24.24194",
      "inDis" : "50",
      "routeId" : "203",
      "seqNo" : "7"
   },
   {
      "GoBack" : "2",
      "longitude" : "120.72236",
      "outDis" : "50",
      "Id" : "2666",
      "oid" : "6034",
      "districtId" : "1",
      "nameZh" : "甘宅",
      "pgp" : "0",
      "terminal" : "0",
      "latitude" : "24.23857",
      "inDis" : "50",
      "routeId" : "203",
      "seqNo" : "8"
   },
   {
      "GoBack" : "2",
      "longitude" : "120.72378",
      "outDis" : "50",
      "Id" : "1344",
      "oid" : "5260",
      "districtId" : "1",
      "nameZh" : "大發鑄造",
      "pgp" : "0",
      "terminal" : "0",
      "latitude" : "24.23515",
      "inDis" : "50",
      "routeId" : "203",
      "seqNo" : "9"
   },
   {
      "GoBack" : "2",
      "longitude" : "120.72476",
      "outDis" : "50",
      "Id" : "5276",
      "oid" : "310787860",
      "districtId" : "1",
      "nameZh" : "鐮村里",
      "pgp" : "0",
      "terminal" : "0",
      "latitude" : "24.23282",
      "inDis" : "50",
      "routeId" : "203",
      "seqNo" : "10"
   },
   {
      "GoBack" : "2",
      "longitude" : "120.72427",
      "outDis" : "50",
      "Id" : "2151",
      "oid" : "5743",
      "districtId" : "1",
      "nameZh" : "竹圍口",
      "pgp" : "0",
      "terminal" : "0",
      "latitude" : "24.22999",
      "inDis" : "50",
      "routeId" : "203",
      "seqNo" : "11"
   },
   {
      "GoBack" : "2",
      "longitude" : "120.72428",
      "outDis" : "50",
      "Id" : "2527",
      "oid" : "5961",
      "districtId" : "1",
      "nameZh" : "金星觀入口",
      "pgp" : "0",
      "terminal" : "0",
      "latitude" : "24.22677",
      "inDis" : "50",
      "routeId" : "203",
      "seqNo" : "12"
   },
   {
      "GoBack" : "2",
      "longitude" : "120.72422",
      "outDis" : "50",
      "Id" : "1219",
      "oid" : "5168",
      "districtId" : "1",
      "nameZh" : "下鐮村",
      "pgp" : "0",
      "terminal" : "0",
      "latitude" : "24.2231",
      "inDis" : "50",
      "routeId" : "203",
      "seqNo" : "13"
   },
   {
      "GoBack" : "2",
      "longitude" : "120.72407",
      "outDis" : "50",
      "Id" : "3660",
      "oid" : "6557",
      "districtId" : "1",
      "nameZh" : "福德祠",
      "pgp" : "0",
      "terminal" : "0",
      "latitude" : "24.22209",
      "inDis" : "50",
      "routeId" : "203",
      "seqNo" : "14"
   },
   {
      "GoBack" : "2",
      "longitude" : "120.72361",
      "outDis" : "50",
      "Id" : "3381",
      "oid" : "6419",
      "districtId" : "1",
      "nameZh" : "新田",
      "pgp" : "0",
      "terminal" : "0",
      "latitude" : "24.21844",
      "inDis" : "50",
      "routeId" : "203",
      "seqNo" : "15"
   },
   {
      "GoBack" : "2",
      "longitude" : "120.72258",
      "outDis" : "50",
      "Id" : "1492",
      "oid" : "5344",
      "districtId" : "1",
      "nameZh" : "中新",
      "pgp" : "0",
      "terminal" : "0",
      "latitude" : "24.21323",
      "inDis" : "50",
      "routeId" : "203",
      "seqNo" : "16"
   },
   {
      "GoBack" : "2",
      "longitude" : "120.72178",
      "outDis" : "50",
      "Id" : "2614",
      "oid" : "6014",
      "districtId" : "1",
      "nameZh" : "南新",
      "pgp" : "0",
      "terminal" : "0",
      "latitude" : "24.20973",
      "inDis" : "50",
      "routeId" : "203",
      "seqNo" : "17"
   },
   {
      "GoBack" : "2",
      "longitude" : "120.72265",
      "outDis" : "50",
      "Id" : "3432",
      "oid" : "6452",
      "districtId" : "1",
      "nameZh" : "新興",
      "pgp" : "0",
      "terminal" : "0",
      "latitude" : "24.20362",
      "inDis" : "50",
      "routeId" : "203",
      "seqNo" : "18"
   },
   {
      "GoBack" : "2",
      "longitude" : "120.72196",
      "outDis" : "50",
      "Id" : "1504",
      "oid" : "5352",
      "districtId" : "1",
      "nameZh" : "中興",
      "pgp" : "0",
      "terminal" : "0",
      "latitude" : "24.19924",
      "inDis" : "50",
      "routeId" : "203",
      "seqNo" : "19"
   },
   {
      "GoBack" : "2",
      "longitude" : "120.71976",
      "outDis" : "50",
      "Id" : "3359",
      "oid" : "6407",
      "districtId" : "1",
      "nameZh" : "慈濟醫院",
      "pgp" : "0",
      "terminal" : "0",
      "latitude" : "24.19372",
      "inDis" : "50",
      "routeId" : "203",
      "seqNo" : "20"
   },
   {
      "GoBack" : "2",
      "longitude" : "120.71944",
      "outDis" : "50",
      "Id" : "4769",
      "oid" : "311101855",
      "districtId" : "1",
      "nameZh" : "慈濟中醫院區",
      "pgp" : "0",
      "terminal" : "0",
      "latitude" : "24.19298",
      "inDis" : "50",
      "routeId" : "203",
      "seqNo" : "21"
   },
   {
      "GoBack" : "2",
      "longitude" : "120.71835",
      "outDis" : "50",
      "Id" : "3692",
      "oid" : "6580",
      "districtId" : "1",
      "nameZh" : "聚興",
      "pgp" : "0",
      "terminal" : "0",
      "latitude" : "24.19173",
      "inDis" : "50",
      "routeId" : "203",
      "seqNo" : "22"
   },
   {
      "GoBack" : "2",
      "longitude" : "120.71819",
      "outDis" : "50",
      "Id" : "2078",
      "oid" : "5703",
      "districtId" : "1",
      "nameZh" : "名人球場",
      "pgp" : "0",
      "terminal" : "0",
      "latitude" : "24.1885",
      "inDis" : "50",
      "routeId" : "203",
      "seqNo" : "23"
   },
   {
      "GoBack" : "2",
      "longitude" : "120.71896",
      "outDis" : "50",
      "Id" : "1552",
      "oid" : "5383",
      "districtId" : "1",
      "nameZh" : "仁愛之家",
      "pgp" : "0",
      "terminal" : "0",
      "latitude" : "24.1846",
      "inDis" : "50",
      "routeId" : "203",
      "seqNo" : "24"
   },
   {
      "GoBack" : "2",
      "longitude" : "120.71926",
      "outDis" : "80",
      "Id" : "0729",
      "oid" : "18383741",
      "districtId" : "1",
      "nameZh" : "軍功松竹路口",
      "pgp" : "0",
      "terminal" : "0",
      "latitude" : "24.18306",
      "inDis" : "50",
      "routeId" : "203",
      "seqNo" : "25"
   },
   {
      "GoBack" : "2",
      "longitude" : "120.71955",
      "outDis" : "50",
      "Id" : "2631",
      "oid" : "6020",
      "districtId" : "1",
      "nameZh" : "建功橋頭",
      "pgp" : "0",
      "terminal" : "0",
      "latitude" : "24.17989",
      "inDis" : "50",
      "routeId" : "203",
      "seqNo" : "26"
   },
   {
      "GoBack" : "2",
      "longitude" : "120.71935",
      "outDis" : "80",
      "Id" : "2723",
      "oid" : "1231D4FD99824DA49C314A4A979CA80C",
      "districtId" : "1",
      "nameZh" : "軍功農會",
      "pgp" : "0",
      "terminal" : "0",
      "latitude" : "24.17728",
      "inDis" : "50",
      "routeId" : "203",
      "seqNo" : "27"
   },
   {
      "GoBack" : "2",
      "longitude" : "120.7175",
      "outDis" : "50",
      "Id" : "0703",
      "oid" : "6019",
      "districtId" : "1",
      "nameZh" : "建功國小",
      "pgp" : "0",
      "terminal" : "0",
      "latitude" : "24.17546",
      "inDis" : "50",
      "routeId" : "203",
      "seqNo" : "28"
   },
   {
      "GoBack" : "2",
      "longitude" : "120.71467",
      "outDis" : "50",
      "Id" : "0365",
      "oid" : "5262",
      "districtId" : "1",
      "nameZh" : "大華新村",
      "pgp" : "0",
      "terminal" : "0",
      "latitude" : "24.174",
      "inDis" : "50",
      "routeId" : "203",
      "seqNo" : "29"
   },
   {
      "GoBack" : "2",
      "longitude" : "120.7117",
      "outDis" : "50",
      "Id" : "0485",
      "oid" : "5486",
      "districtId" : "1",
      "nameZh" : "水景頭",
      "pgp" : "0",
      "terminal" : "0",
      "latitude" : "24.17236",
      "inDis" : "50",
      "routeId" : "203",
      "seqNo" : "30"
   },
   {
      "GoBack" : "2",
      "longitude" : "120.70949",
      "outDis" : "50",
      "Id" : "0325",
      "oid" : "4C9E6AA7CDE541AB85211C53AC41E02C",
      "districtId" : "1",
      "nameZh" : "三和社區",
      "pgp" : "0",
      "terminal" : "0",
      "latitude" : "24.17108",
      "inDis" : "50",
      "routeId" : "203",
      "seqNo" : "31"
   },
   {
      "GoBack" : "2",
      "longitude" : "120.70846",
      "outDis" : "50",
      "Id" : "0484",
      "oid" : "5485",
      "districtId" : "1",
      "nameZh" : "水景里",
      "pgp" : "0",
      "terminal" : "0",
      "latitude" : "24.17051",
      "inDis" : "50",
      "routeId" : "203",
      "seqNo" : "32"
   },
   {
      "GoBack" : "2",
      "longitude" : "120.70671",
      "outDis" : "50",
      "Id" : "0679",
      "oid" : "76D0CC3879E24F1C8037CCC18F31F931",
      "districtId" : "1",
      "nameZh" : "玫瑰新村",
      "pgp" : "0",
      "terminal" : "0",
      "latitude" : "24.16956",
      "inDis" : "50",
      "routeId" : "203",
      "seqNo" : "33"
   },
   {
      "GoBack" : "2",
      "longitude" : "120.70453",
      "outDis" : "50",
      "Id" : "5712",
      "oid" : "5073",
      "districtId" : "1",
      "nameZh" : "三和/東光里",
      "pgp" : "0",
      "terminal" : "0",
      "latitude" : "24.16949",
      "inDis" : "50",
      "routeId" : "203",
      "seqNo" : "34"
   },
   {
      "GoBack" : "2",
      "longitude" : "120.70266",
      "outDis" : "50",
      "Id" : "4312",
      "oid" : "13176",
      "districtId" : "1",
      "nameZh" : "東光國小",
      "pgp" : "0",
      "terminal" : "0",
      "latitude" : "24.16978",
      "inDis" : "50",
      "routeId" : "203",
      "seqNo" : "35"
   },
   {
      "GoBack" : "2",
      "longitude" : "120.69882",
      "outDis" : "50",
      "Id" : "0222",
      "oid" : "4E43AEDB53864551A901DFAF231F3460",
      "districtId" : "1",
      "nameZh" : "聯安醫院",
      "pgp" : "0",
      "terminal" : "0",
      "latitude" : "24.17023",
      "inDis" : "50",
      "routeId" : "203",
      "seqNo" : "36"
   },
   {
      "GoBack" : "2",
      "longitude" : "120.69716",
      "outDis" : "50",
      "Id" : "0103",
      "oid" : "5227",
      "districtId" : "1",
      "nameZh" : "大坑口",
      "pgp" : "0",
      "terminal" : "0",
      "latitude" : "24.16973",
      "inDis" : "50",
      "routeId" : "203",
      "seqNo" : "37"
   },
   {
      "GoBack" : "2",
      "longitude" : "120.69624",
      "outDis" : "50",
      "Id" : "5511",
      "oid" : "0D4EA7B7ACEA468EB6F381A51F695051",
      "districtId" : "1",
      "nameZh" : "三光國中",
      "pgp" : "0",
      "terminal" : "0",
      "latitude" : "24.16807",
      "inDis" : "50",
      "routeId" : "203",
      "seqNo" : "38"
   },
   {
      "GoBack" : "2",
      "longitude" : "120.69418",
      "outDis" : "50",
      "Id" : "0492",
      "oid" : "5516",
      "districtId" : "1",
      "nameZh" : "北屯",
      "pgp" : "0",
      "terminal" : "0",
      "latitude" : "24.16504",
      "inDis" : "50",
      "routeId" : "203",
      "seqNo" : "39"
   },
   {
      "GoBack" : "2",
      "longitude" : "120.69318",
      "outDis" : "50",
      "Id" : "5405",
      "oid" : "13346",
      "districtId" : "1",
      "nameZh" : "北屯國小(北屯路)",
      "pgp" : "0",
      "terminal" : "0",
      "latitude" : "24.16325",
      "inDis" : "50",
      "routeId" : "203",
      "seqNo" : "40"
   },
   {
      "GoBack" : "2",
      "longitude" : "120.69209",
      "outDis" : "50",
      "Id" : "0892",
      "oid" : "6537",
      "districtId" : "1",
      "nameZh" : "監理站",
      "pgp" : "0",
      "terminal" : "0",
      "latitude" : "24.16106",
      "inDis" : "50",
      "routeId" : "203",
      "seqNo" : "41"
   },
   {
      "GoBack" : "2",
      "longitude" : "120.68992",
      "outDis" : "50",
      "Id" : "0960",
      "oid" : "6730",
      "districtId" : "1",
      "nameZh" : "寶覺寺",
      "pgp" : "0",
      "terminal" : "0",
      "latitude" : "24.15803",
      "inDis" : "50",
      "routeId" : "203",
      "seqNo" : "42"
   },
   {
      "GoBack" : "2",
      "longitude" : "120.6885",
      "outDis" : "50",
      "Id" : "4399",
      "oid" : "6417",
      "districtId" : "1",
      "nameZh" : "新民高中(三民路)",
      "pgp" : "0",
      "terminal" : "0",
      "latitude" : "24.1568",
      "inDis" : "50",
      "routeId" : "203",
      "seqNo" : "43"
   },
   {
      "GoBack" : "2",
      "longitude" : "120.6871",
      "outDis" : "50",
      "Id" : "0934",
      "oid" : "A369F80BD1F74F92A75B79E3B1367FC9",
      "districtId" : "1",
      "nameZh" : "三民錦中街口",
      "pgp" : "0",
      "terminal" : "0",
      "latitude" : "24.15556",
      "inDis" : "50",
      "routeId" : "203",
      "seqNo" : "44"
   },
   {
      "GoBack" : "2",
      "longitude" : "120.68571",
      "outDis" : "50",
      "Id" : "0047",
      "oid" : "5014",
      "districtId" : "1",
      "nameZh" : "一心市場",
      "pgp" : "0",
      "terminal" : "0",
      "latitude" : "24.15366",
      "inDis" : "50",
      "routeId" : "203",
      "seqNo" : "45"
   },
   {
      "GoBack" : "2",
      "longitude" : "120.6852",
      "outDis" : "50",
      "Id" : "0046",
      "oid" : "5310",
      "districtId" : "1",
      "nameZh" : "中友百貨",
      "pgp" : "0",
      "terminal" : "0",
      "latitude" : "24.15251",
      "inDis" : "50",
      "routeId" : "203",
      "seqNo" : "46"
   },
   {
      "GoBack" : "2",
      "longitude" : "120.68413",
      "outDis" : "50",
      "Id" : "0045",
      "oid" : "5556",
      "districtId" : "1",
      "nameZh" : "國立臺中科技大學",
      "pgp" : "0",
      "terminal" : "0",
      "latitude" : "24.14987",
      "inDis" : "50",
      "routeId" : "203",
      "seqNo" : "47"
   },
   {
      "GoBack" : "2",
      "longitude" : "120.68463",
      "outDis" : "50",
      "Id" : "1513",
      "oid" : "7687",
      "districtId" : "1",
      "nameZh" : "中興堂",
      "pgp" : "0",
      "terminal" : "0",
      "latitude" : "24.14621",
      "inDis" : "50",
      "routeId" : "203",
      "seqNo" : "48"
   },
   {
      "GoBack" : "2",
      "longitude" : "120.68616",
      "outDis" : "50",
      "Id" : "4544",
      "oid" : "13457",
      "districtId" : "1",
      "nameZh" : "臺中公園(雙十路)",
      "pgp" : "0",
      "terminal" : "0",
      "latitude" : "24.14418",
      "inDis" : "50",
      "routeId" : "203",
      "seqNo" : "49"
   },
   {
      "GoBack" : "2",
      "longitude" : "120.68522",
      "outDis" : "50",
      "Id" : "0402",
      "oid" : "320612813",
      "districtId" : "1",
      "nameZh" : "干城站",
      "pgp" : "0",
      "terminal" : "0",
      "latitude" : "24.14287",
      "inDis" : "50",
      "routeId" : "203",
      "seqNo" : "50"
   },
   {
      "GoBack" : "2",
      "longitude" : "120.68397",
      "outDis" : "50",
      "Id" : "1824",
      "oid" : "320612812",
      "districtId" : "1",
      "nameZh" : "臺中火車站",
      "pgp" : "0",
      "terminal" : "0",
      "latitude" : "24.13672",
      "inDis" : "50",
      "routeId" : "203",
      "seqNo" : "51"
   },
   {
      "GoBack" : "2",
      "longitude" : "120.68111",
      "outDis" : "50",
      "Id" : "4284",
      "oid" : "13343",
      "districtId" : "1",
      "nameZh" : "民權繼光街口",
      "pgp" : "0",
      "terminal" : "0",
      "latitude" : "24.1366",
      "inDis" : "50",
      "routeId" : "203",
      "seqNo" : "52"
   },
   {
      "GoBack" : "2",
      "longitude" : "120.67803",
      "outDis" : "50",
      "Id" : "0071",
      "oid" : "12345",
      "districtId" : "1",
      "nameZh" : "臺中女中",
      "pgp" : "0",
      "terminal" : "0",
      "latitude" : "24.13596",
      "inDis" : "50",
      "routeId" : "203",
      "seqNo" : "53"
   },
   {
      "GoBack" : "2",
      "longitude" : "120.67607",
      "outDis" : "50",
      "Id" : "0070",
      "oid" : "13306",
      "districtId" : "1",
      "nameZh" : "地方法院",
      "pgp" : "0",
      "terminal" : "0",
      "latitude" : "24.13406",
      "inDis" : "50",
      "routeId" : "203",
      "seqNo" : "54"
   },
   {
      "GoBack" : "2",
      "longitude" : "120.66997",
      "outDis" : "50",
      "Id" : "5778",
      "oid" : "320612811",
      "districtId" : "1",
      "nameZh" : "公館公園(自由路)",
      "pgp" : "0",
      "terminal" : "0",
      "latitude" : "24.13199",
      "inDis" : "50",
      "routeId" : "203",
      "seqNo" : "55"
   },
   {
      "GoBack" : "2",
      "longitude" : "120.66682",
      "outDis" : "50",
      "Id" : "5763",
      "oid" : "320612809",
      "districtId" : "1",
      "nameZh" : "奉順宮",
      "pgp" : "0",
      "terminal" : "0",
      "latitude" : "24.13142",
      "inDis" : "50",
      "routeId" : "203",
      "seqNo" : "56"
   },
   {
      "GoBack" : "2",
      "longitude" : "120.66317",
      "outDis" : "50",
      "Id" : "5764",
      "oid" : "320612808",
      "districtId" : "1",
      "nameZh" : "三民西民興街口",
      "pgp" : "0",
      "terminal" : "0",
      "latitude" : "24.13014",
      "inDis" : "50",
      "routeId" : "203",
      "seqNo" : "57"
   },
   {
      "GoBack" : "2",
      "longitude" : "120.66008",
      "outDis" : "50",
      "Id" : "5765",
      "oid" : "320612807",
      "districtId" : "1",
      "nameZh" : "三民西柳川東路口",
      "pgp" : "0",
      "terminal" : "0",
      "latitude" : "24.13012",
      "inDis" : "50",
      "routeId" : "203",
      "seqNo" : "58"
   },
   {
      "GoBack" : "2",
      "longitude" : "120.65581",
      "outDis" : "50",
      "Id" : "5766",
      "oid" : "320612806",
      "districtId" : "1",
      "nameZh" : "豐富公園",
      "pgp" : "0",
      "terminal" : "0",
      "latitude" : "24.12975",
      "inDis" : "50",
      "routeId" : "203",
      "seqNo" : "59"
   }
]
