[
   {
      "GoBack" : "1",
      "longitude" : "120.64672",
      "outDis" : "50",
      "Id" : "4270",
      "oid" : "13270",
      "districtId" : "1",
      "nameZh" : "文心市政路口",
      "pgp" : "0",
      "terminal" : "0",
      "latitude" : "24.15461",
      "inDis" : "50",
      "routeId" : "53區",
      "seqNo" : "1"
   },
   {
      "GoBack" : "1",
      "longitude" : "120.64669",
      "outDis" : "50",
      "Id" : "4268",
      "oid" : "13268",
      "districtId" : "1",
      "nameZh" : "文心公益路口",
      "pgp" : "0",
      "terminal" : "0",
      "latitude" : "24.15048",
      "inDis" : "50",
      "routeId" : "53區",
      "seqNo" : "2"
   },
   {
      "GoBack" : "1",
      "longitude" : "120.6466",
      "outDis" : "50",
      "Id" : "5477",
      "oid" : "13279",
      "districtId" : "1",
      "nameZh" : "文心大墩七街口",
      "pgp" : "0",
      "terminal" : "0",
      "latitude" : "24.14419",
      "inDis" : "50",
      "routeId" : "53區",
      "seqNo" : "3"
   },
   {
      "GoBack" : "1",
      "longitude" : "120.64662",
      "outDis" : "50",
      "Id" : "4272",
      "oid" : "13272",
      "districtId" : "1",
      "nameZh" : "文心向心路口",
      "pgp" : "0",
      "terminal" : "0",
      "latitude" : "24.14243",
      "inDis" : "50",
      "routeId" : "53區",
      "seqNo" : "4"
   },
   {
      "GoBack" : "1",
      "longitude" : "120.64653",
      "outDis" : "50",
      "Id" : "4267",
      "oid" : "13119",
      "districtId" : "1",
      "nameZh" : "文心五權西路口",
      "pgp" : "0",
      "terminal" : "0",
      "latitude" : "24.13968",
      "inDis" : "50",
      "routeId" : "53區",
      "seqNo" : "5"
   },
   {
      "GoBack" : "1",
      "longitude" : "120.64659",
      "outDis" : "50",
      "Id" : "5098",
      "oid" : "13276",
      "districtId" : "1",
      "nameZh" : "文心南南屯路口",
      "pgp" : "0",
      "terminal" : "0",
      "latitude" : "24.13657",
      "inDis" : "50",
      "routeId" : "53區",
      "seqNo" : "6"
   },
   {
      "GoBack" : "1",
      "longitude" : "120.64633",
      "outDis" : "50",
      "Id" : "5097",
      "oid" : "13121",
      "districtId" : "1",
      "nameZh" : "文心南永春東路口",
      "pgp" : "0",
      "terminal" : "0",
      "latitude" : "24.13441",
      "inDis" : "50",
      "routeId" : "53區",
      "seqNo" : "7"
   },
   {
      "GoBack" : "1",
      "longitude" : "120.64634",
      "outDis" : "50",
      "Id" : "0026",
      "oid" : "13340",
      "districtId" : "1",
      "nameZh" : "豐樂公園",
      "pgp" : "0",
      "terminal" : "0",
      "latitude" : "24.13032",
      "inDis" : "50",
      "routeId" : "53區",
      "seqNo" : "8"
   },
   {
      "GoBack" : "1",
      "longitude" : "120.64848",
      "outDis" : "50",
      "Id" : "4034",
      "oid" : "13254",
      "districtId" : "1",
      "nameZh" : "中山醫學大學",
      "pgp" : "0",
      "terminal" : "0",
      "latitude" : "24.12297",
      "inDis" : "50",
      "routeId" : "53區",
      "seqNo" : "10"
   },
   {
      "GoBack" : "1",
      "longitude" : "120.65434",
      "outDis" : "50",
      "Id" : "4363",
      "oid" : "13191",
      "districtId" : "1",
      "nameZh" : "特力屋(臺中店)",
      "pgp" : "0",
      "terminal" : "0",
      "latitude" : "24.11593",
      "inDis" : "50",
      "routeId" : "53區",
      "seqNo" : "11"
   },
   {
      "GoBack" : "1",
      "longitude" : "120.656",
      "outDis" : "50",
      "Id" : "4354",
      "oid" : "13123",
      "districtId" : "1",
      "nameZh" : "文心南大慶街口",
      "pgp" : "0",
      "terminal" : "0",
      "latitude" : "24.11419",
      "inDis" : "50",
      "routeId" : "53區",
      "seqNo" : "12"
   },
   {
      "GoBack" : "1",
      "longitude" : "120.65814",
      "outDis" : "50",
      "Id" : "4289",
      "oid" : "13199",
      "districtId" : "1",
      "nameZh" : "高工文心南路口",
      "pgp" : "0",
      "terminal" : "0",
      "latitude" : "24.11321",
      "inDis" : "50",
      "routeId" : "53區",
      "seqNo" : "13"
   },
   {
      "GoBack" : "1",
      "longitude" : "120.66241",
      "outDis" : "50",
      "Id" : "4537",
      "oid" : "13141",
      "districtId" : "1",
      "nameZh" : "臺中高工(高工路)",
      "pgp" : "0",
      "terminal" : "0",
      "latitude" : "24.11325",
      "inDis" : "50",
      "routeId" : "53區",
      "seqNo" : "14"
   },
   {
      "GoBack" : "1",
      "longitude" : "120.66499",
      "outDis" : "50",
      "Id" : "4258",
      "oid" : "13085",
      "districtId" : "1",
      "nameZh" : "工學一街口",
      "pgp" : "0",
      "terminal" : "0",
      "latitude" : "24.11385",
      "inDis" : "50",
      "routeId" : "53區",
      "seqNo" : "15"
   },
   {
      "GoBack" : "1",
      "longitude" : "120.66796",
      "outDis" : "50",
      "Id" : "4367",
      "oid" : "F31176F499D2426C84080D3B88E9B284",
      "districtId" : "1",
      "nameZh" : "僑泰中學(高工路)",
      "pgp" : "0",
      "terminal" : "0",
      "latitude" : "24.11442",
      "inDis" : "50",
      "routeId" : "53區",
      "seqNo" : "16"
   },
   {
      "GoBack" : "1",
      "longitude" : "120.67142",
      "outDis" : "50",
      "Id" : "4305",
      "oid" : "13235",
      "districtId" : "1",
      "nameZh" : "積善公園",
      "pgp" : "0",
      "terminal" : "0",
      "latitude" : "24.11474",
      "inDis" : "50",
      "routeId" : "53區",
      "seqNo" : "17"
   },
   {
      "GoBack" : "1",
      "longitude" : "120.67478",
      "outDis" : "50",
      "Id" : "4257",
      "oid" : "13079",
      "districtId" : "1",
      "nameZh" : "大明爽文路口",
      "pgp" : "0",
      "terminal" : "0",
      "latitude" : "24.11495",
      "inDis" : "50",
      "routeId" : "53區",
      "seqNo" : "18"
   },
   {
      "GoBack" : "1",
      "longitude" : "120.67797",
      "outDis" : "50",
      "Id" : "4256",
      "oid" : "13077",
      "districtId" : "1",
      "nameZh" : "大明國光路口",
      "pgp" : "0",
      "terminal" : "0",
      "latitude" : "24.11488",
      "inDis" : "50",
      "routeId" : "53區",
      "seqNo" : "19"
   },
   {
      "GoBack" : "1",
      "longitude" : "120.68269",
      "outDis" : "50",
      "Id" : "4255",
      "oid" : "13075",
      "districtId" : "1",
      "nameZh" : "大明益民路口",
      "pgp" : "0",
      "terminal" : "0",
      "latitude" : "24.11523",
      "inDis" : "50",
      "routeId" : "53區",
      "seqNo" : "20"
   },
   {
      "GoBack" : "1",
      "longitude" : "120.68389",
      "outDis" : "50",
      "Id" : "4295",
      "oid" : "13315",
      "districtId" : "1",
      "nameZh" : "崇光國小",
      "pgp" : "0",
      "terminal" : "0",
      "latitude" : "24.11366",
      "inDis" : "50",
      "routeId" : "53區",
      "seqNo" : "21"
   },
   {
      "GoBack" : "1",
      "longitude" : "120.684",
      "outDis" : "50",
      "Id" : "5626",
      "oid" : "139064869",
      "districtId" : "1",
      "nameZh" : "興大附中(益民路)",
      "pgp" : "0",
      "terminal" : "0",
      "latitude" : "24.10988",
      "inDis" : "50",
      "routeId" : "53區",
      "seqNo" : "22"
   },
   {
      "GoBack" : "1",
      "longitude" : "120.68572",
      "outDis" : "50",
      "Id" : "4288",
      "oid" : "13195",
      "districtId" : "1",
      "nameZh" : "益民德芳路口",
      "pgp" : "0",
      "terminal" : "0",
      "latitude" : "24.10694",
      "inDis" : "50",
      "routeId" : "53區",
      "seqNo" : "23"
   },
   {
      "GoBack" : "1",
      "longitude" : "120.68866",
      "outDis" : "50",
      "Id" : "4287",
      "oid" : "13193",
      "districtId" : "1",
      "nameZh" : "益民國小",
      "pgp" : "0",
      "terminal" : "0",
      "latitude" : "24.10649",
      "inDis" : "50",
      "routeId" : "53區",
      "seqNo" : "24"
   },
   {
      "GoBack" : "1",
      "longitude" : "120.68915",
      "outDis" : "50",
      "Id" : "2026",
      "oid" : "13149",
      "districtId" : "1",
      "nameZh" : "立人高中",
      "pgp" : "0",
      "terminal" : "0",
      "latitude" : "24.10479",
      "inDis" : "50",
      "routeId" : "53區",
      "seqNo" : "25"
   },
   {
      "GoBack" : "1",
      "longitude" : "120.68851",
      "outDis" : "50",
      "Id" : "1126",
      "oid" : "13066",
      "districtId" : "1",
      "nameZh" : "下內新",
      "pgp" : "0",
      "terminal" : "0",
      "latitude" : "24.10263",
      "inDis" : "50",
      "routeId" : "53區",
      "seqNo" : "26"
   },
   {
      "GoBack" : "1",
      "longitude" : "120.68631",
      "outDis" : "50",
      "Id" : "5151",
      "oid" : "13166",
      "districtId" : "1",
      "nameZh" : "兒童藝術館(中興路)",
      "pgp" : "0",
      "terminal" : "0",
      "latitude" : "24.10058",
      "inDis" : "50",
      "routeId" : "53區",
      "seqNo" : "27"
   },
   {
      "GoBack" : "1",
      "longitude" : "120.68694",
      "outDis" : "50",
      "Id" : "1322",
      "oid" : "309974047",
      "districtId" : "1",
      "nameZh" : "大突寮(中興路)",
      "pgp" : "0",
      "terminal" : "0",
      "latitude" : "24.09735",
      "inDis" : "50",
      "routeId" : "53區",
      "seqNo" : "28"
   },
   {
      "GoBack" : "1",
      "longitude" : "120.69172",
      "outDis" : "50",
      "Id" : "4661",
      "oid" : "13101",
      "districtId" : "1",
      "nameZh" : "中興仁化路口",
      "pgp" : "0",
      "terminal" : "0",
      "latitude" : "24.09148",
      "inDis" : "50",
      "routeId" : "53區",
      "seqNo" : "29"
   },
   {
      "GoBack" : "1",
      "longitude" : "120.69385",
      "outDis" : "50",
      "Id" : "4286",
      "oid" : "13181",
      "districtId" : "1",
      "nameZh" : "青年高中",
      "pgp" : "0",
      "terminal" : "0",
      "latitude" : "24.0897",
      "inDis" : "50",
      "routeId" : "53區",
      "seqNo" : "30"
   },
   {
      "GoBack" : "1",
      "longitude" : "120.69593",
      "outDis" : "50",
      "Id" : "4253",
      "oid" : "13071",
      "districtId" : "1",
      "nameZh" : "大里圖書館(中興路)",
      "pgp" : "0",
      "terminal" : "0",
      "latitude" : "24.08743",
      "inDis" : "50",
      "routeId" : "53區",
      "seqNo" : "31"
   },
   {
      "GoBack" : "1",
      "longitude" : "120.69635",
      "outDis" : "50",
      "Id" : "5034",
      "oid" : "309557183",
      "districtId" : "1",
      "nameZh" : "財政部印刷廠",
      "pgp" : "0",
      "terminal" : "0",
      "latitude" : "24.08663",
      "inDis" : "50",
      "routeId" : "53區",
      "seqNo" : "32"
   },
   {
      "GoBack" : "1",
      "longitude" : "120.69713",
      "outDis" : "50",
      "Id" : "2866",
      "oid" : "13197",
      "districtId" : "1",
      "nameZh" : "草湖",
      "pgp" : "0",
      "terminal" : "0",
      "latitude" : "24.08362",
      "inDis" : "50",
      "routeId" : "53區",
      "seqNo" : "33"
   },
   {
      "GoBack" : "1",
      "longitude" : "120.69825",
      "outDis" : "50",
      "Id" : "4349",
      "oid" : "13099",
      "districtId" : "1",
      "nameZh" : "中興東南路口",
      "pgp" : "0",
      "terminal" : "0",
      "latitude" : "24.08012",
      "inDis" : "50",
      "routeId" : "53區",
      "seqNo" : "34"
   },
   {
      "GoBack" : "1",
      "longitude" : "120.69947",
      "outDis" : "50",
      "Id" : "2062",
      "oid" : "13155",
      "districtId" : "1",
      "nameZh" : "中正吉峰路口",
      "pgp" : "0",
      "terminal" : "0",
      "latitude" : "24.0765",
      "inDis" : "50",
      "routeId" : "53區",
      "seqNo" : "35"
   },
   {
      "GoBack" : "1",
      "longitude" : "120.69968",
      "outDis" : "50",
      "Id" : "3980",
      "oid" : "13249",
      "districtId" : "1",
      "nameZh" : "霧峰農工",
      "pgp" : "0",
      "terminal" : "0",
      "latitude" : "24.07308",
      "inDis" : "50",
      "routeId" : "53區",
      "seqNo" : "36"
   },
   {
      "GoBack" : "1",
      "longitude" : "120.69928",
      "outDis" : "50",
      "Id" : "1994",
      "oid" : "13147",
      "districtId" : "1",
      "nameZh" : "甲寅",
      "pgp" : "0",
      "terminal" : "0",
      "latitude" : "24.0697",
      "inDis" : "50",
      "routeId" : "53區",
      "seqNo" : "37"
   },
   {
      "GoBack" : "1",
      "longitude" : "120.69908",
      "outDis" : "50",
      "Id" : "4972",
      "oid" : "309120171",
      "districtId" : "1",
      "nameZh" : "中正草湖路口",
      "pgp" : "0",
      "terminal" : "0",
      "latitude" : "24.06822",
      "inDis" : "50",
      "routeId" : "53區",
      "seqNo" : "38"
   },
   {
      "GoBack" : "1",
      "longitude" : "120.69852",
      "outDis" : "50",
      "Id" : "3972",
      "oid" : "13245",
      "districtId" : "1",
      "nameZh" : "霧峰",
      "pgp" : "0",
      "terminal" : "0",
      "latitude" : "24.06383",
      "inDis" : "50",
      "routeId" : "53區",
      "seqNo" : "39"
   },
   {
      "GoBack" : "1",
      "longitude" : "120.69829",
      "outDis" : "50",
      "Id" : "3978",
      "oid" : "8108",
      "districtId" : "1",
      "nameZh" : "霧峰郵局",
      "pgp" : "0",
      "terminal" : "0",
      "latitude" : "24.06197",
      "inDis" : "50",
      "routeId" : "53區",
      "seqNo" : "40"
   },
   {
      "GoBack" : "1",
      "longitude" : "120.69799",
      "outDis" : "50",
      "Id" : "5546",
      "oid" : "316462697",
      "districtId" : "1",
      "nameZh" : "教育部國教署",
      "pgp" : "0",
      "terminal" : "0",
      "latitude" : "24.05932",
      "inDis" : "50",
      "routeId" : "53區",
      "seqNo" : "41"
   },
   {
      "GoBack" : "1",
      "longitude" : "120.6977",
      "outDis" : "50",
      "Id" : "3976",
      "oid" : "13247",
      "districtId" : "1",
      "nameZh" : "霧峰國小",
      "pgp" : "0",
      "terminal" : "0",
      "latitude" : "24.05745",
      "inDis" : "50",
      "routeId" : "53區",
      "seqNo" : "42"
   },
   {
      "GoBack" : "1",
      "longitude" : "120.69688",
      "outDis" : "50",
      "Id" : "2692",
      "oid" : "13185",
      "districtId" : "1",
      "nameZh" : "省議會",
      "pgp" : "0",
      "terminal" : "0",
      "latitude" : "24.05527",
      "inDis" : "50",
      "routeId" : "53區",
      "seqNo" : "43"
   },
   {
      "GoBack" : "2",
      "longitude" : "120.69688",
      "outDis" : "50",
      "Id" : "2692",
      "oid" : "13185",
      "districtId" : "1",
      "nameZh" : "省議會",
      "pgp" : "0",
      "terminal" : "0",
      "latitude" : "24.05527",
      "inDis" : "50",
      "routeId" : "53區",
      "seqNo" : "1"
   },
   {
      "GoBack" : "2",
      "longitude" : "120.6977",
      "outDis" : "50",
      "Id" : "3976",
      "oid" : "13247",
      "districtId" : "1",
      "nameZh" : "霧峰國小",
      "pgp" : "0",
      "terminal" : "0",
      "latitude" : "24.05745",
      "inDis" : "50",
      "routeId" : "53區",
      "seqNo" : "2"
   },
   {
      "GoBack" : "2",
      "longitude" : "120.69799",
      "outDis" : "50",
      "Id" : "5546",
      "oid" : "316462697",
      "districtId" : "1",
      "nameZh" : "教育部國教署",
      "pgp" : "0",
      "terminal" : "0",
      "latitude" : "24.05932",
      "inDis" : "50",
      "routeId" : "53區",
      "seqNo" : "3"
   },
   {
      "GoBack" : "2",
      "longitude" : "120.69829",
      "outDis" : "50",
      "Id" : "3978",
      "oid" : "8108",
      "districtId" : "1",
      "nameZh" : "霧峰郵局",
      "pgp" : "0",
      "terminal" : "0",
      "latitude" : "24.06197",
      "inDis" : "50",
      "routeId" : "53區",
      "seqNo" : "4"
   },
   {
      "GoBack" : "2",
      "longitude" : "120.69852",
      "outDis" : "50",
      "Id" : "3972",
      "oid" : "13245",
      "districtId" : "1",
      "nameZh" : "霧峰",
      "pgp" : "0",
      "terminal" : "0",
      "latitude" : "24.06383",
      "inDis" : "50",
      "routeId" : "53區",
      "seqNo" : "5"
   },
   {
      "GoBack" : "2",
      "longitude" : "120.69908",
      "outDis" : "50",
      "Id" : "4972",
      "oid" : "309120171",
      "districtId" : "1",
      "nameZh" : "中正草湖路口",
      "pgp" : "0",
      "terminal" : "0",
      "latitude" : "24.06822",
      "inDis" : "50",
      "routeId" : "53區",
      "seqNo" : "6"
   },
   {
      "GoBack" : "2",
      "longitude" : "120.69928",
      "outDis" : "50",
      "Id" : "1994",
      "oid" : "13147",
      "districtId" : "1",
      "nameZh" : "甲寅",
      "pgp" : "0",
      "terminal" : "0",
      "latitude" : "24.0697",
      "inDis" : "50",
      "routeId" : "53區",
      "seqNo" : "7"
   },
   {
      "GoBack" : "2",
      "longitude" : "120.69968",
      "outDis" : "50",
      "Id" : "3980",
      "oid" : "13249",
      "districtId" : "1",
      "nameZh" : "霧峰農工",
      "pgp" : "0",
      "terminal" : "0",
      "latitude" : "24.07308",
      "inDis" : "50",
      "routeId" : "53區",
      "seqNo" : "8"
   },
   {
      "GoBack" : "2",
      "longitude" : "120.69947",
      "outDis" : "50",
      "Id" : "2062",
      "oid" : "13155",
      "districtId" : "1",
      "nameZh" : "中正吉峰路口",
      "pgp" : "0",
      "terminal" : "0",
      "latitude" : "24.0765",
      "inDis" : "50",
      "routeId" : "53區",
      "seqNo" : "9"
   },
   {
      "GoBack" : "2",
      "longitude" : "120.69825",
      "outDis" : "50",
      "Id" : "4349",
      "oid" : "13099",
      "districtId" : "1",
      "nameZh" : "中興東南路口",
      "pgp" : "0",
      "terminal" : "0",
      "latitude" : "24.08012",
      "inDis" : "50",
      "routeId" : "53區",
      "seqNo" : "10"
   },
   {
      "GoBack" : "2",
      "longitude" : "120.69713",
      "outDis" : "50",
      "Id" : "2866",
      "oid" : "13197",
      "districtId" : "1",
      "nameZh" : "草湖",
      "pgp" : "0",
      "terminal" : "0",
      "latitude" : "24.08362",
      "inDis" : "50",
      "routeId" : "53區",
      "seqNo" : "11"
   },
   {
      "GoBack" : "2",
      "longitude" : "120.69635",
      "outDis" : "50",
      "Id" : "5034",
      "oid" : "309557183",
      "districtId" : "1",
      "nameZh" : "財政部印刷廠",
      "pgp" : "0",
      "terminal" : "0",
      "latitude" : "24.08663",
      "inDis" : "50",
      "routeId" : "53區",
      "seqNo" : "12"
   },
   {
      "GoBack" : "2",
      "longitude" : "120.69536",
      "outDis" : "50",
      "Id" : "4253",
      "oid" : "13072",
      "districtId" : "1",
      "nameZh" : "大里圖書館(中興路)",
      "pgp" : "0",
      "terminal" : "0",
      "latitude" : "24.08867",
      "inDis" : "50",
      "routeId" : "53區",
      "seqNo" : "13"
   },
   {
      "GoBack" : "2",
      "longitude" : "120.69385",
      "outDis" : "50",
      "Id" : "4286",
      "oid" : "13181",
      "districtId" : "1",
      "nameZh" : "青年高中",
      "pgp" : "0",
      "terminal" : "0",
      "latitude" : "24.0897",
      "inDis" : "50",
      "routeId" : "53區",
      "seqNo" : "14"
   },
   {
      "GoBack" : "2",
      "longitude" : "120.69172",
      "outDis" : "50",
      "Id" : "4661",
      "oid" : "13101",
      "districtId" : "1",
      "nameZh" : "中興仁化路口",
      "pgp" : "0",
      "terminal" : "0",
      "latitude" : "24.09148",
      "inDis" : "50",
      "routeId" : "53區",
      "seqNo" : "15"
   },
   {
      "GoBack" : "2",
      "longitude" : "120.68694",
      "outDis" : "50",
      "Id" : "1322",
      "oid" : "309974047",
      "districtId" : "1",
      "nameZh" : "大突寮(中興路)",
      "pgp" : "0",
      "terminal" : "0",
      "latitude" : "24.09735",
      "inDis" : "50",
      "routeId" : "53區",
      "seqNo" : "16"
   },
   {
      "GoBack" : "2",
      "longitude" : "120.68631",
      "outDis" : "50",
      "Id" : "5151",
      "oid" : "13166",
      "districtId" : "1",
      "nameZh" : "兒童藝術館(中興路)",
      "pgp" : "0",
      "terminal" : "0",
      "latitude" : "24.10058",
      "inDis" : "50",
      "routeId" : "53區",
      "seqNo" : "17"
   },
   {
      "GoBack" : "2",
      "longitude" : "120.68851",
      "outDis" : "50",
      "Id" : "1126",
      "oid" : "13066",
      "districtId" : "1",
      "nameZh" : "下內新",
      "pgp" : "0",
      "terminal" : "0",
      "latitude" : "24.10263",
      "inDis" : "50",
      "routeId" : "53區",
      "seqNo" : "18"
   },
   {
      "GoBack" : "2",
      "longitude" : "120.68915",
      "outDis" : "50",
      "Id" : "2026",
      "oid" : "13149",
      "districtId" : "1",
      "nameZh" : "立人高中",
      "pgp" : "0",
      "terminal" : "0",
      "latitude" : "24.10479",
      "inDis" : "50",
      "routeId" : "53區",
      "seqNo" : "19"
   },
   {
      "GoBack" : "2",
      "longitude" : "120.68866",
      "outDis" : "50",
      "Id" : "4287",
      "oid" : "13193",
      "districtId" : "1",
      "nameZh" : "益民國小",
      "pgp" : "0",
      "terminal" : "0",
      "latitude" : "24.10649",
      "inDis" : "50",
      "routeId" : "53區",
      "seqNo" : "20"
   },
   {
      "GoBack" : "2",
      "longitude" : "120.68572",
      "outDis" : "50",
      "Id" : "4288",
      "oid" : "13195",
      "districtId" : "1",
      "nameZh" : "益民德芳路口",
      "pgp" : "0",
      "terminal" : "0",
      "latitude" : "24.10694",
      "inDis" : "50",
      "routeId" : "53區",
      "seqNo" : "21"
   },
   {
      "GoBack" : "2",
      "longitude" : "120.684",
      "outDis" : "50",
      "Id" : "5626",
      "oid" : "139064869",
      "districtId" : "1",
      "nameZh" : "興大附中(益民路)",
      "pgp" : "0",
      "terminal" : "0",
      "latitude" : "24.10988",
      "inDis" : "50",
      "routeId" : "53區",
      "seqNo" : "22"
   },
   {
      "GoBack" : "2",
      "longitude" : "120.68389",
      "outDis" : "50",
      "Id" : "4295",
      "oid" : "13315",
      "districtId" : "1",
      "nameZh" : "崇光國小",
      "pgp" : "0",
      "terminal" : "0",
      "latitude" : "24.11366",
      "inDis" : "50",
      "routeId" : "53區",
      "seqNo" : "23"
   },
   {
      "GoBack" : "2",
      "longitude" : "120.68269",
      "outDis" : "50",
      "Id" : "4255",
      "oid" : "13075",
      "districtId" : "1",
      "nameZh" : "大明益民路口",
      "pgp" : "0",
      "terminal" : "0",
      "latitude" : "24.11523",
      "inDis" : "50",
      "routeId" : "53區",
      "seqNo" : "24"
   },
   {
      "GoBack" : "2",
      "longitude" : "120.67797",
      "outDis" : "50",
      "Id" : "4256",
      "oid" : "13077",
      "districtId" : "1",
      "nameZh" : "大明國光路口",
      "pgp" : "0",
      "terminal" : "0",
      "latitude" : "24.11488",
      "inDis" : "50",
      "routeId" : "53區",
      "seqNo" : "25"
   },
   {
      "GoBack" : "2",
      "longitude" : "120.67478",
      "outDis" : "50",
      "Id" : "4257",
      "oid" : "13079",
      "districtId" : "1",
      "nameZh" : "大明爽文路口",
      "pgp" : "0",
      "terminal" : "0",
      "latitude" : "24.11495",
      "inDis" : "50",
      "routeId" : "53區",
      "seqNo" : "26"
   },
   {
      "GoBack" : "2",
      "longitude" : "120.67142",
      "outDis" : "50",
      "Id" : "4305",
      "oid" : "13235",
      "districtId" : "1",
      "nameZh" : "積善公園",
      "pgp" : "0",
      "terminal" : "0",
      "latitude" : "24.11474",
      "inDis" : "50",
      "routeId" : "53區",
      "seqNo" : "27"
   },
   {
      "GoBack" : "2",
      "longitude" : "120.66796",
      "outDis" : "50",
      "Id" : "4367",
      "oid" : "F31176F499D2426C84080D3B88E9B284",
      "districtId" : "1",
      "nameZh" : "僑泰中學(高工路)",
      "pgp" : "0",
      "terminal" : "0",
      "latitude" : "24.11442",
      "inDis" : "50",
      "routeId" : "53區",
      "seqNo" : "28"
   },
   {
      "GoBack" : "2",
      "longitude" : "120.66499",
      "outDis" : "50",
      "Id" : "4258",
      "oid" : "13085",
      "districtId" : "1",
      "nameZh" : "工學一街口",
      "pgp" : "0",
      "terminal" : "0",
      "latitude" : "24.11385",
      "inDis" : "50",
      "routeId" : "53區",
      "seqNo" : "29"
   },
   {
      "GoBack" : "2",
      "longitude" : "120.66241",
      "outDis" : "50",
      "Id" : "4537",
      "oid" : "13141",
      "districtId" : "1",
      "nameZh" : "臺中高工(高工路)",
      "pgp" : "0",
      "terminal" : "0",
      "latitude" : "24.11325",
      "inDis" : "50",
      "routeId" : "53區",
      "seqNo" : "30"
   },
   {
      "GoBack" : "2",
      "longitude" : "120.65814",
      "outDis" : "50",
      "Id" : "4289",
      "oid" : "13199",
      "districtId" : "1",
      "nameZh" : "高工文心南路口",
      "pgp" : "0",
      "terminal" : "0",
      "latitude" : "24.11321",
      "inDis" : "50",
      "routeId" : "53區",
      "seqNo" : "31"
   },
   {
      "GoBack" : "2",
      "longitude" : "120.656",
      "outDis" : "50",
      "Id" : "4354",
      "oid" : "13123",
      "districtId" : "1",
      "nameZh" : "文心南大慶街口",
      "pgp" : "0",
      "terminal" : "0",
      "latitude" : "24.11419",
      "inDis" : "50",
      "routeId" : "53區",
      "seqNo" : "32"
   },
   {
      "GoBack" : "2",
      "longitude" : "120.65434",
      "outDis" : "50",
      "Id" : "4363",
      "oid" : "13191",
      "districtId" : "1",
      "nameZh" : "特力屋(臺中店)",
      "pgp" : "0",
      "terminal" : "0",
      "latitude" : "24.11593",
      "inDis" : "50",
      "routeId" : "53區",
      "seqNo" : "33"
   },
   {
      "GoBack" : "2",
      "longitude" : "120.64848",
      "outDis" : "50",
      "Id" : "4034",
      "oid" : "13254",
      "districtId" : "1",
      "nameZh" : "中山醫學大學",
      "pgp" : "0",
      "terminal" : "0",
      "latitude" : "24.12297",
      "inDis" : "50",
      "routeId" : "53區",
      "seqNo" : "34"
   },
   {
      "GoBack" : "2",
      "longitude" : "120.64634",
      "outDis" : "50",
      "Id" : "0026",
      "oid" : "13340",
      "districtId" : "1",
      "nameZh" : "豐樂公園",
      "pgp" : "0",
      "terminal" : "0",
      "latitude" : "24.13032",
      "inDis" : "50",
      "routeId" : "53區",
      "seqNo" : "37"
   },
   {
      "GoBack" : "2",
      "longitude" : "120.64633",
      "outDis" : "50",
      "Id" : "5097",
      "oid" : "13121",
      "districtId" : "1",
      "nameZh" : "文心南永春東路口",
      "pgp" : "0",
      "terminal" : "0",
      "latitude" : "24.13441",
      "inDis" : "50",
      "routeId" : "53區",
      "seqNo" : "38"
   },
   {
      "GoBack" : "2",
      "longitude" : "120.64659",
      "outDis" : "50",
      "Id" : "5098",
      "oid" : "13276",
      "districtId" : "1",
      "nameZh" : "文心南南屯路口",
      "pgp" : "0",
      "terminal" : "0",
      "latitude" : "24.13657",
      "inDis" : "50",
      "routeId" : "53區",
      "seqNo" : "39"
   },
   {
      "GoBack" : "2",
      "longitude" : "120.64653",
      "outDis" : "50",
      "Id" : "4267",
      "oid" : "13119",
      "districtId" : "1",
      "nameZh" : "文心五權西路口",
      "pgp" : "0",
      "terminal" : "0",
      "latitude" : "24.13968",
      "inDis" : "50",
      "routeId" : "53區",
      "seqNo" : "40"
   },
   {
      "GoBack" : "2",
      "longitude" : "120.64662",
      "outDis" : "50",
      "Id" : "4272",
      "oid" : "13272",
      "districtId" : "1",
      "nameZh" : "文心向心路口",
      "pgp" : "0",
      "terminal" : "0",
      "latitude" : "24.14243",
      "inDis" : "50",
      "routeId" : "53區",
      "seqNo" : "41"
   },
   {
      "GoBack" : "2",
      "longitude" : "120.6466",
      "outDis" : "50",
      "Id" : "5477",
      "oid" : "13279",
      "districtId" : "1",
      "nameZh" : "文心大墩七街口",
      "pgp" : "0",
      "terminal" : "0",
      "latitude" : "24.14419",
      "inDis" : "50",
      "routeId" : "53區",
      "seqNo" : "42"
   },
   {
      "GoBack" : "2",
      "longitude" : "120.64669",
      "outDis" : "50",
      "Id" : "4268",
      "oid" : "13268",
      "districtId" : "1",
      "nameZh" : "文心公益路口",
      "pgp" : "0",
      "terminal" : "0",
      "latitude" : "24.15048",
      "inDis" : "50",
      "routeId" : "53區",
      "seqNo" : "43"
   },
   {
      "GoBack" : "2",
      "longitude" : "120.64672",
      "outDis" : "50",
      "Id" : "4270",
      "oid" : "13270",
      "districtId" : "1",
      "nameZh" : "文心市政路口",
      "pgp" : "0",
      "terminal" : "0",
      "latitude" : "24.15461",
      "inDis" : "50",
      "routeId" : "53區",
      "seqNo" : "44"
   }
]
