[
   {
      "GoBack" : "1",
      "longitude" : "120.61478",
      "outDis" : "50",
      "Id" : "5061",
      "oid" : "309863811",
      "districtId" : "1",
      "nameZh" : "新政大安港路口",
      "pgp" : "0",
      "terminal" : "0",
      "latitude" : "24.35087",
      "inDis" : "50",
      "routeId" : "171",
      "seqNo" : "1"
   },
   {
      "GoBack" : "1",
      "longitude" : "120.61645",
      "outDis" : "50",
      "Id" : "2038",
      "oid" : "5679",
      "districtId" : "1",
      "nameZh" : "光田",
      "pgp" : "0",
      "terminal" : "0",
      "latitude" : "24.34723",
      "inDis" : "50",
      "routeId" : "171",
      "seqNo" : "2"
   },
   {
      "GoBack" : "1",
      "longitude" : "120.61737",
      "outDis" : "50",
      "Id" : "5691",
      "oid" : "319713434",
      "districtId" : "1",
      "nameZh" : "大甲體育場",
      "pgp" : "0",
      "terminal" : "0",
      "latitude" : "24.35018",
      "inDis" : "50",
      "routeId" : "171",
      "seqNo" : "3"
   },
   {
      "GoBack" : "1",
      "longitude" : "120.61841",
      "outDis" : "50",
      "Id" : "5692",
      "oid" : "320604390",
      "districtId" : "1",
      "nameZh" : "李綜合醫院",
      "pgp" : "0",
      "terminal" : "0",
      "latitude" : "24.35135",
      "inDis" : "50",
      "routeId" : "171",
      "seqNo" : "4"
   },
   {
      "GoBack" : "1",
      "longitude" : "120.62028",
      "outDis" : "50",
      "Id" : "5775",
      "oid" : "320571958",
      "districtId" : "1",
      "nameZh" : "庄尾(文武路)",
      "pgp" : "0",
      "terminal" : "0",
      "latitude" : "24.34819",
      "inDis" : "50",
      "routeId" : "171",
      "seqNo" : "5"
   },
   {
      "GoBack" : "1",
      "longitude" : "120.62286",
      "outDis" : "50",
      "Id" : "1074",
      "oid" : "13774",
      "districtId" : "1",
      "nameZh" : "文昌祠",
      "pgp" : "0",
      "terminal" : "0",
      "latitude" : "24.34726",
      "inDis" : "50",
      "routeId" : "171",
      "seqNo" : "6"
   },
   {
      "GoBack" : "1",
      "longitude" : "120.62664",
      "outDis" : "50",
      "Id" : "4432",
      "oid" : "14074",
      "districtId" : "1",
      "nameZh" : "大甲火車站",
      "pgp" : "0",
      "terminal" : "0",
      "latitude" : "24.34461",
      "inDis" : "50",
      "routeId" : "171",
      "seqNo" : "7"
   },
   {
      "GoBack" : "1",
      "longitude" : "120.62553",
      "outDis" : "50",
      "Id" : "5084",
      "oid" : "5215",
      "districtId" : "1",
      "nameZh" : "大甲",
      "pgp" : "0",
      "terminal" : "0",
      "latitude" : "24.34321",
      "inDis" : "50",
      "routeId" : "171",
      "seqNo" : "8"
   },
   {
      "GoBack" : "1",
      "longitude" : "120.62404",
      "outDis" : "50",
      "Id" : "5639",
      "oid" : "4049",
      "districtId" : "1",
      "nameZh" : "南陽里(中山路)",
      "pgp" : "0",
      "terminal" : "0",
      "latitude" : "24.34279",
      "inDis" : "50",
      "routeId" : "171",
      "seqNo" : "9"
   },
   {
      "GoBack" : "1",
      "longitude" : "120.62143",
      "outDis" : "50",
      "Id" : "5048",
      "oid" : "309863798",
      "districtId" : "1",
      "nameZh" : "大甲高中(中山路)",
      "pgp" : "0",
      "terminal" : "0",
      "latitude" : "24.34212",
      "inDis" : "50",
      "routeId" : "171",
      "seqNo" : "10"
   },
   {
      "GoBack" : "1",
      "longitude" : "120.61874",
      "outDis" : "50",
      "Id" : "5693",
      "oid" : "319916595",
      "districtId" : "1",
      "nameZh" : "水尾橋 ",
      "pgp" : "0",
      "terminal" : "0",
      "latitude" : "24.33972",
      "inDis" : "50",
      "routeId" : "171",
      "seqNo" : "11"
   },
   {
      "GoBack" : "1",
      "longitude" : "120.61723",
      "outDis" : "50",
      "Id" : "1859",
      "oid" : "5584",
      "districtId" : "1",
      "nameZh" : "外水尾",
      "pgp" : "0",
      "terminal" : "0",
      "latitude" : "24.33731",
      "inDis" : "50",
      "routeId" : "171",
      "seqNo" : "12"
   },
   {
      "GoBack" : "1",
      "longitude" : "120.61302",
      "outDis" : "50",
      "Id" : "4133",
      "oid" : "319916345",
      "districtId" : "1",
      "nameZh" : "番子寮",
      "pgp" : "0",
      "terminal" : "0",
      "latitude" : "24.33171",
      "inDis" : "50",
      "routeId" : "171",
      "seqNo" : "13"
   },
   {
      "GoBack" : "1",
      "longitude" : "120.60843",
      "outDis" : "50",
      "Id" : "1705",
      "oid" : "5482",
      "districtId" : "1",
      "nameZh" : "水汴頭",
      "pgp" : "0",
      "terminal" : "0",
      "latitude" : "24.3267",
      "inDis" : "50",
      "routeId" : "171",
      "seqNo" : "14"
   },
   {
      "GoBack" : "1",
      "longitude" : "120.60594",
      "outDis" : "50",
      "Id" : "1132",
      "oid" : "5113",
      "districtId" : "1",
      "nameZh" : "下水汴頭",
      "pgp" : "0",
      "terminal" : "0",
      "latitude" : "24.32729",
      "inDis" : "50",
      "routeId" : "171",
      "seqNo" : "15"
   },
   {
      "GoBack" : "1",
      "longitude" : "120.60384",
      "outDis" : "50",
      "Id" : "1665",
      "oid" : "5458",
      "districtId" : "1",
      "nameZh" : "文曲里",
      "pgp" : "0",
      "terminal" : "0",
      "latitude" : "24.32823",
      "inDis" : "50",
      "routeId" : "171",
      "seqNo" : "16"
   },
   {
      "GoBack" : "1",
      "longitude" : "120.59712",
      "outDis" : "50",
      "Id" : "1592",
      "oid" : "5408",
      "districtId" : "1",
      "nameZh" : "六塊厝",
      "pgp" : "0",
      "terminal" : "0",
      "latitude" : "24.33442",
      "inDis" : "50",
      "routeId" : "171",
      "seqNo" : "17"
   },
   {
      "GoBack" : "1",
      "longitude" : "120.59154",
      "outDis" : "50",
      "Id" : "2429",
      "oid" : "5901",
      "districtId" : "1",
      "nameZh" : "東勢尾",
      "pgp" : "0",
      "terminal" : "0",
      "latitude" : "24.33913",
      "inDis" : "50",
      "routeId" : "171",
      "seqNo" : "18"
   },
   {
      "GoBack" : "1",
      "longitude" : "120.59079",
      "outDis" : "50",
      "Id" : "2761",
      "oid" : "6094",
      "districtId" : "1",
      "nameZh" : "埔羌林",
      "pgp" : "0",
      "terminal" : "0",
      "latitude" : "24.34072",
      "inDis" : "50",
      "routeId" : "171",
      "seqNo" : "19"
   },
   {
      "GoBack" : "1",
      "longitude" : "120.58701",
      "outDis" : "50",
      "Id" : "4436",
      "oid" : "13833",
      "districtId" : "1",
      "nameZh" : "大安區公所",
      "pgp" : "0",
      "terminal" : "0",
      "latitude" : "24.34565",
      "inDis" : "50",
      "routeId" : "171",
      "seqNo" : "20"
   },
   {
      "GoBack" : "1",
      "longitude" : "120.5842",
      "outDis" : "50",
      "Id" : "1476",
      "oid" : "5337",
      "districtId" : "1",
      "nameZh" : "中庄",
      "pgp" : "0",
      "terminal" : "0",
      "latitude" : "24.35003",
      "inDis" : "50",
      "routeId" : "171",
      "seqNo" : "21"
   },
   {
      "GoBack" : "1",
      "longitude" : "120.58431",
      "outDis" : "50",
      "Id" : "4440",
      "oid" : "13835",
      "districtId" : "1",
      "nameZh" : "中山南中海路口",
      "pgp" : "0",
      "terminal" : "0",
      "latitude" : "24.35322",
      "inDis" : "50",
      "routeId" : "171",
      "seqNo" : "22"
   },
   {
      "GoBack" : "1",
      "longitude" : "120.58639",
      "outDis" : "50",
      "Id" : "1214",
      "oid" : "5163",
      "districtId" : "1",
      "nameZh" : "下龜殼",
      "pgp" : "0",
      "terminal" : "0",
      "latitude" : "24.36219",
      "inDis" : "50",
      "routeId" : "171",
      "seqNo" : "23"
   },
   {
      "GoBack" : "1",
      "longitude" : "120.58653",
      "outDis" : "50",
      "Id" : "3866",
      "oid" : "6664",
      "districtId" : "1",
      "nameZh" : "龜殼里",
      "pgp" : "0",
      "terminal" : "0",
      "latitude" : "24.36488",
      "inDis" : "50",
      "routeId" : "171",
      "seqNo" : "24"
   },
   {
      "GoBack" : "1",
      "longitude" : "120.58639",
      "outDis" : "50",
      "Id" : "3472",
      "oid" : "6483",
      "districtId" : "1",
      "nameZh" : "溪洲",
      "pgp" : "0",
      "terminal" : "0",
      "latitude" : "24.36991",
      "inDis" : "50",
      "routeId" : "171",
      "seqNo" : "25"
   },
   {
      "GoBack" : "1",
      "longitude" : "120.58621",
      "outDis" : "50",
      "Id" : "0968",
      "oid" : "5005",
      "districtId" : "1",
      "nameZh" : "溫寮橋",
      "pgp" : "0",
      "terminal" : "0",
      "latitude" : "24.37304",
      "inDis" : "50",
      "routeId" : "171",
      "seqNo" : "26"
   },
   {
      "GoBack" : "1",
      "longitude" : "120.58671",
      "outDis" : "50",
      "Id" : "1289",
      "oid" : "5222",
      "districtId" : "1",
      "nameZh" : "大安港",
      "pgp" : "0",
      "terminal" : "0",
      "latitude" : "24.37975",
      "inDis" : "50",
      "routeId" : "171",
      "seqNo" : "27"
   },
   {
      "GoBack" : "2",
      "longitude" : "120.58671",
      "outDis" : "50",
      "Id" : "1289",
      "oid" : "5222",
      "districtId" : "1",
      "nameZh" : "大安港",
      "pgp" : "0",
      "terminal" : "0",
      "latitude" : "24.37975",
      "inDis" : "50",
      "routeId" : "171",
      "seqNo" : "1"
   },
   {
      "GoBack" : "2",
      "longitude" : "120.58621",
      "outDis" : "50",
      "Id" : "0968",
      "oid" : "5005",
      "districtId" : "1",
      "nameZh" : "溫寮橋",
      "pgp" : "0",
      "terminal" : "0",
      "latitude" : "24.37304",
      "inDis" : "50",
      "routeId" : "171",
      "seqNo" : "2"
   },
   {
      "GoBack" : "2",
      "longitude" : "120.58639",
      "outDis" : "50",
      "Id" : "3472",
      "oid" : "6483",
      "districtId" : "1",
      "nameZh" : "溪洲",
      "pgp" : "0",
      "terminal" : "0",
      "latitude" : "24.36991",
      "inDis" : "50",
      "routeId" : "171",
      "seqNo" : "3"
   },
   {
      "GoBack" : "2",
      "longitude" : "120.58653",
      "outDis" : "50",
      "Id" : "3866",
      "oid" : "6664",
      "districtId" : "1",
      "nameZh" : "龜殼里",
      "pgp" : "0",
      "terminal" : "0",
      "latitude" : "24.36488",
      "inDis" : "50",
      "routeId" : "171",
      "seqNo" : "4"
   },
   {
      "GoBack" : "2",
      "longitude" : "120.58639",
      "outDis" : "50",
      "Id" : "1214",
      "oid" : "5163",
      "districtId" : "1",
      "nameZh" : "下龜殼",
      "pgp" : "0",
      "terminal" : "0",
      "latitude" : "24.36219",
      "inDis" : "50",
      "routeId" : "171",
      "seqNo" : "5"
   },
   {
      "GoBack" : "2",
      "longitude" : "120.58431",
      "outDis" : "50",
      "Id" : "4440",
      "oid" : "13835",
      "districtId" : "1",
      "nameZh" : "中山南中海路口",
      "pgp" : "0",
      "terminal" : "0",
      "latitude" : "24.35322",
      "inDis" : "50",
      "routeId" : "171",
      "seqNo" : "6"
   },
   {
      "GoBack" : "2",
      "longitude" : "120.5842",
      "outDis" : "50",
      "Id" : "1476",
      "oid" : "5337",
      "districtId" : "1",
      "nameZh" : "中庄",
      "pgp" : "0",
      "terminal" : "0",
      "latitude" : "24.35003",
      "inDis" : "50",
      "routeId" : "171",
      "seqNo" : "7"
   },
   {
      "GoBack" : "2",
      "longitude" : "120.58701",
      "outDis" : "50",
      "Id" : "4436",
      "oid" : "13833",
      "districtId" : "1",
      "nameZh" : "大安區公所",
      "pgp" : "0",
      "terminal" : "0",
      "latitude" : "24.34565",
      "inDis" : "50",
      "routeId" : "171",
      "seqNo" : "8"
   },
   {
      "GoBack" : "2",
      "longitude" : "120.59079",
      "outDis" : "50",
      "Id" : "2761",
      "oid" : "6094",
      "districtId" : "1",
      "nameZh" : "埔羌林",
      "pgp" : "0",
      "terminal" : "0",
      "latitude" : "24.34072",
      "inDis" : "50",
      "routeId" : "171",
      "seqNo" : "9"
   },
   {
      "GoBack" : "2",
      "longitude" : "120.59154",
      "outDis" : "50",
      "Id" : "2429",
      "oid" : "5901",
      "districtId" : "1",
      "nameZh" : "東勢尾",
      "pgp" : "0",
      "terminal" : "0",
      "latitude" : "24.33913",
      "inDis" : "50",
      "routeId" : "171",
      "seqNo" : "10"
   },
   {
      "GoBack" : "2",
      "longitude" : "120.59712",
      "outDis" : "50",
      "Id" : "1592",
      "oid" : "5408",
      "districtId" : "1",
      "nameZh" : "六塊厝",
      "pgp" : "0",
      "terminal" : "0",
      "latitude" : "24.33442",
      "inDis" : "50",
      "routeId" : "171",
      "seqNo" : "11"
   },
   {
      "GoBack" : "2",
      "longitude" : "120.60384",
      "outDis" : "50",
      "Id" : "1665",
      "oid" : "5458",
      "districtId" : "1",
      "nameZh" : "文曲里",
      "pgp" : "0",
      "terminal" : "0",
      "latitude" : "24.32823",
      "inDis" : "50",
      "routeId" : "171",
      "seqNo" : "12"
   },
   {
      "GoBack" : "2",
      "longitude" : "120.60594",
      "outDis" : "50",
      "Id" : "1132",
      "oid" : "5113",
      "districtId" : "1",
      "nameZh" : "下水汴頭",
      "pgp" : "0",
      "terminal" : "0",
      "latitude" : "24.32729",
      "inDis" : "50",
      "routeId" : "171",
      "seqNo" : "13"
   },
   {
      "GoBack" : "2",
      "longitude" : "120.60843",
      "outDis" : "50",
      "Id" : "1705",
      "oid" : "5482",
      "districtId" : "1",
      "nameZh" : "水汴頭",
      "pgp" : "0",
      "terminal" : "0",
      "latitude" : "24.3267",
      "inDis" : "50",
      "routeId" : "171",
      "seqNo" : "14"
   },
   {
      "GoBack" : "2",
      "longitude" : "120.61302",
      "outDis" : "50",
      "Id" : "4133",
      "oid" : "319916345",
      "districtId" : "1",
      "nameZh" : "番子寮",
      "pgp" : "0",
      "terminal" : "0",
      "latitude" : "24.33171",
      "inDis" : "50",
      "routeId" : "171",
      "seqNo" : "15"
   },
   {
      "GoBack" : "2",
      "longitude" : "120.61723",
      "outDis" : "50",
      "Id" : "1859",
      "oid" : "5584",
      "districtId" : "1",
      "nameZh" : "外水尾",
      "pgp" : "0",
      "terminal" : "0",
      "latitude" : "24.33731",
      "inDis" : "50",
      "routeId" : "171",
      "seqNo" : "16"
   },
   {
      "GoBack" : "2",
      "longitude" : "120.61874",
      "outDis" : "50",
      "Id" : "5693",
      "oid" : "319916595",
      "districtId" : "1",
      "nameZh" : "水尾橋 ",
      "pgp" : "0",
      "terminal" : "0",
      "latitude" : "24.33972",
      "inDis" : "50",
      "routeId" : "171",
      "seqNo" : "17"
   },
   {
      "GoBack" : "2",
      "longitude" : "120.62143",
      "outDis" : "50",
      "Id" : "5048",
      "oid" : "309863798",
      "districtId" : "1",
      "nameZh" : "大甲高中(中山路)",
      "pgp" : "0",
      "terminal" : "0",
      "latitude" : "24.34212",
      "inDis" : "50",
      "routeId" : "171",
      "seqNo" : "18"
   },
   {
      "GoBack" : "2",
      "longitude" : "120.62404",
      "outDis" : "50",
      "Id" : "5639",
      "oid" : "4101",
      "districtId" : "1",
      "nameZh" : "南陽里(中山路)",
      "pgp" : "0",
      "terminal" : "0",
      "latitude" : "24.34279",
      "inDis" : "50",
      "routeId" : "171",
      "seqNo" : "19"
   },
   {
      "GoBack" : "2",
      "longitude" : "120.62553",
      "outDis" : "50",
      "Id" : "5084",
      "oid" : "5215",
      "districtId" : "1",
      "nameZh" : "大甲",
      "pgp" : "0",
      "terminal" : "0",
      "latitude" : "24.34321",
      "inDis" : "50",
      "routeId" : "171",
      "seqNo" : "20"
   },
   {
      "GoBack" : "2",
      "longitude" : "120.62664",
      "outDis" : "50",
      "Id" : "4432",
      "oid" : "14074",
      "districtId" : "1",
      "nameZh" : "大甲火車站",
      "pgp" : "0",
      "terminal" : "0",
      "latitude" : "24.34461",
      "inDis" : "50",
      "routeId" : "171",
      "seqNo" : "21"
   },
   {
      "GoBack" : "2",
      "longitude" : "120.62286",
      "outDis" : "50",
      "Id" : "1074",
      "oid" : "13774",
      "districtId" : "1",
      "nameZh" : "文昌祠",
      "pgp" : "0",
      "terminal" : "0",
      "latitude" : "24.34726",
      "inDis" : "50",
      "routeId" : "171",
      "seqNo" : "22"
   },
   {
      "GoBack" : "2",
      "longitude" : "120.62028",
      "outDis" : "50",
      "Id" : "5775",
      "oid" : "320571958",
      "districtId" : "1",
      "nameZh" : "庄尾(文武路)",
      "pgp" : "0",
      "terminal" : "0",
      "latitude" : "24.34819",
      "inDis" : "50",
      "routeId" : "171",
      "seqNo" : "23"
   },
   {
      "GoBack" : "2",
      "longitude" : "120.61841",
      "outDis" : "50",
      "Id" : "5692",
      "oid" : "320604390",
      "districtId" : "1",
      "nameZh" : "李綜合醫院",
      "pgp" : "0",
      "terminal" : "0",
      "latitude" : "24.35135",
      "inDis" : "50",
      "routeId" : "171",
      "seqNo" : "24"
   },
   {
      "GoBack" : "2",
      "longitude" : "120.61737",
      "outDis" : "50",
      "Id" : "5691",
      "oid" : "319713434",
      "districtId" : "1",
      "nameZh" : "大甲體育場",
      "pgp" : "0",
      "terminal" : "0",
      "latitude" : "24.35018",
      "inDis" : "50",
      "routeId" : "171",
      "seqNo" : "25"
   },
   {
      "GoBack" : "2",
      "longitude" : "120.61645",
      "outDis" : "50",
      "Id" : "2038",
      "oid" : "5679",
      "districtId" : "1",
      "nameZh" : "光田",
      "pgp" : "0",
      "terminal" : "0",
      "latitude" : "24.34723",
      "inDis" : "50",
      "routeId" : "171",
      "seqNo" : "26"
   },
   {
      "GoBack" : "2",
      "longitude" : "120.61478",
      "outDis" : "50",
      "Id" : "5061",
      "oid" : "309863811",
      "districtId" : "1",
      "nameZh" : "新政大安港路口",
      "pgp" : "0",
      "terminal" : "0",
      "latitude" : "24.35087",
      "inDis" : "50",
      "routeId" : "171",
      "seqNo" : "27"
   }
]
