[
   {
      "GoBack" : "1",
      "longitude" : "120.58033",
      "outDis" : "50",
      "Id" : "3531",
      "oid" : "310808454",
      "districtId" : "1",
      "nameZh" : "正英臺灣大道口",
      "pgp" : "0",
      "terminal" : "0",
      "latitude" : "24.20961",
      "inDis" : "50",
      "routeId" : "藍6",
      "seqNo" : "1"
   },
   {
      "GoBack" : "1",
      "longitude" : "120.58114",
      "outDis" : "50",
      "Id" : "4124",
      "oid" : "14334",
      "districtId" : "1",
      "nameZh" : "頂六路",
      "pgp" : "0",
      "terminal" : "0",
      "latitude" : "24.21332",
      "inDis" : "50",
      "routeId" : "藍6",
      "seqNo" : "2"
   },
   {
      "GoBack" : "1",
      "longitude" : "120.5808",
      "outDis" : "50",
      "Id" : "4386",
      "oid" : "17377",
      "districtId" : "1",
      "nameZh" : "弘光科技大學",
      "pgp" : "0",
      "terminal" : "0",
      "latitude" : "24.2166",
      "inDis" : "50",
      "routeId" : "藍6",
      "seqNo" : "3"
   },
   {
      "GoBack" : "1",
      "longitude" : "120.57986",
      "outDis" : "50",
      "Id" : "4111",
      "oid" : "17574",
      "districtId" : "1",
      "nameZh" : "晉江里",
      "pgp" : "0",
      "terminal" : "0",
      "latitude" : "24.22106",
      "inDis" : "50",
      "routeId" : "藍6",
      "seqNo" : "4"
   },
   {
      "GoBack" : "1",
      "longitude" : "120.57859",
      "outDis" : "50",
      "Id" : "4062",
      "oid" : "15032",
      "districtId" : "1",
      "nameZh" : "下晉江",
      "pgp" : "0",
      "terminal" : "0",
      "latitude" : "24.22326",
      "inDis" : "50",
      "routeId" : "藍6",
      "seqNo" : "5"
   },
   {
      "GoBack" : "1",
      "longitude" : "120.57673",
      "outDis" : "50",
      "Id" : "4147",
      "oid" : "15033",
      "districtId" : "1",
      "nameZh" : "靜宜大學",
      "pgp" : "0",
      "terminal" : "0",
      "latitude" : "24.22623",
      "inDis" : "50",
      "routeId" : "藍6",
      "seqNo" : "6"
   },
   {
      "GoBack" : "1",
      "longitude" : "120.57421",
      "outDis" : "50",
      "Id" : "4086",
      "oid" : "15167",
      "districtId" : "1",
      "nameZh" : "臺灣大道北勢路口",
      "pgp" : "0",
      "terminal" : "0",
      "latitude" : "24.23015",
      "inDis" : "50",
      "routeId" : "藍6",
      "seqNo" : "7"
   },
   {
      "GoBack" : "1",
      "longitude" : "120.57242",
      "outDis" : "50",
      "Id" : "4392",
      "oid" : "2275",
      "districtId" : "1",
      "nameZh" : "紅竹巷",
      "pgp" : "0",
      "terminal" : "0",
      "latitude" : "24.23312",
      "inDis" : "50",
      "routeId" : "藍6",
      "seqNo" : "8"
   },
   {
      "GoBack" : "1",
      "longitude" : "120.56892",
      "outDis" : "50",
      "Id" : "0431",
      "oid" : "318961612",
      "districtId" : "1",
      "nameZh" : "中山台灣大道口",
      "pgp" : "0",
      "terminal" : "0",
      "latitude" : "24.23704",
      "inDis" : "50",
      "routeId" : "藍6",
      "seqNo" : "9"
   },
   {
      "GoBack" : "1",
      "longitude" : "120.56704",
      "outDis" : "50",
      "Id" : "5222",
      "oid" : "318961613",
      "districtId" : "1",
      "nameZh" : "中山鎮政路口",
      "pgp" : "0",
      "terminal" : "0",
      "latitude" : "24.23707",
      "inDis" : "50",
      "routeId" : "藍6",
      "seqNo" : "10"
   },
   {
      "GoBack" : "1",
      "longitude" : "120.56494",
      "outDis" : "50",
      "Id" : "4390",
      "oid" : "17454",
      "districtId" : "1",
      "nameZh" : "沙鹿高工(中山路)",
      "pgp" : "0",
      "terminal" : "0",
      "latitude" : "24.23722",
      "inDis" : "50",
      "routeId" : "藍6",
      "seqNo" : "11"
   },
   {
      "GoBack" : "1",
      "longitude" : "120.56236",
      "outDis" : "50",
      "Id" : "2682",
      "oid" : "312574878",
      "districtId" : "1",
      "nameZh" : "洛泉里",
      "pgp" : "0",
      "terminal" : "0",
      "latitude" : "24.23768",
      "inDis" : "50",
      "routeId" : "藍6",
      "seqNo" : "12"
   },
   {
      "GoBack" : "1",
      "longitude" : "120.56142",
      "outDis" : "50",
      "Id" : "2248",
      "oid" : "2280",
      "districtId" : "1",
      "nameZh" : "沙鹿站",
      "pgp" : "0",
      "terminal" : "0",
      "latitude" : "24.23778",
      "inDis" : "50",
      "routeId" : "藍6",
      "seqNo" : "13"
   },
   {
      "GoBack" : "1",
      "longitude" : "120.56023",
      "outDis" : "50",
      "Id" : "5135",
      "oid" : "310808433",
      "districtId" : "1",
      "nameZh" : "第一銀行(沙鹿分行)",
      "pgp" : "0",
      "terminal" : "0",
      "latitude" : "24.23925",
      "inDis" : "50",
      "routeId" : "藍6",
      "seqNo" : "14"
   },
   {
      "GoBack" : "1",
      "longitude" : "120.56127",
      "outDis" : "50",
      "Id" : "5140",
      "oid" : "14047",
      "districtId" : "1",
      "nameZh" : "童綜合醫院(沙鹿院區)",
      "pgp" : "0",
      "terminal" : "0",
      "latitude" : "24.24245",
      "inDis" : "50",
      "routeId" : "藍6",
      "seqNo" : "15"
   },
   {
      "GoBack" : "1",
      "longitude" : "120.56227",
      "outDis" : "50",
      "Id" : "4042",
      "oid" : "15177",
      "districtId" : "1",
      "nameZh" : "文化莊",
      "pgp" : "0",
      "terminal" : "0",
      "latitude" : "24.24531",
      "inDis" : "50",
      "routeId" : "藍6",
      "seqNo" : "16"
   },
   {
      "GoBack" : "1",
      "longitude" : "120.56281",
      "outDis" : "50",
      "Id" : "4110",
      "oid" : "2284",
      "districtId" : "1",
      "nameZh" : "家扶中心",
      "pgp" : "0",
      "terminal" : "0",
      "latitude" : "24.2468",
      "inDis" : "50",
      "routeId" : "藍6",
      "seqNo" : "17"
   },
   {
      "GoBack" : "1",
      "longitude" : "120.56506",
      "outDis" : "50",
      "Id" : "5138",
      "oid" : "318961614",
      "districtId" : "1",
      "nameZh" : "鹿寮成衣商圈",
      "pgp" : "0",
      "terminal" : "0",
      "latitude" : "24.24914",
      "inDis" : "50",
      "routeId" : "藍6",
      "seqNo" : "18"
   },
   {
      "GoBack" : "1",
      "longitude" : "120.56676",
      "outDis" : "50",
      "Id" : "4044",
      "oid" : "17283",
      "districtId" : "1",
      "nameZh" : "鹿寮",
      "pgp" : "0",
      "terminal" : "0",
      "latitude" : "24.25173",
      "inDis" : "50",
      "routeId" : "藍6",
      "seqNo" : "19"
   },
   {
      "GoBack" : "1",
      "longitude" : "120.56786",
      "outDis" : "50",
      "Id" : "5392",
      "oid" : "312897794",
      "districtId" : "1",
      "nameZh" : "中山長春路口",
      "pgp" : "0",
      "terminal" : "0",
      "latitude" : "24.2537",
      "inDis" : "50",
      "routeId" : "藍6",
      "seqNo" : "20"
   },
   {
      "GoBack" : "1",
      "longitude" : "120.56879",
      "outDis" : "50",
      "Id" : "4045",
      "oid" : "14354",
      "districtId" : "1",
      "nameZh" : "中峰",
      "pgp" : "0",
      "terminal" : "0",
      "latitude" : "24.25529",
      "inDis" : "50",
      "routeId" : "藍6",
      "seqNo" : "21"
   },
   {
      "GoBack" : "1",
      "longitude" : "120.5693",
      "outDis" : "50",
      "Id" : "4471",
      "oid" : "14355",
      "districtId" : "1",
      "nameZh" : "勞工育樂中心",
      "pgp" : "0",
      "terminal" : "0",
      "latitude" : "24.2562",
      "inDis" : "50",
      "routeId" : "藍6",
      "seqNo" : "22"
   },
   {
      "GoBack" : "1",
      "longitude" : "120.57081",
      "outDis" : "50",
      "Id" : "4129",
      "oid" : "17547",
      "districtId" : "1",
      "nameZh" : "鹿峰里",
      "pgp" : "0",
      "terminal" : "0",
      "latitude" : "24.25884",
      "inDis" : "50",
      "routeId" : "藍6",
      "seqNo" : "23"
   },
   {
      "GoBack" : "1",
      "longitude" : "120.5714",
      "outDis" : "50",
      "Id" : "4441",
      "oid" : "307275657",
      "districtId" : "1",
      "nameZh" : "中山星河路口",
      "pgp" : "0",
      "terminal" : "0",
      "latitude" : "24.25997",
      "inDis" : "50",
      "routeId" : "藍6",
      "seqNo" : "24"
   },
   {
      "GoBack" : "1",
      "longitude" : "120.57266",
      "outDis" : "50",
      "Id" : "4121",
      "oid" : "17288",
      "districtId" : "1",
      "nameZh" : "清水電信局",
      "pgp" : "0",
      "terminal" : "0",
      "latitude" : "24.26214",
      "inDis" : "50",
      "routeId" : "藍6",
      "seqNo" : "25"
   },
   {
      "GoBack" : "1",
      "longitude" : "120.5742",
      "outDis" : "50",
      "Id" : "4119",
      "oid" : "14359",
      "districtId" : "1",
      "nameZh" : "清水高中",
      "pgp" : "0",
      "terminal" : "0",
      "latitude" : "24.2658",
      "inDis" : "50",
      "routeId" : "藍6",
      "seqNo" : "26"
   },
   {
      "GoBack" : "1",
      "longitude" : "120.57549",
      "outDis" : "50",
      "Id" : "5141",
      "oid" : "318961615",
      "districtId" : "1",
      "nameZh" : "華南銀行(清水分行)",
      "pgp" : "0",
      "terminal" : "0",
      "latitude" : "24.26904",
      "inDis" : "50",
      "routeId" : "藍6",
      "seqNo" : "27"
   },
   {
      "GoBack" : "1",
      "longitude" : "120.57583",
      "outDis" : "50",
      "Id" : "3013",
      "oid" : "6222",
      "districtId" : "1",
      "nameZh" : "清水",
      "pgp" : "0",
      "terminal" : "0",
      "latitude" : "24.27009",
      "inDis" : "50",
      "routeId" : "藍6",
      "seqNo" : "28"
   },
   {
      "GoBack" : "1",
      "longitude" : "120.57691",
      "outDis" : "50",
      "Id" : "4521",
      "oid" : "2295",
      "districtId" : "1",
      "nameZh" : "中山董公街口",
      "pgp" : "0",
      "terminal" : "0",
      "latitude" : "24.27295",
      "inDis" : "50",
      "routeId" : "藍6",
      "seqNo" : "29"
   },
   {
      "GoBack" : "1",
      "longitude" : "120.57725",
      "outDis" : "50",
      "Id" : "4442",
      "oid" : "14059",
      "districtId" : "1",
      "nameZh" : "中山高美路口",
      "pgp" : "0",
      "terminal" : "0",
      "latitude" : "24.27531",
      "inDis" : "50",
      "routeId" : "藍6",
      "seqNo" : "30"
   },
   {
      "GoBack" : "1",
      "longitude" : "120.57942",
      "outDis" : "50",
      "Id" : "4065",
      "oid" : "2297",
      "districtId" : "1",
      "nameZh" : "下湳加油站",
      "pgp" : "0",
      "terminal" : "0",
      "latitude" : "24.27858",
      "inDis" : "50",
      "routeId" : "藍6",
      "seqNo" : "31"
   },
   {
      "GoBack" : "1",
      "longitude" : "120.58119",
      "outDis" : "50",
      "Id" : "4130",
      "oid" : "2298",
      "districtId" : "1",
      "nameZh" : "朝興宮",
      "pgp" : "0",
      "terminal" : "0",
      "latitude" : "24.281",
      "inDis" : "50",
      "routeId" : "藍6",
      "seqNo" : "32"
   },
   {
      "GoBack" : "1",
      "longitude" : "120.58331",
      "outDis" : "50",
      "Id" : "4063",
      "oid" : "2299",
      "districtId" : "1",
      "nameZh" : "下湳子",
      "pgp" : "0",
      "terminal" : "0",
      "latitude" : "24.28369",
      "inDis" : "50",
      "routeId" : "藍6",
      "seqNo" : "33"
   },
   {
      "GoBack" : "1",
      "longitude" : "120.58578",
      "outDis" : "50",
      "Id" : "4058",
      "oid" : "2300",
      "districtId" : "1",
      "nameZh" : "三田國小",
      "pgp" : "0",
      "terminal" : "0",
      "latitude" : "24.28801",
      "inDis" : "50",
      "routeId" : "藍6",
      "seqNo" : "34"
   },
   {
      "GoBack" : "1",
      "longitude" : "120.58733",
      "outDis" : "50",
      "Id" : "4139",
      "oid" : "2301",
      "districtId" : "1",
      "nameZh" : "福元批發",
      "pgp" : "0",
      "terminal" : "0",
      "latitude" : "24.29059",
      "inDis" : "50",
      "routeId" : "藍6",
      "seqNo" : "35"
   },
   {
      "GoBack" : "1",
      "longitude" : "120.58824",
      "outDis" : "50",
      "Id" : "4127",
      "oid" : "2302",
      "districtId" : "1",
      "nameZh" : "頂湳子",
      "pgp" : "0",
      "terminal" : "0",
      "latitude" : "24.29229",
      "inDis" : "50",
      "routeId" : "藍6",
      "seqNo" : "36"
   },
   {
      "GoBack" : "1",
      "longitude" : "120.59094",
      "outDis" : "50",
      "Id" : "4150",
      "oid" : "2303",
      "districtId" : "1",
      "nameZh" : "轉播站",
      "pgp" : "0",
      "terminal" : "0",
      "latitude" : "24.29584",
      "inDis" : "50",
      "routeId" : "藍6",
      "seqNo" : "37"
   },
   {
      "GoBack" : "1",
      "longitude" : "120.59296",
      "outDis" : "50",
      "Id" : "4144",
      "oid" : "318961616",
      "districtId" : "1",
      "nameZh" : "震陽工廠",
      "pgp" : "0",
      "terminal" : "0",
      "latitude" : "24.2978",
      "inDis" : "50",
      "routeId" : "藍6",
      "seqNo" : "38"
   },
   {
      "GoBack" : "1",
      "longitude" : "120.59579",
      "outDis" : "50",
      "Id" : "4134",
      "oid" : "2305",
      "districtId" : "1",
      "nameZh" : "菁埔里",
      "pgp" : "0",
      "terminal" : "0",
      "latitude" : "24.30093",
      "inDis" : "50",
      "routeId" : "藍6",
      "seqNo" : "39"
   },
   {
      "GoBack" : "1",
      "longitude" : "120.6012",
      "outDis" : "50",
      "Id" : "1993",
      "oid" : "2306",
      "districtId" : "1",
      "nameZh" : "甲南",
      "pgp" : "0",
      "terminal" : "0",
      "latitude" : "24.30457",
      "inDis" : "50",
      "routeId" : "藍6",
      "seqNo" : "40"
   },
   {
      "GoBack" : "1",
      "longitude" : "120.60347",
      "outDis" : "50",
      "Id" : "4071",
      "oid" : "2307",
      "districtId" : "1",
      "nameZh" : "大甲溪橋",
      "pgp" : "0",
      "terminal" : "0",
      "latitude" : "24.31061",
      "inDis" : "50",
      "routeId" : "藍6",
      "seqNo" : "41"
   },
   {
      "GoBack" : "1",
      "longitude" : "120.60852",
      "outDis" : "50",
      "Id" : "1705",
      "oid" : "2308",
      "districtId" : "1",
      "nameZh" : "水汴頭",
      "pgp" : "0",
      "terminal" : "0",
      "latitude" : "24.32661",
      "inDis" : "50",
      "routeId" : "藍6",
      "seqNo" : "42"
   },
   {
      "GoBack" : "1",
      "longitude" : "120.61377",
      "outDis" : "50",
      "Id" : "4133",
      "oid" : "2309",
      "districtId" : "1",
      "nameZh" : "番子寮",
      "pgp" : "0",
      "terminal" : "0",
      "latitude" : "24.33247",
      "inDis" : "50",
      "routeId" : "藍6",
      "seqNo" : "43"
   },
   {
      "GoBack" : "1",
      "longitude" : "120.61743",
      "outDis" : "50",
      "Id" : "1859",
      "oid" : "2310",
      "districtId" : "1",
      "nameZh" : "外水尾",
      "pgp" : "0",
      "terminal" : "0",
      "latitude" : "24.33771",
      "inDis" : "50",
      "routeId" : "藍6",
      "seqNo" : "44"
   },
   {
      "GoBack" : "1",
      "longitude" : "120.61874",
      "outDis" : "50",
      "Id" : "5693",
      "oid" : "319916595",
      "districtId" : "1",
      "nameZh" : "水尾橋 ",
      "pgp" : "0",
      "terminal" : "0",
      "latitude" : "24.33972",
      "inDis" : "50",
      "routeId" : "藍6",
      "seqNo" : "45"
   },
   {
      "GoBack" : "1",
      "longitude" : "120.62135",
      "outDis" : "50",
      "Id" : "5048",
      "oid" : "319713430",
      "districtId" : "1",
      "nameZh" : "大甲高中(中山路)",
      "pgp" : "0",
      "terminal" : "0",
      "latitude" : "24.342",
      "inDis" : "50",
      "routeId" : "藍6",
      "seqNo" : "46"
   },
   {
      "GoBack" : "1",
      "longitude" : "120.62431",
      "outDis" : "50",
      "Id" : "2609",
      "oid" : "2312",
      "districtId" : "1",
      "nameZh" : "南陽里",
      "pgp" : "0",
      "terminal" : "0",
      "latitude" : "24.34272",
      "inDis" : "50",
      "routeId" : "藍6",
      "seqNo" : "47"
   },
   {
      "GoBack" : "1",
      "longitude" : "120.62525",
      "outDis" : "50",
      "Id" : "4067",
      "oid" : "2164",
      "districtId" : "1",
      "nameZh" : "大甲站",
      "pgp" : "0",
      "terminal" : "0",
      "latitude" : "24.34387",
      "inDis" : "50",
      "routeId" : "藍6",
      "seqNo" : "48"
   },
   {
      "GoBack" : "2",
      "longitude" : "120.62525",
      "outDis" : "50",
      "Id" : "4067",
      "oid" : "2164",
      "districtId" : "1",
      "nameZh" : "大甲站",
      "pgp" : "0",
      "terminal" : "0",
      "latitude" : "24.34387",
      "inDis" : "50",
      "routeId" : "藍6",
      "seqNo" : "1"
   },
   {
      "GoBack" : "2",
      "longitude" : "120.6217",
      "outDis" : "50",
      "Id" : "2589",
      "oid" : "5995",
      "districtId" : "1",
      "nameZh" : "南門",
      "pgp" : "0",
      "terminal" : "0",
      "latitude" : "24.34371",
      "inDis" : "50",
      "routeId" : "藍6",
      "seqNo" : "2"
   },
   {
      "GoBack" : "2",
      "longitude" : "120.6205",
      "outDis" : "50",
      "Id" : "5361",
      "oid" : "2166",
      "districtId" : "1",
      "nameZh" : "大甲高中(順天路)",
      "pgp" : "0",
      "terminal" : "0",
      "latitude" : "24.34237",
      "inDis" : "50",
      "routeId" : "藍6",
      "seqNo" : "3"
   },
   {
      "GoBack" : "2",
      "longitude" : "120.61874",
      "outDis" : "50",
      "Id" : "5693",
      "oid" : "319916595",
      "districtId" : "1",
      "nameZh" : "水尾橋 ",
      "pgp" : "0",
      "terminal" : "0",
      "latitude" : "24.33972",
      "inDis" : "50",
      "routeId" : "藍6",
      "seqNo" : "4"
   },
   {
      "GoBack" : "2",
      "longitude" : "120.61751",
      "outDis" : "50",
      "Id" : "1859",
      "oid" : "2167",
      "districtId" : "1",
      "nameZh" : "外水尾",
      "pgp" : "0",
      "terminal" : "0",
      "latitude" : "24.33744",
      "inDis" : "50",
      "routeId" : "藍6",
      "seqNo" : "5"
   },
   {
      "GoBack" : "2",
      "longitude" : "120.61384",
      "outDis" : "50",
      "Id" : "4133",
      "oid" : "2168",
      "districtId" : "1",
      "nameZh" : "番子寮",
      "pgp" : "0",
      "terminal" : "0",
      "latitude" : "24.33278",
      "inDis" : "50",
      "routeId" : "藍6",
      "seqNo" : "6"
   },
   {
      "GoBack" : "2",
      "longitude" : "120.60827",
      "outDis" : "50",
      "Id" : "1705",
      "oid" : "2169",
      "districtId" : "1",
      "nameZh" : "水汴頭",
      "pgp" : "0",
      "terminal" : "0",
      "latitude" : "24.32677",
      "inDis" : "50",
      "routeId" : "藍6",
      "seqNo" : "7"
   },
   {
      "GoBack" : "2",
      "longitude" : "120.60346",
      "outDis" : "50",
      "Id" : "4071",
      "oid" : "2170",
      "districtId" : "1",
      "nameZh" : "大甲溪橋",
      "pgp" : "0",
      "terminal" : "0",
      "latitude" : "24.31061",
      "inDis" : "50",
      "routeId" : "藍6",
      "seqNo" : "8"
   },
   {
      "GoBack" : "2",
      "longitude" : "120.60117",
      "outDis" : "50",
      "Id" : "1993",
      "oid" : "2171",
      "districtId" : "1",
      "nameZh" : "甲南",
      "pgp" : "0",
      "terminal" : "0",
      "latitude" : "24.30478",
      "inDis" : "50",
      "routeId" : "藍6",
      "seqNo" : "9"
   },
   {
      "GoBack" : "2",
      "longitude" : "120.59601",
      "outDis" : "50",
      "Id" : "4134",
      "oid" : "2172",
      "districtId" : "1",
      "nameZh" : "菁埔里",
      "pgp" : "0",
      "terminal" : "0",
      "latitude" : "24.30116",
      "inDis" : "50",
      "routeId" : "藍6",
      "seqNo" : "10"
   },
   {
      "GoBack" : "2",
      "longitude" : "120.59262",
      "outDis" : "50",
      "Id" : "4144",
      "oid" : "2173",
      "districtId" : "1",
      "nameZh" : "震陽工廠",
      "pgp" : "0",
      "terminal" : "0",
      "latitude" : "24.29788",
      "inDis" : "50",
      "routeId" : "藍6",
      "seqNo" : "11"
   },
   {
      "GoBack" : "2",
      "longitude" : "120.59084",
      "outDis" : "50",
      "Id" : "4150",
      "oid" : "2174",
      "districtId" : "1",
      "nameZh" : "轉播站",
      "pgp" : "0",
      "terminal" : "0",
      "latitude" : "24.29572",
      "inDis" : "50",
      "routeId" : "藍6",
      "seqNo" : "12"
   },
   {
      "GoBack" : "2",
      "longitude" : "120.58861",
      "outDis" : "50",
      "Id" : "4127",
      "oid" : "2175",
      "districtId" : "1",
      "nameZh" : "頂湳子",
      "pgp" : "0",
      "terminal" : "0",
      "latitude" : "24.29345",
      "inDis" : "50",
      "routeId" : "藍6",
      "seqNo" : "13"
   },
   {
      "GoBack" : "2",
      "longitude" : "120.58706",
      "outDis" : "50",
      "Id" : "4139",
      "oid" : "2176",
      "districtId" : "1",
      "nameZh" : "福元批發",
      "pgp" : "0",
      "terminal" : "0",
      "latitude" : "24.29065",
      "inDis" : "50",
      "routeId" : "藍6",
      "seqNo" : "14"
   },
   {
      "GoBack" : "2",
      "longitude" : "120.58562",
      "outDis" : "50",
      "Id" : "4058",
      "oid" : "2177",
      "districtId" : "1",
      "nameZh" : "三田國小",
      "pgp" : "0",
      "terminal" : "0",
      "latitude" : "24.28813",
      "inDis" : "50",
      "routeId" : "藍6",
      "seqNo" : "15"
   },
   {
      "GoBack" : "2",
      "longitude" : "120.58327",
      "outDis" : "50",
      "Id" : "4063",
      "oid" : "2178",
      "districtId" : "1",
      "nameZh" : "下湳子",
      "pgp" : "0",
      "terminal" : "0",
      "latitude" : "24.28398",
      "inDis" : "50",
      "routeId" : "藍6",
      "seqNo" : "16"
   },
   {
      "GoBack" : "2",
      "longitude" : "120.58128",
      "outDis" : "50",
      "Id" : "4130",
      "oid" : "2179",
      "districtId" : "1",
      "nameZh" : "朝興宮",
      "pgp" : "0",
      "terminal" : "0",
      "latitude" : "24.28091",
      "inDis" : "50",
      "routeId" : "藍6",
      "seqNo" : "17"
   },
   {
      "GoBack" : "2",
      "longitude" : "120.57941",
      "outDis" : "50",
      "Id" : "4065",
      "oid" : "2180",
      "districtId" : "1",
      "nameZh" : "下湳加油站",
      "pgp" : "0",
      "terminal" : "0",
      "latitude" : "24.2787",
      "inDis" : "50",
      "routeId" : "藍6",
      "seqNo" : "18"
   },
   {
      "GoBack" : "2",
      "longitude" : "120.57725",
      "outDis" : "50",
      "Id" : "4442",
      "oid" : "312352563",
      "districtId" : "1",
      "nameZh" : "中山高美路口",
      "pgp" : "0",
      "terminal" : "0",
      "latitude" : "24.27461",
      "inDis" : "50",
      "routeId" : "藍6",
      "seqNo" : "19"
   },
   {
      "GoBack" : "2",
      "longitude" : "120.57707",
      "outDis" : "50",
      "Id" : "4521",
      "oid" : "2182",
      "districtId" : "1",
      "nameZh" : "中山董公街口",
      "pgp" : "0",
      "terminal" : "0",
      "latitude" : "24.27301",
      "inDis" : "50",
      "routeId" : "藍6",
      "seqNo" : "20"
   },
   {
      "GoBack" : "2",
      "longitude" : "120.57598",
      "outDis" : "50",
      "Id" : "3013",
      "oid" : "17291",
      "districtId" : "1",
      "nameZh" : "清水",
      "pgp" : "0",
      "terminal" : "0",
      "latitude" : "24.2703",
      "inDis" : "50",
      "routeId" : "藍6",
      "seqNo" : "21"
   },
   {
      "GoBack" : "2",
      "longitude" : "120.57522",
      "outDis" : "50",
      "Id" : "5141",
      "oid" : "17290",
      "districtId" : "1",
      "nameZh" : "華南銀行(清水分行)",
      "pgp" : "0",
      "terminal" : "0",
      "latitude" : "24.26835",
      "inDis" : "50",
      "routeId" : "藍6",
      "seqNo" : "22"
   },
   {
      "GoBack" : "2",
      "longitude" : "120.57421",
      "outDis" : "50",
      "Id" : "4119",
      "oid" : "2185",
      "districtId" : "1",
      "nameZh" : "清水高中",
      "pgp" : "0",
      "terminal" : "0",
      "latitude" : "24.26615",
      "inDis" : "50",
      "routeId" : "藍6",
      "seqNo" : "23"
   },
   {
      "GoBack" : "2",
      "longitude" : "120.57262",
      "outDis" : "50",
      "Id" : "4121",
      "oid" : "2186",
      "districtId" : "1",
      "nameZh" : "清水電信局",
      "pgp" : "0",
      "terminal" : "0",
      "latitude" : "24.26214",
      "inDis" : "50",
      "routeId" : "藍6",
      "seqNo" : "24"
   },
   {
      "GoBack" : "2",
      "longitude" : "120.5714",
      "outDis" : "50",
      "Id" : "4441",
      "oid" : "307275657",
      "districtId" : "1",
      "nameZh" : "中山星河路口",
      "pgp" : "0",
      "terminal" : "0",
      "latitude" : "24.25997",
      "inDis" : "50",
      "routeId" : "藍6",
      "seqNo" : "25"
   },
   {
      "GoBack" : "2",
      "longitude" : "120.57075",
      "outDis" : "50",
      "Id" : "4129",
      "oid" : "2188",
      "districtId" : "1",
      "nameZh" : "鹿峰里",
      "pgp" : "0",
      "terminal" : "0",
      "latitude" : "24.25885",
      "inDis" : "50",
      "routeId" : "藍6",
      "seqNo" : "26"
   },
   {
      "GoBack" : "2",
      "longitude" : "120.56993",
      "outDis" : "50",
      "Id" : "4471",
      "oid" : "2189",
      "districtId" : "1",
      "nameZh" : "勞工育樂中心",
      "pgp" : "0",
      "terminal" : "0",
      "latitude" : "24.25755",
      "inDis" : "50",
      "routeId" : "藍6",
      "seqNo" : "27"
   },
   {
      "GoBack" : "2",
      "longitude" : "120.56885",
      "outDis" : "50",
      "Id" : "4045",
      "oid" : "10585",
      "districtId" : "1",
      "nameZh" : "中峰",
      "pgp" : "0",
      "terminal" : "0",
      "latitude" : "24.25542",
      "inDis" : "50",
      "routeId" : "藍6",
      "seqNo" : "28"
   },
   {
      "GoBack" : "2",
      "longitude" : "120.56786",
      "outDis" : "50",
      "Id" : "5392",
      "oid" : "312897794",
      "districtId" : "1",
      "nameZh" : "中山長春路口",
      "pgp" : "0",
      "terminal" : "0",
      "latitude" : "24.2537",
      "inDis" : "50",
      "routeId" : "藍6",
      "seqNo" : "29"
   },
   {
      "GoBack" : "2",
      "longitude" : "120.56664",
      "outDis" : "50",
      "Id" : "4044",
      "oid" : "2191",
      "districtId" : "1",
      "nameZh" : "鹿寮",
      "pgp" : "0",
      "terminal" : "0",
      "latitude" : "24.2515",
      "inDis" : "50",
      "routeId" : "藍6",
      "seqNo" : "30"
   },
   {
      "GoBack" : "2",
      "longitude" : "120.56484",
      "outDis" : "50",
      "Id" : "5138",
      "oid" : "14049",
      "districtId" : "1",
      "nameZh" : "鹿寮成衣商圈",
      "pgp" : "0",
      "terminal" : "0",
      "latitude" : "24.2489",
      "inDis" : "50",
      "routeId" : "藍6",
      "seqNo" : "31"
   },
   {
      "GoBack" : "2",
      "longitude" : "120.56257",
      "outDis" : "50",
      "Id" : "4110",
      "oid" : "15101",
      "districtId" : "1",
      "nameZh" : "家扶中心",
      "pgp" : "0",
      "terminal" : "0",
      "latitude" : "24.24659",
      "inDis" : "50",
      "routeId" : "藍6",
      "seqNo" : "32"
   },
   {
      "GoBack" : "2",
      "longitude" : "120.56214",
      "outDis" : "50",
      "Id" : "4042",
      "oid" : "14251",
      "districtId" : "1",
      "nameZh" : "文化莊",
      "pgp" : "0",
      "terminal" : "0",
      "latitude" : "24.24543",
      "inDis" : "50",
      "routeId" : "藍6",
      "seqNo" : "33"
   },
   {
      "GoBack" : "2",
      "longitude" : "120.5613",
      "outDis" : "50",
      "Id" : "5140",
      "oid" : "318961610",
      "districtId" : "1",
      "nameZh" : "童綜合醫院(沙鹿院區)",
      "pgp" : "0",
      "terminal" : "0",
      "latitude" : "24.24318",
      "inDis" : "50",
      "routeId" : "藍6",
      "seqNo" : "34"
   },
   {
      "GoBack" : "2",
      "longitude" : "120.56",
      "outDis" : "50",
      "Id" : "5135",
      "oid" : "14046",
      "districtId" : "1",
      "nameZh" : "第一銀行(沙鹿分行)",
      "pgp" : "0",
      "terminal" : "0",
      "latitude" : "24.23932",
      "inDis" : "50",
      "routeId" : "藍6",
      "seqNo" : "35"
   },
   {
      "GoBack" : "2",
      "longitude" : "120.56091",
      "outDis" : "50",
      "Id" : "2248",
      "oid" : "318961611",
      "districtId" : "1",
      "nameZh" : "沙鹿站",
      "pgp" : "0",
      "terminal" : "0",
      "latitude" : "24.23804",
      "inDis" : "50",
      "routeId" : "藍6",
      "seqNo" : "36"
   },
   {
      "GoBack" : "2",
      "longitude" : "120.56294",
      "outDis" : "50",
      "Id" : "2335",
      "oid" : "2198",
      "districtId" : "1",
      "nameZh" : "居仁里",
      "pgp" : "0",
      "terminal" : "0",
      "latitude" : "24.24004",
      "inDis" : "50",
      "routeId" : "藍6",
      "seqNo" : "37"
   },
   {
      "GoBack" : "2",
      "longitude" : "120.56527",
      "outDis" : "50",
      "Id" : "0005",
      "oid" : "2199",
      "districtId" : "1",
      "nameZh" : "沙鹿高工(臺灣大道)",
      "pgp" : "0",
      "terminal" : "0",
      "latitude" : "24.23937",
      "inDis" : "50",
      "routeId" : "藍6",
      "seqNo" : "38"
   },
   {
      "GoBack" : "2",
      "longitude" : "120.56765",
      "outDis" : "50",
      "Id" : "2147",
      "oid" : "2200",
      "districtId" : "1",
      "nameZh" : "竹林國小",
      "pgp" : "0",
      "terminal" : "0",
      "latitude" : "24.23829",
      "inDis" : "50",
      "routeId" : "藍6",
      "seqNo" : "39"
   },
   {
      "GoBack" : "2",
      "longitude" : "120.56994",
      "outDis" : "50",
      "Id" : "4389",
      "oid" : "2201",
      "districtId" : "1",
      "nameZh" : "竹林里",
      "pgp" : "0",
      "terminal" : "0",
      "latitude" : "24.23632",
      "inDis" : "50",
      "routeId" : "藍6",
      "seqNo" : "40"
   },
   {
      "GoBack" : "2",
      "longitude" : "120.57129",
      "outDis" : "50",
      "Id" : "4392",
      "oid" : "2202",
      "districtId" : "1",
      "nameZh" : "紅竹巷",
      "pgp" : "0",
      "terminal" : "0",
      "latitude" : "24.2342",
      "inDis" : "50",
      "routeId" : "藍6",
      "seqNo" : "41"
   },
   {
      "GoBack" : "2",
      "longitude" : "120.57331",
      "outDis" : "50",
      "Id" : "4086",
      "oid" : "2203",
      "districtId" : "1",
      "nameZh" : "臺灣大道北勢路口",
      "pgp" : "0",
      "terminal" : "0",
      "latitude" : "24.23102",
      "inDis" : "50",
      "routeId" : "藍6",
      "seqNo" : "42"
   },
   {
      "GoBack" : "2",
      "longitude" : "120.57658",
      "outDis" : "50",
      "Id" : "4147",
      "oid" : "2204",
      "districtId" : "1",
      "nameZh" : "靜宜大學",
      "pgp" : "0",
      "terminal" : "0",
      "latitude" : "24.22593",
      "inDis" : "50",
      "routeId" : "藍6",
      "seqNo" : "43"
   },
   {
      "GoBack" : "2",
      "longitude" : "120.57809",
      "outDis" : "50",
      "Id" : "4062",
      "oid" : "2205",
      "districtId" : "1",
      "nameZh" : "下晉江",
      "pgp" : "0",
      "terminal" : "0",
      "latitude" : "24.22357",
      "inDis" : "50",
      "routeId" : "藍6",
      "seqNo" : "44"
   },
   {
      "GoBack" : "2",
      "longitude" : "120.57986",
      "outDis" : "50",
      "Id" : "4111",
      "oid" : "2206",
      "districtId" : "1",
      "nameZh" : "晉江里",
      "pgp" : "0",
      "terminal" : "0",
      "latitude" : "24.22106",
      "inDis" : "50",
      "routeId" : "藍6",
      "seqNo" : "45"
   },
   {
      "GoBack" : "2",
      "longitude" : "120.5808",
      "outDis" : "50",
      "Id" : "4386",
      "oid" : "17377",
      "districtId" : "1",
      "nameZh" : "弘光科技大學",
      "pgp" : "0",
      "terminal" : "0",
      "latitude" : "24.2166",
      "inDis" : "50",
      "routeId" : "藍6",
      "seqNo" : "46"
   },
   {
      "GoBack" : "2",
      "longitude" : "120.58079",
      "outDis" : "50",
      "Id" : "4124",
      "oid" : "2208",
      "districtId" : "1",
      "nameZh" : "頂六路",
      "pgp" : "0",
      "terminal" : "0",
      "latitude" : "24.21365",
      "inDis" : "50",
      "routeId" : "藍6",
      "seqNo" : "47"
   },
   {
      "GoBack" : "2",
      "longitude" : "120.58033",
      "outDis" : "50",
      "Id" : "3531",
      "oid" : "310808454",
      "districtId" : "1",
      "nameZh" : "正英臺灣大道口",
      "pgp" : "0",
      "terminal" : "0",
      "latitude" : "24.20961",
      "inDis" : "50",
      "routeId" : "藍6",
      "seqNo" : "48"
   }
]
