[
   {
      "GoBack" : "1",
      "longitude" : "120.68605",
      "outDis" : "50",
      "Id" : "0402",
      "oid" : "2A97227466C741B5B319889CD34548C9",
      "districtId" : "1",
      "nameZh" : "干城站",
      "pgp" : "0",
      "terminal" : "0",
      "latitude" : "24.14093",
      "inDis" : "50",
      "routeId" : "281",
      "seqNo" : "1"
   },
   {
      "GoBack" : "1",
      "longitude" : "120.6853",
      "outDis" : "50",
      "Id" : "1824",
      "oid" : "616B01CB26394967931808918B6CA2F3",
      "districtId" : "1",
      "nameZh" : "臺中火車站",
      "pgp" : "0",
      "terminal" : "0",
      "latitude" : "24.1379",
      "inDis" : "50",
      "routeId" : "281",
      "seqNo" : "2"
   },
   {
      "GoBack" : "1",
      "longitude" : "120.68215",
      "outDis" : "50",
      "Id" : "0518",
      "oid" : "8163",
      "districtId" : "1",
      "nameZh" : "臺中酒廠(復興路)",
      "pgp" : "0",
      "terminal" : "0",
      "latitude" : "24.13408",
      "inDis" : "50",
      "routeId" : "281",
      "seqNo" : "3"
   },
   {
      "GoBack" : "1",
      "longitude" : "120.67994",
      "outDis" : "50",
      "Id" : "1659",
      "oid" : "EC33BF1624CE495F89558F475C1E12FF",
      "districtId" : "1",
      "nameZh" : "文化創意園區",
      "pgp" : "0",
      "terminal" : "0",
      "latitude" : "24.13317",
      "inDis" : "50",
      "routeId" : "281",
      "seqNo" : "4"
   },
   {
      "GoBack" : "1",
      "longitude" : "120.67707",
      "outDis" : "50",
      "Id" : "0180",
      "oid" : "03DDDEF457214E05A1045B30E6A40DB6",
      "districtId" : "1",
      "nameZh" : "林祖厝",
      "pgp" : "0",
      "terminal" : "0",
      "latitude" : "24.13188",
      "inDis" : "50",
      "routeId" : "281",
      "seqNo" : "5"
   },
   {
      "GoBack" : "1",
      "longitude" : "120.67581",
      "outDis" : "50",
      "Id" : "4604",
      "oid" : "ED999C3DF7BF4281956E397CF3667419",
      "districtId" : "1",
      "nameZh" : "復興有恆街口",
      "pgp" : "0",
      "terminal" : "0",
      "latitude" : "24.13144",
      "inDis" : "50",
      "routeId" : "281",
      "seqNo" : "6"
   },
   {
      "GoBack" : "1",
      "longitude" : "120.6736",
      "outDis" : "50",
      "Id" : "0178",
      "oid" : "6256",
      "districtId" : "1",
      "nameZh" : "第三分局",
      "pgp" : "0",
      "terminal" : "0",
      "latitude" : "24.13047",
      "inDis" : "50",
      "routeId" : "281",
      "seqNo" : "7"
   },
   {
      "GoBack" : "1",
      "longitude" : "120.67196",
      "outDis" : "50",
      "Id" : "5393",
      "oid" : "312954998",
      "districtId" : "1",
      "nameZh" : "公共資訊圖書館(復興路)",
      "pgp" : "0",
      "terminal" : "0",
      "latitude" : "24.12985",
      "inDis" : "50",
      "routeId" : "281",
      "seqNo" : "8"
   },
   {
      "GoBack" : "1",
      "longitude" : "120.66931",
      "outDis" : "50",
      "Id" : "5404",
      "oid" : "313106523",
      "districtId" : "1",
      "nameZh" : "公共資訊圖書館(五權南路)",
      "pgp" : "0",
      "terminal" : "0",
      "latitude" : "24.12787",
      "inDis" : "50",
      "routeId" : "281",
      "seqNo" : "9"
   },
   {
      "GoBack" : "1",
      "longitude" : "120.67006",
      "outDis" : "50",
      "Id" : "0247",
      "oid" : "6313",
      "districtId" : "1",
      "nameZh" : "五權南永和街口",
      "pgp" : "0",
      "terminal" : "0",
      "latitude" : "24.12506",
      "inDis" : "50",
      "routeId" : "281",
      "seqNo" : "10"
   },
   {
      "GoBack" : "1",
      "longitude" : "120.67006",
      "outDis" : "50",
      "Id" : "0246",
      "oid" : "1B7D87EB73F24790871C0030D127A2EC",
      "districtId" : "1",
      "nameZh" : "永和社區",
      "pgp" : "0",
      "terminal" : "0",
      "latitude" : "24.12261",
      "inDis" : "50",
      "routeId" : "281",
      "seqNo" : "11"
   },
   {
      "GoBack" : "1",
      "longitude" : "120.67007",
      "outDis" : "50",
      "Id" : "0863",
      "oid" : "EFB306FD185D44B7A9ABA04600267AD1",
      "districtId" : "1",
      "nameZh" : "信義國小(五權南路)",
      "pgp" : "0",
      "terminal" : "0",
      "latitude" : "24.12152",
      "inDis" : "50",
      "routeId" : "281",
      "seqNo" : "12"
   },
   {
      "GoBack" : "1",
      "longitude" : "120.66999",
      "outDis" : "50",
      "Id" : "1902",
      "oid" : "EB381B5BE4784B80885E6DCB99F03621",
      "districtId" : "1",
      "nameZh" : "平和里",
      "pgp" : "0",
      "terminal" : "0",
      "latitude" : "24.12011",
      "inDis" : "50",
      "routeId" : "281",
      "seqNo" : "13"
   },
   {
      "GoBack" : "1",
      "longitude" : "120.66999",
      "outDis" : "50",
      "Id" : "4539",
      "oid" : "80FFB8C7CDFF4D19BEC7F7634BAC9BA6",
      "districtId" : "1",
      "nameZh" : "五權南忠明南路口",
      "pgp" : "0",
      "terminal" : "0",
      "latitude" : "24.11844",
      "inDis" : "50",
      "routeId" : "281",
      "seqNo" : "14"
   },
   {
      "GoBack" : "1",
      "longitude" : "120.67002",
      "outDis" : "50",
      "Id" : "0034",
      "oid" : "AF7B8D9067DB42D7BB53F28D740CC905",
      "districtId" : "1",
      "nameZh" : "永和國宅",
      "pgp" : "0",
      "terminal" : "0",
      "latitude" : "24.11683",
      "inDis" : "50",
      "routeId" : "281",
      "seqNo" : "15"
   },
   {
      "GoBack" : "1",
      "longitude" : "120.67011",
      "outDis" : "50",
      "Id" : "0243",
      "oid" : "D3C94FA9FD8B4EB8B49EC02311E05630",
      "districtId" : "1",
      "nameZh" : "下橋仔",
      "pgp" : "0",
      "terminal" : "0",
      "latitude" : "24.11534",
      "inDis" : "50",
      "routeId" : "281",
      "seqNo" : "16"
   },
   {
      "GoBack" : "1",
      "longitude" : "120.66794",
      "outDis" : "50",
      "Id" : "4367",
      "oid" : "0A3798C515914F4285EA071B94502B5A",
      "districtId" : "1",
      "nameZh" : "僑泰中學(高工路)",
      "pgp" : "0",
      "terminal" : "0",
      "latitude" : "24.11439",
      "inDis" : "50",
      "routeId" : "281",
      "seqNo" : "17"
   },
   {
      "GoBack" : "1",
      "longitude" : "120.66615",
      "outDis" : "50",
      "Id" : "5256",
      "oid" : "310787820",
      "districtId" : "1",
      "nameZh" : "新興橋",
      "pgp" : "0",
      "terminal" : "0",
      "latitude" : "24.1117",
      "inDis" : "50",
      "routeId" : "281",
      "seqNo" : "18"
   },
   {
      "GoBack" : "1",
      "longitude" : "120.66645",
      "outDis" : "50",
      "Id" : "5270",
      "oid" : "310787848",
      "districtId" : "1",
      "nameZh" : "樹王福德路口",
      "pgp" : "0",
      "terminal" : "0",
      "latitude" : "24.10908",
      "inDis" : "50",
      "routeId" : "281",
      "seqNo" : "19"
   },
   {
      "GoBack" : "1",
      "longitude" : "120.668",
      "outDis" : "50",
      "Id" : "5269",
      "oid" : "310787846",
      "districtId" : "1",
      "nameZh" : "樹王里",
      "pgp" : "0",
      "terminal" : "0",
      "latitude" : "24.10802",
      "inDis" : "50",
      "routeId" : "281",
      "seqNo" : "20"
   },
   {
      "GoBack" : "1",
      "longitude" : "120.67015",
      "outDis" : "50",
      "Id" : "1182",
      "oid" : "5139",
      "districtId" : "1",
      "nameZh" : "下涼傘樹",
      "pgp" : "0",
      "terminal" : "0",
      "latitude" : "24.10725",
      "inDis" : "50",
      "routeId" : "281",
      "seqNo" : "21"
   },
   {
      "GoBack" : "1",
      "longitude" : "120.67383",
      "outDis" : "50",
      "Id" : "3095",
      "oid" : "6282",
      "districtId" : "1",
      "nameZh" : "頂大里",
      "pgp" : "0",
      "terminal" : "0",
      "latitude" : "24.1042",
      "inDis" : "50",
      "routeId" : "281",
      "seqNo" : "22"
   },
   {
      "GoBack" : "1",
      "longitude" : "120.67646",
      "outDis" : "50",
      "Id" : "1364",
      "oid" : "5279",
      "districtId" : "1",
      "nameZh" : "大里農會",
      "pgp" : "0",
      "terminal" : "0",
      "latitude" : "24.10114",
      "inDis" : "50",
      "routeId" : "281",
      "seqNo" : "23"
   },
   {
      "GoBack" : "1",
      "longitude" : "120.67707",
      "outDis" : "50",
      "Id" : "5218",
      "oid" : "310787742",
      "districtId" : "1",
      "nameZh" : "大里國小",
      "pgp" : "0",
      "terminal" : "0",
      "latitude" : "24.09967",
      "inDis" : "50",
      "routeId" : "281",
      "seqNo" : "24"
   },
   {
      "GoBack" : "1",
      "longitude" : "120.67704",
      "outDis" : "50",
      "Id" : "1360",
      "oid" : "5274",
      "districtId" : "1",
      "nameZh" : "大里",
      "pgp" : "0",
      "terminal" : "0",
      "latitude" : "24.09793",
      "inDis" : "50",
      "routeId" : "281",
      "seqNo" : "25"
   },
   {
      "GoBack" : "1",
      "longitude" : "120.67031",
      "outDis" : "50",
      "Id" : "1972",
      "oid" : "5632",
      "districtId" : "1",
      "nameZh" : "瓦瑤",
      "pgp" : "0",
      "terminal" : "0",
      "latitude" : "24.09715",
      "inDis" : "50",
      "routeId" : "281",
      "seqNo" : "26"
   },
   {
      "GoBack" : "1",
      "longitude" : "120.66475",
      "outDis" : "50",
      "Id" : "3788",
      "oid" : "6625",
      "districtId" : "1",
      "nameZh" : "樹王",
      "pgp" : "0",
      "terminal" : "0",
      "latitude" : "24.09672",
      "inDis" : "50",
      "routeId" : "281",
      "seqNo" : "27"
   },
   {
      "GoBack" : "1",
      "longitude" : "120.65909",
      "outDis" : "50",
      "Id" : "3789",
      "oid" : "6626",
      "districtId" : "1",
      "nameZh" : "德昌社區",
      "pgp" : "0",
      "terminal" : "0",
      "latitude" : "24.09609",
      "inDis" : "50",
      "routeId" : "281",
      "seqNo" : "28"
   },
   {
      "GoBack" : "1",
      "longitude" : "120.65508",
      "outDis" : "50",
      "Id" : "5225",
      "oid" : "310787756",
      "districtId" : "1",
      "nameZh" : "五光五中巷口",
      "pgp" : "0",
      "terminal" : "0",
      "latitude" : "24.09515",
      "inDis" : "50",
      "routeId" : "281",
      "seqNo" : "29"
   },
   {
      "GoBack" : "1",
      "longitude" : "120.6526",
      "outDis" : "50",
      "Id" : "5226",
      "oid" : "310787758",
      "districtId" : "1",
      "nameZh" : "五光里",
      "pgp" : "0",
      "terminal" : "0",
      "latitude" : "24.09438",
      "inDis" : "50",
      "routeId" : "281",
      "seqNo" : "30"
   },
   {
      "GoBack" : "1",
      "longitude" : "120.64686",
      "outDis" : "50",
      "Id" : "1539",
      "oid" : "5374",
      "districtId" : "1",
      "nameZh" : "五張犁",
      "pgp" : "0",
      "terminal" : "0",
      "latitude" : "24.0932",
      "inDis" : "50",
      "routeId" : "281",
      "seqNo" : "31"
   },
   {
      "GoBack" : "1",
      "longitude" : "120.64782",
      "outDis" : "50",
      "Id" : "5457",
      "oid" : "313679740",
      "districtId" : "1",
      "nameZh" : "福泰環中路口",
      "pgp" : "0",
      "terminal" : "0",
      "latitude" : "24.08594",
      "inDis" : "50",
      "routeId" : "281",
      "seqNo" : "32"
   },
   {
      "GoBack" : "1",
      "longitude" : "120.64409",
      "outDis" : "50",
      "Id" : "3649",
      "oid" : "6550",
      "districtId" : "1",
      "nameZh" : "福泰社區",
      "pgp" : "0",
      "terminal" : "0",
      "latitude" : "24.08529",
      "inDis" : "50",
      "routeId" : "281",
      "seqNo" : "33"
   },
   {
      "GoBack" : "1",
      "longitude" : "120.64387",
      "outDis" : "50",
      "Id" : "5458",
      "oid" : "313679741",
      "districtId" : "1",
      "nameZh" : "東園里",
      "pgp" : "0",
      "terminal" : "0",
      "latitude" : "24.08345",
      "inDis" : "50",
      "routeId" : "281",
      "seqNo" : "34"
   },
   {
      "GoBack" : "1",
      "longitude" : "120.64369",
      "outDis" : "50",
      "Id" : "2431",
      "oid" : "5903",
      "districtId" : "1",
      "nameZh" : "東勢園",
      "pgp" : "0",
      "terminal" : "0",
      "latitude" : "24.0819",
      "inDis" : "50",
      "routeId" : "281",
      "seqNo" : "35"
   },
   {
      "GoBack" : "1",
      "longitude" : "120.64321",
      "outDis" : "50",
      "Id" : "5295",
      "oid" : "311033702",
      "districtId" : "1",
      "nameZh" : "北溪心壩",
      "pgp" : "0",
      "terminal" : "0",
      "latitude" : "24.07775",
      "inDis" : "50",
      "routeId" : "281",
      "seqNo" : "36"
   },
   {
      "GoBack" : "1",
      "longitude" : "120.64294",
      "outDis" : "50",
      "Id" : "3465",
      "oid" : "6477",
      "districtId" : "1",
      "nameZh" : "溪心壩",
      "pgp" : "0",
      "terminal" : "0",
      "latitude" : "24.07536",
      "inDis" : "50",
      "routeId" : "281",
      "seqNo" : "37"
   },
   {
      "GoBack" : "1",
      "longitude" : "120.64274",
      "outDis" : "50",
      "Id" : "3471",
      "oid" : "6482",
      "districtId" : "1",
      "nameZh" : "溪南國中",
      "pgp" : "0",
      "terminal" : "0",
      "latitude" : "24.07147",
      "inDis" : "50",
      "routeId" : "281",
      "seqNo" : "38"
   },
   {
      "GoBack" : "1",
      "longitude" : "120.64251",
      "outDis" : "50",
      "Id" : "1802",
      "oid" : "5538",
      "districtId" : "1",
      "nameZh" : "北螺潭",
      "pgp" : "0",
      "terminal" : "0",
      "latitude" : "24.06567",
      "inDis" : "50",
      "routeId" : "281",
      "seqNo" : "39"
   },
   {
      "GoBack" : "1",
      "longitude" : "120.64252",
      "outDis" : "50",
      "Id" : "2023",
      "oid" : "5670",
      "districtId" : "1",
      "nameZh" : "石螺潭",
      "pgp" : "0",
      "terminal" : "0",
      "latitude" : "24.06369",
      "inDis" : "50",
      "routeId" : "281",
      "seqNo" : "40"
   },
   {
      "GoBack" : "1",
      "longitude" : "120.64353",
      "outDis" : "50",
      "Id" : "2623",
      "oid" : "6016",
      "districtId" : "1",
      "nameZh" : "南螺潭",
      "pgp" : "0",
      "terminal" : "0",
      "latitude" : "24.06133",
      "inDis" : "50",
      "routeId" : "281",
      "seqNo" : "41"
   },
   {
      "GoBack" : "1",
      "longitude" : "120.64647",
      "outDis" : "50",
      "Id" : "5257",
      "oid" : "310787822",
      "districtId" : "1",
      "nameZh" : "溪南派出所",
      "pgp" : "0",
      "terminal" : "0",
      "latitude" : "24.05652",
      "inDis" : "50",
      "routeId" : "281",
      "seqNo" : "42"
   },
   {
      "GoBack" : "1",
      "longitude" : "120.64683",
      "outDis" : "50",
      "Id" : "3211",
      "oid" : "6328",
      "districtId" : "1",
      "nameZh" : "喀哩",
      "pgp" : "0",
      "terminal" : "0",
      "latitude" : "24.05536",
      "inDis" : "50",
      "routeId" : "281",
      "seqNo" : "43"
   },
   {
      "GoBack" : "1",
      "longitude" : "120.64837",
      "outDis" : "50",
      "Id" : "3311",
      "oid" : "6382",
      "districtId" : "1",
      "nameZh" : "集會所",
      "pgp" : "0",
      "terminal" : "0",
      "latitude" : "24.05563",
      "inDis" : "50",
      "routeId" : "281",
      "seqNo" : "44"
   },
   {
      "GoBack" : "1",
      "longitude" : "120.65267",
      "outDis" : "50",
      "Id" : "3503",
      "oid" : "6492",
      "districtId" : "1",
      "nameZh" : "萬應宮",
      "pgp" : "0",
      "terminal" : "0",
      "latitude" : "24.05579",
      "inDis" : "50",
      "routeId" : "281",
      "seqNo" : "45"
   },
   {
      "GoBack" : "1",
      "longitude" : "120.65738",
      "outDis" : "50",
      "Id" : "3819",
      "oid" : "6637",
      "districtId" : "1",
      "nameZh" : "錦埔",
      "pgp" : "0",
      "terminal" : "0",
      "latitude" : "24.05775",
      "inDis" : "50",
      "routeId" : "281",
      "seqNo" : "46"
   },
   {
      "GoBack" : "1",
      "longitude" : "120.65918",
      "outDis" : "50",
      "Id" : "3810",
      "oid" : "6633",
      "districtId" : "1",
      "nameZh" : "興台塑膠廠",
      "pgp" : "0",
      "terminal" : "0",
      "latitude" : "24.05895",
      "inDis" : "50",
      "routeId" : "281",
      "seqNo" : "47"
   },
   {
      "GoBack" : "1",
      "longitude" : "120.6642",
      "outDis" : "50",
      "Id" : "1854",
      "oid" : "5582",
      "districtId" : "1",
      "nameZh" : "四德",
      "pgp" : "0",
      "terminal" : "0",
      "latitude" : "24.05994",
      "inDis" : "50",
      "routeId" : "281",
      "seqNo" : "48"
   },
   {
      "GoBack" : "1",
      "longitude" : "120.66818",
      "outDis" : "50",
      "Id" : "5231",
      "oid" : "310787768",
      "districtId" : "1",
      "nameZh" : "四德國小",
      "pgp" : "0",
      "terminal" : "0",
      "latitude" : "24.06094",
      "inDis" : "50",
      "routeId" : "281",
      "seqNo" : "49"
   },
   {
      "GoBack" : "1",
      "longitude" : "120.67271",
      "outDis" : "50",
      "Id" : "5622",
      "oid" : "139010577",
      "districtId" : "1",
      "nameZh" : "水牛城",
      "pgp" : "0",
      "terminal" : "0",
      "latitude" : "24.06278",
      "inDis" : "50",
      "routeId" : "281",
      "seqNo" : "50"
   },
   {
      "GoBack" : "1",
      "longitude" : "120.67672",
      "outDis" : "50",
      "Id" : "3406",
      "oid" : "6440",
      "districtId" : "1",
      "nameZh" : "新厝(四德路)",
      "pgp" : "0",
      "terminal" : "0",
      "latitude" : "24.06422",
      "inDis" : "50",
      "routeId" : "281",
      "seqNo" : "51"
   },
   {
      "GoBack" : "1",
      "longitude" : "120.6797",
      "outDis" : "50",
      "Id" : "1779",
      "oid" : "5521",
      "districtId" : "1",
      "nameZh" : "北柳",
      "pgp" : "0",
      "terminal" : "0",
      "latitude" : "24.06502",
      "inDis" : "50",
      "routeId" : "281",
      "seqNo" : "52"
   },
   {
      "GoBack" : "1",
      "longitude" : "120.68287",
      "outDis" : "50",
      "Id" : "5267",
      "oid" : "310787842",
      "districtId" : "1",
      "nameZh" : "領鮮超市",
      "pgp" : "0",
      "terminal" : "0",
      "latitude" : "24.06538",
      "inDis" : "50",
      "routeId" : "281",
      "seqNo" : "53"
   },
   {
      "GoBack" : "1",
      "longitude" : "120.68643",
      "outDis" : "50",
      "Id" : "3105",
      "oid" : "6288",
      "districtId" : "1",
      "nameZh" : "頂北柳",
      "pgp" : "0",
      "terminal" : "0",
      "latitude" : "24.06576",
      "inDis" : "50",
      "routeId" : "281",
      "seqNo" : "54"
   },
   {
      "GoBack" : "1",
      "longitude" : "120.68809",
      "outDis" : "50",
      "Id" : "2293",
      "oid" : "5821",
      "districtId" : "1",
      "nameZh" : "佳興新村",
      "pgp" : "0",
      "terminal" : "0",
      "latitude" : "24.0659",
      "inDis" : "50",
      "routeId" : "281",
      "seqNo" : "55"
   },
   {
      "GoBack" : "1",
      "longitude" : "120.69175",
      "outDis" : "50",
      "Id" : "3977",
      "oid" : "6723",
      "districtId" : "1",
      "nameZh" : "霧峰國中",
      "pgp" : "0",
      "terminal" : "0",
      "latitude" : "24.06612",
      "inDis" : "50",
      "routeId" : "281",
      "seqNo" : "56"
   },
   {
      "GoBack" : "1",
      "longitude" : "120.6958",
      "outDis" : "50",
      "Id" : "3512",
      "oid" : "6496",
      "districtId" : "1",
      "nameZh" : "聖賢宮",
      "pgp" : "0",
      "terminal" : "0",
      "latitude" : "24.06585",
      "inDis" : "50",
      "routeId" : "281",
      "seqNo" : "57"
   },
   {
      "GoBack" : "1",
      "longitude" : "120.697",
      "outDis" : "50",
      "Id" : "5439",
      "oid" : "313609511",
      "districtId" : "1",
      "nameZh" : "樹仁育仁路口",
      "pgp" : "0",
      "terminal" : "0",
      "latitude" : "24.0639",
      "inDis" : "50",
      "routeId" : "281",
      "seqNo" : "58"
   },
   {
      "GoBack" : "1",
      "longitude" : "120.69643",
      "outDis" : "50",
      "Id" : "5444",
      "oid" : "313653113",
      "districtId" : "1",
      "nameZh" : "福德宮",
      "pgp" : "0",
      "terminal" : "0",
      "latitude" : "24.06007",
      "inDis" : "50",
      "routeId" : "281",
      "seqNo" : "59"
   },
   {
      "GoBack" : "1",
      "longitude" : "120.69772",
      "outDis" : "50",
      "Id" : "3976",
      "oid" : "6722",
      "districtId" : "1",
      "nameZh" : "霧峰國小",
      "pgp" : "0",
      "terminal" : "0",
      "latitude" : "24.05731",
      "inDis" : "50",
      "routeId" : "281",
      "seqNo" : "60"
   },
   {
      "GoBack" : "1",
      "longitude" : "120.69799",
      "outDis" : "50",
      "Id" : "5546",
      "oid" : "316462697",
      "districtId" : "1",
      "nameZh" : "教育部國教署",
      "pgp" : "0",
      "terminal" : "0",
      "latitude" : "24.05932",
      "inDis" : "50",
      "routeId" : "281",
      "seqNo" : "61"
   },
   {
      "GoBack" : "1",
      "longitude" : "120.69829",
      "outDis" : "50",
      "Id" : "3978",
      "oid" : "6724",
      "districtId" : "1",
      "nameZh" : "霧峰郵局",
      "pgp" : "0",
      "terminal" : "0",
      "latitude" : "24.06197",
      "inDis" : "50",
      "routeId" : "281",
      "seqNo" : "62"
   },
   {
      "GoBack" : "1",
      "longitude" : "120.69858",
      "outDis" : "50",
      "Id" : "3972",
      "oid" : "6720",
      "districtId" : "1",
      "nameZh" : "霧峰",
      "pgp" : "0",
      "terminal" : "0",
      "latitude" : "24.06376",
      "inDis" : "50",
      "routeId" : "281",
      "seqNo" : "63"
   },
   {
      "GoBack" : "1",
      "longitude" : "120.69908",
      "outDis" : "50",
      "Id" : "4972",
      "oid" : "309120171",
      "districtId" : "1",
      "nameZh" : "中正草湖路口",
      "pgp" : "0",
      "terminal" : "0",
      "latitude" : "24.06822",
      "inDis" : "50",
      "routeId" : "281",
      "seqNo" : "64"
   },
   {
      "GoBack" : "1",
      "longitude" : "120.69928",
      "outDis" : "50",
      "Id" : "1994",
      "oid" : "13147",
      "districtId" : "1",
      "nameZh" : "甲寅",
      "pgp" : "0",
      "terminal" : "0",
      "latitude" : "24.0697",
      "inDis" : "50",
      "routeId" : "281",
      "seqNo" : "65"
   },
   {
      "GoBack" : "1",
      "longitude" : "120.69968",
      "outDis" : "50",
      "Id" : "3980",
      "oid" : "13249",
      "districtId" : "1",
      "nameZh" : "霧峰農工",
      "pgp" : "0",
      "terminal" : "0",
      "latitude" : "24.07308",
      "inDis" : "50",
      "routeId" : "281",
      "seqNo" : "66"
   },
   {
      "GoBack" : "2",
      "longitude" : "120.69968",
      "outDis" : "50",
      "Id" : "3980",
      "oid" : "13249",
      "districtId" : "1",
      "nameZh" : "霧峰農工",
      "pgp" : "0",
      "terminal" : "0",
      "latitude" : "24.07308",
      "inDis" : "50",
      "routeId" : "281",
      "seqNo" : "1"
   },
   {
      "GoBack" : "2",
      "longitude" : "120.69942",
      "outDis" : "50",
      "Id" : "1994",
      "oid" : "13148",
      "districtId" : "1",
      "nameZh" : "甲寅",
      "pgp" : "0",
      "terminal" : "0",
      "latitude" : "24.06952",
      "inDis" : "50",
      "routeId" : "281",
      "seqNo" : "2"
   },
   {
      "GoBack" : "2",
      "longitude" : "120.69913",
      "outDis" : "50",
      "Id" : "4972",
      "oid" : "309120172",
      "districtId" : "1",
      "nameZh" : "中正草湖路口",
      "pgp" : "0",
      "terminal" : "0",
      "latitude" : "24.0673",
      "inDis" : "50",
      "routeId" : "281",
      "seqNo" : "3"
   },
   {
      "GoBack" : "2",
      "longitude" : "120.69858",
      "outDis" : "50",
      "Id" : "3972",
      "oid" : "6720",
      "districtId" : "1",
      "nameZh" : "霧峰",
      "pgp" : "0",
      "terminal" : "0",
      "latitude" : "24.06376",
      "inDis" : "50",
      "routeId" : "281",
      "seqNo" : "4"
   },
   {
      "GoBack" : "2",
      "longitude" : "120.69829",
      "outDis" : "50",
      "Id" : "3978",
      "oid" : "6724",
      "districtId" : "1",
      "nameZh" : "霧峰郵局",
      "pgp" : "0",
      "terminal" : "0",
      "latitude" : "24.06197",
      "inDis" : "50",
      "routeId" : "281",
      "seqNo" : "5"
   },
   {
      "GoBack" : "2",
      "longitude" : "120.69799",
      "outDis" : "50",
      "Id" : "5546",
      "oid" : "316462697",
      "districtId" : "1",
      "nameZh" : "教育部國教署",
      "pgp" : "0",
      "terminal" : "0",
      "latitude" : "24.05932",
      "inDis" : "50",
      "routeId" : "281",
      "seqNo" : "6"
   },
   {
      "GoBack" : "2",
      "longitude" : "120.69772",
      "outDis" : "50",
      "Id" : "3976",
      "oid" : "6722",
      "districtId" : "1",
      "nameZh" : "霧峰國小",
      "pgp" : "0",
      "terminal" : "0",
      "latitude" : "24.05731",
      "inDis" : "50",
      "routeId" : "281",
      "seqNo" : "7"
   },
   {
      "GoBack" : "2",
      "longitude" : "120.69643",
      "outDis" : "50",
      "Id" : "5444",
      "oid" : "313653113",
      "districtId" : "1",
      "nameZh" : "福德宮",
      "pgp" : "0",
      "terminal" : "0",
      "latitude" : "24.06007",
      "inDis" : "50",
      "routeId" : "281",
      "seqNo" : "8"
   },
   {
      "GoBack" : "2",
      "longitude" : "120.697",
      "outDis" : "50",
      "Id" : "5439",
      "oid" : "313609511",
      "districtId" : "1",
      "nameZh" : "樹仁育仁路口",
      "pgp" : "0",
      "terminal" : "0",
      "latitude" : "24.0639",
      "inDis" : "50",
      "routeId" : "281",
      "seqNo" : "9"
   },
   {
      "GoBack" : "2",
      "longitude" : "120.6958",
      "outDis" : "50",
      "Id" : "3512",
      "oid" : "6496",
      "districtId" : "1",
      "nameZh" : "聖賢宮",
      "pgp" : "0",
      "terminal" : "0",
      "latitude" : "24.06585",
      "inDis" : "50",
      "routeId" : "281",
      "seqNo" : "10"
   },
   {
      "GoBack" : "2",
      "longitude" : "120.69175",
      "outDis" : "50",
      "Id" : "3977",
      "oid" : "6723",
      "districtId" : "1",
      "nameZh" : "霧峰國中",
      "pgp" : "0",
      "terminal" : "0",
      "latitude" : "24.06612",
      "inDis" : "50",
      "routeId" : "281",
      "seqNo" : "11"
   },
   {
      "GoBack" : "2",
      "longitude" : "120.68809",
      "outDis" : "50",
      "Id" : "2293",
      "oid" : "5821",
      "districtId" : "1",
      "nameZh" : "佳興新村",
      "pgp" : "0",
      "terminal" : "0",
      "latitude" : "24.0659",
      "inDis" : "50",
      "routeId" : "281",
      "seqNo" : "12"
   },
   {
      "GoBack" : "2",
      "longitude" : "120.68643",
      "outDis" : "50",
      "Id" : "3105",
      "oid" : "6288",
      "districtId" : "1",
      "nameZh" : "頂北柳",
      "pgp" : "0",
      "terminal" : "0",
      "latitude" : "24.06576",
      "inDis" : "50",
      "routeId" : "281",
      "seqNo" : "13"
   },
   {
      "GoBack" : "2",
      "longitude" : "120.68287",
      "outDis" : "50",
      "Id" : "5267",
      "oid" : "310787843",
      "districtId" : "1",
      "nameZh" : "領鮮超市",
      "pgp" : "0",
      "terminal" : "0",
      "latitude" : "24.06538",
      "inDis" : "50",
      "routeId" : "281",
      "seqNo" : "14"
   },
   {
      "GoBack" : "2",
      "longitude" : "120.6797",
      "outDis" : "50",
      "Id" : "1779",
      "oid" : "5521",
      "districtId" : "1",
      "nameZh" : "北柳",
      "pgp" : "0",
      "terminal" : "0",
      "latitude" : "24.06502",
      "inDis" : "50",
      "routeId" : "281",
      "seqNo" : "15"
   },
   {
      "GoBack" : "2",
      "longitude" : "120.67672",
      "outDis" : "50",
      "Id" : "3406",
      "oid" : "6440",
      "districtId" : "1",
      "nameZh" : "新厝(四德路)",
      "pgp" : "0",
      "terminal" : "0",
      "latitude" : "24.06422",
      "inDis" : "50",
      "routeId" : "281",
      "seqNo" : "16"
   },
   {
      "GoBack" : "2",
      "longitude" : "120.67271",
      "outDis" : "50",
      "Id" : "5622",
      "oid" : "139010577",
      "districtId" : "1",
      "nameZh" : "水牛城",
      "pgp" : "0",
      "terminal" : "0",
      "latitude" : "24.06278",
      "inDis" : "50",
      "routeId" : "281",
      "seqNo" : "17"
   },
   {
      "GoBack" : "2",
      "longitude" : "120.66818",
      "outDis" : "50",
      "Id" : "5231",
      "oid" : "310787769",
      "districtId" : "1",
      "nameZh" : "四德國小",
      "pgp" : "0",
      "terminal" : "0",
      "latitude" : "24.06094",
      "inDis" : "50",
      "routeId" : "281",
      "seqNo" : "18"
   },
   {
      "GoBack" : "2",
      "longitude" : "120.6642",
      "outDis" : "50",
      "Id" : "1854",
      "oid" : "5582",
      "districtId" : "1",
      "nameZh" : "四德",
      "pgp" : "0",
      "terminal" : "0",
      "latitude" : "24.05994",
      "inDis" : "50",
      "routeId" : "281",
      "seqNo" : "19"
   },
   {
      "GoBack" : "2",
      "longitude" : "120.65918",
      "outDis" : "50",
      "Id" : "3810",
      "oid" : "6633",
      "districtId" : "1",
      "nameZh" : "興台塑膠廠",
      "pgp" : "0",
      "terminal" : "0",
      "latitude" : "24.05895",
      "inDis" : "50",
      "routeId" : "281",
      "seqNo" : "20"
   },
   {
      "GoBack" : "2",
      "longitude" : "120.65738",
      "outDis" : "50",
      "Id" : "3819",
      "oid" : "6637",
      "districtId" : "1",
      "nameZh" : "錦埔",
      "pgp" : "0",
      "terminal" : "0",
      "latitude" : "24.05775",
      "inDis" : "50",
      "routeId" : "281",
      "seqNo" : "21"
   },
   {
      "GoBack" : "2",
      "longitude" : "120.65267",
      "outDis" : "50",
      "Id" : "3503",
      "oid" : "6492",
      "districtId" : "1",
      "nameZh" : "萬應宮",
      "pgp" : "0",
      "terminal" : "0",
      "latitude" : "24.05579",
      "inDis" : "50",
      "routeId" : "281",
      "seqNo" : "22"
   },
   {
      "GoBack" : "2",
      "longitude" : "120.64837",
      "outDis" : "50",
      "Id" : "3311",
      "oid" : "6382",
      "districtId" : "1",
      "nameZh" : "集會所",
      "pgp" : "0",
      "terminal" : "0",
      "latitude" : "24.05563",
      "inDis" : "50",
      "routeId" : "281",
      "seqNo" : "23"
   },
   {
      "GoBack" : "2",
      "longitude" : "120.64683",
      "outDis" : "50",
      "Id" : "3211",
      "oid" : "6328",
      "districtId" : "1",
      "nameZh" : "喀哩",
      "pgp" : "0",
      "terminal" : "0",
      "latitude" : "24.05536",
      "inDis" : "50",
      "routeId" : "281",
      "seqNo" : "24"
   },
   {
      "GoBack" : "2",
      "longitude" : "120.64647",
      "outDis" : "50",
      "Id" : "5257",
      "oid" : "310787823",
      "districtId" : "1",
      "nameZh" : "溪南派出所",
      "pgp" : "0",
      "terminal" : "0",
      "latitude" : "24.05652",
      "inDis" : "50",
      "routeId" : "281",
      "seqNo" : "25"
   },
   {
      "GoBack" : "2",
      "longitude" : "120.64353",
      "outDis" : "50",
      "Id" : "2623",
      "oid" : "6016",
      "districtId" : "1",
      "nameZh" : "南螺潭",
      "pgp" : "0",
      "terminal" : "0",
      "latitude" : "24.06133",
      "inDis" : "50",
      "routeId" : "281",
      "seqNo" : "26"
   },
   {
      "GoBack" : "2",
      "longitude" : "120.64252",
      "outDis" : "50",
      "Id" : "2023",
      "oid" : "5670",
      "districtId" : "1",
      "nameZh" : "石螺潭",
      "pgp" : "0",
      "terminal" : "0",
      "latitude" : "24.06369",
      "inDis" : "50",
      "routeId" : "281",
      "seqNo" : "27"
   },
   {
      "GoBack" : "2",
      "longitude" : "120.64251",
      "outDis" : "50",
      "Id" : "1802",
      "oid" : "5538",
      "districtId" : "1",
      "nameZh" : "北螺潭",
      "pgp" : "0",
      "terminal" : "0",
      "latitude" : "24.06567",
      "inDis" : "50",
      "routeId" : "281",
      "seqNo" : "28"
   },
   {
      "GoBack" : "2",
      "longitude" : "120.64274",
      "outDis" : "50",
      "Id" : "3471",
      "oid" : "6482",
      "districtId" : "1",
      "nameZh" : "溪南國中",
      "pgp" : "0",
      "terminal" : "0",
      "latitude" : "24.07147",
      "inDis" : "50",
      "routeId" : "281",
      "seqNo" : "29"
   },
   {
      "GoBack" : "2",
      "longitude" : "120.64294",
      "outDis" : "50",
      "Id" : "3465",
      "oid" : "6477",
      "districtId" : "1",
      "nameZh" : "溪心壩",
      "pgp" : "0",
      "terminal" : "0",
      "latitude" : "24.07536",
      "inDis" : "50",
      "routeId" : "281",
      "seqNo" : "30"
   },
   {
      "GoBack" : "2",
      "longitude" : "120.64321",
      "outDis" : "50",
      "Id" : "5295",
      "oid" : "311033702",
      "districtId" : "1",
      "nameZh" : "北溪心壩",
      "pgp" : "0",
      "terminal" : "0",
      "latitude" : "24.07775",
      "inDis" : "50",
      "routeId" : "281",
      "seqNo" : "31"
   },
   {
      "GoBack" : "2",
      "longitude" : "120.64369",
      "outDis" : "50",
      "Id" : "2431",
      "oid" : "5903",
      "districtId" : "1",
      "nameZh" : "東勢園",
      "pgp" : "0",
      "terminal" : "0",
      "latitude" : "24.0819",
      "inDis" : "50",
      "routeId" : "281",
      "seqNo" : "32"
   },
   {
      "GoBack" : "2",
      "longitude" : "120.64387",
      "outDis" : "50",
      "Id" : "5458",
      "oid" : "313679741",
      "districtId" : "1",
      "nameZh" : "東園里",
      "pgp" : "0",
      "terminal" : "0",
      "latitude" : "24.08345",
      "inDis" : "50",
      "routeId" : "281",
      "seqNo" : "33"
   },
   {
      "GoBack" : "2",
      "longitude" : "120.64409",
      "outDis" : "50",
      "Id" : "3649",
      "oid" : "6550",
      "districtId" : "1",
      "nameZh" : "福泰社區",
      "pgp" : "0",
      "terminal" : "0",
      "latitude" : "24.08529",
      "inDis" : "50",
      "routeId" : "281",
      "seqNo" : "34"
   },
   {
      "GoBack" : "2",
      "longitude" : "120.64782",
      "outDis" : "50",
      "Id" : "5457",
      "oid" : "313679740",
      "districtId" : "1",
      "nameZh" : "福泰環中路口",
      "pgp" : "0",
      "terminal" : "0",
      "latitude" : "24.08594",
      "inDis" : "50",
      "routeId" : "281",
      "seqNo" : "35"
   },
   {
      "GoBack" : "2",
      "longitude" : "120.64686",
      "outDis" : "50",
      "Id" : "1539",
      "oid" : "5374",
      "districtId" : "1",
      "nameZh" : "五張犁",
      "pgp" : "0",
      "terminal" : "0",
      "latitude" : "24.0932",
      "inDis" : "50",
      "routeId" : "281",
      "seqNo" : "36"
   },
   {
      "GoBack" : "2",
      "longitude" : "120.6526",
      "outDis" : "50",
      "Id" : "5226",
      "oid" : "310787759",
      "districtId" : "1",
      "nameZh" : "五光里",
      "pgp" : "0",
      "terminal" : "0",
      "latitude" : "24.09438",
      "inDis" : "50",
      "routeId" : "281",
      "seqNo" : "37"
   },
   {
      "GoBack" : "2",
      "longitude" : "120.65508",
      "outDis" : "50",
      "Id" : "5225",
      "oid" : "310787757",
      "districtId" : "1",
      "nameZh" : "五光五中巷口",
      "pgp" : "0",
      "terminal" : "0",
      "latitude" : "24.09515",
      "inDis" : "50",
      "routeId" : "281",
      "seqNo" : "38"
   },
   {
      "GoBack" : "2",
      "longitude" : "120.65909",
      "outDis" : "50",
      "Id" : "3789",
      "oid" : "6626",
      "districtId" : "1",
      "nameZh" : "德昌社區",
      "pgp" : "0",
      "terminal" : "0",
      "latitude" : "24.09609",
      "inDis" : "50",
      "routeId" : "281",
      "seqNo" : "39"
   },
   {
      "GoBack" : "2",
      "longitude" : "120.66475",
      "outDis" : "50",
      "Id" : "3788",
      "oid" : "6625",
      "districtId" : "1",
      "nameZh" : "樹王",
      "pgp" : "0",
      "terminal" : "0",
      "latitude" : "24.09672",
      "inDis" : "50",
      "routeId" : "281",
      "seqNo" : "40"
   },
   {
      "GoBack" : "2",
      "longitude" : "120.67031",
      "outDis" : "50",
      "Id" : "1972",
      "oid" : "5632",
      "districtId" : "1",
      "nameZh" : "瓦瑤",
      "pgp" : "0",
      "terminal" : "0",
      "latitude" : "24.09715",
      "inDis" : "50",
      "routeId" : "281",
      "seqNo" : "41"
   },
   {
      "GoBack" : "2",
      "longitude" : "120.67704",
      "outDis" : "50",
      "Id" : "1360",
      "oid" : "5274",
      "districtId" : "1",
      "nameZh" : "大里",
      "pgp" : "0",
      "terminal" : "0",
      "latitude" : "24.09793",
      "inDis" : "50",
      "routeId" : "281",
      "seqNo" : "42"
   },
   {
      "GoBack" : "2",
      "longitude" : "120.67707",
      "outDis" : "50",
      "Id" : "5218",
      "oid" : "310787743",
      "districtId" : "1",
      "nameZh" : "大里國小",
      "pgp" : "0",
      "terminal" : "0",
      "latitude" : "24.09967",
      "inDis" : "50",
      "routeId" : "281",
      "seqNo" : "43"
   },
   {
      "GoBack" : "2",
      "longitude" : "120.67646",
      "outDis" : "50",
      "Id" : "1364",
      "oid" : "5279",
      "districtId" : "1",
      "nameZh" : "大里農會",
      "pgp" : "0",
      "terminal" : "0",
      "latitude" : "24.10114",
      "inDis" : "50",
      "routeId" : "281",
      "seqNo" : "44"
   },
   {
      "GoBack" : "2",
      "longitude" : "120.67383",
      "outDis" : "50",
      "Id" : "3095",
      "oid" : "6282",
      "districtId" : "1",
      "nameZh" : "頂大里",
      "pgp" : "0",
      "terminal" : "0",
      "latitude" : "24.1042",
      "inDis" : "50",
      "routeId" : "281",
      "seqNo" : "45"
   },
   {
      "GoBack" : "2",
      "longitude" : "120.67015",
      "outDis" : "50",
      "Id" : "1182",
      "oid" : "5139",
      "districtId" : "1",
      "nameZh" : "下涼傘樹",
      "pgp" : "0",
      "terminal" : "0",
      "latitude" : "24.10725",
      "inDis" : "50",
      "routeId" : "281",
      "seqNo" : "46"
   },
   {
      "GoBack" : "2",
      "longitude" : "120.668",
      "outDis" : "50",
      "Id" : "5269",
      "oid" : "310787847",
      "districtId" : "1",
      "nameZh" : "樹王里",
      "pgp" : "0",
      "terminal" : "0",
      "latitude" : "24.10802",
      "inDis" : "50",
      "routeId" : "281",
      "seqNo" : "47"
   },
   {
      "GoBack" : "2",
      "longitude" : "120.66645",
      "outDis" : "50",
      "Id" : "5270",
      "oid" : "310787849",
      "districtId" : "1",
      "nameZh" : "樹王福德路口",
      "pgp" : "0",
      "terminal" : "0",
      "latitude" : "24.10908",
      "inDis" : "50",
      "routeId" : "281",
      "seqNo" : "48"
   },
   {
      "GoBack" : "2",
      "longitude" : "120.66615",
      "outDis" : "50",
      "Id" : "5256",
      "oid" : "310787820",
      "districtId" : "1",
      "nameZh" : "新興橋",
      "pgp" : "0",
      "terminal" : "0",
      "latitude" : "24.1117",
      "inDis" : "50",
      "routeId" : "281",
      "seqNo" : "49"
   },
   {
      "GoBack" : "2",
      "longitude" : "120.66794",
      "outDis" : "50",
      "Id" : "4367",
      "oid" : "0A3798C515914F4285EA071B94502B5A",
      "districtId" : "1",
      "nameZh" : "僑泰中學(高工路)",
      "pgp" : "0",
      "terminal" : "0",
      "latitude" : "24.11439",
      "inDis" : "50",
      "routeId" : "281",
      "seqNo" : "50"
   },
   {
      "GoBack" : "2",
      "longitude" : "120.67011",
      "outDis" : "50",
      "Id" : "0243",
      "oid" : "D3C94FA9FD8B4EB8B49EC02311E05630",
      "districtId" : "1",
      "nameZh" : "下橋仔",
      "pgp" : "0",
      "terminal" : "0",
      "latitude" : "24.11534",
      "inDis" : "50",
      "routeId" : "281",
      "seqNo" : "51"
   },
   {
      "GoBack" : "2",
      "longitude" : "120.67002",
      "outDis" : "50",
      "Id" : "0034",
      "oid" : "AF7B8D9067DB42D7BB53F28D740CC905",
      "districtId" : "1",
      "nameZh" : "永和國宅",
      "pgp" : "0",
      "terminal" : "0",
      "latitude" : "24.11683",
      "inDis" : "50",
      "routeId" : "281",
      "seqNo" : "52"
   },
   {
      "GoBack" : "2",
      "longitude" : "120.66999",
      "outDis" : "50",
      "Id" : "4539",
      "oid" : "80FFB8C7CDFF4D19BEC7F7634BAC9BA6",
      "districtId" : "1",
      "nameZh" : "五權南忠明南路口",
      "pgp" : "0",
      "terminal" : "0",
      "latitude" : "24.11844",
      "inDis" : "50",
      "routeId" : "281",
      "seqNo" : "53"
   },
   {
      "GoBack" : "2",
      "longitude" : "120.66999",
      "outDis" : "50",
      "Id" : "1902",
      "oid" : "EB381B5BE4784B80885E6DCB99F03621",
      "districtId" : "1",
      "nameZh" : "平和里",
      "pgp" : "0",
      "terminal" : "0",
      "latitude" : "24.12011",
      "inDis" : "50",
      "routeId" : "281",
      "seqNo" : "54"
   },
   {
      "GoBack" : "2",
      "longitude" : "120.67009",
      "outDis" : "50",
      "Id" : "0863",
      "oid" : "5970",
      "districtId" : "1",
      "nameZh" : "信義國小(五權南路)",
      "pgp" : "0",
      "terminal" : "0",
      "latitude" : "24.12133",
      "inDis" : "50",
      "routeId" : "281",
      "seqNo" : "55"
   },
   {
      "GoBack" : "2",
      "longitude" : "120.67006",
      "outDis" : "50",
      "Id" : "0246",
      "oid" : "1B7D87EB73F24790871C0030D127A2EC",
      "districtId" : "1",
      "nameZh" : "永和社區",
      "pgp" : "0",
      "terminal" : "0",
      "latitude" : "24.12261",
      "inDis" : "50",
      "routeId" : "281",
      "seqNo" : "56"
   },
   {
      "GoBack" : "2",
      "longitude" : "120.67006",
      "outDis" : "50",
      "Id" : "0247",
      "oid" : "6313",
      "districtId" : "1",
      "nameZh" : "五權南永和街口",
      "pgp" : "0",
      "terminal" : "0",
      "latitude" : "24.12506",
      "inDis" : "50",
      "routeId" : "281",
      "seqNo" : "57"
   },
   {
      "GoBack" : "2",
      "longitude" : "120.66971",
      "outDis" : "50",
      "Id" : "5404",
      "oid" : "319989588",
      "districtId" : "1",
      "nameZh" : "公共資訊圖書館(五權南路)",
      "pgp" : "0",
      "terminal" : "0",
      "latitude" : "24.12716",
      "inDis" : "50",
      "routeId" : "281",
      "seqNo" : "58"
   },
   {
      "GoBack" : "2",
      "longitude" : "120.67196",
      "outDis" : "50",
      "Id" : "5393",
      "oid" : "312954998",
      "districtId" : "1",
      "nameZh" : "公共資訊圖書館(復興路)",
      "pgp" : "0",
      "terminal" : "0",
      "latitude" : "24.12985",
      "inDis" : "50",
      "routeId" : "281",
      "seqNo" : "59"
   },
   {
      "GoBack" : "2",
      "longitude" : "120.6736",
      "outDis" : "50",
      "Id" : "0178",
      "oid" : "6256",
      "districtId" : "1",
      "nameZh" : "第三分局",
      "pgp" : "0",
      "terminal" : "0",
      "latitude" : "24.13047",
      "inDis" : "50",
      "routeId" : "281",
      "seqNo" : "60"
   },
   {
      "GoBack" : "2",
      "longitude" : "120.67581",
      "outDis" : "50",
      "Id" : "4604",
      "oid" : "ED999C3DF7BF4281956E397CF3667419",
      "districtId" : "1",
      "nameZh" : "復興有恆街口",
      "pgp" : "0",
      "terminal" : "0",
      "latitude" : "24.13144",
      "inDis" : "50",
      "routeId" : "281",
      "seqNo" : "61"
   },
   {
      "GoBack" : "2",
      "longitude" : "120.67707",
      "outDis" : "50",
      "Id" : "0180",
      "oid" : "03DDDEF457214E05A1045B30E6A40DB6",
      "districtId" : "1",
      "nameZh" : "林祖厝",
      "pgp" : "0",
      "terminal" : "0",
      "latitude" : "24.13188",
      "inDis" : "50",
      "routeId" : "281",
      "seqNo" : "62"
   },
   {
      "GoBack" : "2",
      "longitude" : "120.67994",
      "outDis" : "50",
      "Id" : "1659",
      "oid" : "EC33BF1624CE495F89558F475C1E12FF",
      "districtId" : "1",
      "nameZh" : "文化創意園區",
      "pgp" : "0",
      "terminal" : "0",
      "latitude" : "24.13317",
      "inDis" : "50",
      "routeId" : "281",
      "seqNo" : "63"
   },
   {
      "GoBack" : "2",
      "longitude" : "120.68215",
      "outDis" : "50",
      "Id" : "0518",
      "oid" : "8163",
      "districtId" : "1",
      "nameZh" : "臺中酒廠(復興路)",
      "pgp" : "0",
      "terminal" : "0",
      "latitude" : "24.13408",
      "inDis" : "50",
      "routeId" : "281",
      "seqNo" : "64"
   },
   {
      "GoBack" : "2",
      "longitude" : "120.6846",
      "outDis" : "50",
      "Id" : "1824",
      "oid" : "352F71F4F6F9446688F03EED41D42F66",
      "districtId" : "1",
      "nameZh" : "臺中火車站",
      "pgp" : "0",
      "terminal" : "0",
      "latitude" : "24.13734",
      "inDis" : "50",
      "routeId" : "281",
      "seqNo" : "65"
   },
   {
      "GoBack" : "2",
      "longitude" : "120.68576",
      "outDis" : "50",
      "Id" : "0402",
      "oid" : "9402E370594D47859D7EE2FD423355D0",
      "districtId" : "1",
      "nameZh" : "干城站",
      "pgp" : "0",
      "terminal" : "0",
      "latitude" : "24.1418",
      "inDis" : "50",
      "routeId" : "281",
      "seqNo" : "66"
   }
]
