[
   {
      "GoBack" : "1",
      "longitude" : "120.61536",
      "outDis" : "350",
      "Id" : "2907",
      "oid" : "14000",
      "districtId" : "1",
      "nameZh" : "高鐵臺中站(1月台)",
      "pgp" : "0",
      "terminal" : "0",
      "latitude" : "24.11399",
      "inDis" : "350",
      "routeId" : "93",
      "seqNo" : "1"
   },
   {
      "GoBack" : "1",
      "longitude" : "120.60767",
      "outDis" : "50",
      "Id" : "5082",
      "oid" : "14001",
      "districtId" : "1",
      "nameZh" : "三和里1",
      "pgp" : "0",
      "terminal" : "0",
      "latitude" : "24.10859",
      "inDis" : "50",
      "routeId" : "93",
      "seqNo" : "8"
   },
   {
      "GoBack" : "1",
      "longitude" : "120.60634",
      "outDis" : "50",
      "Id" : "5083",
      "oid" : "14002",
      "districtId" : "1",
      "nameZh" : "三和里2",
      "pgp" : "0",
      "terminal" : "0",
      "latitude" : "24.10878",
      "inDis" : "50",
      "routeId" : "93",
      "seqNo" : "9"
   },
   {
      "GoBack" : "1",
      "longitude" : "120.6047",
      "outDis" : "50",
      "Id" : "4468",
      "oid" : "14003",
      "districtId" : "1",
      "nameZh" : "烏日戶政",
      "pgp" : "0",
      "terminal" : "0",
      "latitude" : "24.10927",
      "inDis" : "50",
      "routeId" : "93",
      "seqNo" : "10"
   },
   {
      "GoBack" : "1",
      "longitude" : "120.60156",
      "outDis" : "50",
      "Id" : "2120",
      "oid" : "2094",
      "districtId" : "1",
      "nameZh" : "成功嶺",
      "pgp" : "0",
      "terminal" : "0",
      "latitude" : "24.11044",
      "inDis" : "50",
      "routeId" : "93",
      "seqNo" : "11"
   },
   {
      "GoBack" : "1",
      "longitude" : "120.59403",
      "outDis" : "50",
      "Id" : "3277",
      "oid" : "14005",
      "districtId" : "1",
      "nameZh" : "善光寺",
      "pgp" : "0",
      "terminal" : "0",
      "latitude" : "24.11295",
      "inDis" : "50",
      "routeId" : "93",
      "seqNo" : "12"
   },
   {
      "GoBack" : "1",
      "longitude" : "120.58856",
      "outDis" : "50",
      "Id" : "1743",
      "oid" : "14006",
      "districtId" : "1",
      "nameZh" : "王田",
      "pgp" : "0",
      "terminal" : "0",
      "latitude" : "24.11348",
      "inDis" : "50",
      "routeId" : "93",
      "seqNo" : "13"
   },
   {
      "GoBack" : "1",
      "longitude" : "120.57649",
      "outDis" : "50",
      "Id" : "2597",
      "oid" : "14007",
      "districtId" : "1",
      "nameZh" : "南追分",
      "pgp" : "0",
      "terminal" : "0",
      "latitude" : "24.11887",
      "inDis" : "50",
      "routeId" : "93",
      "seqNo" : "18"
   },
   {
      "GoBack" : "1",
      "longitude" : "120.57048",
      "outDis" : "50",
      "Id" : "2884",
      "oid" : "14008",
      "districtId" : "1",
      "nameZh" : "追分",
      "pgp" : "0",
      "terminal" : "0",
      "latitude" : "24.12114",
      "inDis" : "50",
      "routeId" : "93",
      "seqNo" : "19"
   },
   {
      "GoBack" : "1",
      "longitude" : "120.56812",
      "outDis" : "50",
      "Id" : "2885",
      "oid" : "14009",
      "districtId" : "1",
      "nameZh" : "追分國小",
      "pgp" : "0",
      "terminal" : "0",
      "latitude" : "24.12203",
      "inDis" : "50",
      "routeId" : "93",
      "seqNo" : "20"
   },
   {
      "GoBack" : "1",
      "longitude" : "120.5645",
      "outDis" : "50",
      "Id" : "1390",
      "oid" : "14010",
      "districtId" : "1",
      "nameZh" : "山仔頂",
      "pgp" : "0",
      "terminal" : "0",
      "latitude" : "24.12339",
      "inDis" : "50",
      "routeId" : "93",
      "seqNo" : "21"
   },
   {
      "GoBack" : "1",
      "longitude" : "120.56207",
      "outDis" : "50",
      "Id" : "2886",
      "oid" : "14011",
      "districtId" : "1",
      "nameZh" : "追分郵局",
      "pgp" : "0",
      "terminal" : "0",
      "latitude" : "24.12482",
      "inDis" : "50",
      "routeId" : "93",
      "seqNo" : "22"
   },
   {
      "GoBack" : "1",
      "longitude" : "120.56034",
      "outDis" : "50",
      "Id" : "4511",
      "oid" : "14012",
      "districtId" : "1",
      "nameZh" : "興國公司",
      "pgp" : "0",
      "terminal" : "0",
      "latitude" : "24.12584",
      "inDis" : "50",
      "routeId" : "93",
      "seqNo" : "23"
   },
   {
      "GoBack" : "1",
      "longitude" : "120.55759",
      "outDis" : "50",
      "Id" : "4514",
      "oid" : "14013",
      "districtId" : "1",
      "nameZh" : "營埔里",
      "pgp" : "0",
      "terminal" : "0",
      "latitude" : "24.12759",
      "inDis" : "50",
      "routeId" : "93",
      "seqNo" : "24"
   },
   {
      "GoBack" : "1",
      "longitude" : "120.55397",
      "outDis" : "50",
      "Id" : "2494",
      "oid" : "14014",
      "districtId" : "1",
      "nameZh" : "社腳",
      "pgp" : "0",
      "terminal" : "0",
      "latitude" : "24.13248",
      "inDis" : "50",
      "routeId" : "93",
      "seqNo" : "25"
   },
   {
      "GoBack" : "1",
      "longitude" : "120.55358",
      "outDis" : "50",
      "Id" : "2443",
      "oid" : "14015",
      "districtId" : "1",
      "nameZh" : "東興紡織",
      "pgp" : "0",
      "terminal" : "0",
      "latitude" : "24.13472",
      "inDis" : "50",
      "routeId" : "93",
      "seqNo" : "26"
   },
   {
      "GoBack" : "1",
      "longitude" : "120.5518",
      "outDis" : "50",
      "Id" : "4038",
      "oid" : "14016",
      "districtId" : "1",
      "nameZh" : "崁仔腳",
      "pgp" : "0",
      "terminal" : "0",
      "latitude" : "24.13717",
      "inDis" : "50",
      "routeId" : "93",
      "seqNo" : "27"
   },
   {
      "GoBack" : "1",
      "longitude" : "120.54912",
      "outDis" : "50",
      "Id" : "4491",
      "oid" : "14017",
      "districtId" : "1",
      "nameZh" : "新興里",
      "pgp" : "0",
      "terminal" : "0",
      "latitude" : "24.14098",
      "inDis" : "50",
      "routeId" : "93",
      "seqNo" : "28"
   },
   {
      "GoBack" : "1",
      "longitude" : "120.54794",
      "outDis" : "50",
      "Id" : "4460",
      "oid" : "14018",
      "districtId" : "1",
      "nameZh" : "沙田自由路口",
      "pgp" : "0",
      "terminal" : "0",
      "latitude" : "24.14309",
      "inDis" : "50",
      "routeId" : "93",
      "seqNo" : "29"
   },
   {
      "GoBack" : "1",
      "longitude" : "120.54673",
      "outDis" : "50",
      "Id" : "1359",
      "oid" : "14019",
      "districtId" : "1",
      "nameZh" : "大道國中",
      "pgp" : "0",
      "terminal" : "0",
      "latitude" : "24.14613",
      "inDis" : "50",
      "routeId" : "93",
      "seqNo" : "30"
   },
   {
      "GoBack" : "1",
      "longitude" : "120.54565",
      "outDis" : "50",
      "Id" : "1302",
      "oid" : "14020",
      "districtId" : "1",
      "nameZh" : "大肚",
      "pgp" : "0",
      "terminal" : "0",
      "latitude" : "24.15014",
      "inDis" : "50",
      "routeId" : "93",
      "seqNo" : "31"
   },
   {
      "GoBack" : "1",
      "longitude" : "120.54536",
      "outDis" : "50",
      "Id" : "4786",
      "oid" : "14021",
      "districtId" : "1",
      "nameZh" : "大肚區公所",
      "pgp" : "0",
      "terminal" : "0",
      "latitude" : "24.1512",
      "inDis" : "50",
      "routeId" : "93",
      "seqNo" : "32"
   },
   {
      "GoBack" : "1",
      "longitude" : "120.54476",
      "outDis" : "50",
      "Id" : "1303",
      "oid" : "14022",
      "districtId" : "1",
      "nameZh" : "大肚火車站",
      "pgp" : "0",
      "terminal" : "0",
      "latitude" : "24.15316",
      "inDis" : "50",
      "routeId" : "93",
      "seqNo" : "33"
   },
   {
      "GoBack" : "1",
      "longitude" : "120.54393",
      "outDis" : "50",
      "Id" : "5137",
      "oid" : "14023",
      "districtId" : "1",
      "nameZh" : "頂街(沙田路)",
      "pgp" : "0",
      "terminal" : "0",
      "latitude" : "24.15806",
      "inDis" : "50",
      "routeId" : "93",
      "seqNo" : "34"
   },
   {
      "GoBack" : "1",
      "longitude" : "120.54356",
      "outDis" : "50",
      "Id" : "4450",
      "oid" : "14024",
      "districtId" : "1",
      "nameZh" : "北頂街",
      "pgp" : "0",
      "terminal" : "0",
      "latitude" : "24.15977",
      "inDis" : "50",
      "routeId" : "93",
      "seqNo" : "35"
   },
   {
      "GoBack" : "1",
      "longitude" : "120.54283",
      "outDis" : "50",
      "Id" : "1395",
      "oid" : "14025",
      "districtId" : "1",
      "nameZh" : "山陽",
      "pgp" : "0",
      "terminal" : "0",
      "latitude" : "24.16408",
      "inDis" : "50",
      "routeId" : "93",
      "seqNo" : "36"
   },
   {
      "GoBack" : "1",
      "longitude" : "120.54238",
      "outDis" : "50",
      "Id" : "5746",
      "oid" : "14026",
      "districtId" : "1",
      "nameZh" : "山陽一站",
      "pgp" : "0",
      "terminal" : "0",
      "latitude" : "24.1689",
      "inDis" : "50",
      "routeId" : "93",
      "seqNo" : "37"
   },
   {
      "GoBack" : "1",
      "longitude" : "120.54352",
      "outDis" : "50",
      "Id" : "5482",
      "oid" : "14670",
      "districtId" : "1",
      "nameZh" : "沙田中華路口",
      "pgp" : "0",
      "terminal" : "0",
      "latitude" : "24.17402",
      "inDis" : "50",
      "routeId" : "93",
      "seqNo" : "38"
   },
   {
      "GoBack" : "1",
      "longitude" : "120.54379",
      "outDis" : "50",
      "Id" : "2144",
      "oid" : "14027",
      "districtId" : "1",
      "nameZh" : "竹坑口",
      "pgp" : "0",
      "terminal" : "0",
      "latitude" : "24.17549",
      "inDis" : "50",
      "routeId" : "93",
      "seqNo" : "39"
   },
   {
      "GoBack" : "1",
      "longitude" : "120.54461",
      "outDis" : "50",
      "Id" : "2242",
      "oid" : "7090",
      "districtId" : "1",
      "nameZh" : "村內入口",
      "pgp" : "0",
      "terminal" : "0",
      "latitude" : "24.17876",
      "inDis" : "50",
      "routeId" : "93",
      "seqNo" : "40"
   },
   {
      "GoBack" : "1",
      "longitude" : "120.54554",
      "outDis" : "50",
      "Id" : "3031",
      "oid" : "14029",
      "districtId" : "1",
      "nameZh" : "深水",
      "pgp" : "0",
      "terminal" : "0",
      "latitude" : "24.18257",
      "inDis" : "50",
      "routeId" : "93",
      "seqNo" : "41"
   },
   {
      "GoBack" : "1",
      "longitude" : "120.54549",
      "outDis" : "50",
      "Id" : "3853",
      "oid" : "14030",
      "districtId" : "1",
      "nameZh" : "龍崗",
      "pgp" : "0",
      "terminal" : "0",
      "latitude" : "24.18642",
      "inDis" : "50",
      "routeId" : "93",
      "seqNo" : "42"
   },
   {
      "GoBack" : "1",
      "longitude" : "120.54574",
      "outDis" : "50",
      "Id" : "3847",
      "oid" : "14031",
      "districtId" : "1",
      "nameZh" : "龍井加油站",
      "pgp" : "0",
      "terminal" : "0",
      "latitude" : "24.18898",
      "inDis" : "50",
      "routeId" : "93",
      "seqNo" : "43"
   },
   {
      "GoBack" : "1",
      "longitude" : "120.54608",
      "outDis" : "50",
      "Id" : "5160",
      "oid" : "14032",
      "districtId" : "1",
      "nameZh" : "龍井區公所",
      "pgp" : "0",
      "terminal" : "0",
      "latitude" : "24.19246",
      "inDis" : "50",
      "routeId" : "93",
      "seqNo" : "44"
   },
   {
      "GoBack" : "1",
      "longitude" : "120.54659",
      "outDis" : "50",
      "Id" : "3846",
      "oid" : "14033",
      "districtId" : "1",
      "nameZh" : "龍井火車站",
      "pgp" : "0",
      "terminal" : "0",
      "latitude" : "24.19687",
      "inDis" : "50",
      "routeId" : "93",
      "seqNo" : "45"
   },
   {
      "GoBack" : "1",
      "longitude" : "120.54699",
      "outDis" : "50",
      "Id" : "3855",
      "oid" : "14034",
      "districtId" : "1",
      "nameZh" : "龍泉",
      "pgp" : "0",
      "terminal" : "0",
      "latitude" : "24.19933",
      "inDis" : "50",
      "routeId" : "93",
      "seqNo" : "46"
   },
   {
      "GoBack" : "1",
      "longitude" : "120.54798",
      "outDis" : "50",
      "Id" : "3850",
      "oid" : "14035",
      "districtId" : "1",
      "nameZh" : "龍目井",
      "pgp" : "0",
      "terminal" : "0",
      "latitude" : "24.20249",
      "inDis" : "50",
      "routeId" : "93",
      "seqNo" : "47"
   },
   {
      "GoBack" : "1",
      "longitude" : "120.54923",
      "outDis" : "50",
      "Id" : "4010",
      "oid" : "14036",
      "districtId" : "1",
      "nameZh" : "鷺山",
      "pgp" : "0",
      "terminal" : "0",
      "latitude" : "24.20743",
      "inDis" : "50",
      "routeId" : "93",
      "seqNo" : "48"
   },
   {
      "GoBack" : "1",
      "longitude" : "120.55056",
      "outDis" : "50",
      "Id" : "2559",
      "oid" : "14037",
      "districtId" : "1",
      "nameZh" : "南山腳",
      "pgp" : "0",
      "terminal" : "0",
      "latitude" : "24.21022",
      "inDis" : "50",
      "routeId" : "93",
      "seqNo" : "49"
   },
   {
      "GoBack" : "1",
      "longitude" : "120.55157",
      "outDis" : "50",
      "Id" : "5159",
      "oid" : "14038",
      "districtId" : "1",
      "nameZh" : "龍山國小(山腳里)",
      "pgp" : "0",
      "terminal" : "0",
      "latitude" : "24.21255",
      "inDis" : "50",
      "routeId" : "93",
      "seqNo" : "50"
   },
   {
      "GoBack" : "1",
      "longitude" : "120.55287",
      "outDis" : "50",
      "Id" : "4459",
      "oid" : "14039",
      "districtId" : "1",
      "nameZh" : "沙田太平路口",
      "pgp" : "0",
      "terminal" : "0",
      "latitude" : "24.21671",
      "inDis" : "50",
      "routeId" : "93",
      "seqNo" : "51"
   },
   {
      "GoBack" : "1",
      "longitude" : "120.55613",
      "outDis" : "50",
      "Id" : "2613",
      "oid" : "14040",
      "districtId" : "1",
      "nameZh" : "南勢里",
      "pgp" : "0",
      "terminal" : "0",
      "latitude" : "24.22126",
      "inDis" : "50",
      "routeId" : "93",
      "seqNo" : "52"
   },
   {
      "GoBack" : "1",
      "longitude" : "120.55678",
      "outDis" : "50",
      "Id" : "4458",
      "oid" : "14041",
      "districtId" : "1",
      "nameZh" : "沙田天仁街口",
      "pgp" : "0",
      "terminal" : "0",
      "latitude" : "24.2227",
      "inDis" : "50",
      "routeId" : "93",
      "seqNo" : "53"
   },
   {
      "GoBack" : "1",
      "longitude" : "120.55737",
      "outDis" : "50",
      "Id" : "1664",
      "oid" : "14042",
      "districtId" : "1",
      "nameZh" : "文光國小",
      "pgp" : "0",
      "terminal" : "0",
      "latitude" : "24.22398",
      "inDis" : "50",
      "routeId" : "93",
      "seqNo" : "54"
   },
   {
      "GoBack" : "1",
      "longitude" : "120.55875",
      "outDis" : "50",
      "Id" : "3809",
      "oid" : "14043",
      "districtId" : "1",
      "nameZh" : "興仁里",
      "pgp" : "0",
      "terminal" : "0",
      "latitude" : "24.23119",
      "inDis" : "50",
      "routeId" : "93",
      "seqNo" : "55"
   },
   {
      "GoBack" : "1",
      "longitude" : "120.55882",
      "outDis" : "50",
      "Id" : "4816",
      "oid" : "313222697",
      "districtId" : "1",
      "nameZh" : "沙鹿光田醫院",
      "pgp" : "0",
      "terminal" : "0",
      "latitude" : "24.23492",
      "inDis" : "50",
      "routeId" : "93",
      "seqNo" : "56"
   },
   {
      "GoBack" : "1",
      "longitude" : "120.55967",
      "outDis" : "50",
      "Id" : "4681",
      "oid" : "14045",
      "districtId" : "1",
      "nameZh" : "沙鹿市場",
      "pgp" : "0",
      "terminal" : "0",
      "latitude" : "24.23737",
      "inDis" : "50",
      "routeId" : "93",
      "seqNo" : "57"
   },
   {
      "GoBack" : "1",
      "longitude" : "120.56",
      "outDis" : "50",
      "Id" : "5135",
      "oid" : "14046",
      "districtId" : "1",
      "nameZh" : "第一銀行(沙鹿分行)",
      "pgp" : "0",
      "terminal" : "0",
      "latitude" : "24.23932",
      "inDis" : "50",
      "routeId" : "93",
      "seqNo" : "58"
   },
   {
      "GoBack" : "1",
      "longitude" : "120.56127",
      "outDis" : "50",
      "Id" : "5140",
      "oid" : "14047",
      "districtId" : "1",
      "nameZh" : "童綜合醫院(沙鹿院區)",
      "pgp" : "0",
      "terminal" : "0",
      "latitude" : "24.24245",
      "inDis" : "50",
      "routeId" : "93",
      "seqNo" : "59"
   },
   {
      "GoBack" : "1",
      "longitude" : "120.56221",
      "outDis" : "50",
      "Id" : "4042",
      "oid" : "14048",
      "districtId" : "1",
      "nameZh" : "文化莊",
      "pgp" : "0",
      "terminal" : "0",
      "latitude" : "24.24518",
      "inDis" : "50",
      "routeId" : "93",
      "seqNo" : "60"
   },
   {
      "GoBack" : "1",
      "longitude" : "120.56269",
      "outDis" : "50",
      "Id" : "4110",
      "oid" : "10819",
      "districtId" : "1",
      "nameZh" : "家扶中心",
      "pgp" : "0",
      "terminal" : "0",
      "latitude" : "24.24674",
      "inDis" : "50",
      "routeId" : "93",
      "seqNo" : "61"
   },
   {
      "GoBack" : "1",
      "longitude" : "120.56484",
      "outDis" : "50",
      "Id" : "5138",
      "oid" : "14049",
      "districtId" : "1",
      "nameZh" : "鹿寮成衣商圈",
      "pgp" : "0",
      "terminal" : "0",
      "latitude" : "24.2489",
      "inDis" : "50",
      "routeId" : "93",
      "seqNo" : "62"
   },
   {
      "GoBack" : "1",
      "longitude" : "120.56704",
      "outDis" : "50",
      "Id" : "5139",
      "oid" : "14050",
      "districtId" : "1",
      "nameZh" : "鹿寮里",
      "pgp" : "0",
      "terminal" : "0",
      "latitude" : "24.25201",
      "inDis" : "50",
      "routeId" : "93",
      "seqNo" : "63"
   },
   {
      "GoBack" : "1",
      "longitude" : "120.56786",
      "outDis" : "50",
      "Id" : "5392",
      "oid" : "312897794",
      "districtId" : "1",
      "nameZh" : "中山長春路口",
      "pgp" : "0",
      "terminal" : "0",
      "latitude" : "24.2537",
      "inDis" : "50",
      "routeId" : "93",
      "seqNo" : "64"
   },
   {
      "GoBack" : "1",
      "longitude" : "120.56869",
      "outDis" : "50",
      "Id" : "4045",
      "oid" : "14051",
      "districtId" : "1",
      "nameZh" : "中峰",
      "pgp" : "0",
      "terminal" : "0",
      "latitude" : "24.25508",
      "inDis" : "50",
      "routeId" : "93",
      "seqNo" : "65"
   },
   {
      "GoBack" : "1",
      "longitude" : "120.57005",
      "outDis" : "50",
      "Id" : "4471",
      "oid" : "14052",
      "districtId" : "1",
      "nameZh" : "勞工育樂中心",
      "pgp" : "0",
      "terminal" : "0",
      "latitude" : "24.25766",
      "inDis" : "50",
      "routeId" : "93",
      "seqNo" : "66"
   },
   {
      "GoBack" : "1",
      "longitude" : "120.57063",
      "outDis" : "50",
      "Id" : "4047",
      "oid" : "14053",
      "districtId" : "1",
      "nameZh" : "鹿峰",
      "pgp" : "0",
      "terminal" : "0",
      "latitude" : "24.25848",
      "inDis" : "50",
      "routeId" : "93",
      "seqNo" : "67"
   },
   {
      "GoBack" : "1",
      "longitude" : "120.57146",
      "outDis" : "50",
      "Id" : "4441",
      "oid" : "14054",
      "districtId" : "1",
      "nameZh" : "中山星河路口",
      "pgp" : "0",
      "terminal" : "0",
      "latitude" : "24.26005",
      "inDis" : "50",
      "routeId" : "93",
      "seqNo" : "68"
   },
   {
      "GoBack" : "1",
      "longitude" : "120.57278",
      "outDis" : "50",
      "Id" : "4121",
      "oid" : "10849",
      "districtId" : "1",
      "nameZh" : "清水電信局",
      "pgp" : "0",
      "terminal" : "0",
      "latitude" : "24.2624",
      "inDis" : "50",
      "routeId" : "93",
      "seqNo" : "69"
   },
   {
      "GoBack" : "1",
      "longitude" : "120.57409",
      "outDis" : "50",
      "Id" : "4119",
      "oid" : "14056",
      "districtId" : "1",
      "nameZh" : "清水高中",
      "pgp" : "0",
      "terminal" : "0",
      "latitude" : "24.26555",
      "inDis" : "50",
      "routeId" : "93",
      "seqNo" : "70"
   },
   {
      "GoBack" : "1",
      "longitude" : "120.57516",
      "outDis" : "50",
      "Id" : "5141",
      "oid" : "14057",
      "districtId" : "1",
      "nameZh" : "華南銀行(清水分行)",
      "pgp" : "0",
      "terminal" : "0",
      "latitude" : "24.2683",
      "inDis" : "50",
      "routeId" : "93",
      "seqNo" : "71"
   },
   {
      "GoBack" : "1",
      "longitude" : "120.57638",
      "outDis" : "50",
      "Id" : "3013",
      "oid" : "14058",
      "districtId" : "1",
      "nameZh" : "清水",
      "pgp" : "0",
      "terminal" : "0",
      "latitude" : "24.2714",
      "inDis" : "50",
      "routeId" : "93",
      "seqNo" : "72"
   },
   {
      "GoBack" : "1",
      "longitude" : "120.57687",
      "outDis" : "50",
      "Id" : "4521",
      "oid" : "305513525",
      "districtId" : "1",
      "nameZh" : "中山董公街口",
      "pgp" : "0",
      "terminal" : "0",
      "latitude" : "24.27284",
      "inDis" : "50",
      "routeId" : "93",
      "seqNo" : "73"
   },
   {
      "GoBack" : "1",
      "longitude" : "120.57725",
      "outDis" : "50",
      "Id" : "4442",
      "oid" : "14059",
      "districtId" : "1",
      "nameZh" : "中山高美路口",
      "pgp" : "0",
      "terminal" : "0",
      "latitude" : "24.27531",
      "inDis" : "50",
      "routeId" : "93",
      "seqNo" : "74"
   },
   {
      "GoBack" : "1",
      "longitude" : "120.57858",
      "outDis" : "50",
      "Id" : "4065",
      "oid" : "14060",
      "districtId" : "1",
      "nameZh" : "下湳加油站",
      "pgp" : "0",
      "terminal" : "0",
      "latitude" : "24.2778",
      "inDis" : "50",
      "routeId" : "93",
      "seqNo" : "75"
   },
   {
      "GoBack" : "1",
      "longitude" : "120.5806",
      "outDis" : "50",
      "Id" : "4130",
      "oid" : "14061",
      "districtId" : "1",
      "nameZh" : "朝興宮",
      "pgp" : "0",
      "terminal" : "0",
      "latitude" : "24.28013",
      "inDis" : "50",
      "routeId" : "93",
      "seqNo" : "76"
   },
   {
      "GoBack" : "1",
      "longitude" : "120.58338",
      "outDis" : "50",
      "Id" : "4063",
      "oid" : "14062",
      "districtId" : "1",
      "nameZh" : "下湳子",
      "pgp" : "0",
      "terminal" : "0",
      "latitude" : "24.28403",
      "inDis" : "50",
      "routeId" : "93",
      "seqNo" : "77"
   },
   {
      "GoBack" : "1",
      "longitude" : "120.58574",
      "outDis" : "50",
      "Id" : "4058",
      "oid" : "14063",
      "districtId" : "1",
      "nameZh" : "三田國小",
      "pgp" : "0",
      "terminal" : "0",
      "latitude" : "24.2882",
      "inDis" : "50",
      "routeId" : "93",
      "seqNo" : "78"
   },
   {
      "GoBack" : "1",
      "longitude" : "120.58815",
      "outDis" : "50",
      "Id" : "4127",
      "oid" : "14064",
      "districtId" : "1",
      "nameZh" : "頂湳子",
      "pgp" : "0",
      "terminal" : "0",
      "latitude" : "24.29256",
      "inDis" : "50",
      "routeId" : "93",
      "seqNo" : "79"
   },
   {
      "GoBack" : "1",
      "longitude" : "120.59263",
      "outDis" : "50",
      "Id" : "4150",
      "oid" : "14065",
      "districtId" : "1",
      "nameZh" : "轉播站",
      "pgp" : "0",
      "terminal" : "0",
      "latitude" : "24.29771",
      "inDis" : "50",
      "routeId" : "93",
      "seqNo" : "80"
   },
   {
      "GoBack" : "1",
      "longitude" : "120.59332",
      "outDis" : "50",
      "Id" : "4144",
      "oid" : "14066",
      "districtId" : "1",
      "nameZh" : "震陽工廠",
      "pgp" : "0",
      "terminal" : "0",
      "latitude" : "24.29818",
      "inDis" : "50",
      "routeId" : "93",
      "seqNo" : "81"
   },
   {
      "GoBack" : "1",
      "longitude" : "120.59516",
      "outDis" : "50",
      "Id" : "4134",
      "oid" : "14067",
      "districtId" : "1",
      "nameZh" : "菁埔里",
      "pgp" : "0",
      "terminal" : "0",
      "latitude" : "24.30035",
      "inDis" : "50",
      "routeId" : "93",
      "seqNo" : "82"
   },
   {
      "GoBack" : "1",
      "longitude" : "120.60111",
      "outDis" : "50",
      "Id" : "1993",
      "oid" : "14068",
      "districtId" : "1",
      "nameZh" : "甲南",
      "pgp" : "0",
      "terminal" : "0",
      "latitude" : "24.30457",
      "inDis" : "50",
      "routeId" : "93",
      "seqNo" : "83"
   },
   {
      "GoBack" : "1",
      "longitude" : "120.60862",
      "outDis" : "50",
      "Id" : "1705",
      "oid" : "14069",
      "districtId" : "1",
      "nameZh" : "水汴頭",
      "pgp" : "0",
      "terminal" : "0",
      "latitude" : "24.32719",
      "inDis" : "50",
      "routeId" : "93",
      "seqNo" : "84"
   },
   {
      "GoBack" : "1",
      "longitude" : "120.61521",
      "outDis" : "50",
      "Id" : "4133",
      "oid" : "14070",
      "districtId" : "1",
      "nameZh" : "番子寮",
      "pgp" : "0",
      "terminal" : "0",
      "latitude" : "24.33451",
      "inDis" : "50",
      "routeId" : "93",
      "seqNo" : "85"
   },
   {
      "GoBack" : "1",
      "longitude" : "120.61727",
      "outDis" : "50",
      "Id" : "1859",
      "oid" : "14071",
      "districtId" : "1",
      "nameZh" : "外水尾",
      "pgp" : "0",
      "terminal" : "0",
      "latitude" : "24.33744",
      "inDis" : "50",
      "routeId" : "93",
      "seqNo" : "86"
   },
   {
      "GoBack" : "1",
      "longitude" : "120.61874",
      "outDis" : "50",
      "Id" : "5693",
      "oid" : "319916595",
      "districtId" : "1",
      "nameZh" : "水尾橋 ",
      "pgp" : "0",
      "terminal" : "0",
      "latitude" : "24.33972",
      "inDis" : "50",
      "routeId" : "93",
      "seqNo" : "87"
   },
   {
      "GoBack" : "1",
      "longitude" : "120.62143",
      "outDis" : "50",
      "Id" : "5048",
      "oid" : "309863798",
      "districtId" : "1",
      "nameZh" : "大甲高中(中山路)",
      "pgp" : "0",
      "terminal" : "0",
      "latitude" : "24.34212",
      "inDis" : "50",
      "routeId" : "93",
      "seqNo" : "88"
   },
   {
      "GoBack" : "1",
      "longitude" : "120.62445",
      "outDis" : "50",
      "Id" : "2609",
      "oid" : "14073",
      "districtId" : "1",
      "nameZh" : "南陽里",
      "pgp" : "0",
      "terminal" : "0",
      "latitude" : "24.34284",
      "inDis" : "50",
      "routeId" : "93",
      "seqNo" : "89"
   },
   {
      "GoBack" : "1",
      "longitude" : "120.62553",
      "outDis" : "50",
      "Id" : "5084",
      "oid" : "5215",
      "districtId" : "1",
      "nameZh" : "大甲",
      "pgp" : "0",
      "terminal" : "0",
      "latitude" : "24.34321",
      "inDis" : "50",
      "routeId" : "93",
      "seqNo" : "90"
   },
   {
      "GoBack" : "1",
      "longitude" : "120.62664",
      "outDis" : "50",
      "Id" : "4432",
      "oid" : "14074",
      "districtId" : "1",
      "nameZh" : "大甲火車站",
      "pgp" : "0",
      "terminal" : "0",
      "latitude" : "24.34461",
      "inDis" : "50",
      "routeId" : "93",
      "seqNo" : "91"
   },
   {
      "GoBack" : "1",
      "longitude" : "120.6278",
      "outDis" : "50",
      "Id" : "4070",
      "oid" : "14075",
      "districtId" : "1",
      "nameZh" : "大甲郵局",
      "pgp" : "0",
      "terminal" : "0",
      "latitude" : "24.34755",
      "inDis" : "50",
      "routeId" : "93",
      "seqNo" : "92"
   },
   {
      "GoBack" : "1",
      "longitude" : "120.62799",
      "outDis" : "50",
      "Id" : "4435",
      "oid" : "14076",
      "districtId" : "1",
      "nameZh" : "大同診所",
      "pgp" : "0",
      "terminal" : "0",
      "latitude" : "24.35169",
      "inDis" : "50",
      "routeId" : "93",
      "seqNo" : "93"
   },
   {
      "GoBack" : "1",
      "longitude" : "120.63342",
      "outDis" : "50",
      "Id" : "4125",
      "oid" : "14077",
      "districtId" : "1",
      "nameZh" : "頂店",
      "pgp" : "0",
      "terminal" : "0",
      "latitude" : "24.35628",
      "inDis" : "50",
      "routeId" : "93",
      "seqNo" : "94"
   },
   {
      "GoBack" : "1",
      "longitude" : "120.63787",
      "outDis" : "50",
      "Id" : "4002",
      "oid" : "14078",
      "districtId" : "1",
      "nameZh" : "鐵砧山",
      "pgp" : "0",
      "terminal" : "0",
      "latitude" : "24.36117",
      "inDis" : "50",
      "routeId" : "93",
      "seqNo" : "95"
   },
   {
      "GoBack" : "1",
      "longitude" : "120.64162",
      "outDis" : "50",
      "Id" : "1290",
      "oid" : "14079",
      "districtId" : "1",
      "nameZh" : "大安溪",
      "pgp" : "0",
      "terminal" : "0",
      "latitude" : "24.3661",
      "inDis" : "50",
      "routeId" : "93",
      "seqNo" : "96"
   },
   {
      "GoBack" : "1",
      "longitude" : "120.6514",
      "outDis" : "50",
      "Id" : "4084",
      "oid" : "17317",
      "districtId" : "1",
      "nameZh" : "日南",
      "pgp" : "0",
      "terminal" : "0",
      "latitude" : "24.3816",
      "inDis" : "50",
      "routeId" : "93",
      "seqNo" : "97"
   },
   {
      "GoBack" : "1",
      "longitude" : "120.65106",
      "outDis" : "50",
      "Id" : "4496",
      "oid" : "14081",
      "districtId" : "1",
      "nameZh" : "經國黎明路口",
      "pgp" : "0",
      "terminal" : "0",
      "latitude" : "24.38842",
      "inDis" : "50",
      "routeId" : "93",
      "seqNo" : "98"
   },
   {
      "GoBack" : "1",
      "longitude" : "120.65027",
      "outDis" : "50",
      "Id" : "4090",
      "oid" : "14082",
      "districtId" : "1",
      "nameZh" : "永安新村",
      "pgp" : "0",
      "terminal" : "0",
      "latitude" : "24.39068",
      "inDis" : "50",
      "routeId" : "93",
      "seqNo" : "99"
   },
   {
      "GoBack" : "1",
      "longitude" : "120.64821",
      "outDis" : "50",
      "Id" : "4470",
      "oid" : "14083",
      "districtId" : "1",
      "nameZh" : "陳家莊",
      "pgp" : "0",
      "terminal" : "0",
      "latitude" : "24.39569",
      "inDis" : "50",
      "routeId" : "93",
      "seqNo" : "100"
   },
   {
      "GoBack" : "1",
      "longitude" : "120.64632",
      "outDis" : "50",
      "Id" : "4088",
      "oid" : "14084",
      "districtId" : "1",
      "nameZh" : "打鐵庄",
      "pgp" : "0",
      "terminal" : "0",
      "latitude" : "24.39793",
      "inDis" : "50",
      "routeId" : "93",
      "seqNo" : "101"
   },
   {
      "GoBack" : "1",
      "longitude" : "120.64138",
      "outDis" : "50",
      "Id" : "4079",
      "oid" : "14085",
      "districtId" : "1",
      "nameZh" : "五里牌",
      "pgp" : "0",
      "terminal" : "0",
      "latitude" : "24.40423",
      "inDis" : "50",
      "routeId" : "93",
      "seqNo" : "102"
   },
   {
      "GoBack" : "1",
      "longitude" : "120.64347",
      "outDis" : "50",
      "Id" : "4087",
      "oid" : "14086",
      "districtId" : "1",
      "nameZh" : "幼獅工業區",
      "pgp" : "0",
      "terminal" : "0",
      "latitude" : "24.40958",
      "inDis" : "50",
      "routeId" : "93",
      "seqNo" : "103"
   },
   {
      "GoBack" : "1",
      "longitude" : "120.64312",
      "outDis" : "50",
      "Id" : "4103",
      "oid" : "14087",
      "districtId" : "1",
      "nameZh" : "虎尾寮",
      "pgp" : "0",
      "terminal" : "0",
      "latitude" : "24.41422",
      "inDis" : "50",
      "routeId" : "93",
      "seqNo" : "104"
   },
   {
      "GoBack" : "1",
      "longitude" : "120.64297",
      "outDis" : "50",
      "Id" : "4141",
      "oid" : "14088",
      "districtId" : "1",
      "nameZh" : "銅安厝",
      "pgp" : "0",
      "terminal" : "0",
      "latitude" : "24.4202",
      "inDis" : "50",
      "routeId" : "93",
      "seqNo" : "105"
   },
   {
      "GoBack" : "2",
      "longitude" : "120.64297",
      "outDis" : "50",
      "Id" : "4141",
      "oid" : "14088",
      "districtId" : "1",
      "nameZh" : "銅安厝",
      "pgp" : "0",
      "terminal" : "0",
      "latitude" : "24.4202",
      "inDis" : "50",
      "routeId" : "93",
      "seqNo" : "1"
   },
   {
      "GoBack" : "2",
      "longitude" : "120.64312",
      "outDis" : "50",
      "Id" : "4103",
      "oid" : "14087",
      "districtId" : "1",
      "nameZh" : "虎尾寮",
      "pgp" : "0",
      "terminal" : "0",
      "latitude" : "24.41422",
      "inDis" : "50",
      "routeId" : "93",
      "seqNo" : "2"
   },
   {
      "GoBack" : "2",
      "longitude" : "120.64347",
      "outDis" : "50",
      "Id" : "4087",
      "oid" : "14086",
      "districtId" : "1",
      "nameZh" : "幼獅工業區",
      "pgp" : "0",
      "terminal" : "0",
      "latitude" : "24.40958",
      "inDis" : "50",
      "routeId" : "93",
      "seqNo" : "3"
   },
   {
      "GoBack" : "2",
      "longitude" : "120.64138",
      "outDis" : "50",
      "Id" : "4079",
      "oid" : "14085",
      "districtId" : "1",
      "nameZh" : "五里牌",
      "pgp" : "0",
      "terminal" : "0",
      "latitude" : "24.40423",
      "inDis" : "50",
      "routeId" : "93",
      "seqNo" : "4"
   },
   {
      "GoBack" : "2",
      "longitude" : "120.64632",
      "outDis" : "50",
      "Id" : "4088",
      "oid" : "14084",
      "districtId" : "1",
      "nameZh" : "打鐵庄",
      "pgp" : "0",
      "terminal" : "0",
      "latitude" : "24.39793",
      "inDis" : "50",
      "routeId" : "93",
      "seqNo" : "5"
   },
   {
      "GoBack" : "2",
      "longitude" : "120.64821",
      "outDis" : "50",
      "Id" : "4470",
      "oid" : "14083",
      "districtId" : "1",
      "nameZh" : "陳家莊",
      "pgp" : "0",
      "terminal" : "0",
      "latitude" : "24.39569",
      "inDis" : "50",
      "routeId" : "93",
      "seqNo" : "6"
   },
   {
      "GoBack" : "2",
      "longitude" : "120.65027",
      "outDis" : "50",
      "Id" : "4090",
      "oid" : "14082",
      "districtId" : "1",
      "nameZh" : "永安新村",
      "pgp" : "0",
      "terminal" : "0",
      "latitude" : "24.39068",
      "inDis" : "50",
      "routeId" : "93",
      "seqNo" : "7"
   },
   {
      "GoBack" : "2",
      "longitude" : "120.65106",
      "outDis" : "50",
      "Id" : "4496",
      "oid" : "14081",
      "districtId" : "1",
      "nameZh" : "經國黎明路口",
      "pgp" : "0",
      "terminal" : "0",
      "latitude" : "24.38842",
      "inDis" : "50",
      "routeId" : "93",
      "seqNo" : "8"
   },
   {
      "GoBack" : "2",
      "longitude" : "120.6514",
      "outDis" : "50",
      "Id" : "4084",
      "oid" : "17144",
      "districtId" : "1",
      "nameZh" : "日南",
      "pgp" : "0",
      "terminal" : "0",
      "latitude" : "24.3816",
      "inDis" : "50",
      "routeId" : "93",
      "seqNo" : "9"
   },
   {
      "GoBack" : "2",
      "longitude" : "120.64162",
      "outDis" : "50",
      "Id" : "1290",
      "oid" : "14079",
      "districtId" : "1",
      "nameZh" : "大安溪",
      "pgp" : "0",
      "terminal" : "0",
      "latitude" : "24.3661",
      "inDis" : "50",
      "routeId" : "93",
      "seqNo" : "10"
   },
   {
      "GoBack" : "2",
      "longitude" : "120.63787",
      "outDis" : "50",
      "Id" : "4002",
      "oid" : "14078",
      "districtId" : "1",
      "nameZh" : "鐵砧山",
      "pgp" : "0",
      "terminal" : "0",
      "latitude" : "24.36117",
      "inDis" : "50",
      "routeId" : "93",
      "seqNo" : "11"
   },
   {
      "GoBack" : "2",
      "longitude" : "120.63342",
      "outDis" : "50",
      "Id" : "4125",
      "oid" : "14077",
      "districtId" : "1",
      "nameZh" : "頂店",
      "pgp" : "0",
      "terminal" : "0",
      "latitude" : "24.35628",
      "inDis" : "50",
      "routeId" : "93",
      "seqNo" : "12"
   },
   {
      "GoBack" : "2",
      "longitude" : "120.62799",
      "outDis" : "50",
      "Id" : "4435",
      "oid" : "14076",
      "districtId" : "1",
      "nameZh" : "大同診所",
      "pgp" : "0",
      "terminal" : "0",
      "latitude" : "24.35169",
      "inDis" : "50",
      "routeId" : "93",
      "seqNo" : "13"
   },
   {
      "GoBack" : "2",
      "longitude" : "120.6278",
      "outDis" : "50",
      "Id" : "4070",
      "oid" : "14075",
      "districtId" : "1",
      "nameZh" : "大甲郵局",
      "pgp" : "0",
      "terminal" : "0",
      "latitude" : "24.34755",
      "inDis" : "50",
      "routeId" : "93",
      "seqNo" : "14"
   },
   {
      "GoBack" : "2",
      "longitude" : "120.62664",
      "outDis" : "50",
      "Id" : "4432",
      "oid" : "14074",
      "districtId" : "1",
      "nameZh" : "大甲火車站",
      "pgp" : "0",
      "terminal" : "0",
      "latitude" : "24.34461",
      "inDis" : "50",
      "routeId" : "93",
      "seqNo" : "15"
   },
   {
      "GoBack" : "2",
      "longitude" : "120.62553",
      "outDis" : "50",
      "Id" : "5084",
      "oid" : "5215",
      "districtId" : "1",
      "nameZh" : "大甲",
      "pgp" : "0",
      "terminal" : "0",
      "latitude" : "24.34321",
      "inDis" : "50",
      "routeId" : "93",
      "seqNo" : "16"
   },
   {
      "GoBack" : "2",
      "longitude" : "120.62445",
      "outDis" : "50",
      "Id" : "2609",
      "oid" : "14073",
      "districtId" : "1",
      "nameZh" : "南陽里",
      "pgp" : "0",
      "terminal" : "0",
      "latitude" : "24.34284",
      "inDis" : "50",
      "routeId" : "93",
      "seqNo" : "17"
   },
   {
      "GoBack" : "2",
      "longitude" : "120.62143",
      "outDis" : "50",
      "Id" : "5048",
      "oid" : "309863798",
      "districtId" : "1",
      "nameZh" : "大甲高中(中山路)",
      "pgp" : "0",
      "terminal" : "0",
      "latitude" : "24.34212",
      "inDis" : "50",
      "routeId" : "93",
      "seqNo" : "18"
   },
   {
      "GoBack" : "2",
      "longitude" : "120.61874",
      "outDis" : "50",
      "Id" : "5693",
      "oid" : "319916595",
      "districtId" : "1",
      "nameZh" : "水尾橋 ",
      "pgp" : "0",
      "terminal" : "0",
      "latitude" : "24.33972",
      "inDis" : "50",
      "routeId" : "93",
      "seqNo" : "19"
   },
   {
      "GoBack" : "2",
      "longitude" : "120.61727",
      "outDis" : "50",
      "Id" : "1859",
      "oid" : "14071",
      "districtId" : "1",
      "nameZh" : "外水尾",
      "pgp" : "0",
      "terminal" : "0",
      "latitude" : "24.33744",
      "inDis" : "50",
      "routeId" : "93",
      "seqNo" : "20"
   },
   {
      "GoBack" : "2",
      "longitude" : "120.61521",
      "outDis" : "50",
      "Id" : "4133",
      "oid" : "14070",
      "districtId" : "1",
      "nameZh" : "番子寮",
      "pgp" : "0",
      "terminal" : "0",
      "latitude" : "24.33451",
      "inDis" : "50",
      "routeId" : "93",
      "seqNo" : "21"
   },
   {
      "GoBack" : "2",
      "longitude" : "120.60862",
      "outDis" : "50",
      "Id" : "1705",
      "oid" : "14069",
      "districtId" : "1",
      "nameZh" : "水汴頭",
      "pgp" : "0",
      "terminal" : "0",
      "latitude" : "24.32719",
      "inDis" : "50",
      "routeId" : "93",
      "seqNo" : "22"
   },
   {
      "GoBack" : "2",
      "longitude" : "120.60111",
      "outDis" : "50",
      "Id" : "1993",
      "oid" : "14068",
      "districtId" : "1",
      "nameZh" : "甲南",
      "pgp" : "0",
      "terminal" : "0",
      "latitude" : "24.30457",
      "inDis" : "50",
      "routeId" : "93",
      "seqNo" : "23"
   },
   {
      "GoBack" : "2",
      "longitude" : "120.59516",
      "outDis" : "50",
      "Id" : "4134",
      "oid" : "14067",
      "districtId" : "1",
      "nameZh" : "菁埔里",
      "pgp" : "0",
      "terminal" : "0",
      "latitude" : "24.30035",
      "inDis" : "50",
      "routeId" : "93",
      "seqNo" : "24"
   },
   {
      "GoBack" : "2",
      "longitude" : "120.59332",
      "outDis" : "50",
      "Id" : "4144",
      "oid" : "14066",
      "districtId" : "1",
      "nameZh" : "震陽工廠",
      "pgp" : "0",
      "terminal" : "0",
      "latitude" : "24.29818",
      "inDis" : "50",
      "routeId" : "93",
      "seqNo" : "25"
   },
   {
      "GoBack" : "2",
      "longitude" : "120.59263",
      "outDis" : "50",
      "Id" : "4150",
      "oid" : "14065",
      "districtId" : "1",
      "nameZh" : "轉播站",
      "pgp" : "0",
      "terminal" : "0",
      "latitude" : "24.29771",
      "inDis" : "50",
      "routeId" : "93",
      "seqNo" : "26"
   },
   {
      "GoBack" : "2",
      "longitude" : "120.58815",
      "outDis" : "50",
      "Id" : "4127",
      "oid" : "14064",
      "districtId" : "1",
      "nameZh" : "頂湳子",
      "pgp" : "0",
      "terminal" : "0",
      "latitude" : "24.29256",
      "inDis" : "50",
      "routeId" : "93",
      "seqNo" : "27"
   },
   {
      "GoBack" : "2",
      "longitude" : "120.58574",
      "outDis" : "50",
      "Id" : "4058",
      "oid" : "14063",
      "districtId" : "1",
      "nameZh" : "三田國小",
      "pgp" : "0",
      "terminal" : "0",
      "latitude" : "24.2882",
      "inDis" : "50",
      "routeId" : "93",
      "seqNo" : "28"
   },
   {
      "GoBack" : "2",
      "longitude" : "120.58338",
      "outDis" : "50",
      "Id" : "4063",
      "oid" : "14062",
      "districtId" : "1",
      "nameZh" : "下湳子",
      "pgp" : "0",
      "terminal" : "0",
      "latitude" : "24.28403",
      "inDis" : "50",
      "routeId" : "93",
      "seqNo" : "29"
   },
   {
      "GoBack" : "2",
      "longitude" : "120.5806",
      "outDis" : "50",
      "Id" : "4130",
      "oid" : "14061",
      "districtId" : "1",
      "nameZh" : "朝興宮",
      "pgp" : "0",
      "terminal" : "0",
      "latitude" : "24.28013",
      "inDis" : "50",
      "routeId" : "93",
      "seqNo" : "30"
   },
   {
      "GoBack" : "2",
      "longitude" : "120.57858",
      "outDis" : "50",
      "Id" : "4065",
      "oid" : "14060",
      "districtId" : "1",
      "nameZh" : "下湳加油站",
      "pgp" : "0",
      "terminal" : "0",
      "latitude" : "24.2778",
      "inDis" : "50",
      "routeId" : "93",
      "seqNo" : "31"
   },
   {
      "GoBack" : "2",
      "longitude" : "120.57725",
      "outDis" : "50",
      "Id" : "4442",
      "oid" : "14059",
      "districtId" : "1",
      "nameZh" : "中山高美路口",
      "pgp" : "0",
      "terminal" : "0",
      "latitude" : "24.27531",
      "inDis" : "50",
      "routeId" : "93",
      "seqNo" : "32"
   },
   {
      "GoBack" : "2",
      "longitude" : "120.57687",
      "outDis" : "50",
      "Id" : "4521",
      "oid" : "305513525",
      "districtId" : "1",
      "nameZh" : "中山董公街口",
      "pgp" : "0",
      "terminal" : "0",
      "latitude" : "24.27284",
      "inDis" : "50",
      "routeId" : "93",
      "seqNo" : "33"
   },
   {
      "GoBack" : "2",
      "longitude" : "120.57638",
      "outDis" : "50",
      "Id" : "3013",
      "oid" : "14058",
      "districtId" : "1",
      "nameZh" : "清水",
      "pgp" : "0",
      "terminal" : "0",
      "latitude" : "24.2714",
      "inDis" : "50",
      "routeId" : "93",
      "seqNo" : "34"
   },
   {
      "GoBack" : "2",
      "longitude" : "120.57516",
      "outDis" : "50",
      "Id" : "5141",
      "oid" : "14057",
      "districtId" : "1",
      "nameZh" : "華南銀行(清水分行)",
      "pgp" : "0",
      "terminal" : "0",
      "latitude" : "24.2683",
      "inDis" : "50",
      "routeId" : "93",
      "seqNo" : "35"
   },
   {
      "GoBack" : "2",
      "longitude" : "120.57409",
      "outDis" : "50",
      "Id" : "4119",
      "oid" : "14056",
      "districtId" : "1",
      "nameZh" : "清水高中",
      "pgp" : "0",
      "terminal" : "0",
      "latitude" : "24.26555",
      "inDis" : "50",
      "routeId" : "93",
      "seqNo" : "36"
   },
   {
      "GoBack" : "2",
      "longitude" : "120.57278",
      "outDis" : "50",
      "Id" : "4121",
      "oid" : "10849",
      "districtId" : "1",
      "nameZh" : "清水電信局",
      "pgp" : "0",
      "terminal" : "0",
      "latitude" : "24.2624",
      "inDis" : "50",
      "routeId" : "93",
      "seqNo" : "37"
   },
   {
      "GoBack" : "2",
      "longitude" : "120.57146",
      "outDis" : "50",
      "Id" : "4441",
      "oid" : "14054",
      "districtId" : "1",
      "nameZh" : "中山星河路口",
      "pgp" : "0",
      "terminal" : "0",
      "latitude" : "24.26005",
      "inDis" : "50",
      "routeId" : "93",
      "seqNo" : "38"
   },
   {
      "GoBack" : "2",
      "longitude" : "120.57063",
      "outDis" : "50",
      "Id" : "4047",
      "oid" : "14053",
      "districtId" : "1",
      "nameZh" : "鹿峰",
      "pgp" : "0",
      "terminal" : "0",
      "latitude" : "24.25848",
      "inDis" : "50",
      "routeId" : "93",
      "seqNo" : "39"
   },
   {
      "GoBack" : "2",
      "longitude" : "120.57005",
      "outDis" : "50",
      "Id" : "4471",
      "oid" : "14052",
      "districtId" : "1",
      "nameZh" : "勞工育樂中心",
      "pgp" : "0",
      "terminal" : "0",
      "latitude" : "24.25766",
      "inDis" : "50",
      "routeId" : "93",
      "seqNo" : "40"
   },
   {
      "GoBack" : "2",
      "longitude" : "120.56869",
      "outDis" : "50",
      "Id" : "4045",
      "oid" : "14051",
      "districtId" : "1",
      "nameZh" : "中峰",
      "pgp" : "0",
      "terminal" : "0",
      "latitude" : "24.25508",
      "inDis" : "50",
      "routeId" : "93",
      "seqNo" : "41"
   },
   {
      "GoBack" : "2",
      "longitude" : "120.56786",
      "outDis" : "50",
      "Id" : "5392",
      "oid" : "312897794",
      "districtId" : "1",
      "nameZh" : "中山長春路口",
      "pgp" : "0",
      "terminal" : "0",
      "latitude" : "24.2537",
      "inDis" : "50",
      "routeId" : "93",
      "seqNo" : "42"
   },
   {
      "GoBack" : "2",
      "longitude" : "120.56704",
      "outDis" : "50",
      "Id" : "5139",
      "oid" : "14050",
      "districtId" : "1",
      "nameZh" : "鹿寮里",
      "pgp" : "0",
      "terminal" : "0",
      "latitude" : "24.25201",
      "inDis" : "50",
      "routeId" : "93",
      "seqNo" : "43"
   },
   {
      "GoBack" : "2",
      "longitude" : "120.56484",
      "outDis" : "50",
      "Id" : "5138",
      "oid" : "14049",
      "districtId" : "1",
      "nameZh" : "鹿寮成衣商圈",
      "pgp" : "0",
      "terminal" : "0",
      "latitude" : "24.2489",
      "inDis" : "50",
      "routeId" : "93",
      "seqNo" : "44"
   },
   {
      "GoBack" : "2",
      "longitude" : "120.56269",
      "outDis" : "50",
      "Id" : "4110",
      "oid" : "10819",
      "districtId" : "1",
      "nameZh" : "家扶中心",
      "pgp" : "0",
      "terminal" : "0",
      "latitude" : "24.24674",
      "inDis" : "50",
      "routeId" : "93",
      "seqNo" : "45"
   },
   {
      "GoBack" : "2",
      "longitude" : "120.56221",
      "outDis" : "50",
      "Id" : "4042",
      "oid" : "14048",
      "districtId" : "1",
      "nameZh" : "文化莊",
      "pgp" : "0",
      "terminal" : "0",
      "latitude" : "24.24518",
      "inDis" : "50",
      "routeId" : "93",
      "seqNo" : "46"
   },
   {
      "GoBack" : "2",
      "longitude" : "120.56127",
      "outDis" : "50",
      "Id" : "5140",
      "oid" : "14047",
      "districtId" : "1",
      "nameZh" : "童綜合醫院(沙鹿院區)",
      "pgp" : "0",
      "terminal" : "0",
      "latitude" : "24.24245",
      "inDis" : "50",
      "routeId" : "93",
      "seqNo" : "47"
   },
   {
      "GoBack" : "2",
      "longitude" : "120.56",
      "outDis" : "50",
      "Id" : "5135",
      "oid" : "14046",
      "districtId" : "1",
      "nameZh" : "第一銀行(沙鹿分行)",
      "pgp" : "0",
      "terminal" : "0",
      "latitude" : "24.23932",
      "inDis" : "50",
      "routeId" : "93",
      "seqNo" : "48"
   },
   {
      "GoBack" : "2",
      "longitude" : "120.55967",
      "outDis" : "50",
      "Id" : "4681",
      "oid" : "14045",
      "districtId" : "1",
      "nameZh" : "沙鹿市場",
      "pgp" : "0",
      "terminal" : "0",
      "latitude" : "24.23737",
      "inDis" : "50",
      "routeId" : "93",
      "seqNo" : "49"
   },
   {
      "GoBack" : "2",
      "longitude" : "120.55882",
      "outDis" : "50",
      "Id" : "4816",
      "oid" : "313222697",
      "districtId" : "1",
      "nameZh" : "沙鹿光田醫院",
      "pgp" : "0",
      "terminal" : "0",
      "latitude" : "24.23492",
      "inDis" : "50",
      "routeId" : "93",
      "seqNo" : "50"
   },
   {
      "GoBack" : "2",
      "longitude" : "120.55875",
      "outDis" : "50",
      "Id" : "3809",
      "oid" : "14043",
      "districtId" : "1",
      "nameZh" : "興仁里",
      "pgp" : "0",
      "terminal" : "0",
      "latitude" : "24.23119",
      "inDis" : "50",
      "routeId" : "93",
      "seqNo" : "51"
   },
   {
      "GoBack" : "2",
      "longitude" : "120.55737",
      "outDis" : "50",
      "Id" : "1664",
      "oid" : "14042",
      "districtId" : "1",
      "nameZh" : "文光國小",
      "pgp" : "0",
      "terminal" : "0",
      "latitude" : "24.22398",
      "inDis" : "50",
      "routeId" : "93",
      "seqNo" : "52"
   },
   {
      "GoBack" : "2",
      "longitude" : "120.55678",
      "outDis" : "50",
      "Id" : "4458",
      "oid" : "14041",
      "districtId" : "1",
      "nameZh" : "沙田天仁街口",
      "pgp" : "0",
      "terminal" : "0",
      "latitude" : "24.2227",
      "inDis" : "50",
      "routeId" : "93",
      "seqNo" : "53"
   },
   {
      "GoBack" : "2",
      "longitude" : "120.55613",
      "outDis" : "50",
      "Id" : "2613",
      "oid" : "14040",
      "districtId" : "1",
      "nameZh" : "南勢里",
      "pgp" : "0",
      "terminal" : "0",
      "latitude" : "24.22126",
      "inDis" : "50",
      "routeId" : "93",
      "seqNo" : "54"
   },
   {
      "GoBack" : "2",
      "longitude" : "120.55287",
      "outDis" : "50",
      "Id" : "4459",
      "oid" : "14039",
      "districtId" : "1",
      "nameZh" : "沙田太平路口",
      "pgp" : "0",
      "terminal" : "0",
      "latitude" : "24.21671",
      "inDis" : "50",
      "routeId" : "93",
      "seqNo" : "55"
   },
   {
      "GoBack" : "2",
      "longitude" : "120.55157",
      "outDis" : "50",
      "Id" : "5159",
      "oid" : "14038",
      "districtId" : "1",
      "nameZh" : "龍山國小(山腳里)",
      "pgp" : "0",
      "terminal" : "0",
      "latitude" : "24.21255",
      "inDis" : "50",
      "routeId" : "93",
      "seqNo" : "56"
   },
   {
      "GoBack" : "2",
      "longitude" : "120.55056",
      "outDis" : "50",
      "Id" : "2559",
      "oid" : "14037",
      "districtId" : "1",
      "nameZh" : "南山腳",
      "pgp" : "0",
      "terminal" : "0",
      "latitude" : "24.21022",
      "inDis" : "50",
      "routeId" : "93",
      "seqNo" : "57"
   },
   {
      "GoBack" : "2",
      "longitude" : "120.54923",
      "outDis" : "50",
      "Id" : "4010",
      "oid" : "14036",
      "districtId" : "1",
      "nameZh" : "鷺山",
      "pgp" : "0",
      "terminal" : "0",
      "latitude" : "24.20743",
      "inDis" : "50",
      "routeId" : "93",
      "seqNo" : "58"
   },
   {
      "GoBack" : "2",
      "longitude" : "120.54798",
      "outDis" : "50",
      "Id" : "3850",
      "oid" : "14035",
      "districtId" : "1",
      "nameZh" : "龍目井",
      "pgp" : "0",
      "terminal" : "0",
      "latitude" : "24.20249",
      "inDis" : "50",
      "routeId" : "93",
      "seqNo" : "59"
   },
   {
      "GoBack" : "2",
      "longitude" : "120.54699",
      "outDis" : "50",
      "Id" : "3855",
      "oid" : "14034",
      "districtId" : "1",
      "nameZh" : "龍泉",
      "pgp" : "0",
      "terminal" : "0",
      "latitude" : "24.19933",
      "inDis" : "50",
      "routeId" : "93",
      "seqNo" : "60"
   },
   {
      "GoBack" : "2",
      "longitude" : "120.54659",
      "outDis" : "50",
      "Id" : "3846",
      "oid" : "14033",
      "districtId" : "1",
      "nameZh" : "龍井火車站",
      "pgp" : "0",
      "terminal" : "0",
      "latitude" : "24.19687",
      "inDis" : "50",
      "routeId" : "93",
      "seqNo" : "61"
   },
   {
      "GoBack" : "2",
      "longitude" : "120.54608",
      "outDis" : "50",
      "Id" : "5160",
      "oid" : "14032",
      "districtId" : "1",
      "nameZh" : "龍井區公所",
      "pgp" : "0",
      "terminal" : "0",
      "latitude" : "24.19246",
      "inDis" : "50",
      "routeId" : "93",
      "seqNo" : "62"
   },
   {
      "GoBack" : "2",
      "longitude" : "120.54574",
      "outDis" : "50",
      "Id" : "3847",
      "oid" : "14031",
      "districtId" : "1",
      "nameZh" : "龍井加油站",
      "pgp" : "0",
      "terminal" : "0",
      "latitude" : "24.18898",
      "inDis" : "50",
      "routeId" : "93",
      "seqNo" : "63"
   },
   {
      "GoBack" : "2",
      "longitude" : "120.54549",
      "outDis" : "50",
      "Id" : "3853",
      "oid" : "14030",
      "districtId" : "1",
      "nameZh" : "龍崗",
      "pgp" : "0",
      "terminal" : "0",
      "latitude" : "24.18642",
      "inDis" : "50",
      "routeId" : "93",
      "seqNo" : "64"
   },
   {
      "GoBack" : "2",
      "longitude" : "120.54554",
      "outDis" : "50",
      "Id" : "3031",
      "oid" : "14029",
      "districtId" : "1",
      "nameZh" : "深水",
      "pgp" : "0",
      "terminal" : "0",
      "latitude" : "24.18257",
      "inDis" : "50",
      "routeId" : "93",
      "seqNo" : "65"
   },
   {
      "GoBack" : "2",
      "longitude" : "120.54461",
      "outDis" : "50",
      "Id" : "2242",
      "oid" : "7090",
      "districtId" : "1",
      "nameZh" : "村內入口",
      "pgp" : "0",
      "terminal" : "0",
      "latitude" : "24.17876",
      "inDis" : "50",
      "routeId" : "93",
      "seqNo" : "66"
   },
   {
      "GoBack" : "2",
      "longitude" : "120.54379",
      "outDis" : "50",
      "Id" : "2144",
      "oid" : "14027",
      "districtId" : "1",
      "nameZh" : "竹坑口",
      "pgp" : "0",
      "terminal" : "0",
      "latitude" : "24.17549",
      "inDis" : "50",
      "routeId" : "93",
      "seqNo" : "67"
   },
   {
      "GoBack" : "2",
      "longitude" : "120.54266",
      "outDis" : "50",
      "Id" : "5482",
      "oid" : "14732",
      "districtId" : "1",
      "nameZh" : "沙田中華路口",
      "pgp" : "0",
      "terminal" : "0",
      "latitude" : "24.17189",
      "inDis" : "50",
      "routeId" : "93",
      "seqNo" : "68"
   },
   {
      "GoBack" : "2",
      "longitude" : "120.54238",
      "outDis" : "50",
      "Id" : "5746",
      "oid" : "14026",
      "districtId" : "1",
      "nameZh" : "山陽一站",
      "pgp" : "0",
      "terminal" : "0",
      "latitude" : "24.1689",
      "inDis" : "50",
      "routeId" : "93",
      "seqNo" : "69"
   },
   {
      "GoBack" : "2",
      "longitude" : "120.54283",
      "outDis" : "50",
      "Id" : "1395",
      "oid" : "14025",
      "districtId" : "1",
      "nameZh" : "山陽",
      "pgp" : "0",
      "terminal" : "0",
      "latitude" : "24.16408",
      "inDis" : "50",
      "routeId" : "93",
      "seqNo" : "70"
   },
   {
      "GoBack" : "2",
      "longitude" : "120.54356",
      "outDis" : "50",
      "Id" : "4450",
      "oid" : "14024",
      "districtId" : "1",
      "nameZh" : "北頂街",
      "pgp" : "0",
      "terminal" : "0",
      "latitude" : "24.15977",
      "inDis" : "50",
      "routeId" : "93",
      "seqNo" : "71"
   },
   {
      "GoBack" : "2",
      "longitude" : "120.54393",
      "outDis" : "50",
      "Id" : "5137",
      "oid" : "14023",
      "districtId" : "1",
      "nameZh" : "頂街(沙田路)",
      "pgp" : "0",
      "terminal" : "0",
      "latitude" : "24.15806",
      "inDis" : "50",
      "routeId" : "93",
      "seqNo" : "72"
   },
   {
      "GoBack" : "2",
      "longitude" : "120.54476",
      "outDis" : "50",
      "Id" : "1303",
      "oid" : "14022",
      "districtId" : "1",
      "nameZh" : "大肚火車站",
      "pgp" : "0",
      "terminal" : "0",
      "latitude" : "24.15316",
      "inDis" : "50",
      "routeId" : "93",
      "seqNo" : "73"
   },
   {
      "GoBack" : "2",
      "longitude" : "120.54536",
      "outDis" : "50",
      "Id" : "4786",
      "oid" : "14021",
      "districtId" : "1",
      "nameZh" : "大肚區公所",
      "pgp" : "0",
      "terminal" : "0",
      "latitude" : "24.1512",
      "inDis" : "50",
      "routeId" : "93",
      "seqNo" : "74"
   },
   {
      "GoBack" : "2",
      "longitude" : "120.54565",
      "outDis" : "50",
      "Id" : "1302",
      "oid" : "14020",
      "districtId" : "1",
      "nameZh" : "大肚",
      "pgp" : "0",
      "terminal" : "0",
      "latitude" : "24.15014",
      "inDis" : "50",
      "routeId" : "93",
      "seqNo" : "75"
   },
   {
      "GoBack" : "2",
      "longitude" : "120.54673",
      "outDis" : "50",
      "Id" : "1359",
      "oid" : "14019",
      "districtId" : "1",
      "nameZh" : "大道國中",
      "pgp" : "0",
      "terminal" : "0",
      "latitude" : "24.14613",
      "inDis" : "50",
      "routeId" : "93",
      "seqNo" : "76"
   },
   {
      "GoBack" : "2",
      "longitude" : "120.54794",
      "outDis" : "50",
      "Id" : "4460",
      "oid" : "14018",
      "districtId" : "1",
      "nameZh" : "沙田自由路口",
      "pgp" : "0",
      "terminal" : "0",
      "latitude" : "24.14309",
      "inDis" : "50",
      "routeId" : "93",
      "seqNo" : "77"
   },
   {
      "GoBack" : "2",
      "longitude" : "120.54912",
      "outDis" : "50",
      "Id" : "4491",
      "oid" : "14017",
      "districtId" : "1",
      "nameZh" : "新興里",
      "pgp" : "0",
      "terminal" : "0",
      "latitude" : "24.14098",
      "inDis" : "50",
      "routeId" : "93",
      "seqNo" : "78"
   },
   {
      "GoBack" : "2",
      "longitude" : "120.5518",
      "outDis" : "50",
      "Id" : "4038",
      "oid" : "14016",
      "districtId" : "1",
      "nameZh" : "崁仔腳",
      "pgp" : "0",
      "terminal" : "0",
      "latitude" : "24.13717",
      "inDis" : "50",
      "routeId" : "93",
      "seqNo" : "79"
   },
   {
      "GoBack" : "2",
      "longitude" : "120.55358",
      "outDis" : "50",
      "Id" : "2443",
      "oid" : "14015",
      "districtId" : "1",
      "nameZh" : "東興紡織",
      "pgp" : "0",
      "terminal" : "0",
      "latitude" : "24.13472",
      "inDis" : "50",
      "routeId" : "93",
      "seqNo" : "80"
   },
   {
      "GoBack" : "2",
      "longitude" : "120.55397",
      "outDis" : "50",
      "Id" : "2494",
      "oid" : "14014",
      "districtId" : "1",
      "nameZh" : "社腳",
      "pgp" : "0",
      "terminal" : "0",
      "latitude" : "24.13248",
      "inDis" : "50",
      "routeId" : "93",
      "seqNo" : "81"
   },
   {
      "GoBack" : "2",
      "longitude" : "120.55759",
      "outDis" : "50",
      "Id" : "4514",
      "oid" : "14013",
      "districtId" : "1",
      "nameZh" : "營埔里",
      "pgp" : "0",
      "terminal" : "0",
      "latitude" : "24.12759",
      "inDis" : "50",
      "routeId" : "93",
      "seqNo" : "82"
   },
   {
      "GoBack" : "2",
      "longitude" : "120.56034",
      "outDis" : "50",
      "Id" : "4511",
      "oid" : "14012",
      "districtId" : "1",
      "nameZh" : "興國公司",
      "pgp" : "0",
      "terminal" : "0",
      "latitude" : "24.12584",
      "inDis" : "50",
      "routeId" : "93",
      "seqNo" : "83"
   },
   {
      "GoBack" : "2",
      "longitude" : "120.56207",
      "outDis" : "50",
      "Id" : "2886",
      "oid" : "14011",
      "districtId" : "1",
      "nameZh" : "追分郵局",
      "pgp" : "0",
      "terminal" : "0",
      "latitude" : "24.12482",
      "inDis" : "50",
      "routeId" : "93",
      "seqNo" : "84"
   },
   {
      "GoBack" : "2",
      "longitude" : "120.5645",
      "outDis" : "50",
      "Id" : "1390",
      "oid" : "14010",
      "districtId" : "1",
      "nameZh" : "山仔頂",
      "pgp" : "0",
      "terminal" : "0",
      "latitude" : "24.12339",
      "inDis" : "50",
      "routeId" : "93",
      "seqNo" : "85"
   },
   {
      "GoBack" : "2",
      "longitude" : "120.56812",
      "outDis" : "50",
      "Id" : "2885",
      "oid" : "14009",
      "districtId" : "1",
      "nameZh" : "追分國小",
      "pgp" : "0",
      "terminal" : "0",
      "latitude" : "24.12203",
      "inDis" : "50",
      "routeId" : "93",
      "seqNo" : "86"
   },
   {
      "GoBack" : "2",
      "longitude" : "120.57048",
      "outDis" : "50",
      "Id" : "2884",
      "oid" : "14008",
      "districtId" : "1",
      "nameZh" : "追分",
      "pgp" : "0",
      "terminal" : "0",
      "latitude" : "24.12114",
      "inDis" : "50",
      "routeId" : "93",
      "seqNo" : "87"
   },
   {
      "GoBack" : "2",
      "longitude" : "120.57649",
      "outDis" : "50",
      "Id" : "2597",
      "oid" : "14007",
      "districtId" : "1",
      "nameZh" : "南追分",
      "pgp" : "0",
      "terminal" : "0",
      "latitude" : "24.11887",
      "inDis" : "50",
      "routeId" : "93",
      "seqNo" : "88"
   },
   {
      "GoBack" : "2",
      "longitude" : "120.58856",
      "outDis" : "50",
      "Id" : "1743",
      "oid" : "14006",
      "districtId" : "1",
      "nameZh" : "王田",
      "pgp" : "0",
      "terminal" : "0",
      "latitude" : "24.11348",
      "inDis" : "50",
      "routeId" : "93",
      "seqNo" : "93"
   },
   {
      "GoBack" : "2",
      "longitude" : "120.59403",
      "outDis" : "50",
      "Id" : "3277",
      "oid" : "14005",
      "districtId" : "1",
      "nameZh" : "善光寺",
      "pgp" : "0",
      "terminal" : "0",
      "latitude" : "24.11295",
      "inDis" : "50",
      "routeId" : "93",
      "seqNo" : "94"
   },
   {
      "GoBack" : "2",
      "longitude" : "120.60111",
      "outDis" : "50",
      "Id" : "2120",
      "oid" : "2133",
      "districtId" : "1",
      "nameZh" : "成功嶺",
      "pgp" : "0",
      "terminal" : "0",
      "latitude" : "24.11041",
      "inDis" : "50",
      "routeId" : "93",
      "seqNo" : "95"
   },
   {
      "GoBack" : "2",
      "longitude" : "120.6047",
      "outDis" : "50",
      "Id" : "4468",
      "oid" : "14003",
      "districtId" : "1",
      "nameZh" : "烏日戶政",
      "pgp" : "0",
      "terminal" : "0",
      "latitude" : "24.10927",
      "inDis" : "50",
      "routeId" : "93",
      "seqNo" : "96"
   },
   {
      "GoBack" : "2",
      "longitude" : "120.60634",
      "outDis" : "50",
      "Id" : "5083",
      "oid" : "14002",
      "districtId" : "1",
      "nameZh" : "三和里2",
      "pgp" : "0",
      "terminal" : "0",
      "latitude" : "24.10878",
      "inDis" : "50",
      "routeId" : "93",
      "seqNo" : "97"
   },
   {
      "GoBack" : "2",
      "longitude" : "120.60767",
      "outDis" : "50",
      "Id" : "5082",
      "oid" : "14001",
      "districtId" : "1",
      "nameZh" : "三和里1",
      "pgp" : "0",
      "terminal" : "0",
      "latitude" : "24.10859",
      "inDis" : "50",
      "routeId" : "93",
      "seqNo" : "98"
   },
   {
      "GoBack" : "2",
      "longitude" : "120.61536",
      "outDis" : "350",
      "Id" : "2907",
      "oid" : "14000",
      "districtId" : "1",
      "nameZh" : "高鐵臺中站(1月台)",
      "pgp" : "0",
      "terminal" : "0",
      "latitude" : "24.11399",
      "inDis" : "350",
      "routeId" : "93",
      "seqNo" : "102"
   }
]
