[
   {
      "GoBack" : "1",
      "longitude" : "120.67817",
      "outDis" : "50",
      "Id" : "1851",
      "oid" : "7723",
      "districtId" : "1",
      "nameZh" : "四張犁國小",
      "pgp" : "0",
      "terminal" : "0",
      "latitude" : "24.19331",
      "inDis" : "50",
      "routeId" : "105",
      "seqNo" : "1"
   },
   {
      "GoBack" : "1",
      "longitude" : "120.68049",
      "outDis" : "50",
      "Id" : "5514",
      "oid" : "315467328",
      "districtId" : "1",
      "nameZh" : "四民衛生所",
      "pgp" : "0",
      "terminal" : "0",
      "latitude" : "24.19288",
      "inDis" : "50",
      "routeId" : "105",
      "seqNo" : "2"
   },
   {
      "GoBack" : "1",
      "longitude" : "120.68235",
      "outDis" : "50",
      "Id" : "0544",
      "oid" : "7722",
      "districtId" : "1",
      "nameZh" : "四張犁",
      "pgp" : "0",
      "terminal" : "0",
      "latitude" : "24.19235",
      "inDis" : "50",
      "routeId" : "105",
      "seqNo" : "3"
   },
   {
      "GoBack" : "1",
      "longitude" : "120.68359",
      "outDis" : "50",
      "Id" : "0791",
      "oid" : "7822",
      "districtId" : "1",
      "nameZh" : "陸光八村",
      "pgp" : "0",
      "terminal" : "0",
      "latitude" : "24.19151",
      "inDis" : "50",
      "routeId" : "105",
      "seqNo" : "4"
   },
   {
      "GoBack" : "1",
      "longitude" : "120.68567",
      "outDis" : "50",
      "Id" : "0698",
      "oid" : "7776",
      "districtId" : "1",
      "nameZh" : "南四張犁",
      "pgp" : "0",
      "terminal" : "0",
      "latitude" : "24.18967",
      "inDis" : "50",
      "routeId" : "105",
      "seqNo" : "5"
   },
   {
      "GoBack" : "1",
      "longitude" : "120.68619",
      "outDis" : "50",
      "Id" : "2958",
      "oid" : "B38650F6D9E54C1E841E05929BD8D9B2",
      "districtId" : "1",
      "nameZh" : "崇德九路口",
      "pgp" : "0",
      "terminal" : "0",
      "latitude" : "24.18759",
      "inDis" : "50",
      "routeId" : "105",
      "seqNo" : "6"
   },
   {
      "GoBack" : "1",
      "longitude" : "120.68627",
      "outDis" : "50",
      "Id" : "1393",
      "oid" : "8966",
      "districtId" : "1",
      "nameZh" : "崇德山西路口",
      "pgp" : "0",
      "terminal" : "0",
      "latitude" : "24.18493",
      "inDis" : "50",
      "routeId" : "105",
      "seqNo" : "7"
   },
   {
      "GoBack" : "1",
      "longitude" : "120.68613",
      "outDis" : "50",
      "Id" : "0194",
      "oid" : "7705",
      "districtId" : "1",
      "nameZh" : "北屯區行政大樓",
      "pgp" : "0",
      "terminal" : "0",
      "latitude" : "24.18307",
      "inDis" : "50",
      "routeId" : "105",
      "seqNo" : "8"
   },
   {
      "GoBack" : "1",
      "longitude" : "120.68608",
      "outDis" : "50",
      "Id" : "5387",
      "oid" : "313288983",
      "districtId" : "1",
      "nameZh" : "崇德六路口",
      "pgp" : "0",
      "terminal" : "0",
      "latitude" : "24.18086",
      "inDis" : "50",
      "routeId" : "105",
      "seqNo" : "9"
   },
   {
      "GoBack" : "1",
      "longitude" : "120.68589",
      "outDis" : "30",
      "Id" : "0195",
      "oid" : "7803",
      "districtId" : "1",
      "nameZh" : "崇德五路口",
      "pgp" : "0",
      "terminal" : "0",
      "latitude" : "24.17913",
      "inDis" : "50",
      "routeId" : "105",
      "seqNo" : "10"
   },
   {
      "GoBack" : "1",
      "longitude" : "120.68577",
      "outDis" : "50",
      "Id" : "0196",
      "oid" : "7663",
      "districtId" : "1",
      "nameZh" : "崇德一路口",
      "pgp" : "0",
      "terminal" : "0",
      "latitude" : "24.17723",
      "inDis" : "50",
      "routeId" : "105",
      "seqNo" : "11"
   },
   {
      "GoBack" : "1",
      "longitude" : "120.68573",
      "outDis" : "50",
      "Id" : "5131",
      "oid" : "7728",
      "districtId" : "1",
      "nameZh" : "崇德國中(民俗公園)",
      "pgp" : "0",
      "terminal" : "0",
      "latitude" : "24.17484",
      "inDis" : "50",
      "routeId" : "105",
      "seqNo" : "12"
   },
   {
      "GoBack" : "1",
      "longitude" : "120.68553",
      "outDis" : "50",
      "Id" : "0199",
      "oid" : "7885",
      "districtId" : "1",
      "nameZh" : "崇德瀋陽路口",
      "pgp" : "0",
      "terminal" : "0",
      "latitude" : "24.17332",
      "inDis" : "50",
      "routeId" : "105",
      "seqNo" : "13"
   },
   {
      "GoBack" : "1",
      "longitude" : "120.68541",
      "outDis" : "50",
      "Id" : "4339",
      "oid" : "7696",
      "districtId" : "1",
      "nameZh" : "崇德文心路口",
      "pgp" : "0",
      "terminal" : "0",
      "latitude" : "24.17181",
      "inDis" : "50",
      "routeId" : "105",
      "seqNo" : "14"
   },
   {
      "GoBack" : "1",
      "longitude" : "120.68531",
      "outDis" : "50",
      "Id" : "1768",
      "oid" : "7F112A5CB1264121B528760673E0A695",
      "districtId" : "1",
      "nameZh" : "崇德北平路口",
      "pgp" : "0",
      "terminal" : "0",
      "latitude" : "24.17055",
      "inDis" : "50",
      "routeId" : "105",
      "seqNo" : "15"
   },
   {
      "GoBack" : "1",
      "longitude" : "120.68525",
      "outDis" : "50",
      "Id" : "3511",
      "oid" : "7538",
      "districtId" : "1",
      "nameZh" : "聖德禪寺",
      "pgp" : "0",
      "terminal" : "0",
      "latitude" : "24.16863",
      "inDis" : "50",
      "routeId" : "105",
      "seqNo" : "16"
   },
   {
      "GoBack" : "1",
      "longitude" : "120.68509",
      "outDis" : "50",
      "Id" : "0098",
      "oid" : "7805",
      "districtId" : "1",
      "nameZh" : "崇德橋",
      "pgp" : "0",
      "terminal" : "0",
      "latitude" : "24.16543",
      "inDis" : "50",
      "routeId" : "105",
      "seqNo" : "17"
   },
   {
      "GoBack" : "1",
      "longitude" : "120.68623",
      "outDis" : "50",
      "Id" : "0800",
      "oid" : "7827",
      "districtId" : "1",
      "nameZh" : "頂厝里",
      "pgp" : "0",
      "terminal" : "0",
      "latitude" : "24.163",
      "inDis" : "50",
      "routeId" : "105",
      "seqNo" : "18"
   },
   {
      "GoBack" : "1",
      "longitude" : "120.68766",
      "outDis" : "50",
      "Id" : "0830",
      "oid" : "7840",
      "districtId" : "1",
      "nameZh" : "稅務新村",
      "pgp" : "0",
      "terminal" : "0",
      "latitude" : "24.16304",
      "inDis" : "50",
      "routeId" : "105",
      "seqNo" : "19"
   },
   {
      "GoBack" : "1",
      "longitude" : "120.68986",
      "outDis" : "50",
      "Id" : "0493",
      "oid" : "12684",
      "districtId" : "1",
      "nameZh" : "北屯市場",
      "pgp" : "0",
      "terminal" : "0",
      "latitude" : "24.16306",
      "inDis" : "50",
      "routeId" : "105",
      "seqNo" : "20"
   },
   {
      "GoBack" : "1",
      "longitude" : "120.69218",
      "outDis" : "50",
      "Id" : "0892",
      "oid" : "7864",
      "districtId" : "1",
      "nameZh" : "監理站",
      "pgp" : "0",
      "terminal" : "0",
      "latitude" : "24.1611",
      "inDis" : "50",
      "routeId" : "105",
      "seqNo" : "21"
   },
   {
      "GoBack" : "1",
      "longitude" : "120.69034",
      "outDis" : "50",
      "Id" : "0960",
      "oid" : "7887",
      "districtId" : "1",
      "nameZh" : "寶覺寺",
      "pgp" : "0",
      "terminal" : "0",
      "latitude" : "24.15845",
      "inDis" : "50",
      "routeId" : "105",
      "seqNo" : "22"
   },
   {
      "GoBack" : "1",
      "longitude" : "120.68852",
      "outDis" : "50",
      "Id" : "4399",
      "oid" : "7849",
      "districtId" : "1",
      "nameZh" : "新民高中(三民路)",
      "pgp" : "0",
      "terminal" : "0",
      "latitude" : "24.15682",
      "inDis" : "50",
      "routeId" : "105",
      "seqNo" : "23"
   },
   {
      "GoBack" : "1",
      "longitude" : "120.68695",
      "outDis" : "50",
      "Id" : "0934",
      "oid" : "24FDD6D380A74CE9980A8304EB771234",
      "districtId" : "1",
      "nameZh" : "三民錦中街口",
      "pgp" : "0",
      "terminal" : "0",
      "latitude" : "24.15528",
      "inDis" : "50",
      "routeId" : "105",
      "seqNo" : "24"
   },
   {
      "GoBack" : "1",
      "longitude" : "120.68585",
      "outDis" : "50",
      "Id" : "0047",
      "oid" : "7646",
      "districtId" : "1",
      "nameZh" : "一心市場",
      "pgp" : "0",
      "terminal" : "0",
      "latitude" : "24.15409",
      "inDis" : "50",
      "routeId" : "105",
      "seqNo" : "25"
   },
   {
      "GoBack" : "1",
      "longitude" : "120.6852",
      "outDis" : "50",
      "Id" : "0046",
      "oid" : "7679",
      "districtId" : "1",
      "nameZh" : "中友百貨",
      "pgp" : "0",
      "terminal" : "0",
      "latitude" : "24.15238",
      "inDis" : "50",
      "routeId" : "105",
      "seqNo" : "26"
   },
   {
      "GoBack" : "1",
      "longitude" : "120.68395",
      "outDis" : "50",
      "Id" : "0045",
      "oid" : "7709",
      "districtId" : "1",
      "nameZh" : "國立臺中科技大學",
      "pgp" : "0",
      "terminal" : "0",
      "latitude" : "24.14968",
      "inDis" : "50",
      "routeId" : "105",
      "seqNo" : "27"
   },
   {
      "GoBack" : "1",
      "longitude" : "120.68254",
      "outDis" : "50",
      "Id" : "5467",
      "oid" : "314169247",
      "districtId" : "1",
      "nameZh" : "臺中公園(公園路)",
      "pgp" : "0",
      "terminal" : "0",
      "latitude" : "24.14382",
      "inDis" : "50",
      "routeId" : "105",
      "seqNo" : "28"
   },
   {
      "GoBack" : "1",
      "longitude" : "120.68388",
      "outDis" : "50",
      "Id" : "5670",
      "oid" : "7741",
      "districtId" : "1",
      "nameZh" : "公園自由路口",
      "pgp" : "0",
      "terminal" : "0",
      "latitude" : "24.14269",
      "inDis" : "50",
      "routeId" : "105",
      "seqNo" : "29"
   },
   {
      "GoBack" : "1",
      "longitude" : "120.6861",
      "outDis" : "50",
      "Id" : "0402",
      "oid" : "811A778F029B4A2FA471024515CAD0A3",
      "districtId" : "1",
      "nameZh" : "干城站",
      "pgp" : "0",
      "terminal" : "0",
      "latitude" : "24.14102",
      "inDis" : "50",
      "routeId" : "105",
      "seqNo" : "30"
   },
   {
      "GoBack" : "1",
      "longitude" : "120.6845",
      "outDis" : "50",
      "Id" : "0443",
      "oid" : "856C616F5B4E453BA69AFCC223CB73A6",
      "districtId" : "1",
      "nameZh" : "仁友東站",
      "pgp" : "0",
      "terminal" : "0",
      "latitude" : "24.13897",
      "inDis" : "50",
      "routeId" : "105",
      "seqNo" : "31"
   },
   {
      "GoBack" : "1",
      "longitude" : "120.68206",
      "outDis" : "50",
      "Id" : "0518",
      "oid" : "16668F90D13A4970A721B028C66DD04E",
      "districtId" : "1",
      "nameZh" : "臺中酒廠(復興路)",
      "pgp" : "0",
      "terminal" : "0",
      "latitude" : "24.13417",
      "inDis" : "50",
      "routeId" : "105",
      "seqNo" : "32"
   },
   {
      "GoBack" : "1",
      "longitude" : "120.67994",
      "outDis" : "50",
      "Id" : "1659",
      "oid" : "7779",
      "districtId" : "1",
      "nameZh" : "文化創意園區",
      "pgp" : "0",
      "terminal" : "0",
      "latitude" : "24.13317",
      "inDis" : "50",
      "routeId" : "105",
      "seqNo" : "33"
   },
   {
      "GoBack" : "1",
      "longitude" : "120.67877",
      "outDis" : "50",
      "Id" : "0180",
      "oid" : "7766",
      "districtId" : "1",
      "nameZh" : "林祖厝",
      "pgp" : "0",
      "terminal" : "0",
      "latitude" : "24.1328",
      "inDis" : "50",
      "routeId" : "105",
      "seqNo" : "34"
   },
   {
      "GoBack" : "1",
      "longitude" : "120.6764",
      "outDis" : "50",
      "Id" : "4604",
      "oid" : "7737",
      "districtId" : "1",
      "nameZh" : "復興有恆街口",
      "pgp" : "0",
      "terminal" : "0",
      "latitude" : "24.13182",
      "inDis" : "50",
      "routeId" : "105",
      "seqNo" : "35"
   },
   {
      "GoBack" : "1",
      "longitude" : "120.67469",
      "outDis" : "50",
      "Id" : "0178",
      "oid" : "7817",
      "districtId" : "1",
      "nameZh" : "第三分局",
      "pgp" : "0",
      "terminal" : "0",
      "latitude" : "24.13108",
      "inDis" : "50",
      "routeId" : "105",
      "seqNo" : "36"
   },
   {
      "GoBack" : "1",
      "longitude" : "120.67196",
      "outDis" : "50",
      "Id" : "5393",
      "oid" : "312954998",
      "districtId" : "1",
      "nameZh" : "公共資訊圖書館(復興路)",
      "pgp" : "0",
      "terminal" : "0",
      "latitude" : "24.12985",
      "inDis" : "50",
      "routeId" : "105",
      "seqNo" : "37"
   },
   {
      "GoBack" : "1",
      "longitude" : "120.66837",
      "outDis" : "50",
      "Id" : "5478",
      "oid" : "319311008",
      "districtId" : "1",
      "nameZh" : "高等法院臺中分院",
      "pgp" : "0",
      "terminal" : "0",
      "latitude" : "24.12838",
      "inDis" : "50",
      "routeId" : "105",
      "seqNo" : "38"
   },
   {
      "GoBack" : "1",
      "longitude" : "120.66569",
      "outDis" : "50",
      "Id" : "0543",
      "oid" : "7721",
      "districtId" : "1",
      "nameZh" : "四育國中",
      "pgp" : "0",
      "terminal" : "0",
      "latitude" : "24.12704",
      "inDis" : "50",
      "routeId" : "105",
      "seqNo" : "39"
   },
   {
      "GoBack" : "1",
      "longitude" : "120.66303",
      "outDis" : "50",
      "Id" : "3395",
      "oid" : "7850",
      "districtId" : "1",
      "nameZh" : "復興新和街口",
      "pgp" : "0",
      "terminal" : "0",
      "latitude" : "24.12392",
      "inDis" : "50",
      "routeId" : "105",
      "seqNo" : "40"
   },
   {
      "GoBack" : "1",
      "longitude" : "120.66133",
      "outDis" : "50",
      "Id" : "0128",
      "oid" : "7754",
      "districtId" : "1",
      "nameZh" : "和平國小",
      "pgp" : "0",
      "terminal" : "0",
      "latitude" : "24.12141",
      "inDis" : "50",
      "routeId" : "105",
      "seqNo" : "41"
   },
   {
      "GoBack" : "1",
      "longitude" : "120.65942",
      "outDis" : "50",
      "Id" : "0129",
      "oid" : "7755",
      "districtId" : "1",
      "nameZh" : "宜寧中學",
      "pgp" : "0",
      "terminal" : "0",
      "latitude" : "24.11898",
      "inDis" : "50",
      "routeId" : "105",
      "seqNo" : "42"
   },
   {
      "GoBack" : "1",
      "longitude" : "120.65818",
      "outDis" : "50",
      "Id" : "4538",
      "oid" : "7715",
      "districtId" : "1",
      "nameZh" : "臺中高工(復興路)",
      "pgp" : "0",
      "terminal" : "0",
      "latitude" : "24.11751",
      "inDis" : "50",
      "routeId" : "105",
      "seqNo" : "43"
   },
   {
      "GoBack" : "1",
      "longitude" : "120.65422",
      "outDis" : "50",
      "Id" : "4536",
      "oid" : "7670",
      "districtId" : "1",
      "nameZh" : "復興大慶街口",
      "pgp" : "0",
      "terminal" : "0",
      "latitude" : "24.11444",
      "inDis" : "50",
      "routeId" : "105",
      "seqNo" : "44"
   },
   {
      "GoBack" : "1",
      "longitude" : "120.6512",
      "outDis" : "50",
      "Id" : "3330",
      "oid" : "7846",
      "districtId" : "1",
      "nameZh" : "勤工派出所",
      "pgp" : "0",
      "terminal" : "0",
      "latitude" : "24.11225",
      "inDis" : "50",
      "routeId" : "105",
      "seqNo" : "45"
   },
   {
      "GoBack" : "1",
      "longitude" : "120.64799",
      "outDis" : "50",
      "Id" : "5195",
      "oid" : "311272150",
      "districtId" : "1",
      "nameZh" : "復興環中路口",
      "pgp" : "0",
      "terminal" : "0",
      "latitude" : "24.11096",
      "inDis" : "50",
      "routeId" : "105",
      "seqNo" : "46"
   },
   {
      "GoBack" : "1",
      "longitude" : "120.64588",
      "outDis" : "50",
      "Id" : "3790",
      "oid" : "7871",
      "districtId" : "1",
      "nameZh" : "樹仔腳",
      "pgp" : "0",
      "terminal" : "0",
      "latitude" : "24.11023",
      "inDis" : "50",
      "routeId" : "105",
      "seqNo" : "47"
   },
   {
      "GoBack" : "1",
      "longitude" : "120.64182",
      "outDis" : "50",
      "Id" : "0994",
      "oid" : "7648",
      "districtId" : "1",
      "nameZh" : "九張犁",
      "pgp" : "0",
      "terminal" : "0",
      "latitude" : "24.10901",
      "inDis" : "50",
      "routeId" : "105",
      "seqNo" : "48"
   },
   {
      "GoBack" : "1",
      "longitude" : "120.63886",
      "outDis" : "50",
      "Id" : "2366",
      "oid" : "7761",
      "districtId" : "1",
      "nameZh" : "明道花園城",
      "pgp" : "0",
      "terminal" : "0",
      "latitude" : "24.10807",
      "inDis" : "50",
      "routeId" : "105",
      "seqNo" : "49"
   },
   {
      "GoBack" : "1",
      "longitude" : "120.63696",
      "outDis" : "50",
      "Id" : "2365",
      "oid" : "7760",
      "districtId" : "1",
      "nameZh" : "明道中學",
      "pgp" : "0",
      "terminal" : "0",
      "latitude" : "24.10749",
      "inDis" : "50",
      "routeId" : "105",
      "seqNo" : "50"
   },
   {
      "GoBack" : "1",
      "longitude" : "120.63294",
      "outDis" : "50",
      "Id" : "2821",
      "oid" : "7794",
      "districtId" : "1",
      "nameZh" : "烏日橋",
      "pgp" : "0",
      "terminal" : "0",
      "latitude" : "24.10581",
      "inDis" : "50",
      "routeId" : "105",
      "seqNo" : "51"
   },
   {
      "GoBack" : "1",
      "longitude" : "120.62864",
      "outDis" : "50",
      "Id" : "1454",
      "oid" : "7681",
      "districtId" : "1",
      "nameZh" : "中和紡織",
      "pgp" : "0",
      "terminal" : "0",
      "latitude" : "24.10564",
      "inDis" : "50",
      "routeId" : "105",
      "seqNo" : "52"
   },
   {
      "GoBack" : "1",
      "longitude" : "120.62665",
      "outDis" : "50",
      "Id" : "4660",
      "oid" : "311087404",
      "districtId" : "1",
      "nameZh" : "中山五光路口",
      "pgp" : "0",
      "terminal" : "0",
      "latitude" : "24.10602",
      "inDis" : "50",
      "routeId" : "105",
      "seqNo" : "53"
   },
   {
      "GoBack" : "1",
      "longitude" : "120.62193",
      "outDis" : "50",
      "Id" : "2816",
      "oid" : "7792",
      "districtId" : "1",
      "nameZh" : "烏日",
      "pgp" : "0",
      "terminal" : "0",
      "latitude" : "24.1065",
      "inDis" : "50",
      "routeId" : "105",
      "seqNo" : "54"
   },
   {
      "GoBack" : "1",
      "longitude" : "120.61759",
      "outDis" : "50",
      "Id" : "2820",
      "oid" : "7793",
      "districtId" : "1",
      "nameZh" : "烏日國中",
      "pgp" : "0",
      "terminal" : "0",
      "latitude" : "24.1064",
      "inDis" : "50",
      "routeId" : "105",
      "seqNo" : "55"
   },
   {
      "GoBack" : "1",
      "longitude" : "120.61397",
      "outDis" : "50",
      "Id" : "2742",
      "oid" : "7790",
      "districtId" : "1",
      "nameZh" : "烏厝巷",
      "pgp" : "0",
      "terminal" : "0",
      "latitude" : "24.1069",
      "inDis" : "50",
      "routeId" : "105",
      "seqNo" : "56"
   },
   {
      "GoBack" : "1",
      "longitude" : "120.60761",
      "outDis" : "50",
      "Id" : "5082",
      "oid" : "7649",
      "districtId" : "1",
      "nameZh" : "三和里1",
      "pgp" : "0",
      "terminal" : "0",
      "latitude" : "24.10842",
      "inDis" : "50",
      "routeId" : "105",
      "seqNo" : "57"
   },
   {
      "GoBack" : "1",
      "longitude" : "120.60634",
      "outDis" : "50",
      "Id" : "5083",
      "oid" : "7862",
      "districtId" : "1",
      "nameZh" : "三和里2",
      "pgp" : "0",
      "terminal" : "0",
      "latitude" : "24.10878",
      "inDis" : "50",
      "routeId" : "105",
      "seqNo" : "58"
   },
   {
      "GoBack" : "1",
      "longitude" : "120.6047",
      "outDis" : "50",
      "Id" : "4468",
      "oid" : "14003",
      "districtId" : "1",
      "nameZh" : "烏日戶政",
      "pgp" : "0",
      "terminal" : "0",
      "latitude" : "24.10927",
      "inDis" : "50",
      "routeId" : "105",
      "seqNo" : "59"
   },
   {
      "GoBack" : "1",
      "longitude" : "120.60156",
      "outDis" : "50",
      "Id" : "2120",
      "oid" : "2094",
      "districtId" : "1",
      "nameZh" : "成功嶺",
      "pgp" : "0",
      "terminal" : "0",
      "latitude" : "24.11044",
      "inDis" : "50",
      "routeId" : "105",
      "seqNo" : "60"
   },
   {
      "GoBack" : "1",
      "longitude" : "120.59403",
      "outDis" : "50",
      "Id" : "3277",
      "oid" : "7841",
      "districtId" : "1",
      "nameZh" : "善光寺",
      "pgp" : "0",
      "terminal" : "0",
      "latitude" : "24.11295",
      "inDis" : "50",
      "routeId" : "105",
      "seqNo" : "61"
   },
   {
      "GoBack" : "1",
      "longitude" : "120.58856",
      "outDis" : "50",
      "Id" : "1743",
      "oid" : "7703",
      "districtId" : "1",
      "nameZh" : "王田",
      "pgp" : "0",
      "terminal" : "0",
      "latitude" : "24.11348",
      "inDis" : "50",
      "routeId" : "105",
      "seqNo" : "62"
   },
   {
      "GoBack" : "1",
      "longitude" : "120.57649",
      "outDis" : "50",
      "Id" : "2597",
      "oid" : "7778",
      "districtId" : "1",
      "nameZh" : "南追分",
      "pgp" : "0",
      "terminal" : "0",
      "latitude" : "24.11887",
      "inDis" : "50",
      "routeId" : "105",
      "seqNo" : "63"
   },
   {
      "GoBack" : "1",
      "longitude" : "120.57048",
      "outDis" : "50",
      "Id" : "2884",
      "oid" : "7797",
      "districtId" : "1",
      "nameZh" : "追分",
      "pgp" : "0",
      "terminal" : "0",
      "latitude" : "24.12114",
      "inDis" : "50",
      "routeId" : "105",
      "seqNo" : "64"
   },
   {
      "GoBack" : "1",
      "longitude" : "120.56812",
      "outDis" : "50",
      "Id" : "2885",
      "oid" : "7798",
      "districtId" : "1",
      "nameZh" : "追分國小",
      "pgp" : "0",
      "terminal" : "0",
      "latitude" : "24.12203",
      "inDis" : "50",
      "routeId" : "105",
      "seqNo" : "65"
   },
   {
      "GoBack" : "1",
      "longitude" : "120.5645",
      "outDis" : "50",
      "Id" : "1390",
      "oid" : "7671",
      "districtId" : "1",
      "nameZh" : "山仔頂",
      "pgp" : "0",
      "terminal" : "0",
      "latitude" : "24.12339",
      "inDis" : "50",
      "routeId" : "105",
      "seqNo" : "66"
   },
   {
      "GoBack" : "1",
      "longitude" : "120.56207",
      "outDis" : "50",
      "Id" : "2886",
      "oid" : "7799",
      "districtId" : "1",
      "nameZh" : "追分郵局",
      "pgp" : "0",
      "terminal" : "0",
      "latitude" : "24.12482",
      "inDis" : "50",
      "routeId" : "105",
      "seqNo" : "67"
   },
   {
      "GoBack" : "1",
      "longitude" : "120.56034",
      "outDis" : "50",
      "Id" : "4511",
      "oid" : "14012",
      "districtId" : "1",
      "nameZh" : "興國公司",
      "pgp" : "0",
      "terminal" : "0",
      "latitude" : "24.12584",
      "inDis" : "50",
      "routeId" : "105",
      "seqNo" : "68"
   },
   {
      "GoBack" : "1",
      "longitude" : "120.55759",
      "outDis" : "50",
      "Id" : "4514",
      "oid" : "7883",
      "districtId" : "1",
      "nameZh" : "營埔里",
      "pgp" : "0",
      "terminal" : "0",
      "latitude" : "24.12759",
      "inDis" : "50",
      "routeId" : "105",
      "seqNo" : "69"
   },
   {
      "GoBack" : "1",
      "longitude" : "120.55397",
      "outDis" : "50",
      "Id" : "2494",
      "oid" : "7770",
      "districtId" : "1",
      "nameZh" : "社腳",
      "pgp" : "0",
      "terminal" : "0",
      "latitude" : "24.13248",
      "inDis" : "50",
      "routeId" : "105",
      "seqNo" : "70"
   },
   {
      "GoBack" : "1",
      "longitude" : "120.55358",
      "outDis" : "50",
      "Id" : "2443",
      "oid" : "7764",
      "districtId" : "1",
      "nameZh" : "東興紡織",
      "pgp" : "0",
      "terminal" : "0",
      "latitude" : "24.13472",
      "inDis" : "50",
      "routeId" : "105",
      "seqNo" : "71"
   },
   {
      "GoBack" : "1",
      "longitude" : "120.5518",
      "outDis" : "50",
      "Id" : "4038",
      "oid" : "7644",
      "districtId" : "1",
      "nameZh" : "崁仔腳",
      "pgp" : "0",
      "terminal" : "0",
      "latitude" : "24.13717",
      "inDis" : "50",
      "routeId" : "105",
      "seqNo" : "72"
   },
   {
      "GoBack" : "1",
      "longitude" : "120.54888",
      "outDis" : "50",
      "Id" : "4491",
      "oid" : "7855",
      "districtId" : "1",
      "nameZh" : "新興里",
      "pgp" : "0",
      "terminal" : "0",
      "latitude" : "24.14148",
      "inDis" : "50",
      "routeId" : "105",
      "seqNo" : "73"
   },
   {
      "GoBack" : "1",
      "longitude" : "120.54794",
      "outDis" : "50",
      "Id" : "4460",
      "oid" : "14018",
      "districtId" : "1",
      "nameZh" : "沙田自由路口",
      "pgp" : "0",
      "terminal" : "0",
      "latitude" : "24.14309",
      "inDis" : "50",
      "routeId" : "105",
      "seqNo" : "74"
   },
   {
      "GoBack" : "1",
      "longitude" : "120.54673",
      "outDis" : "50",
      "Id" : "1359",
      "oid" : "7668",
      "districtId" : "1",
      "nameZh" : "大道國中",
      "pgp" : "0",
      "terminal" : "0",
      "latitude" : "24.14613",
      "inDis" : "50",
      "routeId" : "105",
      "seqNo" : "75"
   },
   {
      "GoBack" : "1",
      "longitude" : "120.54565",
      "outDis" : "50",
      "Id" : "1302",
      "oid" : "7659",
      "districtId" : "1",
      "nameZh" : "大肚",
      "pgp" : "0",
      "terminal" : "0",
      "latitude" : "24.15014",
      "inDis" : "50",
      "routeId" : "105",
      "seqNo" : "76"
   },
   {
      "GoBack" : "1",
      "longitude" : "120.54536",
      "outDis" : "50",
      "Id" : "4786",
      "oid" : "14676",
      "districtId" : "1",
      "nameZh" : "大肚區公所",
      "pgp" : "0",
      "terminal" : "0",
      "latitude" : "24.1512",
      "inDis" : "50",
      "routeId" : "105",
      "seqNo" : "77"
   },
   {
      "GoBack" : "1",
      "longitude" : "120.54476",
      "outDis" : "50",
      "Id" : "1303",
      "oid" : "7660",
      "districtId" : "1",
      "nameZh" : "大肚火車站",
      "pgp" : "0",
      "terminal" : "0",
      "latitude" : "24.15316",
      "inDis" : "50",
      "routeId" : "105",
      "seqNo" : "78"
   },
   {
      "GoBack" : "1",
      "longitude" : "120.54393",
      "outDis" : "50",
      "Id" : "3157",
      "oid" : "7829",
      "districtId" : "1",
      "nameZh" : "頂街",
      "pgp" : "0",
      "terminal" : "0",
      "latitude" : "24.15806",
      "inDis" : "50",
      "routeId" : "105",
      "seqNo" : "79"
   },
   {
      "GoBack" : "1",
      "longitude" : "120.54356",
      "outDis" : "50",
      "Id" : "4450",
      "oid" : "14024",
      "districtId" : "1",
      "nameZh" : "北頂街",
      "pgp" : "0",
      "terminal" : "0",
      "latitude" : "24.15977",
      "inDis" : "50",
      "routeId" : "105",
      "seqNo" : "80"
   },
   {
      "GoBack" : "1",
      "longitude" : "120.54283",
      "outDis" : "50",
      "Id" : "1395",
      "oid" : "7673",
      "districtId" : "1",
      "nameZh" : "山陽",
      "pgp" : "0",
      "terminal" : "0",
      "latitude" : "24.16408",
      "inDis" : "50",
      "routeId" : "105",
      "seqNo" : "81"
   },
   {
      "GoBack" : "1",
      "longitude" : "120.54238",
      "outDis" : "50",
      "Id" : "5746",
      "oid" : "7242",
      "districtId" : "1",
      "nameZh" : "山陽一站",
      "pgp" : "0",
      "terminal" : "0",
      "latitude" : "24.1689",
      "inDis" : "50",
      "routeId" : "105",
      "seqNo" : "82"
   },
   {
      "GoBack" : "1",
      "longitude" : "120.54352",
      "outDis" : "50",
      "Id" : "5482",
      "oid" : "14670",
      "districtId" : "1",
      "nameZh" : "沙田中華路口",
      "pgp" : "0",
      "terminal" : "0",
      "latitude" : "24.17402",
      "inDis" : "50",
      "routeId" : "105",
      "seqNo" : "83"
   },
   {
      "GoBack" : "1",
      "longitude" : "120.54379",
      "outDis" : "50",
      "Id" : "2144",
      "oid" : "7738",
      "districtId" : "1",
      "nameZh" : "竹坑口",
      "pgp" : "0",
      "terminal" : "0",
      "latitude" : "24.17549",
      "inDis" : "50",
      "routeId" : "105",
      "seqNo" : "84"
   },
   {
      "GoBack" : "1",
      "longitude" : "120.54461",
      "outDis" : "50",
      "Id" : "2242",
      "oid" : "7090",
      "districtId" : "1",
      "nameZh" : "村內入口",
      "pgp" : "0",
      "terminal" : "0",
      "latitude" : "24.17876",
      "inDis" : "50",
      "routeId" : "105",
      "seqNo" : "85"
   },
   {
      "GoBack" : "1",
      "longitude" : "120.54554",
      "outDis" : "50",
      "Id" : "3031",
      "oid" : "7813",
      "districtId" : "1",
      "nameZh" : "深水",
      "pgp" : "0",
      "terminal" : "0",
      "latitude" : "24.18257",
      "inDis" : "50",
      "routeId" : "105",
      "seqNo" : "86"
   },
   {
      "GoBack" : "1",
      "longitude" : "120.54549",
      "outDis" : "50",
      "Id" : "3853",
      "oid" : "7880",
      "districtId" : "1",
      "nameZh" : "龍崗",
      "pgp" : "0",
      "terminal" : "0",
      "latitude" : "24.18642",
      "inDis" : "50",
      "routeId" : "105",
      "seqNo" : "87"
   },
   {
      "GoBack" : "1",
      "longitude" : "120.54574",
      "outDis" : "50",
      "Id" : "3847",
      "oid" : "7878",
      "districtId" : "1",
      "nameZh" : "龍井加油站",
      "pgp" : "0",
      "terminal" : "0",
      "latitude" : "24.18898",
      "inDis" : "50",
      "routeId" : "105",
      "seqNo" : "88"
   },
   {
      "GoBack" : "1",
      "longitude" : "120.54608",
      "outDis" : "50",
      "Id" : "5160",
      "oid" : "7876",
      "districtId" : "1",
      "nameZh" : "龍井區公所",
      "pgp" : "0",
      "terminal" : "0",
      "latitude" : "24.19246",
      "inDis" : "50",
      "routeId" : "105",
      "seqNo" : "89"
   },
   {
      "GoBack" : "1",
      "longitude" : "120.54659",
      "outDis" : "50",
      "Id" : "3846",
      "oid" : "7877",
      "districtId" : "1",
      "nameZh" : "龍井火車站",
      "pgp" : "0",
      "terminal" : "0",
      "latitude" : "24.19687",
      "inDis" : "50",
      "routeId" : "105",
      "seqNo" : "90"
   },
   {
      "GoBack" : "1",
      "longitude" : "120.54699",
      "outDis" : "50",
      "Id" : "3855",
      "oid" : "7881",
      "districtId" : "1",
      "nameZh" : "龍泉",
      "pgp" : "0",
      "terminal" : "0",
      "latitude" : "24.19933",
      "inDis" : "50",
      "routeId" : "105",
      "seqNo" : "91"
   },
   {
      "GoBack" : "1",
      "longitude" : "120.54798",
      "outDis" : "50",
      "Id" : "3850",
      "oid" : "7879",
      "districtId" : "1",
      "nameZh" : "龍目井",
      "pgp" : "0",
      "terminal" : "0",
      "latitude" : "24.20249",
      "inDis" : "50",
      "routeId" : "105",
      "seqNo" : "92"
   },
   {
      "GoBack" : "1",
      "longitude" : "120.54923",
      "outDis" : "50",
      "Id" : "4010",
      "oid" : "7889",
      "districtId" : "1",
      "nameZh" : "鷺山",
      "pgp" : "0",
      "terminal" : "0",
      "latitude" : "24.20743",
      "inDis" : "50",
      "routeId" : "105",
      "seqNo" : "93"
   },
   {
      "GoBack" : "1",
      "longitude" : "120.55056",
      "outDis" : "50",
      "Id" : "2559",
      "oid" : "7775",
      "districtId" : "1",
      "nameZh" : "南山腳",
      "pgp" : "0",
      "terminal" : "0",
      "latitude" : "24.21022",
      "inDis" : "50",
      "routeId" : "105",
      "seqNo" : "94"
   },
   {
      "GoBack" : "1",
      "longitude" : "120.55157",
      "outDis" : "50",
      "Id" : "3844",
      "oid" : "7875",
      "districtId" : "1",
      "nameZh" : "龍山國小",
      "pgp" : "0",
      "terminal" : "0",
      "latitude" : "24.21255",
      "inDis" : "50",
      "routeId" : "105",
      "seqNo" : "95"
   },
   {
      "GoBack" : "2",
      "longitude" : "120.55157",
      "outDis" : "50",
      "Id" : "3844",
      "oid" : "7875",
      "districtId" : "1",
      "nameZh" : "龍山國小",
      "pgp" : "0",
      "terminal" : "0",
      "latitude" : "24.21255",
      "inDis" : "50",
      "routeId" : "105",
      "seqNo" : "1"
   },
   {
      "GoBack" : "2",
      "longitude" : "120.55056",
      "outDis" : "50",
      "Id" : "2559",
      "oid" : "7775",
      "districtId" : "1",
      "nameZh" : "南山腳",
      "pgp" : "0",
      "terminal" : "0",
      "latitude" : "24.21022",
      "inDis" : "50",
      "routeId" : "105",
      "seqNo" : "2"
   },
   {
      "GoBack" : "2",
      "longitude" : "120.54923",
      "outDis" : "50",
      "Id" : "4010",
      "oid" : "7889",
      "districtId" : "1",
      "nameZh" : "鷺山",
      "pgp" : "0",
      "terminal" : "0",
      "latitude" : "24.20743",
      "inDis" : "50",
      "routeId" : "105",
      "seqNo" : "3"
   },
   {
      "GoBack" : "2",
      "longitude" : "120.54798",
      "outDis" : "50",
      "Id" : "3850",
      "oid" : "7879",
      "districtId" : "1",
      "nameZh" : "龍目井",
      "pgp" : "0",
      "terminal" : "0",
      "latitude" : "24.20249",
      "inDis" : "50",
      "routeId" : "105",
      "seqNo" : "4"
   },
   {
      "GoBack" : "2",
      "longitude" : "120.54699",
      "outDis" : "50",
      "Id" : "3855",
      "oid" : "7881",
      "districtId" : "1",
      "nameZh" : "龍泉",
      "pgp" : "0",
      "terminal" : "0",
      "latitude" : "24.19933",
      "inDis" : "50",
      "routeId" : "105",
      "seqNo" : "5"
   },
   {
      "GoBack" : "2",
      "longitude" : "120.54659",
      "outDis" : "50",
      "Id" : "3846",
      "oid" : "7877",
      "districtId" : "1",
      "nameZh" : "龍井火車站",
      "pgp" : "0",
      "terminal" : "0",
      "latitude" : "24.19687",
      "inDis" : "50",
      "routeId" : "105",
      "seqNo" : "6"
   },
   {
      "GoBack" : "2",
      "longitude" : "120.54608",
      "outDis" : "50",
      "Id" : "5160",
      "oid" : "7876",
      "districtId" : "1",
      "nameZh" : "龍井區公所",
      "pgp" : "0",
      "terminal" : "0",
      "latitude" : "24.19246",
      "inDis" : "50",
      "routeId" : "105",
      "seqNo" : "7"
   },
   {
      "GoBack" : "2",
      "longitude" : "120.54574",
      "outDis" : "50",
      "Id" : "3847",
      "oid" : "7878",
      "districtId" : "1",
      "nameZh" : "龍井加油站",
      "pgp" : "0",
      "terminal" : "0",
      "latitude" : "24.18898",
      "inDis" : "50",
      "routeId" : "105",
      "seqNo" : "8"
   },
   {
      "GoBack" : "2",
      "longitude" : "120.54549",
      "outDis" : "50",
      "Id" : "3853",
      "oid" : "7880",
      "districtId" : "1",
      "nameZh" : "龍崗",
      "pgp" : "0",
      "terminal" : "0",
      "latitude" : "24.18642",
      "inDis" : "50",
      "routeId" : "105",
      "seqNo" : "9"
   },
   {
      "GoBack" : "2",
      "longitude" : "120.54554",
      "outDis" : "50",
      "Id" : "3031",
      "oid" : "7813",
      "districtId" : "1",
      "nameZh" : "深水",
      "pgp" : "0",
      "terminal" : "0",
      "latitude" : "24.18257",
      "inDis" : "50",
      "routeId" : "105",
      "seqNo" : "10"
   },
   {
      "GoBack" : "2",
      "longitude" : "120.54461",
      "outDis" : "50",
      "Id" : "2242",
      "oid" : "7090",
      "districtId" : "1",
      "nameZh" : "村內入口",
      "pgp" : "0",
      "terminal" : "0",
      "latitude" : "24.17876",
      "inDis" : "50",
      "routeId" : "105",
      "seqNo" : "11"
   },
   {
      "GoBack" : "2",
      "longitude" : "120.54379",
      "outDis" : "50",
      "Id" : "2144",
      "oid" : "7738",
      "districtId" : "1",
      "nameZh" : "竹坑口",
      "pgp" : "0",
      "terminal" : "0",
      "latitude" : "24.17549",
      "inDis" : "50",
      "routeId" : "105",
      "seqNo" : "12"
   },
   {
      "GoBack" : "2",
      "longitude" : "120.54266",
      "outDis" : "50",
      "Id" : "5482",
      "oid" : "14732",
      "districtId" : "1",
      "nameZh" : "沙田中華路口",
      "pgp" : "0",
      "terminal" : "0",
      "latitude" : "24.17189",
      "inDis" : "50",
      "routeId" : "105",
      "seqNo" : "13"
   },
   {
      "GoBack" : "2",
      "longitude" : "120.54238",
      "outDis" : "50",
      "Id" : "5746",
      "oid" : "7242",
      "districtId" : "1",
      "nameZh" : "山陽一站",
      "pgp" : "0",
      "terminal" : "0",
      "latitude" : "24.1689",
      "inDis" : "50",
      "routeId" : "105",
      "seqNo" : "14"
   },
   {
      "GoBack" : "2",
      "longitude" : "120.54283",
      "outDis" : "50",
      "Id" : "1395",
      "oid" : "7673",
      "districtId" : "1",
      "nameZh" : "山陽",
      "pgp" : "0",
      "terminal" : "0",
      "latitude" : "24.16408",
      "inDis" : "50",
      "routeId" : "105",
      "seqNo" : "15"
   },
   {
      "GoBack" : "2",
      "longitude" : "120.54356",
      "outDis" : "50",
      "Id" : "4450",
      "oid" : "14024",
      "districtId" : "1",
      "nameZh" : "北頂街",
      "pgp" : "0",
      "terminal" : "0",
      "latitude" : "24.15977",
      "inDis" : "50",
      "routeId" : "105",
      "seqNo" : "16"
   },
   {
      "GoBack" : "2",
      "longitude" : "120.54393",
      "outDis" : "50",
      "Id" : "3157",
      "oid" : "7829",
      "districtId" : "1",
      "nameZh" : "頂街",
      "pgp" : "0",
      "terminal" : "0",
      "latitude" : "24.15806",
      "inDis" : "50",
      "routeId" : "105",
      "seqNo" : "17"
   },
   {
      "GoBack" : "2",
      "longitude" : "120.54476",
      "outDis" : "50",
      "Id" : "1303",
      "oid" : "7660",
      "districtId" : "1",
      "nameZh" : "大肚火車站",
      "pgp" : "0",
      "terminal" : "0",
      "latitude" : "24.15316",
      "inDis" : "50",
      "routeId" : "105",
      "seqNo" : "18"
   },
   {
      "GoBack" : "2",
      "longitude" : "120.54536",
      "outDis" : "50",
      "Id" : "4786",
      "oid" : "14021",
      "districtId" : "1",
      "nameZh" : "大肚區公所",
      "pgp" : "0",
      "terminal" : "0",
      "latitude" : "24.1512",
      "inDis" : "50",
      "routeId" : "105",
      "seqNo" : "19"
   },
   {
      "GoBack" : "2",
      "longitude" : "120.54565",
      "outDis" : "50",
      "Id" : "1302",
      "oid" : "7659",
      "districtId" : "1",
      "nameZh" : "大肚",
      "pgp" : "0",
      "terminal" : "0",
      "latitude" : "24.15014",
      "inDis" : "50",
      "routeId" : "105",
      "seqNo" : "20"
   },
   {
      "GoBack" : "2",
      "longitude" : "120.54673",
      "outDis" : "50",
      "Id" : "1359",
      "oid" : "7668",
      "districtId" : "1",
      "nameZh" : "大道國中",
      "pgp" : "0",
      "terminal" : "0",
      "latitude" : "24.14613",
      "inDis" : "50",
      "routeId" : "105",
      "seqNo" : "21"
   },
   {
      "GoBack" : "2",
      "longitude" : "120.54794",
      "outDis" : "50",
      "Id" : "4460",
      "oid" : "14018",
      "districtId" : "1",
      "nameZh" : "沙田自由路口",
      "pgp" : "0",
      "terminal" : "0",
      "latitude" : "24.14309",
      "inDis" : "50",
      "routeId" : "105",
      "seqNo" : "22"
   },
   {
      "GoBack" : "2",
      "longitude" : "120.54888",
      "outDis" : "50",
      "Id" : "4491",
      "oid" : "7855",
      "districtId" : "1",
      "nameZh" : "新興里",
      "pgp" : "0",
      "terminal" : "0",
      "latitude" : "24.14148",
      "inDis" : "50",
      "routeId" : "105",
      "seqNo" : "23"
   },
   {
      "GoBack" : "2",
      "longitude" : "120.5518",
      "outDis" : "50",
      "Id" : "4038",
      "oid" : "7644",
      "districtId" : "1",
      "nameZh" : "崁仔腳",
      "pgp" : "0",
      "terminal" : "0",
      "latitude" : "24.13717",
      "inDis" : "50",
      "routeId" : "105",
      "seqNo" : "24"
   },
   {
      "GoBack" : "2",
      "longitude" : "120.55358",
      "outDis" : "50",
      "Id" : "2443",
      "oid" : "7764",
      "districtId" : "1",
      "nameZh" : "東興紡織",
      "pgp" : "0",
      "terminal" : "0",
      "latitude" : "24.13472",
      "inDis" : "50",
      "routeId" : "105",
      "seqNo" : "25"
   },
   {
      "GoBack" : "2",
      "longitude" : "120.55397",
      "outDis" : "50",
      "Id" : "2494",
      "oid" : "7770",
      "districtId" : "1",
      "nameZh" : "社腳",
      "pgp" : "0",
      "terminal" : "0",
      "latitude" : "24.13248",
      "inDis" : "50",
      "routeId" : "105",
      "seqNo" : "26"
   },
   {
      "GoBack" : "2",
      "longitude" : "120.55759",
      "outDis" : "50",
      "Id" : "4514",
      "oid" : "7883",
      "districtId" : "1",
      "nameZh" : "營埔里",
      "pgp" : "0",
      "terminal" : "0",
      "latitude" : "24.12759",
      "inDis" : "50",
      "routeId" : "105",
      "seqNo" : "27"
   },
   {
      "GoBack" : "2",
      "longitude" : "120.56034",
      "outDis" : "50",
      "Id" : "4511",
      "oid" : "14012",
      "districtId" : "1",
      "nameZh" : "興國公司",
      "pgp" : "0",
      "terminal" : "0",
      "latitude" : "24.12584",
      "inDis" : "50",
      "routeId" : "105",
      "seqNo" : "28"
   },
   {
      "GoBack" : "2",
      "longitude" : "120.56207",
      "outDis" : "50",
      "Id" : "2886",
      "oid" : "7799",
      "districtId" : "1",
      "nameZh" : "追分郵局",
      "pgp" : "0",
      "terminal" : "0",
      "latitude" : "24.12482",
      "inDis" : "50",
      "routeId" : "105",
      "seqNo" : "29"
   },
   {
      "GoBack" : "2",
      "longitude" : "120.5645",
      "outDis" : "50",
      "Id" : "1390",
      "oid" : "7671",
      "districtId" : "1",
      "nameZh" : "山仔頂",
      "pgp" : "0",
      "terminal" : "0",
      "latitude" : "24.12339",
      "inDis" : "50",
      "routeId" : "105",
      "seqNo" : "30"
   },
   {
      "GoBack" : "2",
      "longitude" : "120.56812",
      "outDis" : "50",
      "Id" : "2885",
      "oid" : "7798",
      "districtId" : "1",
      "nameZh" : "追分國小",
      "pgp" : "0",
      "terminal" : "0",
      "latitude" : "24.12203",
      "inDis" : "50",
      "routeId" : "105",
      "seqNo" : "31"
   },
   {
      "GoBack" : "2",
      "longitude" : "120.57048",
      "outDis" : "50",
      "Id" : "2884",
      "oid" : "7797",
      "districtId" : "1",
      "nameZh" : "追分",
      "pgp" : "0",
      "terminal" : "0",
      "latitude" : "24.12114",
      "inDis" : "50",
      "routeId" : "105",
      "seqNo" : "32"
   },
   {
      "GoBack" : "2",
      "longitude" : "120.57649",
      "outDis" : "50",
      "Id" : "2597",
      "oid" : "7778",
      "districtId" : "1",
      "nameZh" : "南追分",
      "pgp" : "0",
      "terminal" : "0",
      "latitude" : "24.11887",
      "inDis" : "50",
      "routeId" : "105",
      "seqNo" : "33"
   },
   {
      "GoBack" : "2",
      "longitude" : "120.58856",
      "outDis" : "50",
      "Id" : "1743",
      "oid" : "7703",
      "districtId" : "1",
      "nameZh" : "王田",
      "pgp" : "0",
      "terminal" : "0",
      "latitude" : "24.11348",
      "inDis" : "50",
      "routeId" : "105",
      "seqNo" : "34"
   },
   {
      "GoBack" : "2",
      "longitude" : "120.59403",
      "outDis" : "50",
      "Id" : "3277",
      "oid" : "7841",
      "districtId" : "1",
      "nameZh" : "善光寺",
      "pgp" : "0",
      "terminal" : "0",
      "latitude" : "24.11295",
      "inDis" : "50",
      "routeId" : "105",
      "seqNo" : "35"
   },
   {
      "GoBack" : "2",
      "longitude" : "120.60111",
      "outDis" : "50",
      "Id" : "2120",
      "oid" : "2133",
      "districtId" : "1",
      "nameZh" : "成功嶺",
      "pgp" : "0",
      "terminal" : "0",
      "latitude" : "24.11041",
      "inDis" : "50",
      "routeId" : "105",
      "seqNo" : "36"
   },
   {
      "GoBack" : "2",
      "longitude" : "120.6047",
      "outDis" : "50",
      "Id" : "4468",
      "oid" : "14003",
      "districtId" : "1",
      "nameZh" : "烏日戶政",
      "pgp" : "0",
      "terminal" : "0",
      "latitude" : "24.10927",
      "inDis" : "50",
      "routeId" : "105",
      "seqNo" : "37"
   },
   {
      "GoBack" : "2",
      "longitude" : "120.60634",
      "outDis" : "50",
      "Id" : "5083",
      "oid" : "7862",
      "districtId" : "1",
      "nameZh" : "三和里2",
      "pgp" : "0",
      "terminal" : "0",
      "latitude" : "24.10878",
      "inDis" : "50",
      "routeId" : "105",
      "seqNo" : "38"
   },
   {
      "GoBack" : "2",
      "longitude" : "120.60761",
      "outDis" : "50",
      "Id" : "5082",
      "oid" : "7649",
      "districtId" : "1",
      "nameZh" : "三和里1",
      "pgp" : "0",
      "terminal" : "0",
      "latitude" : "24.10842",
      "inDis" : "50",
      "routeId" : "105",
      "seqNo" : "39"
   },
   {
      "GoBack" : "2",
      "longitude" : "120.61397",
      "outDis" : "50",
      "Id" : "2742",
      "oid" : "7790",
      "districtId" : "1",
      "nameZh" : "烏厝巷",
      "pgp" : "0",
      "terminal" : "0",
      "latitude" : "24.1069",
      "inDis" : "50",
      "routeId" : "105",
      "seqNo" : "40"
   },
   {
      "GoBack" : "2",
      "longitude" : "120.61759",
      "outDis" : "50",
      "Id" : "2820",
      "oid" : "7793",
      "districtId" : "1",
      "nameZh" : "烏日國中",
      "pgp" : "0",
      "terminal" : "0",
      "latitude" : "24.1064",
      "inDis" : "50",
      "routeId" : "105",
      "seqNo" : "41"
   },
   {
      "GoBack" : "2",
      "longitude" : "120.62193",
      "outDis" : "50",
      "Id" : "2816",
      "oid" : "7792",
      "districtId" : "1",
      "nameZh" : "烏日",
      "pgp" : "0",
      "terminal" : "0",
      "latitude" : "24.1065",
      "inDis" : "50",
      "routeId" : "105",
      "seqNo" : "42"
   },
   {
      "GoBack" : "2",
      "longitude" : "120.62665",
      "outDis" : "50",
      "Id" : "4660",
      "oid" : "311087404",
      "districtId" : "1",
      "nameZh" : "中山五光路口",
      "pgp" : "0",
      "terminal" : "0",
      "latitude" : "24.10602",
      "inDis" : "50",
      "routeId" : "105",
      "seqNo" : "43"
   },
   {
      "GoBack" : "2",
      "longitude" : "120.62864",
      "outDis" : "50",
      "Id" : "1454",
      "oid" : "7681",
      "districtId" : "1",
      "nameZh" : "中和紡織",
      "pgp" : "0",
      "terminal" : "0",
      "latitude" : "24.10564",
      "inDis" : "50",
      "routeId" : "105",
      "seqNo" : "44"
   },
   {
      "GoBack" : "2",
      "longitude" : "120.63294",
      "outDis" : "50",
      "Id" : "2821",
      "oid" : "7794",
      "districtId" : "1",
      "nameZh" : "烏日橋",
      "pgp" : "0",
      "terminal" : "0",
      "latitude" : "24.10581",
      "inDis" : "50",
      "routeId" : "105",
      "seqNo" : "45"
   },
   {
      "GoBack" : "2",
      "longitude" : "120.63696",
      "outDis" : "50",
      "Id" : "2365",
      "oid" : "7760",
      "districtId" : "1",
      "nameZh" : "明道中學",
      "pgp" : "0",
      "terminal" : "0",
      "latitude" : "24.10749",
      "inDis" : "50",
      "routeId" : "105",
      "seqNo" : "46"
   },
   {
      "GoBack" : "2",
      "longitude" : "120.63886",
      "outDis" : "50",
      "Id" : "2366",
      "oid" : "7761",
      "districtId" : "1",
      "nameZh" : "明道花園城",
      "pgp" : "0",
      "terminal" : "0",
      "latitude" : "24.10807",
      "inDis" : "50",
      "routeId" : "105",
      "seqNo" : "47"
   },
   {
      "GoBack" : "2",
      "longitude" : "120.64182",
      "outDis" : "50",
      "Id" : "0994",
      "oid" : "7648",
      "districtId" : "1",
      "nameZh" : "九張犁",
      "pgp" : "0",
      "terminal" : "0",
      "latitude" : "24.10901",
      "inDis" : "50",
      "routeId" : "105",
      "seqNo" : "48"
   },
   {
      "GoBack" : "2",
      "longitude" : "120.64588",
      "outDis" : "50",
      "Id" : "3790",
      "oid" : "7871",
      "districtId" : "1",
      "nameZh" : "樹仔腳",
      "pgp" : "0",
      "terminal" : "0",
      "latitude" : "24.11023",
      "inDis" : "50",
      "routeId" : "105",
      "seqNo" : "49"
   },
   {
      "GoBack" : "2",
      "longitude" : "120.64799",
      "outDis" : "50",
      "Id" : "5195",
      "oid" : "311272150",
      "districtId" : "1",
      "nameZh" : "復興環中路口",
      "pgp" : "0",
      "terminal" : "0",
      "latitude" : "24.11096",
      "inDis" : "50",
      "routeId" : "105",
      "seqNo" : "50"
   },
   {
      "GoBack" : "2",
      "longitude" : "120.6512",
      "outDis" : "50",
      "Id" : "3330",
      "oid" : "7846",
      "districtId" : "1",
      "nameZh" : "勤工派出所",
      "pgp" : "0",
      "terminal" : "0",
      "latitude" : "24.11225",
      "inDis" : "50",
      "routeId" : "105",
      "seqNo" : "51"
   },
   {
      "GoBack" : "2",
      "longitude" : "120.65422",
      "outDis" : "50",
      "Id" : "4536",
      "oid" : "7670",
      "districtId" : "1",
      "nameZh" : "復興大慶街口",
      "pgp" : "0",
      "terminal" : "0",
      "latitude" : "24.11444",
      "inDis" : "50",
      "routeId" : "105",
      "seqNo" : "52"
   },
   {
      "GoBack" : "2",
      "longitude" : "120.65591",
      "outDis" : "50",
      "Id" : "0130",
      "oid" : "3723",
      "districtId" : "1",
      "nameZh" : "樹義里",
      "pgp" : "0",
      "terminal" : "0",
      "latitude" : "24.11565",
      "inDis" : "50",
      "routeId" : "105",
      "seqNo" : "53"
   },
   {
      "GoBack" : "2",
      "longitude" : "120.65818",
      "outDis" : "50",
      "Id" : "4538",
      "oid" : "7715",
      "districtId" : "1",
      "nameZh" : "臺中高工(復興路)",
      "pgp" : "0",
      "terminal" : "0",
      "latitude" : "24.11751",
      "inDis" : "50",
      "routeId" : "105",
      "seqNo" : "54"
   },
   {
      "GoBack" : "2",
      "longitude" : "120.65942",
      "outDis" : "50",
      "Id" : "0129",
      "oid" : "7755",
      "districtId" : "1",
      "nameZh" : "宜寧中學",
      "pgp" : "0",
      "terminal" : "0",
      "latitude" : "24.11898",
      "inDis" : "50",
      "routeId" : "105",
      "seqNo" : "55"
   },
   {
      "GoBack" : "2",
      "longitude" : "120.66133",
      "outDis" : "50",
      "Id" : "0128",
      "oid" : "7754",
      "districtId" : "1",
      "nameZh" : "和平國小",
      "pgp" : "0",
      "terminal" : "0",
      "latitude" : "24.12141",
      "inDis" : "50",
      "routeId" : "105",
      "seqNo" : "56"
   },
   {
      "GoBack" : "2",
      "longitude" : "120.66303",
      "outDis" : "50",
      "Id" : "3395",
      "oid" : "7850",
      "districtId" : "1",
      "nameZh" : "復興新和街口",
      "pgp" : "0",
      "terminal" : "0",
      "latitude" : "24.12392",
      "inDis" : "50",
      "routeId" : "105",
      "seqNo" : "57"
   },
   {
      "GoBack" : "2",
      "longitude" : "120.66569",
      "outDis" : "50",
      "Id" : "0543",
      "oid" : "7721",
      "districtId" : "1",
      "nameZh" : "四育國中",
      "pgp" : "0",
      "terminal" : "0",
      "latitude" : "24.12704",
      "inDis" : "50",
      "routeId" : "105",
      "seqNo" : "58"
   },
   {
      "GoBack" : "2",
      "longitude" : "120.66837",
      "outDis" : "50",
      "Id" : "5478",
      "oid" : "319311008",
      "districtId" : "1",
      "nameZh" : "高等法院臺中分院",
      "pgp" : "0",
      "terminal" : "0",
      "latitude" : "24.12838",
      "inDis" : "50",
      "routeId" : "105",
      "seqNo" : "59"
   },
   {
      "GoBack" : "2",
      "longitude" : "120.67196",
      "outDis" : "50",
      "Id" : "5393",
      "oid" : "312954998",
      "districtId" : "1",
      "nameZh" : "公共資訊圖書館(復興路)",
      "pgp" : "0",
      "terminal" : "0",
      "latitude" : "24.12985",
      "inDis" : "50",
      "routeId" : "105",
      "seqNo" : "60"
   },
   {
      "GoBack" : "2",
      "longitude" : "120.67469",
      "outDis" : "50",
      "Id" : "0178",
      "oid" : "7817",
      "districtId" : "1",
      "nameZh" : "第三分局",
      "pgp" : "0",
      "terminal" : "0",
      "latitude" : "24.13108",
      "inDis" : "50",
      "routeId" : "105",
      "seqNo" : "61"
   },
   {
      "GoBack" : "2",
      "longitude" : "120.6764",
      "outDis" : "50",
      "Id" : "4604",
      "oid" : "7737",
      "districtId" : "1",
      "nameZh" : "復興有恆街口",
      "pgp" : "0",
      "terminal" : "0",
      "latitude" : "24.13182",
      "inDis" : "50",
      "routeId" : "105",
      "seqNo" : "62"
   },
   {
      "GoBack" : "2",
      "longitude" : "120.67877",
      "outDis" : "50",
      "Id" : "0180",
      "oid" : "7766",
      "districtId" : "1",
      "nameZh" : "林祖厝",
      "pgp" : "0",
      "terminal" : "0",
      "latitude" : "24.1328",
      "inDis" : "50",
      "routeId" : "105",
      "seqNo" : "63"
   },
   {
      "GoBack" : "2",
      "longitude" : "120.67994",
      "outDis" : "50",
      "Id" : "1659",
      "oid" : "7779",
      "districtId" : "1",
      "nameZh" : "文化創意園區",
      "pgp" : "0",
      "terminal" : "0",
      "latitude" : "24.13317",
      "inDis" : "50",
      "routeId" : "105",
      "seqNo" : "64"
   },
   {
      "GoBack" : "2",
      "longitude" : "120.68154",
      "outDis" : "50",
      "Id" : "0518",
      "oid" : "99DDB9E7E5D74644A776349363113C49",
      "districtId" : "1",
      "nameZh" : "臺中酒廠(復興路)",
      "pgp" : "0",
      "terminal" : "0",
      "latitude" : "24.1338",
      "inDis" : "50",
      "routeId" : "105",
      "seqNo" : "65"
   },
   {
      "GoBack" : "2",
      "longitude" : "120.6847",
      "outDis" : "50",
      "Id" : "1824",
      "oid" : "310655198",
      "districtId" : "1",
      "nameZh" : "臺中火車站",
      "pgp" : "0",
      "terminal" : "0",
      "latitude" : "24.13731",
      "inDis" : "50",
      "routeId" : "105",
      "seqNo" : "66"
   },
   {
      "GoBack" : "2",
      "longitude" : "120.68359",
      "outDis" : "50",
      "Id" : "0151",
      "oid" : "6BB8B224C6BC4D92916459947BC7E827",
      "districtId" : "1",
      "nameZh" : "第一廣場",
      "pgp" : "0",
      "terminal" : "0",
      "latitude" : "24.13901",
      "inDis" : "50",
      "routeId" : "105",
      "seqNo" : "67"
   },
   {
      "GoBack" : "2",
      "longitude" : "120.68242",
      "outDis" : "50",
      "Id" : "4401",
      "oid" : "BF660BA8BC1448B1BCF5415ADC010E30",
      "districtId" : "1",
      "nameZh" : "彰化銀行(臺灣大道)",
      "pgp" : "0",
      "terminal" : "0",
      "latitude" : "24.13982",
      "inDis" : "50",
      "routeId" : "105",
      "seqNo" : "68"
   },
   {
      "GoBack" : "2",
      "longitude" : "120.68388",
      "outDis" : "50",
      "Id" : "5670",
      "oid" : "7741",
      "districtId" : "1",
      "nameZh" : "公園自由路口",
      "pgp" : "0",
      "terminal" : "0",
      "latitude" : "24.14269",
      "inDis" : "50",
      "routeId" : "105",
      "seqNo" : "69"
   },
   {
      "GoBack" : "2",
      "longitude" : "120.68224",
      "outDis" : "50",
      "Id" : "4543",
      "oid" : "A02806217F234B188F720CDC03520228",
      "districtId" : "1",
      "nameZh" : "臺中公園(三民路)",
      "pgp" : "0",
      "terminal" : "0",
      "latitude" : "24.14526",
      "inDis" : "50",
      "routeId" : "105",
      "seqNo" : "70"
   },
   {
      "GoBack" : "2",
      "longitude" : "120.68395",
      "outDis" : "50",
      "Id" : "0045",
      "oid" : "7709",
      "districtId" : "1",
      "nameZh" : "國立臺中科技大學",
      "pgp" : "0",
      "terminal" : "0",
      "latitude" : "24.14968",
      "inDis" : "50",
      "routeId" : "105",
      "seqNo" : "71"
   },
   {
      "GoBack" : "2",
      "longitude" : "120.6852",
      "outDis" : "50",
      "Id" : "0046",
      "oid" : "7679",
      "districtId" : "1",
      "nameZh" : "中友百貨",
      "pgp" : "0",
      "terminal" : "0",
      "latitude" : "24.15238",
      "inDis" : "50",
      "routeId" : "105",
      "seqNo" : "72"
   },
   {
      "GoBack" : "2",
      "longitude" : "120.68585",
      "outDis" : "50",
      "Id" : "0047",
      "oid" : "7646",
      "districtId" : "1",
      "nameZh" : "一心市場",
      "pgp" : "0",
      "terminal" : "0",
      "latitude" : "24.15409",
      "inDis" : "50",
      "routeId" : "105",
      "seqNo" : "73"
   },
   {
      "GoBack" : "2",
      "longitude" : "120.6871",
      "outDis" : "50",
      "Id" : "0934",
      "oid" : "934B91B97CB24246870E2B2ABD24CC20",
      "districtId" : "1",
      "nameZh" : "三民錦中街口",
      "pgp" : "0",
      "terminal" : "0",
      "latitude" : "24.15556",
      "inDis" : "50",
      "routeId" : "105",
      "seqNo" : "74"
   },
   {
      "GoBack" : "2",
      "longitude" : "120.68852",
      "outDis" : "50",
      "Id" : "4399",
      "oid" : "7849",
      "districtId" : "1",
      "nameZh" : "新民高中(三民路)",
      "pgp" : "0",
      "terminal" : "0",
      "latitude" : "24.15682",
      "inDis" : "50",
      "routeId" : "105",
      "seqNo" : "75"
   },
   {
      "GoBack" : "2",
      "longitude" : "120.69034",
      "outDis" : "50",
      "Id" : "0960",
      "oid" : "7887",
      "districtId" : "1",
      "nameZh" : "寶覺寺",
      "pgp" : "0",
      "terminal" : "0",
      "latitude" : "24.15845",
      "inDis" : "50",
      "routeId" : "105",
      "seqNo" : "76"
   },
   {
      "GoBack" : "2",
      "longitude" : "120.69218",
      "outDis" : "50",
      "Id" : "0892",
      "oid" : "7864",
      "districtId" : "1",
      "nameZh" : "監理站",
      "pgp" : "0",
      "terminal" : "0",
      "latitude" : "24.1611",
      "inDis" : "50",
      "routeId" : "105",
      "seqNo" : "77"
   },
   {
      "GoBack" : "2",
      "longitude" : "120.69194",
      "outDis" : "50",
      "Id" : "5515",
      "oid" : "315467329",
      "districtId" : "1",
      "nameZh" : "北屯國小(進化北路)",
      "pgp" : "0",
      "terminal" : "0",
      "latitude" : "24.16284",
      "inDis" : "50",
      "routeId" : "105",
      "seqNo" : "78"
   },
   {
      "GoBack" : "2",
      "longitude" : "120.68984",
      "outDis" : "50",
      "Id" : "0493",
      "oid" : "7704",
      "districtId" : "1",
      "nameZh" : "北屯市場",
      "pgp" : "0",
      "terminal" : "0",
      "latitude" : "24.16302",
      "inDis" : "50",
      "routeId" : "105",
      "seqNo" : "79"
   },
   {
      "GoBack" : "2",
      "longitude" : "120.68766",
      "outDis" : "50",
      "Id" : "0830",
      "oid" : "7840",
      "districtId" : "1",
      "nameZh" : "稅務新村",
      "pgp" : "0",
      "terminal" : "0",
      "latitude" : "24.16304",
      "inDis" : "50",
      "routeId" : "105",
      "seqNo" : "80"
   },
   {
      "GoBack" : "2",
      "longitude" : "120.68623",
      "outDis" : "50",
      "Id" : "0800",
      "oid" : "7827",
      "districtId" : "1",
      "nameZh" : "頂厝里",
      "pgp" : "0",
      "terminal" : "0",
      "latitude" : "24.163",
      "inDis" : "50",
      "routeId" : "105",
      "seqNo" : "81"
   },
   {
      "GoBack" : "2",
      "longitude" : "120.68509",
      "outDis" : "50",
      "Id" : "0098",
      "oid" : "7805",
      "districtId" : "1",
      "nameZh" : "崇德橋",
      "pgp" : "0",
      "terminal" : "0",
      "latitude" : "24.16543",
      "inDis" : "50",
      "routeId" : "105",
      "seqNo" : "82"
   },
   {
      "GoBack" : "2",
      "longitude" : "120.68512",
      "outDis" : "50",
      "Id" : "3511",
      "oid" : "7537",
      "districtId" : "1",
      "nameZh" : "聖德禪寺",
      "pgp" : "0",
      "terminal" : "0",
      "latitude" : "24.16787",
      "inDis" : "50",
      "routeId" : "105",
      "seqNo" : "83"
   },
   {
      "GoBack" : "2",
      "longitude" : "120.68546",
      "outDis" : "50",
      "Id" : "1768",
      "oid" : "EDBBE6CEB3E540C6A2D556B3788689A3",
      "districtId" : "1",
      "nameZh" : "崇德北平路口",
      "pgp" : "0",
      "terminal" : "0",
      "latitude" : "24.17056",
      "inDis" : "50",
      "routeId" : "105",
      "seqNo" : "84"
   },
   {
      "GoBack" : "2",
      "longitude" : "120.68541",
      "outDis" : "50",
      "Id" : "4339",
      "oid" : "7696",
      "districtId" : "1",
      "nameZh" : "崇德文心路口",
      "pgp" : "0",
      "terminal" : "0",
      "latitude" : "24.17181",
      "inDis" : "50",
      "routeId" : "105",
      "seqNo" : "85"
   },
   {
      "GoBack" : "2",
      "longitude" : "120.68553",
      "outDis" : "50",
      "Id" : "0199",
      "oid" : "7885",
      "districtId" : "1",
      "nameZh" : "崇德瀋陽路口",
      "pgp" : "0",
      "terminal" : "0",
      "latitude" : "24.17332",
      "inDis" : "50",
      "routeId" : "105",
      "seqNo" : "86"
   },
   {
      "GoBack" : "2",
      "longitude" : "120.6856",
      "outDis" : "50",
      "Id" : "5131",
      "oid" : "306661878",
      "districtId" : "1",
      "nameZh" : "崇德國中(民俗公園)",
      "pgp" : "0",
      "terminal" : "0",
      "latitude" : "24.17523",
      "inDis" : "50",
      "routeId" : "105",
      "seqNo" : "87"
   },
   {
      "GoBack" : "2",
      "longitude" : "120.68577",
      "outDis" : "50",
      "Id" : "0196",
      "oid" : "7663",
      "districtId" : "1",
      "nameZh" : "崇德一路口",
      "pgp" : "0",
      "terminal" : "0",
      "latitude" : "24.17723",
      "inDis" : "50",
      "routeId" : "105",
      "seqNo" : "88"
   },
   {
      "GoBack" : "2",
      "longitude" : "120.68589",
      "outDis" : "30",
      "Id" : "0195",
      "oid" : "7803",
      "districtId" : "1",
      "nameZh" : "崇德五路口",
      "pgp" : "0",
      "terminal" : "0",
      "latitude" : "24.17913",
      "inDis" : "50",
      "routeId" : "105",
      "seqNo" : "89"
   },
   {
      "GoBack" : "2",
      "longitude" : "120.6861",
      "outDis" : "50",
      "Id" : "5387",
      "oid" : "313333981",
      "districtId" : "1",
      "nameZh" : "崇德六路口",
      "pgp" : "0",
      "terminal" : "0",
      "latitude" : "24.18134",
      "inDis" : "50",
      "routeId" : "105",
      "seqNo" : "90"
   },
   {
      "GoBack" : "2",
      "longitude" : "120.68613",
      "outDis" : "50",
      "Id" : "0194",
      "oid" : "7705",
      "districtId" : "1",
      "nameZh" : "北屯區行政大樓",
      "pgp" : "0",
      "terminal" : "0",
      "latitude" : "24.18307",
      "inDis" : "50",
      "routeId" : "105",
      "seqNo" : "91"
   },
   {
      "GoBack" : "2",
      "longitude" : "120.68627",
      "outDis" : "50",
      "Id" : "1393",
      "oid" : "8966",
      "districtId" : "1",
      "nameZh" : "崇德山西路口",
      "pgp" : "0",
      "terminal" : "0",
      "latitude" : "24.18493",
      "inDis" : "50",
      "routeId" : "105",
      "seqNo" : "92"
   },
   {
      "GoBack" : "2",
      "longitude" : "120.68567",
      "outDis" : "50",
      "Id" : "0698",
      "oid" : "7776",
      "districtId" : "1",
      "nameZh" : "南四張犁",
      "pgp" : "0",
      "terminal" : "0",
      "latitude" : "24.18967",
      "inDis" : "50",
      "routeId" : "105",
      "seqNo" : "93"
   },
   {
      "GoBack" : "2",
      "longitude" : "120.68359",
      "outDis" : "50",
      "Id" : "0791",
      "oid" : "7822",
      "districtId" : "1",
      "nameZh" : "陸光八村",
      "pgp" : "0",
      "terminal" : "0",
      "latitude" : "24.19151",
      "inDis" : "50",
      "routeId" : "105",
      "seqNo" : "94"
   },
   {
      "GoBack" : "2",
      "longitude" : "120.68235",
      "outDis" : "50",
      "Id" : "0544",
      "oid" : "7722",
      "districtId" : "1",
      "nameZh" : "四張犁",
      "pgp" : "0",
      "terminal" : "0",
      "latitude" : "24.19235",
      "inDis" : "50",
      "routeId" : "105",
      "seqNo" : "95"
   },
   {
      "GoBack" : "2",
      "longitude" : "120.68049",
      "outDis" : "50",
      "Id" : "5514",
      "oid" : "315467328",
      "districtId" : "1",
      "nameZh" : "四民衛生所",
      "pgp" : "0",
      "terminal" : "0",
      "latitude" : "24.19288",
      "inDis" : "50",
      "routeId" : "105",
      "seqNo" : "96"
   },
   {
      "GoBack" : "2",
      "longitude" : "120.67817",
      "outDis" : "50",
      "Id" : "1851",
      "oid" : "7723",
      "districtId" : "1",
      "nameZh" : "四張犁國小",
      "pgp" : "0",
      "terminal" : "0",
      "latitude" : "24.19331",
      "inDis" : "50",
      "routeId" : "105",
      "seqNo" : "97"
   }
]
