[
   {
      "GoBack" : "1",
      "longitude" : "120.67793",
      "outDis" : "50",
      "Id" : "0071",
      "oid" : "13134",
      "districtId" : "1",
      "nameZh" : "臺中女中",
      "pgp" : "0",
      "terminal" : "0",
      "latitude" : "24.13595",
      "inDis" : "50",
      "routeId" : "154",
      "seqNo" : "1"
   },
   {
      "GoBack" : "1",
      "longitude" : "120.6844",
      "outDis" : "170",
      "Id" : "1824",
      "oid" : "7351",
      "districtId" : "1",
      "nameZh" : "臺中火車站",
      "pgp" : "0",
      "terminal" : "0",
      "latitude" : "24.13743",
      "inDis" : "50",
      "routeId" : "154",
      "seqNo" : "2"
   },
   {
      "GoBack" : "1",
      "longitude" : "120.68742",
      "outDis" : "50",
      "Id" : "0149",
      "oid" : "300262035",
      "districtId" : "1",
      "nameZh" : "臺中一中",
      "pgp" : "0",
      "terminal" : "0",
      "latitude" : "24.14897",
      "inDis" : "50",
      "routeId" : "154",
      "seqNo" : "4"
   },
   {
      "GoBack" : "1",
      "longitude" : "120.68375",
      "outDis" : "50",
      "Id" : "3772",
      "oid" : "11182",
      "districtId" : "1",
      "nameZh" : "五權學士路口",
      "pgp" : "0",
      "terminal" : "0",
      "latitude" : "24.15386",
      "inDis" : "50",
      "routeId" : "154",
      "seqNo" : "6"
   },
   {
      "GoBack" : "1",
      "longitude" : "120.6774",
      "outDis" : "50",
      "Id" : "0503",
      "oid" : "8152",
      "districtId" : "1",
      "nameZh" : "臺中二中",
      "pgp" : "0",
      "terminal" : "0",
      "latitude" : "24.15234",
      "inDis" : "50",
      "routeId" : "154",
      "seqNo" : "7"
   },
   {
      "GoBack" : "1",
      "longitude" : "120.67314",
      "outDis" : "50",
      "Id" : "5737",
      "oid" : "8144",
      "districtId" : "1",
      "nameZh" : "曉明女中(中清路)",
      "pgp" : "0",
      "terminal" : "0",
      "latitude" : "24.16755",
      "inDis" : "50",
      "routeId" : "154",
      "seqNo" : "10"
   },
   {
      "GoBack" : "1",
      "longitude" : "120.67119",
      "outDis" : "50",
      "Id" : "0334",
      "oid" : "8141",
      "districtId" : "1",
      "nameZh" : "下水湳",
      "pgp" : "0",
      "terminal" : "0",
      "latitude" : "24.17516",
      "inDis" : "50",
      "routeId" : "154",
      "seqNo" : "12"
   },
   {
      "GoBack" : "1",
      "longitude" : "120.66917",
      "outDis" : "50",
      "Id" : "5100",
      "oid" : "7331",
      "districtId" : "1",
      "nameZh" : "水湳市場(中清路)",
      "pgp" : "0",
      "terminal" : "0",
      "latitude" : "24.17742",
      "inDis" : "50",
      "routeId" : "154",
      "seqNo" : "13"
   },
   {
      "GoBack" : "1",
      "longitude" : "120.65636",
      "outDis" : "40",
      "Id" : "1475",
      "oid" : "3573",
      "districtId" : "1",
      "nameZh" : "中清環中路口",
      "pgp" : "0",
      "terminal" : "0",
      "latitude" : "24.19826",
      "inDis" : "40",
      "routeId" : "154",
      "seqNo" : "16"
   },
   {
      "GoBack" : "1",
      "longitude" : "120.63847",
      "outDis" : "50",
      "Id" : "1278",
      "oid" : "5218",
      "districtId" : "1",
      "nameZh" : "大甲東新城",
      "pgp" : "0",
      "terminal" : "0",
      "latitude" : "24.34202",
      "inDis" : "50",
      "routeId" : "154",
      "seqNo" : "28"
   },
   {
      "GoBack" : "1",
      "longitude" : "120.63656",
      "outDis" : "50",
      "Id" : "2417",
      "oid" : "5893",
      "districtId" : "1",
      "nameZh" : "東泰新城",
      "pgp" : "0",
      "terminal" : "0",
      "latitude" : "24.34323",
      "inDis" : "50",
      "routeId" : "154",
      "seqNo" : "29"
   },
   {
      "GoBack" : "1",
      "longitude" : "120.63244",
      "outDis" : "50",
      "Id" : "5339",
      "oid" : "311364974",
      "districtId" : "1",
      "nameZh" : "甲工入口",
      "pgp" : "0",
      "terminal" : "0",
      "latitude" : "24.34568",
      "inDis" : "50",
      "routeId" : "154",
      "seqNo" : "30"
   },
   {
      "GoBack" : "1",
      "longitude" : "120.62933",
      "outDis" : "50",
      "Id" : "1420",
      "oid" : "5309",
      "districtId" : "1",
      "nameZh" : "中山里",
      "pgp" : "0",
      "terminal" : "0",
      "latitude" : "24.34477",
      "inDis" : "50",
      "routeId" : "154",
      "seqNo" : "31"
   },
   {
      "GoBack" : "1",
      "longitude" : "120.62844",
      "outDis" : "50",
      "Id" : "1933",
      "oid" : "5612",
      "districtId" : "1",
      "nameZh" : "永光寺",
      "pgp" : "0",
      "terminal" : "0",
      "latitude" : "24.3429",
      "inDis" : "50",
      "routeId" : "154",
      "seqNo" : "32"
   },
   {
      "GoBack" : "1",
      "longitude" : "120.62643",
      "outDis" : "50",
      "Id" : "4558",
      "oid" : "5451",
      "districtId" : "1",
      "nameZh" : "中正紀念館",
      "pgp" : "0",
      "terminal" : "0",
      "latitude" : "24.34027",
      "inDis" : "50",
      "routeId" : "154",
      "seqNo" : "33"
   },
   {
      "GoBack" : "1",
      "longitude" : "120.6229",
      "outDis" : "50",
      "Id" : "4433",
      "oid" : "14089",
      "districtId" : "1",
      "nameZh" : "大甲高中(水源路)",
      "pgp" : "0",
      "terminal" : "0",
      "latitude" : "24.34182",
      "inDis" : "50",
      "routeId" : "154",
      "seqNo" : "34"
   },
   {
      "GoBack" : "1",
      "longitude" : "120.62431",
      "outDis" : "50",
      "Id" : "2609",
      "oid" : "2312",
      "districtId" : "1",
      "nameZh" : "南陽里",
      "pgp" : "0",
      "terminal" : "0",
      "latitude" : "24.34272",
      "inDis" : "50",
      "routeId" : "154",
      "seqNo" : "35"
   },
   {
      "GoBack" : "1",
      "longitude" : "120.62553",
      "outDis" : "50",
      "Id" : "5084",
      "oid" : "5215",
      "districtId" : "1",
      "nameZh" : "大甲",
      "pgp" : "0",
      "terminal" : "0",
      "latitude" : "24.34321",
      "inDis" : "50",
      "routeId" : "154",
      "seqNo" : "36"
   },
   {
      "GoBack" : "1",
      "longitude" : "120.62664",
      "outDis" : "50",
      "Id" : "4432",
      "oid" : "14074",
      "districtId" : "1",
      "nameZh" : "大甲火車站",
      "pgp" : "0",
      "terminal" : "0",
      "latitude" : "24.34461",
      "inDis" : "50",
      "routeId" : "154",
      "seqNo" : "37"
   },
   {
      "GoBack" : "1",
      "longitude" : "120.62286",
      "outDis" : "50",
      "Id" : "1074",
      "oid" : "5076",
      "districtId" : "1",
      "nameZh" : "文昌祠",
      "pgp" : "0",
      "terminal" : "0",
      "latitude" : "24.34726",
      "inDis" : "50",
      "routeId" : "154",
      "seqNo" : "38"
   },
   {
      "GoBack" : "1",
      "longitude" : "120.6221",
      "outDis" : "50",
      "Id" : "5437",
      "oid" : "313587895",
      "districtId" : "1",
      "nameZh" : "大甲區公所",
      "pgp" : "0",
      "terminal" : "0",
      "latitude" : "24.34906",
      "inDis" : "50",
      "routeId" : "154",
      "seqNo" : "39"
   },
   {
      "GoBack" : "2",
      "longitude" : "120.6221",
      "outDis" : "50",
      "Id" : "5437",
      "oid" : "313587895",
      "districtId" : "1",
      "nameZh" : "大甲區公所",
      "pgp" : "0",
      "terminal" : "0",
      "latitude" : "24.34906",
      "inDis" : "50",
      "routeId" : "154",
      "seqNo" : "1"
   },
   {
      "GoBack" : "2",
      "longitude" : "120.62286",
      "outDis" : "50",
      "Id" : "1074",
      "oid" : "5076",
      "districtId" : "1",
      "nameZh" : "文昌祠",
      "pgp" : "0",
      "terminal" : "0",
      "latitude" : "24.34726",
      "inDis" : "50",
      "routeId" : "154",
      "seqNo" : "2"
   },
   {
      "GoBack" : "2",
      "longitude" : "120.62664",
      "outDis" : "50",
      "Id" : "4432",
      "oid" : "14074",
      "districtId" : "1",
      "nameZh" : "大甲火車站",
      "pgp" : "0",
      "terminal" : "0",
      "latitude" : "24.34461",
      "inDis" : "50",
      "routeId" : "154",
      "seqNo" : "3"
   },
   {
      "GoBack" : "2",
      "longitude" : "120.62553",
      "outDis" : "50",
      "Id" : "5084",
      "oid" : "5215",
      "districtId" : "1",
      "nameZh" : "大甲",
      "pgp" : "0",
      "terminal" : "0",
      "latitude" : "24.34321",
      "inDis" : "50",
      "routeId" : "154",
      "seqNo" : "4"
   },
   {
      "GoBack" : "2",
      "longitude" : "120.62431",
      "outDis" : "50",
      "Id" : "2609",
      "oid" : "2312",
      "districtId" : "1",
      "nameZh" : "南陽里",
      "pgp" : "0",
      "terminal" : "0",
      "latitude" : "24.34272",
      "inDis" : "50",
      "routeId" : "154",
      "seqNo" : "5"
   },
   {
      "GoBack" : "2",
      "longitude" : "120.6229",
      "outDis" : "50",
      "Id" : "4433",
      "oid" : "14089",
      "districtId" : "1",
      "nameZh" : "大甲高中(水源路)",
      "pgp" : "0",
      "terminal" : "0",
      "latitude" : "24.34182",
      "inDis" : "50",
      "routeId" : "154",
      "seqNo" : "6"
   },
   {
      "GoBack" : "2",
      "longitude" : "120.62643",
      "outDis" : "50",
      "Id" : "4558",
      "oid" : "5451",
      "districtId" : "1",
      "nameZh" : "中正紀念館",
      "pgp" : "0",
      "terminal" : "0",
      "latitude" : "24.34027",
      "inDis" : "50",
      "routeId" : "154",
      "seqNo" : "7"
   },
   {
      "GoBack" : "2",
      "longitude" : "120.62844",
      "outDis" : "50",
      "Id" : "1933",
      "oid" : "5612",
      "districtId" : "1",
      "nameZh" : "永光寺",
      "pgp" : "0",
      "terminal" : "0",
      "latitude" : "24.3429",
      "inDis" : "50",
      "routeId" : "154",
      "seqNo" : "8"
   },
   {
      "GoBack" : "2",
      "longitude" : "120.62933",
      "outDis" : "50",
      "Id" : "1420",
      "oid" : "13769",
      "districtId" : "1",
      "nameZh" : "中山里",
      "pgp" : "0",
      "terminal" : "0",
      "latitude" : "24.34477",
      "inDis" : "50",
      "routeId" : "154",
      "seqNo" : "9"
   },
   {
      "GoBack" : "2",
      "longitude" : "120.63244",
      "outDis" : "50",
      "Id" : "5339",
      "oid" : "311364974",
      "districtId" : "1",
      "nameZh" : "甲工入口",
      "pgp" : "0",
      "terminal" : "0",
      "latitude" : "24.34568",
      "inDis" : "50",
      "routeId" : "154",
      "seqNo" : "10"
   },
   {
      "GoBack" : "2",
      "longitude" : "120.63656",
      "outDis" : "50",
      "Id" : "2417",
      "oid" : "5893",
      "districtId" : "1",
      "nameZh" : "東泰新城",
      "pgp" : "0",
      "terminal" : "0",
      "latitude" : "24.34323",
      "inDis" : "50",
      "routeId" : "154",
      "seqNo" : "11"
   },
   {
      "GoBack" : "2",
      "longitude" : "120.63847",
      "outDis" : "50",
      "Id" : "1278",
      "oid" : "5218",
      "districtId" : "1",
      "nameZh" : "大甲東新城",
      "pgp" : "0",
      "terminal" : "0",
      "latitude" : "24.34202",
      "inDis" : "50",
      "routeId" : "154",
      "seqNo" : "12"
   },
   {
      "GoBack" : "2",
      "longitude" : "120.65636",
      "outDis" : "40",
      "Id" : "1475",
      "oid" : "3573",
      "districtId" : "1",
      "nameZh" : "中清環中路口",
      "pgp" : "0",
      "terminal" : "0",
      "latitude" : "24.19826",
      "inDis" : "40",
      "routeId" : "154",
      "seqNo" : "24"
   },
   {
      "GoBack" : "2",
      "longitude" : "120.66917",
      "outDis" : "50",
      "Id" : "5100",
      "oid" : "7331",
      "districtId" : "1",
      "nameZh" : "水湳市場(中清路)",
      "pgp" : "0",
      "terminal" : "0",
      "latitude" : "24.17742",
      "inDis" : "50",
      "routeId" : "154",
      "seqNo" : "27"
   },
   {
      "GoBack" : "2",
      "longitude" : "120.67119",
      "outDis" : "50",
      "Id" : "0334",
      "oid" : "8141",
      "districtId" : "1",
      "nameZh" : "下水湳",
      "pgp" : "0",
      "terminal" : "0",
      "latitude" : "24.17516",
      "inDis" : "50",
      "routeId" : "154",
      "seqNo" : "28"
   },
   {
      "GoBack" : "2",
      "longitude" : "120.67314",
      "outDis" : "50",
      "Id" : "5737",
      "oid" : "8144",
      "districtId" : "1",
      "nameZh" : "曉明女中(中清路)",
      "pgp" : "0",
      "terminal" : "0",
      "latitude" : "24.16755",
      "inDis" : "50",
      "routeId" : "154",
      "seqNo" : "30"
   },
   {
      "GoBack" : "2",
      "longitude" : "120.6774",
      "outDis" : "50",
      "Id" : "0503",
      "oid" : "8152",
      "districtId" : "1",
      "nameZh" : "臺中二中",
      "pgp" : "0",
      "terminal" : "0",
      "latitude" : "24.15234",
      "inDis" : "50",
      "routeId" : "154",
      "seqNo" : "33"
   },
   {
      "GoBack" : "2",
      "longitude" : "120.68375",
      "outDis" : "50",
      "Id" : "3772",
      "oid" : "11182",
      "districtId" : "1",
      "nameZh" : "五權學士路口",
      "pgp" : "0",
      "terminal" : "0",
      "latitude" : "24.15386",
      "inDis" : "50",
      "routeId" : "154",
      "seqNo" : "34"
   },
   {
      "GoBack" : "2",
      "longitude" : "120.68742",
      "outDis" : "50",
      "Id" : "0149",
      "oid" : "300262035",
      "districtId" : "1",
      "nameZh" : "臺中一中",
      "pgp" : "0",
      "terminal" : "0",
      "latitude" : "24.14897",
      "inDis" : "50",
      "routeId" : "154",
      "seqNo" : "36"
   },
   {
      "GoBack" : "2",
      "longitude" : "120.6844",
      "outDis" : "170",
      "Id" : "1824",
      "oid" : "7351",
      "districtId" : "1",
      "nameZh" : "臺中火車站",
      "pgp" : "0",
      "terminal" : "0",
      "latitude" : "24.13743",
      "inDis" : "50",
      "routeId" : "154",
      "seqNo" : "38"
   },
   {
      "GoBack" : "2",
      "longitude" : "120.67793",
      "outDis" : "50",
      "Id" : "0071",
      "oid" : "13134",
      "districtId" : "1",
      "nameZh" : "臺中女中",
      "pgp" : "0",
      "terminal" : "0",
      "latitude" : "24.13595",
      "inDis" : "50",
      "routeId" : "154",
      "seqNo" : "39"
   }
]
