[
   {
      "GoBack" : "1",
      "longitude" : "120.72154",
      "outDis" : "70",
      "Id" : "3935",
      "oid" : "6693",
      "districtId" : "1",
      "nameZh" : "豐原",
      "pgp" : "0",
      "terminal" : "0",
      "latitude" : "24.2538",
      "inDis" : "70",
      "routeId" : "217",
      "seqNo" : "1"
   },
   {
      "GoBack" : "1",
      "longitude" : "120.71851",
      "outDis" : "50",
      "Id" : "3343",
      "oid" : "6397",
      "districtId" : "1",
      "nameZh" : "媽祖廟",
      "pgp" : "0",
      "terminal" : "0",
      "latitude" : "24.25157",
      "inDis" : "50",
      "routeId" : "217",
      "seqNo" : "2"
   },
   {
      "GoBack" : "1",
      "longitude" : "120.71612",
      "outDis" : "50",
      "Id" : "2097",
      "oid" : "5710",
      "districtId" : "1",
      "nameZh" : "圳寮口",
      "pgp" : "0",
      "terminal" : "0",
      "latitude" : "24.25276",
      "inDis" : "50",
      "routeId" : "217",
      "seqNo" : "3"
   },
   {
      "GoBack" : "1",
      "longitude" : "120.71866",
      "outDis" : "50",
      "Id" : "1269",
      "oid" : "5212",
      "districtId" : "1",
      "nameZh" : "大湳里",
      "pgp" : "0",
      "terminal" : "0",
      "latitude" : "24.25666",
      "inDis" : "50",
      "routeId" : "217",
      "seqNo" : "4"
   },
   {
      "GoBack" : "1",
      "longitude" : "120.71947",
      "outDis" : "50",
      "Id" : "4493",
      "oid" : "13860",
      "districtId" : "1",
      "nameZh" : "新惠生醫院",
      "pgp" : "0",
      "terminal" : "0",
      "latitude" : "24.25808",
      "inDis" : "50",
      "routeId" : "217",
      "seqNo" : "5"
   },
   {
      "GoBack" : "1",
      "longitude" : "120.71985",
      "outDis" : "50",
      "Id" : "4503",
      "oid" : "303690761",
      "districtId" : "1",
      "nameZh" : "豐原國中",
      "pgp" : "0",
      "terminal" : "0",
      "latitude" : "24.26141",
      "inDis" : "50",
      "routeId" : "217",
      "seqNo" : "6"
   },
   {
      "GoBack" : "1",
      "longitude" : "120.72039",
      "outDis" : "50",
      "Id" : "3356",
      "oid" : "6405",
      "districtId" : "1",
      "nameZh" : "慈興宮",
      "pgp" : "0",
      "terminal" : "0",
      "latitude" : "24.26524",
      "inDis" : "50",
      "routeId" : "217",
      "seqNo" : "7"
   },
   {
      "GoBack" : "1",
      "longitude" : "120.72113",
      "outDis" : "50",
      "Id" : "3541",
      "oid" : "6508",
      "districtId" : "1",
      "nameZh" : "道班前",
      "pgp" : "0",
      "terminal" : "0",
      "latitude" : "24.26954",
      "inDis" : "50",
      "routeId" : "217",
      "seqNo" : "8"
   },
   {
      "GoBack" : "1",
      "longitude" : "120.7218",
      "outDis" : "50",
      "Id" : "3527",
      "oid" : "6503",
      "districtId" : "1",
      "nameZh" : "農會事業場",
      "pgp" : "0",
      "terminal" : "0",
      "latitude" : "24.27191",
      "inDis" : "50",
      "routeId" : "217",
      "seqNo" : "9"
   },
   {
      "GoBack" : "1",
      "longitude" : "120.72211",
      "outDis" : "50",
      "Id" : "3470",
      "oid" : "6481",
      "districtId" : "1",
      "nameZh" : "溪底",
      "pgp" : "0",
      "terminal" : "0",
      "latitude" : "24.27567",
      "inDis" : "50",
      "routeId" : "217",
      "seqNo" : "10"
   },
   {
      "GoBack" : "1",
      "longitude" : "120.72285",
      "outDis" : "50",
      "Id" : "1911",
      "oid" : "5605",
      "districtId" : "1",
      "nameZh" : "正隆紙廠",
      "pgp" : "0",
      "terminal" : "0",
      "latitude" : "24.28434",
      "inDis" : "50",
      "routeId" : "217",
      "seqNo" : "11"
   },
   {
      "GoBack" : "1",
      "longitude" : "120.72322",
      "outDis" : "50",
      "Id" : "2374",
      "oid" : "5874",
      "districtId" : "1",
      "nameZh" : "枋寮",
      "pgp" : "0",
      "terminal" : "0",
      "latitude" : "24.28785",
      "inDis" : "50",
      "routeId" : "217",
      "seqNo" : "12"
   },
   {
      "GoBack" : "1",
      "longitude" : "120.72373",
      "outDis" : "50",
      "Id" : "0987",
      "oid" : "5025",
      "districtId" : "1",
      "nameZh" : "七星農場",
      "pgp" : "0",
      "terminal" : "0",
      "latitude" : "24.2933",
      "inDis" : "50",
      "routeId" : "217",
      "seqNo" : "13"
   },
   {
      "GoBack" : "1",
      "longitude" : "120.72363",
      "outDis" : "50",
      "Id" : "2898",
      "oid" : "6164",
      "districtId" : "1",
      "nameZh" : "馬場入口",
      "pgp" : "0",
      "terminal" : "0",
      "latitude" : "24.29812",
      "inDis" : "50",
      "routeId" : "217",
      "seqNo" : "14"
   },
   {
      "GoBack" : "1",
      "longitude" : "120.7233",
      "outDis" : "50",
      "Id" : "1737",
      "oid" : "5500",
      "districtId" : "1",
      "nameZh" : "牛稠坑",
      "pgp" : "0",
      "terminal" : "0",
      "latitude" : "24.29968",
      "inDis" : "50",
      "routeId" : "217",
      "seqNo" : "15"
   },
   {
      "GoBack" : "1",
      "longitude" : "120.72242",
      "outDis" : "50",
      "Id" : "2592",
      "oid" : "12285",
      "districtId" : "1",
      "nameZh" : "南后里",
      "pgp" : "0",
      "terminal" : "0",
      "latitude" : "24.30335",
      "inDis" : "50",
      "routeId" : "217",
      "seqNo" : "16"
   },
   {
      "GoBack" : "1",
      "longitude" : "120.72203",
      "outDis" : "50",
      "Id" : "2991",
      "oid" : "6202",
      "districtId" : "1",
      "nameZh" : "啟明學校",
      "pgp" : "0",
      "terminal" : "0",
      "latitude" : "24.30511",
      "inDis" : "50",
      "routeId" : "217",
      "seqNo" : "17"
   },
   {
      "GoBack" : "1",
      "longitude" : "120.72164",
      "outDis" : "50",
      "Id" : "1169",
      "oid" : "5132",
      "districtId" : "1",
      "nameZh" : "下后里",
      "pgp" : "0",
      "terminal" : "0",
      "latitude" : "24.30903",
      "inDis" : "50",
      "routeId" : "217",
      "seqNo" : "18"
   },
   {
      "GoBack" : "1",
      "longitude" : "120.71765",
      "outDis" : "50",
      "Id" : "2651",
      "oid" : "6026",
      "districtId" : "1",
      "nameZh" : "后里電信局",
      "pgp" : "0",
      "terminal" : "0",
      "latitude" : "24.30969",
      "inDis" : "50",
      "routeId" : "217",
      "seqNo" : "19"
   },
   {
      "GoBack" : "1",
      "longitude" : "120.71645",
      "outDis" : "50",
      "Id" : "4453",
      "oid" : "5459",
      "districtId" : "1",
      "nameZh" : "民生文明路口",
      "pgp" : "0",
      "terminal" : "0",
      "latitude" : "24.30747",
      "inDis" : "50",
      "routeId" : "217",
      "seqNo" : "20"
   },
   {
      "GoBack" : "1",
      "longitude" : "120.7133",
      "outDis" : "50",
      "Id" : "1571",
      "oid" : "5393",
      "districtId" : "1",
      "nameZh" : "內埔市場",
      "pgp" : "0",
      "terminal" : "0",
      "latitude" : "24.30633",
      "inDis" : "50",
      "routeId" : "217",
      "seqNo" : "21"
   },
   {
      "GoBack" : "1",
      "longitude" : "120.7107",
      "outDis" : "50",
      "Id" : "4504",
      "oid" : "303690762",
      "districtId" : "1",
      "nameZh" : "后里區公所",
      "pgp" : "0",
      "terminal" : "0",
      "latitude" : "24.30482",
      "inDis" : "50",
      "routeId" : "217",
      "seqNo" : "22"
   },
   {
      "GoBack" : "2",
      "longitude" : "120.7107",
      "outDis" : "50",
      "Id" : "4504",
      "oid" : "303690762",
      "districtId" : "1",
      "nameZh" : "后里區公所",
      "pgp" : "0",
      "terminal" : "0",
      "latitude" : "24.30482",
      "inDis" : "50",
      "routeId" : "217",
      "seqNo" : "1"
   },
   {
      "GoBack" : "2",
      "longitude" : "120.7133",
      "outDis" : "50",
      "Id" : "1571",
      "oid" : "5393",
      "districtId" : "1",
      "nameZh" : "內埔市場",
      "pgp" : "0",
      "terminal" : "0",
      "latitude" : "24.30633",
      "inDis" : "50",
      "routeId" : "217",
      "seqNo" : "2"
   },
   {
      "GoBack" : "2",
      "longitude" : "120.71645",
      "outDis" : "50",
      "Id" : "4453",
      "oid" : "5459",
      "districtId" : "1",
      "nameZh" : "民生文明路口",
      "pgp" : "0",
      "terminal" : "0",
      "latitude" : "24.30747",
      "inDis" : "50",
      "routeId" : "217",
      "seqNo" : "3"
   },
   {
      "GoBack" : "2",
      "longitude" : "120.71765",
      "outDis" : "50",
      "Id" : "2651",
      "oid" : "6026",
      "districtId" : "1",
      "nameZh" : "后里電信局",
      "pgp" : "0",
      "terminal" : "0",
      "latitude" : "24.30969",
      "inDis" : "50",
      "routeId" : "217",
      "seqNo" : "4"
   },
   {
      "GoBack" : "2",
      "longitude" : "120.72164",
      "outDis" : "50",
      "Id" : "1169",
      "oid" : "5132",
      "districtId" : "1",
      "nameZh" : "下后里",
      "pgp" : "0",
      "terminal" : "0",
      "latitude" : "24.30903",
      "inDis" : "50",
      "routeId" : "217",
      "seqNo" : "5"
   },
   {
      "GoBack" : "2",
      "longitude" : "120.72203",
      "outDis" : "50",
      "Id" : "2991",
      "oid" : "6202",
      "districtId" : "1",
      "nameZh" : "啟明學校",
      "pgp" : "0",
      "terminal" : "0",
      "latitude" : "24.30511",
      "inDis" : "50",
      "routeId" : "217",
      "seqNo" : "6"
   },
   {
      "GoBack" : "2",
      "longitude" : "120.72242",
      "outDis" : "50",
      "Id" : "2592",
      "oid" : "12285",
      "districtId" : "1",
      "nameZh" : "南后里",
      "pgp" : "0",
      "terminal" : "0",
      "latitude" : "24.30335",
      "inDis" : "50",
      "routeId" : "217",
      "seqNo" : "7"
   },
   {
      "GoBack" : "2",
      "longitude" : "120.7233",
      "outDis" : "50",
      "Id" : "1737",
      "oid" : "5500",
      "districtId" : "1",
      "nameZh" : "牛稠坑",
      "pgp" : "0",
      "terminal" : "0",
      "latitude" : "24.29968",
      "inDis" : "50",
      "routeId" : "217",
      "seqNo" : "8"
   },
   {
      "GoBack" : "2",
      "longitude" : "120.72363",
      "outDis" : "50",
      "Id" : "2898",
      "oid" : "6164",
      "districtId" : "1",
      "nameZh" : "馬場入口",
      "pgp" : "0",
      "terminal" : "0",
      "latitude" : "24.29812",
      "inDis" : "50",
      "routeId" : "217",
      "seqNo" : "9"
   },
   {
      "GoBack" : "2",
      "longitude" : "120.72373",
      "outDis" : "50",
      "Id" : "0987",
      "oid" : "5025",
      "districtId" : "1",
      "nameZh" : "七星農場",
      "pgp" : "0",
      "terminal" : "0",
      "latitude" : "24.2933",
      "inDis" : "50",
      "routeId" : "217",
      "seqNo" : "10"
   },
   {
      "GoBack" : "2",
      "longitude" : "120.72322",
      "outDis" : "50",
      "Id" : "2374",
      "oid" : "5874",
      "districtId" : "1",
      "nameZh" : "枋寮",
      "pgp" : "0",
      "terminal" : "0",
      "latitude" : "24.28785",
      "inDis" : "50",
      "routeId" : "217",
      "seqNo" : "11"
   },
   {
      "GoBack" : "2",
      "longitude" : "120.72285",
      "outDis" : "50",
      "Id" : "1911",
      "oid" : "5605",
      "districtId" : "1",
      "nameZh" : "正隆紙廠",
      "pgp" : "0",
      "terminal" : "0",
      "latitude" : "24.28434",
      "inDis" : "50",
      "routeId" : "217",
      "seqNo" : "12"
   },
   {
      "GoBack" : "2",
      "longitude" : "120.72211",
      "outDis" : "50",
      "Id" : "3470",
      "oid" : "6481",
      "districtId" : "1",
      "nameZh" : "溪底",
      "pgp" : "0",
      "terminal" : "0",
      "latitude" : "24.27567",
      "inDis" : "50",
      "routeId" : "217",
      "seqNo" : "13"
   },
   {
      "GoBack" : "2",
      "longitude" : "120.7218",
      "outDis" : "50",
      "Id" : "3527",
      "oid" : "6503",
      "districtId" : "1",
      "nameZh" : "農會事業場",
      "pgp" : "0",
      "terminal" : "0",
      "latitude" : "24.27191",
      "inDis" : "50",
      "routeId" : "217",
      "seqNo" : "14"
   },
   {
      "GoBack" : "2",
      "longitude" : "120.72113",
      "outDis" : "50",
      "Id" : "3541",
      "oid" : "6508",
      "districtId" : "1",
      "nameZh" : "道班前",
      "pgp" : "0",
      "terminal" : "0",
      "latitude" : "24.26954",
      "inDis" : "50",
      "routeId" : "217",
      "seqNo" : "15"
   },
   {
      "GoBack" : "2",
      "longitude" : "120.72039",
      "outDis" : "50",
      "Id" : "3356",
      "oid" : "6405",
      "districtId" : "1",
      "nameZh" : "慈興宮",
      "pgp" : "0",
      "terminal" : "0",
      "latitude" : "24.26524",
      "inDis" : "50",
      "routeId" : "217",
      "seqNo" : "16"
   },
   {
      "GoBack" : "2",
      "longitude" : "120.71985",
      "outDis" : "50",
      "Id" : "4503",
      "oid" : "303690761",
      "districtId" : "1",
      "nameZh" : "豐原國中",
      "pgp" : "0",
      "terminal" : "0",
      "latitude" : "24.26141",
      "inDis" : "50",
      "routeId" : "217",
      "seqNo" : "17"
   },
   {
      "GoBack" : "2",
      "longitude" : "120.71947",
      "outDis" : "50",
      "Id" : "4493",
      "oid" : "13860",
      "districtId" : "1",
      "nameZh" : "新惠生醫院",
      "pgp" : "0",
      "terminal" : "0",
      "latitude" : "24.25808",
      "inDis" : "50",
      "routeId" : "217",
      "seqNo" : "18"
   },
   {
      "GoBack" : "2",
      "longitude" : "120.71866",
      "outDis" : "50",
      "Id" : "1269",
      "oid" : "5212",
      "districtId" : "1",
      "nameZh" : "大湳里",
      "pgp" : "0",
      "terminal" : "0",
      "latitude" : "24.25666",
      "inDis" : "50",
      "routeId" : "217",
      "seqNo" : "19"
   },
   {
      "GoBack" : "2",
      "longitude" : "120.71612",
      "outDis" : "50",
      "Id" : "2097",
      "oid" : "5710",
      "districtId" : "1",
      "nameZh" : "圳寮口",
      "pgp" : "0",
      "terminal" : "0",
      "latitude" : "24.25276",
      "inDis" : "50",
      "routeId" : "217",
      "seqNo" : "20"
   },
   {
      "GoBack" : "2",
      "longitude" : "120.71851",
      "outDis" : "50",
      "Id" : "3343",
      "oid" : "6397",
      "districtId" : "1",
      "nameZh" : "媽祖廟",
      "pgp" : "0",
      "terminal" : "0",
      "latitude" : "24.25157",
      "inDis" : "50",
      "routeId" : "217",
      "seqNo" : "21"
   },
   {
      "GoBack" : "2",
      "longitude" : "120.71986",
      "outDis" : "50",
      "Id" : "2309",
      "oid" : "5834",
      "districtId" : "1",
      "nameZh" : "和平街",
      "pgp" : "0",
      "terminal" : "0",
      "latitude" : "24.25233",
      "inDis" : "50",
      "routeId" : "217",
      "seqNo" : "22"
   },
   {
      "GoBack" : "2",
      "longitude" : "120.72154",
      "outDis" : "70",
      "Id" : "3935",
      "oid" : "6693",
      "districtId" : "1",
      "nameZh" : "豐原",
      "pgp" : "0",
      "terminal" : "0",
      "latitude" : "24.2538",
      "inDis" : "70",
      "routeId" : "217",
      "seqNo" : "23"
   }
]
