[
   {
      "GoBack" : "1",
      "longitude" : "120.62553",
      "outDis" : "50",
      "Id" : "5084",
      "oid" : "5215",
      "districtId" : "1",
      "nameZh" : "大甲",
      "pgp" : "0",
      "terminal" : "0",
      "latitude" : "24.34321",
      "inDis" : "50",
      "routeId" : "172",
      "seqNo" : "1"
   },
   {
      "GoBack" : "1",
      "longitude" : "120.62664",
      "outDis" : "50",
      "Id" : "4432",
      "oid" : "14074",
      "districtId" : "1",
      "nameZh" : "大甲火車站",
      "pgp" : "0",
      "terminal" : "0",
      "latitude" : "24.34461",
      "inDis" : "50",
      "routeId" : "172",
      "seqNo" : "2"
   },
   {
      "GoBack" : "1",
      "longitude" : "120.62286",
      "outDis" : "50",
      "Id" : "1074",
      "oid" : "5076",
      "districtId" : "1",
      "nameZh" : "文昌祠",
      "pgp" : "0",
      "terminal" : "0",
      "latitude" : "24.34726",
      "inDis" : "50",
      "routeId" : "172",
      "seqNo" : "3"
   },
   {
      "GoBack" : "1",
      "longitude" : "120.62028",
      "outDis" : "50",
      "Id" : "3062",
      "oid" : "6261",
      "districtId" : "1",
      "nameZh" : "庄尾",
      "pgp" : "0",
      "terminal" : "0",
      "latitude" : "24.34819",
      "inDis" : "50",
      "routeId" : "172",
      "seqNo" : "4"
   },
   {
      "GoBack" : "1",
      "longitude" : "120.61878",
      "outDis" : "50",
      "Id" : "1621",
      "oid" : "5427",
      "districtId" : "1",
      "nameZh" : "昇和醫院",
      "pgp" : "0",
      "terminal" : "0",
      "latitude" : "24.34873",
      "inDis" : "50",
      "routeId" : "172",
      "seqNo" : "5"
   },
   {
      "GoBack" : "1",
      "longitude" : "120.61645",
      "outDis" : "50",
      "Id" : "2038",
      "oid" : "5679",
      "districtId" : "1",
      "nameZh" : "光田",
      "pgp" : "0",
      "terminal" : "0",
      "latitude" : "24.34723",
      "inDis" : "50",
      "routeId" : "172",
      "seqNo" : "6"
   },
   {
      "GoBack" : "1",
      "longitude" : "120.61478",
      "outDis" : "50",
      "Id" : "5061",
      "oid" : "309863811",
      "districtId" : "1",
      "nameZh" : "新政大安港路口",
      "pgp" : "0",
      "terminal" : "0",
      "latitude" : "24.35087",
      "inDis" : "50",
      "routeId" : "172",
      "seqNo" : "7"
   },
   {
      "GoBack" : "1",
      "longitude" : "120.61292",
      "outDis" : "50",
      "Id" : "1079",
      "oid" : "5079",
      "districtId" : "1",
      "nameZh" : "三和塑膠",
      "pgp" : "0",
      "terminal" : "0",
      "latitude" : "24.35265",
      "inDis" : "50",
      "routeId" : "172",
      "seqNo" : "8"
   },
   {
      "GoBack" : "1",
      "longitude" : "120.61004",
      "outDis" : "50",
      "Id" : "3781",
      "oid" : "6621",
      "districtId" : "1",
      "nameZh" : "橫圳",
      "pgp" : "0",
      "terminal" : "0",
      "latitude" : "24.35508",
      "inDis" : "50",
      "routeId" : "172",
      "seqNo" : "9"
   },
   {
      "GoBack" : "1",
      "longitude" : "120.6063",
      "outDis" : "50",
      "Id" : "3394",
      "oid" : "6430",
      "districtId" : "1",
      "nameZh" : "新亞磚廠",
      "pgp" : "0",
      "terminal" : "0",
      "latitude" : "24.35815",
      "inDis" : "50",
      "routeId" : "172",
      "seqNo" : "10"
   },
   {
      "GoBack" : "1",
      "longitude" : "120.6033",
      "outDis" : "50",
      "Id" : "2459",
      "oid" : "5920",
      "districtId" : "1",
      "nameZh" : "松仔腳",
      "pgp" : "0",
      "terminal" : "0",
      "latitude" : "24.36129",
      "inDis" : "50",
      "routeId" : "172",
      "seqNo" : "11"
   },
   {
      "GoBack" : "1",
      "longitude" : "120.60264",
      "outDis" : "50",
      "Id" : "1288",
      "oid" : "5221",
      "districtId" : "1",
      "nameZh" : "大安國中",
      "pgp" : "0",
      "terminal" : "0",
      "latitude" : "24.3646",
      "inDis" : "50",
      "routeId" : "172",
      "seqNo" : "12"
   },
   {
      "GoBack" : "1",
      "longitude" : "120.60207",
      "outDis" : "50",
      "Id" : "2183",
      "oid" : "5759",
      "districtId" : "1",
      "nameZh" : "西安里",
      "pgp" : "0",
      "terminal" : "0",
      "latitude" : "24.36774",
      "inDis" : "50",
      "routeId" : "172",
      "seqNo" : "13"
   },
   {
      "GoBack" : "1",
      "longitude" : "120.59981",
      "outDis" : "50",
      "Id" : "3514",
      "oid" : "6497",
      "districtId" : "1",
      "nameZh" : "腳踏",
      "pgp" : "0",
      "terminal" : "0",
      "latitude" : "24.37185",
      "inDis" : "50",
      "routeId" : "172",
      "seqNo" : "14"
   },
   {
      "GoBack" : "1",
      "longitude" : "120.59671",
      "outDis" : "50",
      "Id" : "1711",
      "oid" : "5483",
      "districtId" : "1",
      "nameZh" : "水柳",
      "pgp" : "0",
      "terminal" : "0",
      "latitude" : "24.37533",
      "inDis" : "50",
      "routeId" : "172",
      "seqNo" : "15"
   },
   {
      "GoBack" : "1",
      "longitude" : "120.59139",
      "outDis" : "50",
      "Id" : "4437",
      "oid" : "13834",
      "districtId" : "1",
      "nameZh" : "大安港南北九路口",
      "pgp" : "0",
      "terminal" : "0",
      "latitude" : "24.37758",
      "inDis" : "50",
      "routeId" : "172",
      "seqNo" : "16"
   },
   {
      "GoBack" : "1",
      "longitude" : "120.58667",
      "outDis" : "50",
      "Id" : "2800",
      "oid" : "6116",
      "districtId" : "1",
      "nameZh" : "海墘",
      "pgp" : "0",
      "terminal" : "0",
      "latitude" : "24.37974",
      "inDis" : "50",
      "routeId" : "172",
      "seqNo" : "17"
   },
   {
      "GoBack" : "1",
      "longitude" : "120.59029",
      "outDis" : "50",
      "Id" : "1800",
      "oid" : "5537",
      "districtId" : "1",
      "nameZh" : "北線",
      "pgp" : "0",
      "terminal" : "0",
      "latitude" : "24.38274",
      "inDis" : "50",
      "routeId" : "172",
      "seqNo" : "18"
   },
   {
      "GoBack" : "1",
      "longitude" : "120.59314",
      "outDis" : "50",
      "Id" : "5070",
      "oid" : "309869922",
      "districtId" : "1",
      "nameZh" : "頂五甲",
      "pgp" : "0",
      "terminal" : "0",
      "latitude" : "24.38826",
      "inDis" : "50",
      "routeId" : "172",
      "seqNo" : "19"
   },
   {
      "GoBack" : "1",
      "longitude" : "120.59045",
      "outDis" : "50",
      "Id" : "1529",
      "oid" : "5368",
      "districtId" : "1",
      "nameZh" : "五甲港",
      "pgp" : "0",
      "terminal" : "0",
      "latitude" : "24.39053",
      "inDis" : "50",
      "routeId" : "172",
      "seqNo" : "20"
   },
   {
      "GoBack" : "1",
      "longitude" : "120.59447",
      "outDis" : "50",
      "Id" : "5071",
      "oid" : "309869923",
      "districtId" : "1",
      "nameZh" : "下五甲",
      "pgp" : "0",
      "terminal" : "0",
      "latitude" : "24.38989",
      "inDis" : "50",
      "routeId" : "172",
      "seqNo" : "21"
   },
   {
      "GoBack" : "1",
      "longitude" : "120.60038",
      "outDis" : "50",
      "Id" : "2108",
      "oid" : "5721",
      "districtId" : "1",
      "nameZh" : "安田",
      "pgp" : "0",
      "terminal" : "0",
      "latitude" : "24.39471",
      "inDis" : "50",
      "routeId" : "172",
      "seqNo" : "23"
   },
   {
      "GoBack" : "1",
      "longitude" : "120.59896",
      "outDis" : "50",
      "Id" : "1981",
      "oid" : "0620B1E184E245DFACC94FA1F600120D",
      "districtId" : "1",
      "nameZh" : "田心",
      "pgp" : "0",
      "terminal" : "0",
      "latitude" : "24.39207",
      "inDis" : "50",
      "routeId" : "172",
      "seqNo" : "24"
   },
   {
      "GoBack" : "1",
      "longitude" : "120.59561",
      "outDis" : "50",
      "Id" : "1934",
      "oid" : "311272159",
      "districtId" : "1",
      "nameZh" : "永安",
      "pgp" : "0",
      "terminal" : "0",
      "latitude" : "24.38723",
      "inDis" : "50",
      "routeId" : "172",
      "seqNo" : "25"
   },
   {
      "GoBack" : "1",
      "longitude" : "120.59885",
      "outDis" : "50",
      "Id" : "5572",
      "oid" : "316578579",
      "districtId" : "1",
      "nameZh" : "東西三南北八路口",
      "pgp" : "0",
      "terminal" : "0",
      "latitude" : "24.38669",
      "inDis" : "50",
      "routeId" : "172",
      "seqNo" : "26"
   },
   {
      "GoBack" : "1",
      "longitude" : "120.60171",
      "outDis" : "50",
      "Id" : "5573",
      "oid" : "316578581",
      "districtId" : "1",
      "nameZh" : "環海宮",
      "pgp" : "0",
      "terminal" : "0",
      "latitude" : "24.38609",
      "inDis" : "50",
      "routeId" : "172",
      "seqNo" : "27"
   },
   {
      "GoBack" : "1",
      "longitude" : "120.60459",
      "outDis" : "50",
      "Id" : "5574",
      "oid" : "316578582",
      "districtId" : "1",
      "nameZh" : "東西三南北七路口",
      "pgp" : "0",
      "terminal" : "0",
      "latitude" : "24.38548",
      "inDis" : "50",
      "routeId" : "172",
      "seqNo" : "28"
   },
   {
      "GoBack" : "1",
      "longitude" : "120.61054",
      "outDis" : "50",
      "Id" : "5575",
      "oid" : "316578583",
      "districtId" : "1",
      "nameZh" : "東西三南北六路口",
      "pgp" : "0",
      "terminal" : "0",
      "latitude" : "24.38431",
      "inDis" : "50",
      "routeId" : "172",
      "seqNo" : "29"
   },
   {
      "GoBack" : "1",
      "longitude" : "120.61529",
      "outDis" : "50",
      "Id" : "3094",
      "oid" : "6281",
      "districtId" : "1",
      "nameZh" : "頂大安",
      "pgp" : "0",
      "terminal" : "0",
      "latitude" : "24.38332",
      "inDis" : "50",
      "routeId" : "172",
      "seqNo" : "30"
   },
   {
      "GoBack" : "1",
      "longitude" : "120.6153",
      "outDis" : "50",
      "Id" : "5576",
      "oid" : "316578584",
      "districtId" : "1",
      "nameZh" : "東西四南北五路口",
      "pgp" : "0",
      "terminal" : "0",
      "latitude" : "24.38031",
      "inDis" : "50",
      "routeId" : "172",
      "seqNo" : "31"
   },
   {
      "GoBack" : "1",
      "longitude" : "120.6117",
      "outDis" : "50",
      "Id" : "5577",
      "oid" : "316578585",
      "districtId" : "1",
      "nameZh" : "靖安宮",
      "pgp" : "0",
      "terminal" : "0",
      "latitude" : "24.38104",
      "inDis" : "50",
      "routeId" : "172",
      "seqNo" : "32"
   },
   {
      "GoBack" : "1",
      "longitude" : "120.60914",
      "outDis" : "50",
      "Id" : "5578",
      "oid" : "316578586",
      "districtId" : "1",
      "nameZh" : "東西四路200巷口",
      "pgp" : "0",
      "terminal" : "0",
      "latitude" : "24.38158",
      "inDis" : "50",
      "routeId" : "172",
      "seqNo" : "33"
   },
   {
      "GoBack" : "1",
      "longitude" : "120.60659",
      "outDis" : "50",
      "Id" : "1935",
      "oid" : "316578587",
      "districtId" : "1",
      "nameZh" : "永安國小",
      "pgp" : "0",
      "terminal" : "0",
      "latitude" : "24.38208",
      "inDis" : "50",
      "routeId" : "172",
      "seqNo" : "34"
   },
   {
      "GoBack" : "1",
      "longitude" : "120.60406",
      "outDis" : "50",
      "Id" : "5579",
      "oid" : "316578588",
      "districtId" : "1",
      "nameZh" : "南北七東西四路口",
      "pgp" : "0",
      "terminal" : "0",
      "latitude" : "24.38238",
      "inDis" : "50",
      "routeId" : "172",
      "seqNo" : "35"
   },
   {
      "GoBack" : "1",
      "longitude" : "120.60344",
      "outDis" : "50",
      "Id" : "5580",
      "oid" : "316578589",
      "districtId" : "1",
      "nameZh" : "福住里",
      "pgp" : "0",
      "terminal" : "0",
      "latitude" : "24.37984",
      "inDis" : "50",
      "routeId" : "172",
      "seqNo" : "36"
   },
   {
      "GoBack" : "2",
      "longitude" : "120.60344",
      "outDis" : "50",
      "Id" : "5580",
      "oid" : "316578589",
      "districtId" : "1",
      "nameZh" : "福住里",
      "pgp" : "0",
      "terminal" : "0",
      "latitude" : "24.37984",
      "inDis" : "50",
      "routeId" : "172",
      "seqNo" : "1"
   },
   {
      "GoBack" : "2",
      "longitude" : "120.60406",
      "outDis" : "50",
      "Id" : "5579",
      "oid" : "316578588",
      "districtId" : "1",
      "nameZh" : "南北七東西四路口",
      "pgp" : "0",
      "terminal" : "0",
      "latitude" : "24.38238",
      "inDis" : "50",
      "routeId" : "172",
      "seqNo" : "2"
   },
   {
      "GoBack" : "2",
      "longitude" : "120.60659",
      "outDis" : "50",
      "Id" : "1935",
      "oid" : "316578587",
      "districtId" : "1",
      "nameZh" : "永安國小",
      "pgp" : "0",
      "terminal" : "0",
      "latitude" : "24.38208",
      "inDis" : "50",
      "routeId" : "172",
      "seqNo" : "3"
   },
   {
      "GoBack" : "2",
      "longitude" : "120.60914",
      "outDis" : "50",
      "Id" : "5578",
      "oid" : "316578586",
      "districtId" : "1",
      "nameZh" : "東西四路200巷口",
      "pgp" : "0",
      "terminal" : "0",
      "latitude" : "24.38158",
      "inDis" : "50",
      "routeId" : "172",
      "seqNo" : "4"
   },
   {
      "GoBack" : "2",
      "longitude" : "120.6117",
      "outDis" : "50",
      "Id" : "5577",
      "oid" : "316578585",
      "districtId" : "1",
      "nameZh" : "靖安宮",
      "pgp" : "0",
      "terminal" : "0",
      "latitude" : "24.38104",
      "inDis" : "50",
      "routeId" : "172",
      "seqNo" : "5"
   },
   {
      "GoBack" : "2",
      "longitude" : "120.6153",
      "outDis" : "50",
      "Id" : "5576",
      "oid" : "316578584",
      "districtId" : "1",
      "nameZh" : "東西四南北五路口",
      "pgp" : "0",
      "terminal" : "0",
      "latitude" : "24.38031",
      "inDis" : "50",
      "routeId" : "172",
      "seqNo" : "6"
   },
   {
      "GoBack" : "2",
      "longitude" : "120.61529",
      "outDis" : "50",
      "Id" : "3094",
      "oid" : "6281",
      "districtId" : "1",
      "nameZh" : "頂大安",
      "pgp" : "0",
      "terminal" : "0",
      "latitude" : "24.38332",
      "inDis" : "50",
      "routeId" : "172",
      "seqNo" : "7"
   },
   {
      "GoBack" : "2",
      "longitude" : "120.61054",
      "outDis" : "50",
      "Id" : "5575",
      "oid" : "316578583",
      "districtId" : "1",
      "nameZh" : "東西三南北六路口",
      "pgp" : "0",
      "terminal" : "0",
      "latitude" : "24.38431",
      "inDis" : "50",
      "routeId" : "172",
      "seqNo" : "8"
   },
   {
      "GoBack" : "2",
      "longitude" : "120.60459",
      "outDis" : "50",
      "Id" : "5574",
      "oid" : "316578582",
      "districtId" : "1",
      "nameZh" : "東西三南北七路口",
      "pgp" : "0",
      "terminal" : "0",
      "latitude" : "24.38548",
      "inDis" : "50",
      "routeId" : "172",
      "seqNo" : "9"
   },
   {
      "GoBack" : "2",
      "longitude" : "120.60171",
      "outDis" : "50",
      "Id" : "5573",
      "oid" : "316578581",
      "districtId" : "1",
      "nameZh" : "環海宮",
      "pgp" : "0",
      "terminal" : "0",
      "latitude" : "24.38609",
      "inDis" : "50",
      "routeId" : "172",
      "seqNo" : "10"
   },
   {
      "GoBack" : "2",
      "longitude" : "120.59885",
      "outDis" : "50",
      "Id" : "5572",
      "oid" : "316578579",
      "districtId" : "1",
      "nameZh" : "東西三南北八路口",
      "pgp" : "0",
      "terminal" : "0",
      "latitude" : "24.38669",
      "inDis" : "50",
      "routeId" : "172",
      "seqNo" : "11"
   },
   {
      "GoBack" : "2",
      "longitude" : "120.59561",
      "outDis" : "50",
      "Id" : "1934",
      "oid" : "311272159",
      "districtId" : "1",
      "nameZh" : "永安",
      "pgp" : "0",
      "terminal" : "0",
      "latitude" : "24.38723",
      "inDis" : "50",
      "routeId" : "172",
      "seqNo" : "12"
   },
   {
      "GoBack" : "2",
      "longitude" : "120.59896",
      "outDis" : "50",
      "Id" : "1981",
      "oid" : "07A86AD0BEF44E0792D3DAE0C88E430A",
      "districtId" : "1",
      "nameZh" : "田心",
      "pgp" : "0",
      "terminal" : "0",
      "latitude" : "24.39207",
      "inDis" : "70",
      "routeId" : "172",
      "seqNo" : "13"
   },
   {
      "GoBack" : "2",
      "longitude" : "120.60038",
      "outDis" : "50",
      "Id" : "2108",
      "oid" : "5721",
      "districtId" : "1",
      "nameZh" : "安田",
      "pgp" : "0",
      "terminal" : "0",
      "latitude" : "24.39471",
      "inDis" : "50",
      "routeId" : "172",
      "seqNo" : "14"
   },
   {
      "GoBack" : "2",
      "longitude" : "120.59896",
      "outDis" : "50",
      "Id" : "1981",
      "oid" : "316578578",
      "districtId" : "1",
      "nameZh" : "田心",
      "pgp" : "0",
      "terminal" : "0",
      "latitude" : "24.39207",
      "inDis" : "60",
      "routeId" : "172",
      "seqNo" : "15"
   },
   {
      "GoBack" : "2",
      "longitude" : "120.59447",
      "outDis" : "50",
      "Id" : "5071",
      "oid" : "309869923",
      "districtId" : "1",
      "nameZh" : "下五甲",
      "pgp" : "0",
      "terminal" : "0",
      "latitude" : "24.38989",
      "inDis" : "50",
      "routeId" : "172",
      "seqNo" : "16"
   },
   {
      "GoBack" : "2",
      "longitude" : "120.59045",
      "outDis" : "50",
      "Id" : "1529",
      "oid" : "5368",
      "districtId" : "1",
      "nameZh" : "五甲港",
      "pgp" : "0",
      "terminal" : "0",
      "latitude" : "24.39053",
      "inDis" : "50",
      "routeId" : "172",
      "seqNo" : "17"
   },
   {
      "GoBack" : "2",
      "longitude" : "120.59314",
      "outDis" : "50",
      "Id" : "5070",
      "oid" : "309869922",
      "districtId" : "1",
      "nameZh" : "頂五甲",
      "pgp" : "0",
      "terminal" : "0",
      "latitude" : "24.38826",
      "inDis" : "50",
      "routeId" : "172",
      "seqNo" : "18"
   },
   {
      "GoBack" : "2",
      "longitude" : "120.59029",
      "outDis" : "50",
      "Id" : "1800",
      "oid" : "5537",
      "districtId" : "1",
      "nameZh" : "北線",
      "pgp" : "0",
      "terminal" : "0",
      "latitude" : "24.38274",
      "inDis" : "50",
      "routeId" : "172",
      "seqNo" : "19"
   },
   {
      "GoBack" : "2",
      "longitude" : "120.58667",
      "outDis" : "50",
      "Id" : "2800",
      "oid" : "6116",
      "districtId" : "1",
      "nameZh" : "海墘",
      "pgp" : "0",
      "terminal" : "0",
      "latitude" : "24.37974",
      "inDis" : "50",
      "routeId" : "172",
      "seqNo" : "20"
   },
   {
      "GoBack" : "2",
      "longitude" : "120.59139",
      "outDis" : "50",
      "Id" : "4437",
      "oid" : "13834",
      "districtId" : "1",
      "nameZh" : "大安港南北九路口",
      "pgp" : "0",
      "terminal" : "0",
      "latitude" : "24.37758",
      "inDis" : "50",
      "routeId" : "172",
      "seqNo" : "21"
   },
   {
      "GoBack" : "2",
      "longitude" : "120.59671",
      "outDis" : "50",
      "Id" : "1711",
      "oid" : "5483",
      "districtId" : "1",
      "nameZh" : "水柳",
      "pgp" : "0",
      "terminal" : "0",
      "latitude" : "24.37533",
      "inDis" : "50",
      "routeId" : "172",
      "seqNo" : "22"
   },
   {
      "GoBack" : "2",
      "longitude" : "120.59981",
      "outDis" : "50",
      "Id" : "3514",
      "oid" : "6497",
      "districtId" : "1",
      "nameZh" : "腳踏",
      "pgp" : "0",
      "terminal" : "0",
      "latitude" : "24.37185",
      "inDis" : "50",
      "routeId" : "172",
      "seqNo" : "23"
   },
   {
      "GoBack" : "2",
      "longitude" : "120.60207",
      "outDis" : "50",
      "Id" : "2183",
      "oid" : "5759",
      "districtId" : "1",
      "nameZh" : "西安里",
      "pgp" : "0",
      "terminal" : "0",
      "latitude" : "24.36774",
      "inDis" : "50",
      "routeId" : "172",
      "seqNo" : "24"
   },
   {
      "GoBack" : "2",
      "longitude" : "120.60264",
      "outDis" : "50",
      "Id" : "1288",
      "oid" : "5221",
      "districtId" : "1",
      "nameZh" : "大安國中",
      "pgp" : "0",
      "terminal" : "0",
      "latitude" : "24.3646",
      "inDis" : "50",
      "routeId" : "172",
      "seqNo" : "25"
   },
   {
      "GoBack" : "2",
      "longitude" : "120.6033",
      "outDis" : "50",
      "Id" : "2459",
      "oid" : "5920",
      "districtId" : "1",
      "nameZh" : "松仔腳",
      "pgp" : "0",
      "terminal" : "0",
      "latitude" : "24.36129",
      "inDis" : "50",
      "routeId" : "172",
      "seqNo" : "26"
   },
   {
      "GoBack" : "2",
      "longitude" : "120.6063",
      "outDis" : "50",
      "Id" : "3394",
      "oid" : "6430",
      "districtId" : "1",
      "nameZh" : "新亞磚廠",
      "pgp" : "0",
      "terminal" : "0",
      "latitude" : "24.35815",
      "inDis" : "50",
      "routeId" : "172",
      "seqNo" : "27"
   },
   {
      "GoBack" : "2",
      "longitude" : "120.61004",
      "outDis" : "50",
      "Id" : "3781",
      "oid" : "6621",
      "districtId" : "1",
      "nameZh" : "橫圳",
      "pgp" : "0",
      "terminal" : "0",
      "latitude" : "24.35508",
      "inDis" : "50",
      "routeId" : "172",
      "seqNo" : "28"
   },
   {
      "GoBack" : "2",
      "longitude" : "120.61292",
      "outDis" : "50",
      "Id" : "1079",
      "oid" : "5079",
      "districtId" : "1",
      "nameZh" : "三和塑膠",
      "pgp" : "0",
      "terminal" : "0",
      "latitude" : "24.35265",
      "inDis" : "50",
      "routeId" : "172",
      "seqNo" : "29"
   },
   {
      "GoBack" : "2",
      "longitude" : "120.61478",
      "outDis" : "50",
      "Id" : "5061",
      "oid" : "309863811",
      "districtId" : "1",
      "nameZh" : "新政大安港路口",
      "pgp" : "0",
      "terminal" : "0",
      "latitude" : "24.35087",
      "inDis" : "50",
      "routeId" : "172",
      "seqNo" : "30"
   },
   {
      "GoBack" : "2",
      "longitude" : "120.61645",
      "outDis" : "50",
      "Id" : "2038",
      "oid" : "5679",
      "districtId" : "1",
      "nameZh" : "光田",
      "pgp" : "0",
      "terminal" : "0",
      "latitude" : "24.34723",
      "inDis" : "50",
      "routeId" : "172",
      "seqNo" : "31"
   },
   {
      "GoBack" : "2",
      "longitude" : "120.61878",
      "outDis" : "50",
      "Id" : "1621",
      "oid" : "5427",
      "districtId" : "1",
      "nameZh" : "昇和醫院",
      "pgp" : "0",
      "terminal" : "0",
      "latitude" : "24.34873",
      "inDis" : "50",
      "routeId" : "172",
      "seqNo" : "32"
   },
   {
      "GoBack" : "2",
      "longitude" : "120.62028",
      "outDis" : "50",
      "Id" : "3062",
      "oid" : "6261",
      "districtId" : "1",
      "nameZh" : "庄尾",
      "pgp" : "0",
      "terminal" : "0",
      "latitude" : "24.34819",
      "inDis" : "50",
      "routeId" : "172",
      "seqNo" : "33"
   },
   {
      "GoBack" : "2",
      "longitude" : "120.62286",
      "outDis" : "50",
      "Id" : "1074",
      "oid" : "5076",
      "districtId" : "1",
      "nameZh" : "文昌祠",
      "pgp" : "0",
      "terminal" : "0",
      "latitude" : "24.34726",
      "inDis" : "50",
      "routeId" : "172",
      "seqNo" : "34"
   },
   {
      "GoBack" : "2",
      "longitude" : "120.62664",
      "outDis" : "50",
      "Id" : "4432",
      "oid" : "14074",
      "districtId" : "1",
      "nameZh" : "大甲火車站",
      "pgp" : "0",
      "terminal" : "0",
      "latitude" : "24.34461",
      "inDis" : "50",
      "routeId" : "172",
      "seqNo" : "35"
   },
   {
      "GoBack" : "2",
      "longitude" : "120.62553",
      "outDis" : "50",
      "Id" : "5084",
      "oid" : "5215",
      "districtId" : "1",
      "nameZh" : "大甲",
      "pgp" : "0",
      "terminal" : "0",
      "latitude" : "24.34321",
      "inDis" : "50",
      "routeId" : "172",
      "seqNo" : "36"
   }
]
