[
   {
      "GoBack" : "1",
      "longitude" : "120.61564",
      "outDis" : "50",
      "Id" : "5487",
      "oid" : "314581889",
      "districtId" : "1",
      "nameZh" : "高鐵臺中站(21月台)",
      "pgp" : "0",
      "terminal" : "0",
      "latitude" : "24.11387",
      "inDis" : "50",
      "routeId" : "155",
      "seqNo" : "1"
   },
   {
      "GoBack" : "1",
      "longitude" : "120.62968",
      "outDis" : "80",
      "Id" : "5468",
      "oid" : "314182470",
      "districtId" : "1",
      "nameZh" : "環中市政路口",
      "pgp" : "0",
      "terminal" : "0",
      "latitude" : "24.16376",
      "inDis" : "80",
      "routeId" : "155",
      "seqNo" : "4"
   },
   {
      "GoBack" : "1",
      "longitude" : "120.62252",
      "outDis" : "50",
      "Id" : "5106",
      "oid" : "CFF2B1C135AB4FC8A4DB332DCEB1C42D",
      "districtId" : "1",
      "nameZh" : "安和朝馬路口",
      "pgp" : "0",
      "terminal" : "0",
      "latitude" : "24.17466",
      "inDis" : "50",
      "routeId" : "155",
      "seqNo" : "6"
   },
   {
      "GoBack" : "1",
      "longitude" : "120.62438",
      "outDis" : "50",
      "Id" : "1481",
      "oid" : "10235",
      "districtId" : "1",
      "nameZh" : "安和臺灣大道口",
      "pgp" : "0",
      "terminal" : "0",
      "latitude" : "24.17838",
      "inDis" : "50",
      "routeId" : "155",
      "seqNo" : "7"
   },
   {
      "GoBack" : "1",
      "longitude" : "120.62508",
      "outDis" : "50",
      "Id" : "0287",
      "oid" : "319311027",
      "districtId" : "1",
      "nameZh" : "福華/裕元",
      "pgp" : "0",
      "terminal" : "0",
      "latitude" : "24.17956",
      "inDis" : "50",
      "routeId" : "155",
      "seqNo" : "8"
   },
   {
      "GoBack" : "1",
      "longitude" : "120.62466",
      "outDis" : "50",
      "Id" : "0010",
      "oid" : "F55A416D15F3411A829D10BD69A8B247",
      "districtId" : "1",
      "nameZh" : "福科安和路口",
      "pgp" : "0",
      "terminal" : "0",
      "latitude" : "24.18224",
      "inDis" : "50",
      "routeId" : "155",
      "seqNo" : "9"
   },
   {
      "GoBack" : "1",
      "longitude" : "120.62203",
      "outDis" : "50",
      "Id" : "3060",
      "oid" : "13533",
      "districtId" : "1",
      "nameZh" : "統聯轉運站",
      "pgp" : "0",
      "terminal" : "0",
      "latitude" : "24.17956",
      "inDis" : "50",
      "routeId" : "155",
      "seqNo" : "10"
   },
   {
      "GoBack" : "1",
      "longitude" : "120.72285",
      "outDis" : "50",
      "Id" : "1911",
      "oid" : "5605",
      "districtId" : "1",
      "nameZh" : "正隆紙廠",
      "pgp" : "0",
      "terminal" : "0",
      "latitude" : "24.28434",
      "inDis" : "50",
      "routeId" : "155",
      "seqNo" : "16"
   },
   {
      "GoBack" : "1",
      "longitude" : "120.72322",
      "outDis" : "50",
      "Id" : "2374",
      "oid" : "5874",
      "districtId" : "1",
      "nameZh" : "枋寮",
      "pgp" : "0",
      "terminal" : "0",
      "latitude" : "24.28785",
      "inDis" : "50",
      "routeId" : "155",
      "seqNo" : "17"
   },
   {
      "GoBack" : "1",
      "longitude" : "120.72373",
      "outDis" : "50",
      "Id" : "0987",
      "oid" : "5025",
      "districtId" : "1",
      "nameZh" : "七星農場",
      "pgp" : "0",
      "terminal" : "0",
      "latitude" : "24.2933",
      "inDis" : "50",
      "routeId" : "155",
      "seqNo" : "18"
   },
   {
      "GoBack" : "1",
      "longitude" : "120.7246",
      "outDis" : "50",
      "Id" : "5589",
      "oid" : "129901855",
      "districtId" : "1",
      "nameZh" : "馬場三豐路口",
      "pgp" : "0",
      "terminal" : "0",
      "latitude" : "24.2981",
      "inDis" : "50",
      "routeId" : "155",
      "seqNo" : "19"
   },
   {
      "GoBack" : "1",
      "longitude" : "120.7317",
      "outDis" : "50",
      "Id" : "5643",
      "oid" : "317318302",
      "districtId" : "1",
      "nameZh" : "馬場后科路口",
      "pgp" : "0",
      "terminal" : "0",
      "latitude" : "24.2984",
      "inDis" : "50",
      "routeId" : "155",
      "seqNo" : "20"
   },
   {
      "GoBack" : "1",
      "longitude" : "120.73515",
      "outDis" : "50",
      "Id" : "5422",
      "oid" : "313273920",
      "districtId" : "1",
      "nameZh" : "后里馬場",
      "pgp" : "0",
      "terminal" : "0",
      "latitude" : "24.29857",
      "inDis" : "50",
      "routeId" : "155",
      "seqNo" : "21"
   },
   {
      "GoBack" : "1",
      "longitude" : "120.73095",
      "outDis" : "50",
      "Id" : "5421",
      "oid" : "313273918",
      "districtId" : "1",
      "nameZh" : "內東路營區",
      "pgp" : "0",
      "terminal" : "0",
      "latitude" : "24.30467",
      "inDis" : "50",
      "routeId" : "155",
      "seqNo" : "22"
   },
   {
      "GoBack" : "1",
      "longitude" : "120.73086",
      "outDis" : "50",
      "Id" : "5420",
      "oid" : "313273916",
      "districtId" : "1",
      "nameZh" : "內東大山路口",
      "pgp" : "0",
      "terminal" : "0",
      "latitude" : "24.30756",
      "inDis" : "50",
      "routeId" : "155",
      "seqNo" : "23"
   },
   {
      "GoBack" : "1",
      "longitude" : "120.73032",
      "outDis" : "50",
      "Id" : "5419",
      "oid" : "313273914",
      "districtId" : "1",
      "nameZh" : "后里火車站(后里國小)",
      "pgp" : "0",
      "terminal" : "0",
      "latitude" : "24.30933",
      "inDis" : "50",
      "routeId" : "155",
      "seqNo" : "24"
   },
   {
      "GoBack" : "1",
      "longitude" : "120.72843",
      "outDis" : "50",
      "Id" : "5418",
      "oid" : "313273912",
      "districtId" : "1",
      "nameZh" : "后里義里郵局",
      "pgp" : "0",
      "terminal" : "0",
      "latitude" : "24.30923",
      "inDis" : "50",
      "routeId" : "155",
      "seqNo" : "25"
   },
   {
      "GoBack" : "1",
      "longitude" : "120.72468",
      "outDis" : "50",
      "Id" : "5417",
      "oid" : "313273910",
      "districtId" : "1",
      "nameZh" : "甲后路329巷口",
      "pgp" : "0",
      "terminal" : "0",
      "latitude" : "24.30905",
      "inDis" : "50",
      "routeId" : "155",
      "seqNo" : "26"
   },
   {
      "GoBack" : "1",
      "longitude" : "120.72164",
      "outDis" : "50",
      "Id" : "1169",
      "oid" : "5132",
      "districtId" : "1",
      "nameZh" : "下后里",
      "pgp" : "0",
      "terminal" : "0",
      "latitude" : "24.30903",
      "inDis" : "50",
      "routeId" : "155",
      "seqNo" : "27"
   },
   {
      "GoBack" : "1",
      "longitude" : "120.71765",
      "outDis" : "50",
      "Id" : "2651",
      "oid" : "6026",
      "districtId" : "1",
      "nameZh" : "后里電信局",
      "pgp" : "0",
      "terminal" : "0",
      "latitude" : "24.30969",
      "inDis" : "50",
      "routeId" : "155",
      "seqNo" : "28"
   },
   {
      "GoBack" : "1",
      "longitude" : "120.71645",
      "outDis" : "50",
      "Id" : "4453",
      "oid" : "5459",
      "districtId" : "1",
      "nameZh" : "民生文明路口",
      "pgp" : "0",
      "terminal" : "0",
      "latitude" : "24.30747",
      "inDis" : "50",
      "routeId" : "155",
      "seqNo" : "29"
   },
   {
      "GoBack" : "1",
      "longitude" : "120.7132",
      "outDis" : "50",
      "Id" : "1571",
      "oid" : "138961819",
      "districtId" : "1",
      "nameZh" : "內埔市場",
      "pgp" : "0",
      "terminal" : "0",
      "latitude" : "24.30557",
      "inDis" : "50",
      "routeId" : "155",
      "seqNo" : "30"
   },
   {
      "GoBack" : "1",
      "longitude" : "120.7107",
      "outDis" : "50",
      "Id" : "4504",
      "oid" : "303690762",
      "districtId" : "1",
      "nameZh" : "后里區公所",
      "pgp" : "0",
      "terminal" : "0",
      "latitude" : "24.30482",
      "inDis" : "50",
      "routeId" : "155",
      "seqNo" : "31"
   },
   {
      "GoBack" : "1",
      "longitude" : "120.70917",
      "outDis" : "50",
      "Id" : "4449",
      "oid" : "5504",
      "districtId" : "1",
      "nameZh" : "公安主和路口",
      "pgp" : "0",
      "terminal" : "0",
      "latitude" : "24.30554",
      "inDis" : "50",
      "routeId" : "155",
      "seqNo" : "32"
   },
   {
      "GoBack" : "1",
      "longitude" : "120.70587",
      "outDis" : "50",
      "Id" : "3309",
      "oid" : "6381",
      "districtId" : "1",
      "nameZh" : "雅藝公司",
      "pgp" : "0",
      "terminal" : "0",
      "latitude" : "24.30699",
      "inDis" : "50",
      "routeId" : "155",
      "seqNo" : "33"
   },
   {
      "GoBack" : "1",
      "longitude" : "120.69814",
      "outDis" : "50",
      "Id" : "0421",
      "oid" : "5326",
      "districtId" : "1",
      "nameZh" : "中和",
      "pgp" : "0",
      "terminal" : "0",
      "latitude" : "24.31041",
      "inDis" : "50",
      "routeId" : "155",
      "seqNo" : "34"
   },
   {
      "GoBack" : "1",
      "longitude" : "120.69621",
      "outDis" : "50",
      "Id" : "2469",
      "oid" : "5928",
      "districtId" : "1",
      "nameZh" : "松鶴酒莊",
      "pgp" : "0",
      "terminal" : "0",
      "latitude" : "24.31178",
      "inDis" : "50",
      "routeId" : "155",
      "seqNo" : "35"
   },
   {
      "GoBack" : "1",
      "longitude" : "120.69715",
      "outDis" : "50",
      "Id" : "1683",
      "oid" : "5464",
      "districtId" : "1",
      "nameZh" : "月眉",
      "pgp" : "0",
      "terminal" : "0",
      "latitude" : "24.31551",
      "inDis" : "50",
      "routeId" : "155",
      "seqNo" : "36"
   },
   {
      "GoBack" : "1",
      "longitude" : "120.69226",
      "outDis" : "50",
      "Id" : "1685",
      "oid" : "313359593",
      "districtId" : "1",
      "nameZh" : "麗寶樂園",
      "pgp" : "0",
      "terminal" : "0",
      "latitude" : "24.3192",
      "inDis" : "50",
      "routeId" : "155",
      "seqNo" : "37"
   },
   {
      "GoBack" : "2",
      "longitude" : "120.69226",
      "outDis" : "50",
      "Id" : "1685",
      "oid" : "313359593",
      "districtId" : "1",
      "nameZh" : "麗寶樂園",
      "pgp" : "0",
      "terminal" : "0",
      "latitude" : "24.3192",
      "inDis" : "50",
      "routeId" : "155",
      "seqNo" : "1"
   },
   {
      "GoBack" : "2",
      "longitude" : "120.6957",
      "outDis" : "50",
      "Id" : "1683",
      "oid" : "319170128",
      "districtId" : "1",
      "nameZh" : "月眉",
      "pgp" : "0",
      "terminal" : "0",
      "latitude" : "24.31613",
      "inDis" : "50",
      "routeId" : "155",
      "seqNo" : "2"
   },
   {
      "GoBack" : "2",
      "longitude" : "120.69621",
      "outDis" : "50",
      "Id" : "2469",
      "oid" : "5928",
      "districtId" : "1",
      "nameZh" : "松鶴酒莊",
      "pgp" : "0",
      "terminal" : "0",
      "latitude" : "24.31178",
      "inDis" : "50",
      "routeId" : "155",
      "seqNo" : "3"
   },
   {
      "GoBack" : "2",
      "longitude" : "120.69814",
      "outDis" : "50",
      "Id" : "0421",
      "oid" : "5326",
      "districtId" : "1",
      "nameZh" : "中和",
      "pgp" : "0",
      "terminal" : "0",
      "latitude" : "24.31041",
      "inDis" : "50",
      "routeId" : "155",
      "seqNo" : "4"
   },
   {
      "GoBack" : "2",
      "longitude" : "120.70587",
      "outDis" : "50",
      "Id" : "3309",
      "oid" : "6381",
      "districtId" : "1",
      "nameZh" : "雅藝公司",
      "pgp" : "0",
      "terminal" : "0",
      "latitude" : "24.30699",
      "inDis" : "50",
      "routeId" : "155",
      "seqNo" : "5"
   },
   {
      "GoBack" : "2",
      "longitude" : "120.70917",
      "outDis" : "50",
      "Id" : "4449",
      "oid" : "5504",
      "districtId" : "1",
      "nameZh" : "公安主和路口",
      "pgp" : "0",
      "terminal" : "0",
      "latitude" : "24.30554",
      "inDis" : "50",
      "routeId" : "155",
      "seqNo" : "6"
   },
   {
      "GoBack" : "2",
      "longitude" : "120.7107",
      "outDis" : "50",
      "Id" : "4504",
      "oid" : "303690762",
      "districtId" : "1",
      "nameZh" : "后里區公所",
      "pgp" : "0",
      "terminal" : "0",
      "latitude" : "24.30482",
      "inDis" : "50",
      "routeId" : "155",
      "seqNo" : "7"
   },
   {
      "GoBack" : "2",
      "longitude" : "120.7132",
      "outDis" : "50",
      "Id" : "1571",
      "oid" : "138961819",
      "districtId" : "1",
      "nameZh" : "內埔市場",
      "pgp" : "0",
      "terminal" : "0",
      "latitude" : "24.30557",
      "inDis" : "50",
      "routeId" : "155",
      "seqNo" : "8"
   },
   {
      "GoBack" : "2",
      "longitude" : "120.71645",
      "outDis" : "50",
      "Id" : "4453",
      "oid" : "5459",
      "districtId" : "1",
      "nameZh" : "民生文明路口",
      "pgp" : "0",
      "terminal" : "0",
      "latitude" : "24.30747",
      "inDis" : "50",
      "routeId" : "155",
      "seqNo" : "9"
   },
   {
      "GoBack" : "2",
      "longitude" : "120.71765",
      "outDis" : "50",
      "Id" : "2651",
      "oid" : "6026",
      "districtId" : "1",
      "nameZh" : "后里電信局",
      "pgp" : "0",
      "terminal" : "0",
      "latitude" : "24.30969",
      "inDis" : "50",
      "routeId" : "155",
      "seqNo" : "10"
   },
   {
      "GoBack" : "2",
      "longitude" : "120.72164",
      "outDis" : "50",
      "Id" : "1169",
      "oid" : "5132",
      "districtId" : "1",
      "nameZh" : "下后里",
      "pgp" : "0",
      "terminal" : "0",
      "latitude" : "24.30903",
      "inDis" : "50",
      "routeId" : "155",
      "seqNo" : "11"
   },
   {
      "GoBack" : "2",
      "longitude" : "120.72453",
      "outDis" : "50",
      "Id" : "5417",
      "oid" : "313273911",
      "districtId" : "1",
      "nameZh" : "甲后路329巷口",
      "pgp" : "0",
      "terminal" : "0",
      "latitude" : "24.30891",
      "inDis" : "50",
      "routeId" : "155",
      "seqNo" : "12"
   },
   {
      "GoBack" : "2",
      "longitude" : "120.72833",
      "outDis" : "50",
      "Id" : "5418",
      "oid" : "313273913",
      "districtId" : "1",
      "nameZh" : "后里義里郵局",
      "pgp" : "0",
      "terminal" : "0",
      "latitude" : "24.30911",
      "inDis" : "50",
      "routeId" : "155",
      "seqNo" : "13"
   },
   {
      "GoBack" : "2",
      "longitude" : "120.73065",
      "outDis" : "50",
      "Id" : "5419",
      "oid" : "313273915",
      "districtId" : "1",
      "nameZh" : "后里火車站(后里國小)",
      "pgp" : "0",
      "terminal" : "0",
      "latitude" : "24.30924",
      "inDis" : "50",
      "routeId" : "155",
      "seqNo" : "14"
   },
   {
      "GoBack" : "2",
      "longitude" : "120.73078",
      "outDis" : "50",
      "Id" : "5420",
      "oid" : "313273917",
      "districtId" : "1",
      "nameZh" : "內東大山路口",
      "pgp" : "0",
      "terminal" : "0",
      "latitude" : "24.30778",
      "inDis" : "50",
      "routeId" : "155",
      "seqNo" : "15"
   },
   {
      "GoBack" : "2",
      "longitude" : "120.73095",
      "outDis" : "50",
      "Id" : "5421",
      "oid" : "313273919",
      "districtId" : "1",
      "nameZh" : "內東路營區",
      "pgp" : "0",
      "terminal" : "0",
      "latitude" : "24.30502",
      "inDis" : "50",
      "routeId" : "155",
      "seqNo" : "16"
   },
   {
      "GoBack" : "2",
      "longitude" : "120.73515",
      "outDis" : "50",
      "Id" : "5422",
      "oid" : "313273920",
      "districtId" : "1",
      "nameZh" : "后里馬場",
      "pgp" : "0",
      "terminal" : "0",
      "latitude" : "24.29857",
      "inDis" : "50",
      "routeId" : "155",
      "seqNo" : "17"
   },
   {
      "GoBack" : "2",
      "longitude" : "120.7317",
      "outDis" : "50",
      "Id" : "5643",
      "oid" : "317318302",
      "districtId" : "1",
      "nameZh" : "馬場后科路口",
      "pgp" : "0",
      "terminal" : "0",
      "latitude" : "24.2984",
      "inDis" : "50",
      "routeId" : "155",
      "seqNo" : "18"
   },
   {
      "GoBack" : "2",
      "longitude" : "120.7246",
      "outDis" : "50",
      "Id" : "5589",
      "oid" : "129901855",
      "districtId" : "1",
      "nameZh" : "馬場三豐路口",
      "pgp" : "0",
      "terminal" : "0",
      "latitude" : "24.2981",
      "inDis" : "50",
      "routeId" : "155",
      "seqNo" : "19"
   },
   {
      "GoBack" : "2",
      "longitude" : "120.72373",
      "outDis" : "50",
      "Id" : "0987",
      "oid" : "5025",
      "districtId" : "1",
      "nameZh" : "七星農場",
      "pgp" : "0",
      "terminal" : "0",
      "latitude" : "24.2933",
      "inDis" : "50",
      "routeId" : "155",
      "seqNo" : "20"
   },
   {
      "GoBack" : "2",
      "longitude" : "120.72322",
      "outDis" : "50",
      "Id" : "2374",
      "oid" : "5874",
      "districtId" : "1",
      "nameZh" : "枋寮",
      "pgp" : "0",
      "terminal" : "0",
      "latitude" : "24.28785",
      "inDis" : "50",
      "routeId" : "155",
      "seqNo" : "21"
   },
   {
      "GoBack" : "2",
      "longitude" : "120.72285",
      "outDis" : "50",
      "Id" : "1911",
      "oid" : "5605",
      "districtId" : "1",
      "nameZh" : "正隆紙廠",
      "pgp" : "0",
      "terminal" : "0",
      "latitude" : "24.28434",
      "inDis" : "50",
      "routeId" : "155",
      "seqNo" : "22"
   },
   {
      "GoBack" : "2",
      "longitude" : "120.62494",
      "outDis" : "50",
      "Id" : "5149",
      "oid" : "320851040",
      "districtId" : "1",
      "nameZh" : "福安里(臺灣大道)",
      "pgp" : "0",
      "terminal" : "0",
      "latitude" : "24.17845",
      "inDis" : "50",
      "routeId" : "155",
      "seqNo" : "28"
   },
   {
      "GoBack" : "2",
      "longitude" : "120.62508",
      "outDis" : "50",
      "Id" : "0287",
      "oid" : "319311027",
      "districtId" : "1",
      "nameZh" : "福華/裕元",
      "pgp" : "0",
      "terminal" : "0",
      "latitude" : "24.17956",
      "inDis" : "50",
      "routeId" : "155",
      "seqNo" : "29"
   },
   {
      "GoBack" : "2",
      "longitude" : "120.62447",
      "outDis" : "50",
      "Id" : "0010",
      "oid" : "0B8BB139044A433193D90A6EBEFA7A30",
      "districtId" : "1",
      "nameZh" : "福科安和路口",
      "pgp" : "0",
      "terminal" : "0",
      "latitude" : "24.18235",
      "inDis" : "50",
      "routeId" : "155",
      "seqNo" : "30"
   },
   {
      "GoBack" : "2",
      "longitude" : "120.62203",
      "outDis" : "50",
      "Id" : "3060",
      "oid" : "13533",
      "districtId" : "1",
      "nameZh" : "統聯轉運站",
      "pgp" : "0",
      "terminal" : "0",
      "latitude" : "24.17956",
      "inDis" : "50",
      "routeId" : "155",
      "seqNo" : "31"
   },
   {
      "GoBack" : "2",
      "longitude" : "120.62438",
      "outDis" : "50",
      "Id" : "1481",
      "oid" : "10235",
      "districtId" : "1",
      "nameZh" : "安和臺灣大道口",
      "pgp" : "0",
      "terminal" : "0",
      "latitude" : "24.17838",
      "inDis" : "50",
      "routeId" : "155",
      "seqNo" : "32"
   },
   {
      "GoBack" : "2",
      "longitude" : "120.62243",
      "outDis" : "50",
      "Id" : "5106",
      "oid" : "F7DDB5F0EE6348F4B255E082575BC2F8",
      "districtId" : "1",
      "nameZh" : "安和朝馬路口",
      "pgp" : "0",
      "terminal" : "0",
      "latitude" : "24.1748",
      "inDis" : "50",
      "routeId" : "155",
      "seqNo" : "33"
   },
   {
      "GoBack" : "2",
      "longitude" : "120.62968",
      "outDis" : "80",
      "Id" : "5468",
      "oid" : "314182470",
      "districtId" : "1",
      "nameZh" : "環中市政路口",
      "pgp" : "0",
      "terminal" : "0",
      "latitude" : "24.16376",
      "inDis" : "80",
      "routeId" : "155",
      "seqNo" : "35"
   },
   {
      "GoBack" : "2",
      "longitude" : "120.61564",
      "outDis" : "50",
      "Id" : "5487",
      "oid" : "314581889",
      "districtId" : "1",
      "nameZh" : "高鐵臺中站(21月台)",
      "pgp" : "0",
      "terminal" : "0",
      "latitude" : "24.11387",
      "inDis" : "50",
      "routeId" : "155",
      "seqNo" : "38"
   }
]
