[
   {
      "GoBack" : "1",
      "longitude" : "120.73536",
      "outDis" : "50",
      "Id" : "5279",
      "oid" : "310953104",
      "districtId" : "1",
      "nameZh" : "豐原(北陽停車場)",
      "pgp" : "0",
      "terminal" : "0",
      "latitude" : "24.25111",
      "inDis" : "50",
      "routeId" : "100副",
      "seqNo" : "1"
   },
   {
      "GoBack" : "1",
      "longitude" : "120.737",
      "outDis" : "50",
      "Id" : "5282",
      "oid" : "310953108",
      "districtId" : "1",
      "nameZh" : "豐原大道中陽503巷口",
      "pgp" : "0",
      "terminal" : "0",
      "latitude" : "24.24835",
      "inDis" : "50",
      "routeId" : "100副",
      "seqNo" : "2"
   },
   {
      "GoBack" : "1",
      "longitude" : "120.73265",
      "outDis" : "50",
      "Id" : "5283",
      "oid" : "310953109",
      "districtId" : "1",
      "nameZh" : "豐原大道中陽路口",
      "pgp" : "0",
      "terminal" : "0",
      "latitude" : "24.24662",
      "inDis" : "50",
      "routeId" : "100副",
      "seqNo" : "3"
   },
   {
      "GoBack" : "1",
      "longitude" : "120.72918",
      "outDis" : "50",
      "Id" : "1611",
      "oid" : "5418",
      "districtId" : "1",
      "nameZh" : "廣福宮",
      "pgp" : "0",
      "terminal" : "0",
      "latitude" : "24.24407",
      "inDis" : "50",
      "routeId" : "100副",
      "seqNo" : "4"
   },
   {
      "GoBack" : "1",
      "longitude" : "120.72757",
      "outDis" : "50",
      "Id" : "5281",
      "oid" : "310953107",
      "districtId" : "1",
      "nameZh" : "南陽新村",
      "pgp" : "0",
      "terminal" : "0",
      "latitude" : "24.24513",
      "inDis" : "50",
      "routeId" : "100副",
      "seqNo" : "5"
   },
   {
      "GoBack" : "1",
      "longitude" : "120.72562",
      "outDis" : "50",
      "Id" : "4484",
      "oid" : "13856",
      "districtId" : "1",
      "nameZh" : "圓環東南陽路口",
      "pgp" : "0",
      "terminal" : "0",
      "latitude" : "24.246",
      "inDis" : "50",
      "routeId" : "100副",
      "seqNo" : "6"
   },
   {
      "GoBack" : "1",
      "longitude" : "120.7238",
      "outDis" : "50",
      "Id" : "0097",
      "oid" : "310061719",
      "districtId" : "1",
      "nameZh" : "圓環東安康路口(陽明市政大樓)",
      "pgp" : "0",
      "terminal" : "0",
      "latitude" : "24.24482",
      "inDis" : "50",
      "routeId" : "100副",
      "seqNo" : "7"
   },
   {
      "GoBack" : "1",
      "longitude" : "120.72169",
      "outDis" : "50",
      "Id" : "5040",
      "oid" : "309850683",
      "districtId" : "1",
      "nameZh" : "圓環東保康路口",
      "pgp" : "0",
      "terminal" : "0",
      "latitude" : "24.24361",
      "inDis" : "50",
      "routeId" : "100副",
      "seqNo" : "8"
   },
   {
      "GoBack" : "1",
      "longitude" : "120.71926",
      "outDis" : "50",
      "Id" : "4479",
      "oid" : "13851",
      "districtId" : "1",
      "nameZh" : "圓環東田心路口",
      "pgp" : "0",
      "terminal" : "0",
      "latitude" : "24.24335",
      "inDis" : "50",
      "routeId" : "100副",
      "seqNo" : "9"
   },
   {
      "GoBack" : "1",
      "longitude" : "120.71752",
      "outDis" : "50",
      "Id" : "4483",
      "oid" : "309850684",
      "districtId" : "1",
      "nameZh" : "圓環東自強南街口",
      "pgp" : "0",
      "terminal" : "0",
      "latitude" : "24.24385",
      "inDis" : "50",
      "routeId" : "100副",
      "seqNo" : "10"
   },
   {
      "GoBack" : "1",
      "longitude" : "120.71377",
      "outDis" : "50",
      "Id" : "3993",
      "oid" : "13345",
      "districtId" : "1",
      "nameZh" : "警察局",
      "pgp" : "0",
      "terminal" : "0",
      "latitude" : "24.24355",
      "inDis" : "50",
      "routeId" : "100副",
      "seqNo" : "11"
   },
   {
      "GoBack" : "1",
      "longitude" : "120.7127",
      "outDis" : "50",
      "Id" : "3817",
      "oid" : "13335",
      "districtId" : "1",
      "nameZh" : "輸配電",
      "pgp" : "0",
      "terminal" : "0",
      "latitude" : "24.24153",
      "inDis" : "50",
      "routeId" : "100副",
      "seqNo" : "12"
   },
   {
      "GoBack" : "1",
      "longitude" : "120.71085",
      "outDis" : "50",
      "Id" : "1661",
      "oid" : "13264",
      "districtId" : "1",
      "nameZh" : "文化新村",
      "pgp" : "0",
      "terminal" : "0",
      "latitude" : "24.23837",
      "inDis" : "50",
      "routeId" : "100副",
      "seqNo" : "13"
   },
   {
      "GoBack" : "1",
      "longitude" : "120.7103",
      "outDis" : "50",
      "Id" : "3282",
      "oid" : "13318",
      "districtId" : "1",
      "nameZh" : "菸廠",
      "pgp" : "0",
      "terminal" : "0",
      "latitude" : "24.23688",
      "inDis" : "50",
      "routeId" : "100副",
      "seqNo" : "14"
   },
   {
      "GoBack" : "1",
      "longitude" : "120.70964",
      "outDis" : "50",
      "Id" : "1965",
      "oid" : "13302",
      "districtId" : "1",
      "nameZh" : "永豐螺絲",
      "pgp" : "0",
      "terminal" : "0",
      "latitude" : "24.2351",
      "inDis" : "50",
      "routeId" : "100副",
      "seqNo" : "15"
   },
   {
      "GoBack" : "1",
      "longitude" : "120.7087",
      "outDis" : "50",
      "Id" : "2785",
      "oid" : "13313",
      "districtId" : "1",
      "nameZh" : "校栗林",
      "pgp" : "0",
      "terminal" : "0",
      "latitude" : "24.23151",
      "inDis" : "50",
      "routeId" : "100副",
      "seqNo" : "16"
   },
   {
      "GoBack" : "1",
      "longitude" : "120.70814",
      "outDis" : "50",
      "Id" : "0539",
      "oid" : "319729706",
      "districtId" : "1",
      "nameZh" : "中山祥和路口",
      "pgp" : "0",
      "terminal" : "0",
      "latitude" : "24.22825",
      "inDis" : "50",
      "routeId" : "100副",
      "seqNo" : "17"
   },
   {
      "GoBack" : "1",
      "longitude" : "120.7077",
      "outDis" : "50",
      "Id" : "1909",
      "oid" : "13300",
      "districtId" : "1",
      "nameZh" : "弘文中學",
      "pgp" : "0",
      "terminal" : "0",
      "latitude" : "24.22655",
      "inDis" : "50",
      "routeId" : "100副",
      "seqNo" : "18"
   },
   {
      "GoBack" : "1",
      "longitude" : "120.70731",
      "outDis" : "50",
      "Id" : "4361",
      "oid" : "13311",
      "districtId" : "1",
      "nameZh" : "矽品精密",
      "pgp" : "0",
      "terminal" : "0",
      "latitude" : "24.22424",
      "inDis" : "50",
      "routeId" : "100副",
      "seqNo" : "19"
   },
   {
      "GoBack" : "1",
      "longitude" : "120.70642",
      "outDis" : "50",
      "Id" : "3743",
      "oid" : "13332",
      "districtId" : "1",
      "nameZh" : "潭秀里",
      "pgp" : "0",
      "terminal" : "0",
      "latitude" : "24.22131",
      "inDis" : "50",
      "routeId" : "100副",
      "seqNo" : "20"
   },
   {
      "GoBack" : "1",
      "longitude" : "120.70569",
      "outDis" : "50",
      "Id" : "3741",
      "oid" : "7579",
      "districtId" : "1",
      "nameZh" : "潭子加工區",
      "pgp" : "0",
      "terminal" : "0",
      "latitude" : "24.21753",
      "inDis" : "50",
      "routeId" : "100副",
      "seqNo" : "21"
   },
   {
      "GoBack" : "1",
      "longitude" : "120.70511",
      "outDis" : "50",
      "Id" : "3740",
      "oid" : "7577",
      "districtId" : "1",
      "nameZh" : "潭子",
      "pgp" : "0",
      "terminal" : "0",
      "latitude" : "24.21505",
      "inDis" : "50",
      "routeId" : "100副",
      "seqNo" : "22"
   },
   {
      "GoBack" : "1",
      "longitude" : "120.70532",
      "outDis" : "50",
      "Id" : "4240",
      "oid" : "13328",
      "districtId" : "1",
      "nameZh" : "潭子火車站",
      "pgp" : "0",
      "terminal" : "0",
      "latitude" : "24.21274",
      "inDis" : "50",
      "routeId" : "100副",
      "seqNo" : "23"
   },
   {
      "GoBack" : "1",
      "longitude" : "120.70544",
      "outDis" : "50",
      "Id" : "3742",
      "oid" : "303235814",
      "districtId" : "1",
      "nameZh" : "潭子區公所",
      "pgp" : "0",
      "terminal" : "0",
      "latitude" : "24.21024",
      "inDis" : "50",
      "routeId" : "100副",
      "seqNo" : "24"
   },
   {
      "GoBack" : "1",
      "longitude" : "120.70521",
      "outDis" : "50",
      "Id" : "4370",
      "oid" : "303235812",
      "districtId" : "1",
      "nameZh" : "中山圓通南路口",
      "pgp" : "0",
      "terminal" : "0",
      "latitude" : "24.20789",
      "inDis" : "50",
      "routeId" : "100副",
      "seqNo" : "25"
   },
   {
      "GoBack" : "1",
      "longitude" : "120.70465",
      "outDis" : "50",
      "Id" : "4658",
      "oid" : "7281",
      "districtId" : "1",
      "nameZh" : "中山合作街口",
      "pgp" : "0",
      "terminal" : "0",
      "latitude" : "24.20489",
      "inDis" : "50",
      "routeId" : "100副",
      "seqNo" : "26"
   },
   {
      "GoBack" : "1",
      "longitude" : "120.70407",
      "outDis" : "50",
      "Id" : "3567",
      "oid" : "7544",
      "districtId" : "1",
      "nameZh" : "僑忠國小",
      "pgp" : "0",
      "terminal" : "0",
      "latitude" : "24.20323",
      "inDis" : "50",
      "routeId" : "100副",
      "seqNo" : "27"
   },
   {
      "GoBack" : "1",
      "longitude" : "120.70322",
      "outDis" : "50",
      "Id" : "1972",
      "oid" : "310872631",
      "districtId" : "1",
      "nameZh" : "瓦窯",
      "pgp" : "0",
      "terminal" : "0",
      "latitude" : "24.19994",
      "inDis" : "50",
      "routeId" : "100副",
      "seqNo" : "28"
   },
   {
      "GoBack" : "1",
      "longitude" : "120.70247",
      "outDis" : "50",
      "Id" : "3836",
      "oid" : "7595",
      "districtId" : "1",
      "nameZh" : "頭家厝",
      "pgp" : "0",
      "terminal" : "0",
      "latitude" : "24.1955",
      "inDis" : "50",
      "routeId" : "100副",
      "seqNo" : "29"
   },
   {
      "GoBack" : "1",
      "longitude" : "120.70246",
      "outDis" : "50",
      "Id" : "4659",
      "oid" : "7008",
      "districtId" : "1",
      "nameZh" : "中山中興路口",
      "pgp" : "0",
      "terminal" : "0",
      "latitude" : "24.1915",
      "inDis" : "50",
      "routeId" : "100副",
      "seqNo" : "30"
   },
   {
      "GoBack" : "1",
      "longitude" : "120.70247",
      "outDis" : "50",
      "Id" : "4673",
      "oid" : "7025",
      "districtId" : "1",
      "nameZh" : "中山路一巷口",
      "pgp" : "0",
      "terminal" : "0",
      "latitude" : "24.18706",
      "inDis" : "50",
      "routeId" : "100副",
      "seqNo" : "31"
   },
   {
      "GoBack" : "1",
      "longitude" : "120.70162",
      "outDis" : "75",
      "Id" : "4582",
      "oid" : "11166",
      "districtId" : "1",
      "nameZh" : "舊社公園(北屯路)",
      "pgp" : "0",
      "terminal" : "0",
      "latitude" : "24.18138",
      "inDis" : "75",
      "routeId" : "100副",
      "seqNo" : "32"
   },
   {
      "GoBack" : "1",
      "longitude" : "120.70039",
      "outDis" : "50",
      "Id" : "0105",
      "oid" : "7345",
      "districtId" : "1",
      "nameZh" : "北新國中",
      "pgp" : "0",
      "terminal" : "0",
      "latitude" : "24.17863",
      "inDis" : "50",
      "routeId" : "100副",
      "seqNo" : "33"
   },
   {
      "GoBack" : "1",
      "longitude" : "120.6992",
      "outDis" : "50",
      "Id" : "0200",
      "oid" : "7032",
      "districtId" : "1",
      "nameZh" : "北屯崇德二路口",
      "pgp" : "0",
      "terminal" : "0",
      "latitude" : "24.17575",
      "inDis" : "50",
      "routeId" : "100副",
      "seqNo" : "34"
   },
   {
      "GoBack" : "1",
      "longitude" : "120.69832",
      "outDis" : "50",
      "Id" : "0364",
      "oid" : "7228",
      "districtId" : "1",
      "nameZh" : "特力屋北屯店",
      "pgp" : "0",
      "terminal" : "0",
      "latitude" : "24.17363",
      "inDis" : "50",
      "routeId" : "100副",
      "seqNo" : "35"
   },
   {
      "GoBack" : "1",
      "longitude" : "120.69743",
      "outDis" : "50",
      "Id" : "0103",
      "oid" : "7216",
      "districtId" : "1",
      "nameZh" : "大坑口",
      "pgp" : "0",
      "terminal" : "0",
      "latitude" : "24.16999",
      "inDis" : "50",
      "routeId" : "100副",
      "seqNo" : "36"
   },
   {
      "GoBack" : "1",
      "longitude" : "120.69588",
      "outDis" : "50",
      "Id" : "5511",
      "oid" : "12497",
      "districtId" : "1",
      "nameZh" : "三光國中",
      "pgp" : "0",
      "terminal" : "0",
      "latitude" : "24.16762",
      "inDis" : "50",
      "routeId" : "100副",
      "seqNo" : "37"
   },
   {
      "GoBack" : "1",
      "longitude" : "120.69448",
      "outDis" : "50",
      "Id" : "0492",
      "oid" : "7336",
      "districtId" : "1",
      "nameZh" : "北屯",
      "pgp" : "0",
      "terminal" : "0",
      "latitude" : "24.16547",
      "inDis" : "50",
      "routeId" : "100副",
      "seqNo" : "38"
   },
   {
      "GoBack" : "1",
      "longitude" : "120.69308",
      "outDis" : "75",
      "Id" : "5405",
      "oid" : "11111",
      "districtId" : "1",
      "nameZh" : "北屯國小(北屯路)",
      "pgp" : "0",
      "terminal" : "0",
      "latitude" : "24.16312",
      "inDis" : "75",
      "routeId" : "100副",
      "seqNo" : "39"
   },
   {
      "GoBack" : "1",
      "longitude" : "120.69228",
      "outDis" : "50",
      "Id" : "0892",
      "oid" : "7558",
      "districtId" : "1",
      "nameZh" : "監理站",
      "pgp" : "0",
      "terminal" : "0",
      "latitude" : "24.16136",
      "inDis" : "50",
      "routeId" : "100副",
      "seqNo" : "40"
   },
   {
      "GoBack" : "1",
      "longitude" : "120.69027",
      "outDis" : "50",
      "Id" : "0960",
      "oid" : "7635",
      "districtId" : "1",
      "nameZh" : "寶覺寺",
      "pgp" : "0",
      "terminal" : "0",
      "latitude" : "24.15826",
      "inDis" : "50",
      "routeId" : "100副",
      "seqNo" : "41"
   },
   {
      "GoBack" : "1",
      "longitude" : "120.68858",
      "outDis" : "50",
      "Id" : "4399",
      "oid" : "7510",
      "districtId" : "1",
      "nameZh" : "新民高中(三民路)",
      "pgp" : "0",
      "terminal" : "0",
      "latitude" : "24.15685",
      "inDis" : "50",
      "routeId" : "100副",
      "seqNo" : "42"
   },
   {
      "GoBack" : "1",
      "longitude" : "120.68695",
      "outDis" : "50",
      "Id" : "0934",
      "oid" : "0D7AF382298E449C9856AF45F92F27F9",
      "districtId" : "1",
      "nameZh" : "三民錦中街口",
      "pgp" : "0",
      "terminal" : "0",
      "latitude" : "24.15528",
      "inDis" : "50",
      "routeId" : "100副",
      "seqNo" : "43"
   },
   {
      "GoBack" : "1",
      "longitude" : "120.68578",
      "outDis" : "50",
      "Id" : "0047",
      "oid" : "7185",
      "districtId" : "1",
      "nameZh" : "一心市場",
      "pgp" : "0",
      "terminal" : "0",
      "latitude" : "24.1541",
      "inDis" : "50",
      "routeId" : "100副",
      "seqNo" : "44"
   },
   {
      "GoBack" : "1",
      "longitude" : "120.68506",
      "outDis" : "50",
      "Id" : "0046",
      "oid" : "7253",
      "districtId" : "1",
      "nameZh" : "中友百貨",
      "pgp" : "0",
      "terminal" : "0",
      "latitude" : "24.15209",
      "inDis" : "50",
      "routeId" : "100副",
      "seqNo" : "45"
   },
   {
      "GoBack" : "1",
      "longitude" : "120.68393",
      "outDis" : "50",
      "Id" : "0045",
      "oid" : "7356",
      "districtId" : "1",
      "nameZh" : "國立臺中科技大學",
      "pgp" : "0",
      "terminal" : "0",
      "latitude" : "24.14961",
      "inDis" : "50",
      "routeId" : "100副",
      "seqNo" : "46"
   },
   {
      "GoBack" : "1",
      "longitude" : "120.68243",
      "outDis" : "50",
      "Id" : "4543",
      "oid" : "7315",
      "districtId" : "1",
      "nameZh" : "臺中公園(三民路)",
      "pgp" : "0",
      "terminal" : "0",
      "latitude" : "24.14584",
      "inDis" : "50",
      "routeId" : "100副",
      "seqNo" : "47"
   },
   {
      "GoBack" : "1",
      "longitude" : "120.68155",
      "outDis" : "50",
      "Id" : "5506",
      "oid" : "7057",
      "districtId" : "1",
      "nameZh" : "光復國小(三民路)",
      "pgp" : "0",
      "terminal" : "0",
      "latitude" : "24.14441",
      "inDis" : "50",
      "routeId" : "100副",
      "seqNo" : "48"
   },
   {
      "GoBack" : "1",
      "longitude" : "120.68024",
      "outDis" : "50",
      "Id" : "4609",
      "oid" : "7442",
      "districtId" : "1",
      "nameZh" : "第二市場(三民路)",
      "pgp" : "0",
      "terminal" : "0",
      "latitude" : "24.14316",
      "inDis" : "50",
      "routeId" : "100副",
      "seqNo" : "49"
   },
   {
      "GoBack" : "1",
      "longitude" : "120.67909",
      "outDis" : "50",
      "Id" : "0777",
      "oid" : "7444",
      "districtId" : "1",
      "nameZh" : "第二信用",
      "pgp" : "0",
      "terminal" : "0",
      "latitude" : "24.1414",
      "inDis" : "50",
      "routeId" : "100副",
      "seqNo" : "50"
   },
   {
      "GoBack" : "1",
      "longitude" : "120.6811",
      "outDis" : "50",
      "Id" : "4630",
      "oid" : "7081",
      "districtId" : "1",
      "nameZh" : "中山自由路口",
      "pgp" : "0",
      "terminal" : "0",
      "latitude" : "24.13977",
      "inDis" : "50",
      "routeId" : "100副",
      "seqNo" : "51"
   },
   {
      "GoBack" : "1",
      "longitude" : "120.68183",
      "outDis" : "50",
      "Id" : "0216",
      "oid" : "7548",
      "districtId" : "1",
      "nameZh" : "彰化銀行(自由路)",
      "pgp" : "0",
      "terminal" : "0",
      "latitude" : "24.13972",
      "inDis" : "50",
      "routeId" : "100副",
      "seqNo" : "52"
   },
   {
      "GoBack" : "1",
      "longitude" : "120.6846",
      "outDis" : "100",
      "Id" : "1824",
      "oid" : "7360",
      "districtId" : "1",
      "nameZh" : "臺中火車站",
      "pgp" : "0",
      "terminal" : "0",
      "latitude" : "24.13796",
      "inDis" : "100",
      "routeId" : "100副",
      "seqNo" : "53"
   },
   {
      "GoBack" : "1",
      "longitude" : "120.68392",
      "outDis" : "50",
      "Id" : "0049",
      "oid" : "7448",
      "districtId" : "1",
      "nameZh" : "第三市場(臺中家商)",
      "pgp" : "0",
      "terminal" : "0",
      "latitude" : "24.13256",
      "inDis" : "50",
      "routeId" : "100副",
      "seqNo" : "55"
   },
   {
      "GoBack" : "1",
      "longitude" : "120.68502",
      "outDis" : "50",
      "Id" : "0257",
      "oid" : "7005",
      "districtId" : "1",
      "nameZh" : "臺中國小",
      "pgp" : "0",
      "terminal" : "0",
      "latitude" : "24.13026",
      "inDis" : "50",
      "routeId" : "100副",
      "seqNo" : "56"
   },
   {
      "GoBack" : "1",
      "longitude" : "120.68443",
      "outDis" : "50",
      "Id" : "5607",
      "oid" : "7003",
      "districtId" : "1",
      "nameZh" : "興大附農(臺中路)",
      "pgp" : "0",
      "terminal" : "0",
      "latitude" : "24.12723",
      "inDis" : "50",
      "routeId" : "100副",
      "seqNo" : "57"
   },
   {
      "GoBack" : "1",
      "longitude" : "120.68406",
      "outDis" : "50",
      "Id" : "0255",
      "oid" : "7152",
      "districtId" : "1",
      "nameZh" : "南門仔",
      "pgp" : "0",
      "terminal" : "0",
      "latitude" : "24.12568",
      "inDis" : "50",
      "routeId" : "100副",
      "seqNo" : "58"
   },
   {
      "GoBack" : "1",
      "longitude" : "120.68412",
      "outDis" : "50",
      "Id" : "0254",
      "oid" : "7117",
      "districtId" : "1",
      "nameZh" : "明德高中",
      "pgp" : "0",
      "terminal" : "0",
      "latitude" : "24.12291",
      "inDis" : "50",
      "routeId" : "100副",
      "seqNo" : "59"
   },
   {
      "GoBack" : "1",
      "longitude" : "120.68664",
      "outDis" : "50",
      "Id" : "2591",
      "oid" : "7156",
      "districtId" : "1",
      "nameZh" : "南門橋頭",
      "pgp" : "0",
      "terminal" : "0",
      "latitude" : "24.1212",
      "inDis" : "50",
      "routeId" : "100副",
      "seqNo" : "60"
   },
   {
      "GoBack" : "1",
      "longitude" : "120.68957",
      "outDis" : "50",
      "Id" : "3281",
      "oid" : "7493",
      "districtId" : "1",
      "nameZh" : "菸葉廠",
      "pgp" : "0",
      "terminal" : "0",
      "latitude" : "24.11794",
      "inDis" : "50",
      "routeId" : "100副",
      "seqNo" : "61"
   },
   {
      "GoBack" : "1",
      "longitude" : "120.68958",
      "outDis" : "50",
      "Id" : "3280",
      "oid" : "7490",
      "districtId" : "1",
      "nameZh" : "菩提醫院",
      "pgp" : "0",
      "terminal" : "0",
      "latitude" : "24.11508",
      "inDis" : "50",
      "routeId" : "100副",
      "seqNo" : "62"
   },
   {
      "GoBack" : "1",
      "longitude" : "120.68974",
      "outDis" : "50",
      "Id" : "5485",
      "oid" : "314655296",
      "districtId" : "1",
      "nameZh" : "中興內新街口",
      "pgp" : "0",
      "terminal" : "0",
      "latitude" : "24.11408",
      "inDis" : "50",
      "routeId" : "100副",
      "seqNo" : "63"
   },
   {
      "GoBack" : "1",
      "longitude" : "120.68986",
      "outDis" : "50",
      "Id" : "2691",
      "oid" : "7173",
      "districtId" : "1",
      "nameZh" : "省農會",
      "pgp" : "0",
      "terminal" : "0",
      "latitude" : "24.1125",
      "inDis" : "50",
      "routeId" : "100副",
      "seqNo" : "64"
   },
   {
      "GoBack" : "1",
      "longitude" : "120.68993",
      "outDis" : "50",
      "Id" : "1576",
      "oid" : "7298",
      "districtId" : "1",
      "nameZh" : "內新市場",
      "pgp" : "0",
      "terminal" : "0",
      "latitude" : "24.11107",
      "inDis" : "50",
      "routeId" : "100副",
      "seqNo" : "65"
   },
   {
      "GoBack" : "1",
      "longitude" : "120.69003",
      "outDis" : "50",
      "Id" : "1363",
      "oid" : "7237",
      "districtId" : "1",
      "nameZh" : "中興大里路口",
      "pgp" : "0",
      "terminal" : "0",
      "latitude" : "24.10863",
      "inDis" : "50",
      "routeId" : "100副",
      "seqNo" : "66"
   },
   {
      "GoBack" : "1",
      "longitude" : "120.68941",
      "outDis" : "50",
      "Id" : "2026",
      "oid" : "7054",
      "districtId" : "1",
      "nameZh" : "立人高中",
      "pgp" : "0",
      "terminal" : "0",
      "latitude" : "24.10584",
      "inDis" : "50",
      "routeId" : "100副",
      "seqNo" : "67"
   },
   {
      "GoBack" : "1",
      "longitude" : "120.68864",
      "outDis" : "50",
      "Id" : "1126",
      "oid" : "7202",
      "districtId" : "1",
      "nameZh" : "下內新",
      "pgp" : "0",
      "terminal" : "0",
      "latitude" : "24.10257",
      "inDis" : "50",
      "routeId" : "100副",
      "seqNo" : "68"
   },
   {
      "GoBack" : "1",
      "longitude" : "120.6879",
      "outDis" : "50",
      "Id" : "5151",
      "oid" : "12580",
      "districtId" : "1",
      "nameZh" : "兒童藝術館(中興路)",
      "pgp" : "0",
      "terminal" : "0",
      "latitude" : "24.10002",
      "inDis" : "50",
      "routeId" : "100副",
      "seqNo" : "69"
   },
   {
      "GoBack" : "1",
      "longitude" : "120.68694",
      "outDis" : "50",
      "Id" : "1322",
      "oid" : "309974047",
      "districtId" : "1",
      "nameZh" : "大突寮(中興路)",
      "pgp" : "0",
      "terminal" : "0",
      "latitude" : "24.09735",
      "inDis" : "50",
      "routeId" : "100副",
      "seqNo" : "70"
   },
   {
      "GoBack" : "1",
      "longitude" : "120.69146",
      "outDis" : "50",
      "Id" : "4661",
      "oid" : "7291",
      "districtId" : "1",
      "nameZh" : "中興仁化路口",
      "pgp" : "0",
      "terminal" : "0",
      "latitude" : "24.09192",
      "inDis" : "50",
      "routeId" : "100副",
      "seqNo" : "71"
   },
   {
      "GoBack" : "1",
      "longitude" : "120.69371",
      "outDis" : "50",
      "Id" : "4286",
      "oid" : "7143",
      "districtId" : "1",
      "nameZh" : "青年高中",
      "pgp" : "0",
      "terminal" : "0",
      "latitude" : "24.08994",
      "inDis" : "50",
      "routeId" : "100副",
      "seqNo" : "72"
   },
   {
      "GoBack" : "1",
      "longitude" : "120.69597",
      "outDis" : "50",
      "Id" : "4253",
      "oid" : "7170",
      "districtId" : "1",
      "nameZh" : "大里圖書館(中興路)",
      "pgp" : "0",
      "terminal" : "0",
      "latitude" : "24.08754",
      "inDis" : "50",
      "routeId" : "100副",
      "seqNo" : "73"
   },
   {
      "GoBack" : "1",
      "longitude" : "120.69725",
      "outDis" : "50",
      "Id" : "2866",
      "oid" : "7384",
      "districtId" : "1",
      "nameZh" : "草湖",
      "pgp" : "0",
      "terminal" : "0",
      "latitude" : "24.08404",
      "inDis" : "50",
      "routeId" : "100副",
      "seqNo" : "74"
   },
   {
      "GoBack" : "1",
      "longitude" : "120.69835",
      "outDis" : "50",
      "Id" : "4349",
      "oid" : "7387",
      "districtId" : "1",
      "nameZh" : "中興東南路口",
      "pgp" : "0",
      "terminal" : "0",
      "latitude" : "24.08056",
      "inDis" : "50",
      "routeId" : "100副",
      "seqNo" : "75"
   },
   {
      "GoBack" : "1",
      "longitude" : "120.69952",
      "outDis" : "50",
      "Id" : "2062",
      "oid" : "7066",
      "districtId" : "1",
      "nameZh" : "中正吉峰路口",
      "pgp" : "0",
      "terminal" : "0",
      "latitude" : "24.07654",
      "inDis" : "50",
      "routeId" : "100副",
      "seqNo" : "76"
   },
   {
      "GoBack" : "1",
      "longitude" : "120.69986",
      "outDis" : "50",
      "Id" : "3980",
      "oid" : "7632",
      "districtId" : "1",
      "nameZh" : "霧峰農工",
      "pgp" : "0",
      "terminal" : "0",
      "latitude" : "24.07332",
      "inDis" : "50",
      "routeId" : "100副",
      "seqNo" : "77"
   },
   {
      "GoBack" : "1",
      "longitude" : "120.69951",
      "outDis" : "50",
      "Id" : "1994",
      "oid" : "7049",
      "districtId" : "1",
      "nameZh" : "甲寅",
      "pgp" : "0",
      "terminal" : "0",
      "latitude" : "24.06987",
      "inDis" : "50",
      "routeId" : "100副",
      "seqNo" : "78"
   },
   {
      "GoBack" : "1",
      "longitude" : "120.6993",
      "outDis" : "50",
      "Id" : "4972",
      "oid" : "7029",
      "districtId" : "1",
      "nameZh" : "中正草湖路口",
      "pgp" : "0",
      "terminal" : "0",
      "latitude" : "24.06829",
      "inDis" : "50",
      "routeId" : "100副",
      "seqNo" : "79"
   },
   {
      "GoBack" : "1",
      "longitude" : "120.69879",
      "outDis" : "50",
      "Id" : "3972",
      "oid" : "7627",
      "districtId" : "1",
      "nameZh" : "霧峰",
      "pgp" : "0",
      "terminal" : "0",
      "latitude" : "24.06398",
      "inDis" : "50",
      "routeId" : "100副",
      "seqNo" : "80"
   },
   {
      "GoBack" : "1",
      "longitude" : "120.69847",
      "outDis" : "50",
      "Id" : "3978",
      "oid" : "10370",
      "districtId" : "1",
      "nameZh" : "霧峰郵局",
      "pgp" : "0",
      "terminal" : "0",
      "latitude" : "24.06252",
      "inDis" : "50",
      "routeId" : "100副",
      "seqNo" : "81"
   },
   {
      "GoBack" : "1",
      "longitude" : "120.69807",
      "outDis" : "50",
      "Id" : "5546",
      "oid" : "316462698",
      "districtId" : "1",
      "nameZh" : "教育部國教署",
      "pgp" : "0",
      "terminal" : "0",
      "latitude" : "24.05974",
      "inDis" : "50",
      "routeId" : "100副",
      "seqNo" : "82"
   },
   {
      "GoBack" : "1",
      "longitude" : "120.69793",
      "outDis" : "50",
      "Id" : "3976",
      "oid" : "7630",
      "districtId" : "1",
      "nameZh" : "霧峰國小",
      "pgp" : "0",
      "terminal" : "0",
      "latitude" : "24.05764",
      "inDis" : "50",
      "routeId" : "100副",
      "seqNo" : "83"
   },
   {
      "GoBack" : "1",
      "longitude" : "120.69721",
      "outDis" : "50",
      "Id" : "2692",
      "oid" : "7176",
      "districtId" : "1",
      "nameZh" : "省議會",
      "pgp" : "0",
      "terminal" : "0",
      "latitude" : "24.05548",
      "inDis" : "50",
      "routeId" : "100副",
      "seqNo" : "84"
   },
   {
      "GoBack" : "1",
      "longitude" : "120.69403",
      "outDis" : "50",
      "Id" : "1026",
      "oid" : "7190",
      "districtId" : "1",
      "nameZh" : "八德橋",
      "pgp" : "0",
      "terminal" : "0",
      "latitude" : "24.0495",
      "inDis" : "50",
      "routeId" : "100副",
      "seqNo" : "85"
   },
   {
      "GoBack" : "1",
      "longitude" : "120.69236",
      "outDis" : "50",
      "Id" : "2048",
      "oid" : "7641",
      "districtId" : "1",
      "nameZh" : "光復新村",
      "pgp" : "0",
      "terminal" : "0",
      "latitude" : "24.04592",
      "inDis" : "50",
      "routeId" : "100副",
      "seqNo" : "86"
   },
   {
      "GoBack" : "1",
      "longitude" : "120.68868",
      "outDis" : "50",
      "Id" : "4629",
      "oid" : "304270268",
      "districtId" : "1",
      "nameZh" : "光復國中小(柳豐路)",
      "pgp" : "0",
      "terminal" : "0",
      "latitude" : "24.04362",
      "inDis" : "50",
      "routeId" : "100副",
      "seqNo" : "87"
   },
   {
      "GoBack" : "1",
      "longitude" : "120.6886",
      "outDis" : "50",
      "Id" : "4413",
      "oid" : "304270266",
      "districtId" : "1",
      "nameZh" : "王厝",
      "pgp" : "0",
      "terminal" : "0",
      "latitude" : "24.04377",
      "inDis" : "50",
      "routeId" : "100副",
      "seqNo" : "88"
   },
   {
      "GoBack" : "1",
      "longitude" : "120.68727",
      "outDis" : "50",
      "Id" : "5529",
      "oid" : "303699003",
      "districtId" : "1",
      "nameZh" : "亞洲大學安藤館",
      "pgp" : "0",
      "terminal" : "0",
      "latitude" : "24.04725",
      "inDis" : "50",
      "routeId" : "100副",
      "seqNo" : "89"
   },
   {
      "GoBack" : "2",
      "longitude" : "120.68727",
      "outDis" : "50",
      "Id" : "5529",
      "oid" : "303699003",
      "districtId" : "1",
      "nameZh" : "亞洲大學安藤館",
      "pgp" : "0",
      "terminal" : "0",
      "latitude" : "24.04725",
      "inDis" : "50",
      "routeId" : "100副",
      "seqNo" : "1"
   },
   {
      "GoBack" : "2",
      "longitude" : "120.6886",
      "outDis" : "50",
      "Id" : "4413",
      "oid" : "304270266",
      "districtId" : "1",
      "nameZh" : "王厝",
      "pgp" : "0",
      "terminal" : "0",
      "latitude" : "24.04377",
      "inDis" : "50",
      "routeId" : "100副",
      "seqNo" : "2"
   },
   {
      "GoBack" : "2",
      "longitude" : "120.68868",
      "outDis" : "50",
      "Id" : "4629",
      "oid" : "304270268",
      "districtId" : "1",
      "nameZh" : "光復國中小(柳豐路)",
      "pgp" : "0",
      "terminal" : "0",
      "latitude" : "24.04362",
      "inDis" : "50",
      "routeId" : "100副",
      "seqNo" : "3"
   },
   {
      "GoBack" : "2",
      "longitude" : "120.69236",
      "outDis" : "50",
      "Id" : "2048",
      "oid" : "7641",
      "districtId" : "1",
      "nameZh" : "光復新村",
      "pgp" : "0",
      "terminal" : "0",
      "latitude" : "24.04592",
      "inDis" : "50",
      "routeId" : "100副",
      "seqNo" : "4"
   },
   {
      "GoBack" : "2",
      "longitude" : "120.69403",
      "outDis" : "50",
      "Id" : "1026",
      "oid" : "7190",
      "districtId" : "1",
      "nameZh" : "八德橋",
      "pgp" : "0",
      "terminal" : "0",
      "latitude" : "24.0495",
      "inDis" : "50",
      "routeId" : "100副",
      "seqNo" : "5"
   },
   {
      "GoBack" : "2",
      "longitude" : "120.69721",
      "outDis" : "50",
      "Id" : "2692",
      "oid" : "7176",
      "districtId" : "1",
      "nameZh" : "省議會",
      "pgp" : "0",
      "terminal" : "0",
      "latitude" : "24.05548",
      "inDis" : "50",
      "routeId" : "100副",
      "seqNo" : "6"
   },
   {
      "GoBack" : "2",
      "longitude" : "120.69793",
      "outDis" : "50",
      "Id" : "3976",
      "oid" : "7630",
      "districtId" : "1",
      "nameZh" : "霧峰國小",
      "pgp" : "0",
      "terminal" : "0",
      "latitude" : "24.05764",
      "inDis" : "50",
      "routeId" : "100副",
      "seqNo" : "7"
   },
   {
      "GoBack" : "2",
      "longitude" : "120.69807",
      "outDis" : "50",
      "Id" : "5546",
      "oid" : "316462698",
      "districtId" : "1",
      "nameZh" : "教育部國教署",
      "pgp" : "0",
      "terminal" : "0",
      "latitude" : "24.05974",
      "inDis" : "50",
      "routeId" : "100副",
      "seqNo" : "8"
   },
   {
      "GoBack" : "2",
      "longitude" : "120.69847",
      "outDis" : "50",
      "Id" : "3978",
      "oid" : "10370",
      "districtId" : "1",
      "nameZh" : "霧峰郵局",
      "pgp" : "0",
      "terminal" : "0",
      "latitude" : "24.06252",
      "inDis" : "50",
      "routeId" : "100副",
      "seqNo" : "9"
   },
   {
      "GoBack" : "2",
      "longitude" : "120.69867",
      "outDis" : "50",
      "Id" : "3972",
      "oid" : "7626",
      "districtId" : "1",
      "nameZh" : "霧峰",
      "pgp" : "0",
      "terminal" : "0",
      "latitude" : "24.0641",
      "inDis" : "50",
      "routeId" : "100副",
      "seqNo" : "10"
   },
   {
      "GoBack" : "2",
      "longitude" : "120.6989",
      "outDis" : "50",
      "Id" : "4972",
      "oid" : "7027",
      "districtId" : "1",
      "nameZh" : "中正草湖路口",
      "pgp" : "0",
      "terminal" : "0",
      "latitude" : "24.067",
      "inDis" : "50",
      "routeId" : "100副",
      "seqNo" : "11"
   },
   {
      "GoBack" : "2",
      "longitude" : "120.69939",
      "outDis" : "50",
      "Id" : "1994",
      "oid" : "7048",
      "districtId" : "1",
      "nameZh" : "甲寅",
      "pgp" : "0",
      "terminal" : "0",
      "latitude" : "24.07032",
      "inDis" : "50",
      "routeId" : "100副",
      "seqNo" : "12"
   },
   {
      "GoBack" : "2",
      "longitude" : "120.69986",
      "outDis" : "50",
      "Id" : "3980",
      "oid" : "7632",
      "districtId" : "1",
      "nameZh" : "霧峰農工",
      "pgp" : "0",
      "terminal" : "0",
      "latitude" : "24.07332",
      "inDis" : "50",
      "routeId" : "100副",
      "seqNo" : "13"
   },
   {
      "GoBack" : "2",
      "longitude" : "120.69952",
      "outDis" : "50",
      "Id" : "2062",
      "oid" : "7066",
      "districtId" : "1",
      "nameZh" : "中正吉峰路口",
      "pgp" : "0",
      "terminal" : "0",
      "latitude" : "24.07654",
      "inDis" : "50",
      "routeId" : "100副",
      "seqNo" : "14"
   },
   {
      "GoBack" : "2",
      "longitude" : "120.69827",
      "outDis" : "50",
      "Id" : "4349",
      "oid" : "7386",
      "districtId" : "1",
      "nameZh" : "中興東南路口",
      "pgp" : "0",
      "terminal" : "0",
      "latitude" : "24.08061",
      "inDis" : "50",
      "routeId" : "100副",
      "seqNo" : "15"
   },
   {
      "GoBack" : "2",
      "longitude" : "120.69707",
      "outDis" : "50",
      "Id" : "2866",
      "oid" : "7383",
      "districtId" : "1",
      "nameZh" : "草湖",
      "pgp" : "0",
      "terminal" : "0",
      "latitude" : "24.08409",
      "inDis" : "50",
      "routeId" : "100副",
      "seqNo" : "16"
   },
   {
      "GoBack" : "2",
      "longitude" : "120.69635",
      "outDis" : "50",
      "Id" : "5034",
      "oid" : "309557183",
      "districtId" : "1",
      "nameZh" : "財政部印刷廠",
      "pgp" : "0",
      "terminal" : "0",
      "latitude" : "24.08663",
      "inDis" : "50",
      "routeId" : "100副",
      "seqNo" : "17"
   },
   {
      "GoBack" : "2",
      "longitude" : "120.6954",
      "outDis" : "50",
      "Id" : "4253",
      "oid" : "7169",
      "districtId" : "1",
      "nameZh" : "大里圖書館(中興路)",
      "pgp" : "0",
      "terminal" : "0",
      "latitude" : "24.08862",
      "inDis" : "50",
      "routeId" : "100副",
      "seqNo" : "18"
   },
   {
      "GoBack" : "2",
      "longitude" : "120.69371",
      "outDis" : "50",
      "Id" : "4286",
      "oid" : "7143",
      "districtId" : "1",
      "nameZh" : "青年高中",
      "pgp" : "0",
      "terminal" : "0",
      "latitude" : "24.08994",
      "inDis" : "50",
      "routeId" : "100副",
      "seqNo" : "19"
   },
   {
      "GoBack" : "2",
      "longitude" : "120.69146",
      "outDis" : "50",
      "Id" : "4661",
      "oid" : "7291",
      "districtId" : "1",
      "nameZh" : "中興仁化路口",
      "pgp" : "0",
      "terminal" : "0",
      "latitude" : "24.09192",
      "inDis" : "50",
      "routeId" : "100副",
      "seqNo" : "20"
   },
   {
      "GoBack" : "2",
      "longitude" : "120.68694",
      "outDis" : "50",
      "Id" : "1322",
      "oid" : "309974047",
      "districtId" : "1",
      "nameZh" : "大突寮(中興路)",
      "pgp" : "0",
      "terminal" : "0",
      "latitude" : "24.09735",
      "inDis" : "50",
      "routeId" : "100副",
      "seqNo" : "21"
   },
   {
      "GoBack" : "2",
      "longitude" : "120.6879",
      "outDis" : "50",
      "Id" : "5151",
      "oid" : "12581",
      "districtId" : "1",
      "nameZh" : "兒童藝術館(中興路)",
      "pgp" : "0",
      "terminal" : "0",
      "latitude" : "24.10002",
      "inDis" : "50",
      "routeId" : "100副",
      "seqNo" : "22"
   },
   {
      "GoBack" : "2",
      "longitude" : "120.68864",
      "outDis" : "50",
      "Id" : "1126",
      "oid" : "7202",
      "districtId" : "1",
      "nameZh" : "下內新",
      "pgp" : "0",
      "terminal" : "0",
      "latitude" : "24.10257",
      "inDis" : "50",
      "routeId" : "100副",
      "seqNo" : "23"
   },
   {
      "GoBack" : "2",
      "longitude" : "120.68941",
      "outDis" : "50",
      "Id" : "2026",
      "oid" : "7054",
      "districtId" : "1",
      "nameZh" : "立人高中",
      "pgp" : "0",
      "terminal" : "0",
      "latitude" : "24.10584",
      "inDis" : "50",
      "routeId" : "100副",
      "seqNo" : "24"
   },
   {
      "GoBack" : "2",
      "longitude" : "120.69003",
      "outDis" : "50",
      "Id" : "1363",
      "oid" : "7237",
      "districtId" : "1",
      "nameZh" : "中興大里路口",
      "pgp" : "0",
      "terminal" : "0",
      "latitude" : "24.10863",
      "inDis" : "50",
      "routeId" : "100副",
      "seqNo" : "25"
   },
   {
      "GoBack" : "2",
      "longitude" : "120.68993",
      "outDis" : "50",
      "Id" : "1576",
      "oid" : "7298",
      "districtId" : "1",
      "nameZh" : "內新市場",
      "pgp" : "0",
      "terminal" : "0",
      "latitude" : "24.11107",
      "inDis" : "50",
      "routeId" : "100副",
      "seqNo" : "26"
   },
   {
      "GoBack" : "2",
      "longitude" : "120.68986",
      "outDis" : "50",
      "Id" : "2691",
      "oid" : "7173",
      "districtId" : "1",
      "nameZh" : "省農會",
      "pgp" : "0",
      "terminal" : "0",
      "latitude" : "24.1125",
      "inDis" : "50",
      "routeId" : "100副",
      "seqNo" : "27"
   },
   {
      "GoBack" : "2",
      "longitude" : "120.68974",
      "outDis" : "50",
      "Id" : "5485",
      "oid" : "314655296",
      "districtId" : "1",
      "nameZh" : "中興內新街口",
      "pgp" : "0",
      "terminal" : "0",
      "latitude" : "24.11408",
      "inDis" : "50",
      "routeId" : "100副",
      "seqNo" : "28"
   },
   {
      "GoBack" : "2",
      "longitude" : "120.68958",
      "outDis" : "50",
      "Id" : "3280",
      "oid" : "7490",
      "districtId" : "1",
      "nameZh" : "菩提醫院",
      "pgp" : "0",
      "terminal" : "0",
      "latitude" : "24.11508",
      "inDis" : "50",
      "routeId" : "100副",
      "seqNo" : "29"
   },
   {
      "GoBack" : "2",
      "longitude" : "120.68957",
      "outDis" : "50",
      "Id" : "3281",
      "oid" : "7493",
      "districtId" : "1",
      "nameZh" : "菸葉廠",
      "pgp" : "0",
      "terminal" : "0",
      "latitude" : "24.11794",
      "inDis" : "50",
      "routeId" : "100副",
      "seqNo" : "30"
   },
   {
      "GoBack" : "2",
      "longitude" : "120.68664",
      "outDis" : "50",
      "Id" : "2591",
      "oid" : "7156",
      "districtId" : "1",
      "nameZh" : "南門橋頭",
      "pgp" : "0",
      "terminal" : "0",
      "latitude" : "24.1212",
      "inDis" : "50",
      "routeId" : "100副",
      "seqNo" : "31"
   },
   {
      "GoBack" : "2",
      "longitude" : "120.68412",
      "outDis" : "50",
      "Id" : "0254",
      "oid" : "7117",
      "districtId" : "1",
      "nameZh" : "明德高中",
      "pgp" : "0",
      "terminal" : "0",
      "latitude" : "24.12291",
      "inDis" : "50",
      "routeId" : "100副",
      "seqNo" : "32"
   },
   {
      "GoBack" : "2",
      "longitude" : "120.68404",
      "outDis" : "50",
      "Id" : "0255",
      "oid" : "7153",
      "districtId" : "1",
      "nameZh" : "南門仔",
      "pgp" : "0",
      "terminal" : "0",
      "latitude" : "24.12545",
      "inDis" : "50",
      "routeId" : "100副",
      "seqNo" : "33"
   },
   {
      "GoBack" : "2",
      "longitude" : "120.68465",
      "outDis" : "50",
      "Id" : "5607",
      "oid" : "313888519",
      "districtId" : "1",
      "nameZh" : "興大附農(臺中路)",
      "pgp" : "0",
      "terminal" : "0",
      "latitude" : "24.12803",
      "inDis" : "50",
      "routeId" : "100副",
      "seqNo" : "34"
   },
   {
      "GoBack" : "2",
      "longitude" : "120.68502",
      "outDis" : "50",
      "Id" : "0257",
      "oid" : "7005",
      "districtId" : "1",
      "nameZh" : "臺中國小",
      "pgp" : "0",
      "terminal" : "0",
      "latitude" : "24.13026",
      "inDis" : "50",
      "routeId" : "100副",
      "seqNo" : "35"
   },
   {
      "GoBack" : "2",
      "longitude" : "120.68392",
      "outDis" : "50",
      "Id" : "0049",
      "oid" : "7448",
      "districtId" : "1",
      "nameZh" : "第三市場(臺中家商)",
      "pgp" : "0",
      "terminal" : "0",
      "latitude" : "24.13256",
      "inDis" : "50",
      "routeId" : "100副",
      "seqNo" : "36"
   },
   {
      "GoBack" : "2",
      "longitude" : "120.6846",
      "outDis" : "100",
      "Id" : "1824",
      "oid" : "7360",
      "districtId" : "1",
      "nameZh" : "臺中火車站",
      "pgp" : "0",
      "terminal" : "0",
      "latitude" : "24.13796",
      "inDis" : "100",
      "routeId" : "100副",
      "seqNo" : "37"
   },
   {
      "GoBack" : "2",
      "longitude" : "120.68358",
      "outDis" : "50",
      "Id" : "0151",
      "oid" : "7436",
      "districtId" : "1",
      "nameZh" : "第一廣場",
      "pgp" : "0",
      "terminal" : "0",
      "latitude" : "24.13897",
      "inDis" : "50",
      "routeId" : "100副",
      "seqNo" : "38"
   },
   {
      "GoBack" : "2",
      "longitude" : "120.68252",
      "outDis" : "20",
      "Id" : "4401",
      "oid" : "308396146",
      "districtId" : "1",
      "nameZh" : "彰化銀行(臺灣大道)",
      "pgp" : "0",
      "terminal" : "0",
      "latitude" : "24.13989",
      "inDis" : "50",
      "routeId" : "100副",
      "seqNo" : "39"
   },
   {
      "GoBack" : "2",
      "longitude" : "120.68202",
      "outDis" : "50",
      "Id" : "0206",
      "oid" : "308387235",
      "districtId" : "1",
      "nameZh" : "第一信用",
      "pgp" : "0",
      "terminal" : "0",
      "latitude" : "24.14036",
      "inDis" : "50",
      "routeId" : "100副",
      "seqNo" : "40"
   },
   {
      "GoBack" : "2",
      "longitude" : "120.68003",
      "outDis" : "50",
      "Id" : "4395",
      "oid" : "7440",
      "districtId" : "1",
      "nameZh" : "第二市場(臺灣大道)",
      "pgp" : "0",
      "terminal" : "0",
      "latitude" : "24.14213",
      "inDis" : "50",
      "routeId" : "100副",
      "seqNo" : "41"
   },
   {
      "GoBack" : "2",
      "longitude" : "120.6812",
      "outDis" : "50",
      "Id" : "5506",
      "oid" : "308396147",
      "districtId" : "1",
      "nameZh" : "光復國小(三民路)",
      "pgp" : "0",
      "terminal" : "0",
      "latitude" : "24.14434",
      "inDis" : "50",
      "routeId" : "100副",
      "seqNo" : "42"
   },
   {
      "GoBack" : "2",
      "longitude" : "120.68243",
      "outDis" : "50",
      "Id" : "4543",
      "oid" : "7315",
      "districtId" : "1",
      "nameZh" : "臺中公園(三民路)",
      "pgp" : "0",
      "terminal" : "0",
      "latitude" : "24.14584",
      "inDis" : "50",
      "routeId" : "100副",
      "seqNo" : "43"
   },
   {
      "GoBack" : "2",
      "longitude" : "120.68409",
      "outDis" : "50",
      "Id" : "0045",
      "oid" : "7355",
      "districtId" : "1",
      "nameZh" : "國立臺中科技大學",
      "pgp" : "0",
      "terminal" : "0",
      "latitude" : "24.14973",
      "inDis" : "50",
      "routeId" : "100副",
      "seqNo" : "44"
   },
   {
      "GoBack" : "2",
      "longitude" : "120.68502",
      "outDis" : "50",
      "Id" : "0046",
      "oid" : "7252",
      "districtId" : "1",
      "nameZh" : "中友百貨",
      "pgp" : "0",
      "terminal" : "0",
      "latitude" : "24.15198",
      "inDis" : "50",
      "routeId" : "100副",
      "seqNo" : "45"
   },
   {
      "GoBack" : "2",
      "longitude" : "120.68578",
      "outDis" : "50",
      "Id" : "0047",
      "oid" : "7185",
      "districtId" : "1",
      "nameZh" : "一心市場",
      "pgp" : "0",
      "terminal" : "0",
      "latitude" : "24.1541",
      "inDis" : "50",
      "routeId" : "100副",
      "seqNo" : "46"
   },
   {
      "GoBack" : "2",
      "longitude" : "120.6871",
      "outDis" : "50",
      "Id" : "0934",
      "oid" : "A369F80BD1F74F92A75B79E3B1367FC9",
      "districtId" : "1",
      "nameZh" : "三民錦中街口",
      "pgp" : "0",
      "terminal" : "0",
      "latitude" : "24.15556",
      "inDis" : "50",
      "routeId" : "100副",
      "seqNo" : "47"
   },
   {
      "GoBack" : "2",
      "longitude" : "120.68858",
      "outDis" : "50",
      "Id" : "4399",
      "oid" : "7510",
      "districtId" : "1",
      "nameZh" : "新民高中(三民路)",
      "pgp" : "0",
      "terminal" : "0",
      "latitude" : "24.15685",
      "inDis" : "50",
      "routeId" : "100副",
      "seqNo" : "48"
   },
   {
      "GoBack" : "2",
      "longitude" : "120.6899",
      "outDis" : "50",
      "Id" : "0960",
      "oid" : "7634",
      "districtId" : "1",
      "nameZh" : "寶覺寺",
      "pgp" : "0",
      "terminal" : "0",
      "latitude" : "24.15792",
      "inDis" : "50",
      "routeId" : "100副",
      "seqNo" : "49"
   },
   {
      "GoBack" : "2",
      "longitude" : "120.69207",
      "outDis" : "50",
      "Id" : "0892",
      "oid" : "7557",
      "districtId" : "1",
      "nameZh" : "監理站",
      "pgp" : "0",
      "terminal" : "0",
      "latitude" : "24.16101",
      "inDis" : "50",
      "routeId" : "100副",
      "seqNo" : "50"
   },
   {
      "GoBack" : "2",
      "longitude" : "120.69328",
      "outDis" : "75",
      "Id" : "5405",
      "oid" : "11112",
      "districtId" : "1",
      "nameZh" : "北屯國小(北屯路)",
      "pgp" : "0",
      "terminal" : "0",
      "latitude" : "24.16313",
      "inDis" : "75",
      "routeId" : "100副",
      "seqNo" : "51"
   },
   {
      "GoBack" : "2",
      "longitude" : "120.69464",
      "outDis" : "50",
      "Id" : "0492",
      "oid" : "7337",
      "districtId" : "1",
      "nameZh" : "北屯",
      "pgp" : "0",
      "terminal" : "0",
      "latitude" : "24.16565",
      "inDis" : "50",
      "routeId" : "100副",
      "seqNo" : "52"
   },
   {
      "GoBack" : "2",
      "longitude" : "120.69598",
      "outDis" : "50",
      "Id" : "5511",
      "oid" : "12498",
      "districtId" : "1",
      "nameZh" : "三光國中",
      "pgp" : "0",
      "terminal" : "0",
      "latitude" : "24.16777",
      "inDis" : "50",
      "routeId" : "100副",
      "seqNo" : "53"
   },
   {
      "GoBack" : "2",
      "longitude" : "120.69743",
      "outDis" : "50",
      "Id" : "0103",
      "oid" : "7216",
      "districtId" : "1",
      "nameZh" : "大坑口",
      "pgp" : "0",
      "terminal" : "0",
      "latitude" : "24.16999",
      "inDis" : "50",
      "routeId" : "100副",
      "seqNo" : "54"
   },
   {
      "GoBack" : "2",
      "longitude" : "120.69858",
      "outDis" : "50",
      "Id" : "0364",
      "oid" : "7229",
      "districtId" : "1",
      "nameZh" : "特力屋北屯店",
      "pgp" : "0",
      "terminal" : "0",
      "latitude" : "24.17433",
      "inDis" : "50",
      "routeId" : "100副",
      "seqNo" : "55"
   },
   {
      "GoBack" : "2",
      "longitude" : "120.69918",
      "outDis" : "50",
      "Id" : "0200",
      "oid" : "7031",
      "districtId" : "1",
      "nameZh" : "北屯崇德二路口",
      "pgp" : "0",
      "terminal" : "0",
      "latitude" : "24.17566",
      "inDis" : "50",
      "routeId" : "100副",
      "seqNo" : "56"
   },
   {
      "GoBack" : "2",
      "longitude" : "120.70039",
      "outDis" : "50",
      "Id" : "0105",
      "oid" : "7345",
      "districtId" : "1",
      "nameZh" : "北新國中",
      "pgp" : "0",
      "terminal" : "0",
      "latitude" : "24.17863",
      "inDis" : "50",
      "routeId" : "100副",
      "seqNo" : "57"
   },
   {
      "GoBack" : "2",
      "longitude" : "120.70198",
      "outDis" : "50",
      "Id" : "4582",
      "oid" : "7611",
      "districtId" : "1",
      "nameZh" : "舊社公園(北屯路)",
      "pgp" : "0",
      "terminal" : "0",
      "latitude" : "24.1829",
      "inDis" : "50",
      "routeId" : "100副",
      "seqNo" : "58"
   },
   {
      "GoBack" : "2",
      "longitude" : "120.70247",
      "outDis" : "50",
      "Id" : "4673",
      "oid" : "7025",
      "districtId" : "1",
      "nameZh" : "中山路一巷口",
      "pgp" : "0",
      "terminal" : "0",
      "latitude" : "24.18706",
      "inDis" : "50",
      "routeId" : "100副",
      "seqNo" : "59"
   },
   {
      "GoBack" : "2",
      "longitude" : "120.70246",
      "outDis" : "50",
      "Id" : "4659",
      "oid" : "7008",
      "districtId" : "1",
      "nameZh" : "中山中興路口",
      "pgp" : "0",
      "terminal" : "0",
      "latitude" : "24.1915",
      "inDis" : "50",
      "routeId" : "100副",
      "seqNo" : "60"
   },
   {
      "GoBack" : "2",
      "longitude" : "120.70247",
      "outDis" : "50",
      "Id" : "3836",
      "oid" : "7595",
      "districtId" : "1",
      "nameZh" : "頭家厝",
      "pgp" : "0",
      "terminal" : "0",
      "latitude" : "24.1955",
      "inDis" : "50",
      "routeId" : "100副",
      "seqNo" : "61"
   },
   {
      "GoBack" : "2",
      "longitude" : "120.70322",
      "outDis" : "50",
      "Id" : "1972",
      "oid" : "310872631",
      "districtId" : "1",
      "nameZh" : "瓦窯",
      "pgp" : "0",
      "terminal" : "0",
      "latitude" : "24.19994",
      "inDis" : "50",
      "routeId" : "100副",
      "seqNo" : "62"
   },
   {
      "GoBack" : "2",
      "longitude" : "120.70407",
      "outDis" : "50",
      "Id" : "3567",
      "oid" : "7544",
      "districtId" : "1",
      "nameZh" : "僑忠國小",
      "pgp" : "0",
      "terminal" : "0",
      "latitude" : "24.20323",
      "inDis" : "50",
      "routeId" : "100副",
      "seqNo" : "63"
   },
   {
      "GoBack" : "2",
      "longitude" : "120.70458",
      "outDis" : "50",
      "Id" : "4658",
      "oid" : "7280",
      "districtId" : "1",
      "nameZh" : "中山合作街口",
      "pgp" : "0",
      "terminal" : "0",
      "latitude" : "24.20519",
      "inDis" : "50",
      "routeId" : "100副",
      "seqNo" : "64"
   },
   {
      "GoBack" : "2",
      "longitude" : "120.70526",
      "outDis" : "50",
      "Id" : "4370",
      "oid" : "303235813",
      "districtId" : "1",
      "nameZh" : "中山圓通南路口",
      "pgp" : "0",
      "terminal" : "0",
      "latitude" : "24.20789",
      "inDis" : "50",
      "routeId" : "100副",
      "seqNo" : "65"
   },
   {
      "GoBack" : "2",
      "longitude" : "120.70532",
      "outDis" : "50",
      "Id" : "3742",
      "oid" : "7396",
      "districtId" : "1",
      "nameZh" : "潭子區公所",
      "pgp" : "0",
      "terminal" : "0",
      "latitude" : "24.21079",
      "inDis" : "50",
      "routeId" : "100副",
      "seqNo" : "66"
   },
   {
      "GoBack" : "2",
      "longitude" : "120.70542",
      "outDis" : "50",
      "Id" : "4240",
      "oid" : "13329",
      "districtId" : "1",
      "nameZh" : "潭子火車站",
      "pgp" : "0",
      "terminal" : "0",
      "latitude" : "24.2126",
      "inDis" : "50",
      "routeId" : "100副",
      "seqNo" : "67"
   },
   {
      "GoBack" : "2",
      "longitude" : "120.70516",
      "outDis" : "50",
      "Id" : "3740",
      "oid" : "7578",
      "districtId" : "1",
      "nameZh" : "潭子",
      "pgp" : "0",
      "terminal" : "0",
      "latitude" : "24.2143",
      "inDis" : "50",
      "routeId" : "100副",
      "seqNo" : "68"
   },
   {
      "GoBack" : "2",
      "longitude" : "120.70569",
      "outDis" : "50",
      "Id" : "3741",
      "oid" : "7579",
      "districtId" : "1",
      "nameZh" : "潭子加工區",
      "pgp" : "0",
      "terminal" : "0",
      "latitude" : "24.21753",
      "inDis" : "50",
      "routeId" : "100副",
      "seqNo" : "69"
   },
   {
      "GoBack" : "2",
      "longitude" : "120.70642",
      "outDis" : "50",
      "Id" : "3743",
      "oid" : "13332",
      "districtId" : "1",
      "nameZh" : "潭秀里",
      "pgp" : "0",
      "terminal" : "0",
      "latitude" : "24.22131",
      "inDis" : "50",
      "routeId" : "100副",
      "seqNo" : "70"
   },
   {
      "GoBack" : "2",
      "longitude" : "120.70731",
      "outDis" : "50",
      "Id" : "4361",
      "oid" : "13311",
      "districtId" : "1",
      "nameZh" : "矽品精密",
      "pgp" : "0",
      "terminal" : "0",
      "latitude" : "24.22424",
      "inDis" : "50",
      "routeId" : "100副",
      "seqNo" : "71"
   },
   {
      "GoBack" : "2",
      "longitude" : "120.7077",
      "outDis" : "50",
      "Id" : "1909",
      "oid" : "13300",
      "districtId" : "1",
      "nameZh" : "弘文中學",
      "pgp" : "0",
      "terminal" : "0",
      "latitude" : "24.22655",
      "inDis" : "50",
      "routeId" : "100副",
      "seqNo" : "72"
   },
   {
      "GoBack" : "2",
      "longitude" : "120.70814",
      "outDis" : "50",
      "Id" : "0539",
      "oid" : "319729706",
      "districtId" : "1",
      "nameZh" : "中山祥和路口",
      "pgp" : "0",
      "terminal" : "0",
      "latitude" : "24.22825",
      "inDis" : "50",
      "routeId" : "100副",
      "seqNo" : "73"
   },
   {
      "GoBack" : "2",
      "longitude" : "120.7087",
      "outDis" : "50",
      "Id" : "2785",
      "oid" : "13313",
      "districtId" : "1",
      "nameZh" : "校栗林",
      "pgp" : "0",
      "terminal" : "0",
      "latitude" : "24.23151",
      "inDis" : "50",
      "routeId" : "100副",
      "seqNo" : "74"
   },
   {
      "GoBack" : "2",
      "longitude" : "120.70964",
      "outDis" : "50",
      "Id" : "1965",
      "oid" : "13302",
      "districtId" : "1",
      "nameZh" : "永豐螺絲",
      "pgp" : "0",
      "terminal" : "0",
      "latitude" : "24.2351",
      "inDis" : "50",
      "routeId" : "100副",
      "seqNo" : "75"
   },
   {
      "GoBack" : "2",
      "longitude" : "120.7103",
      "outDis" : "50",
      "Id" : "3282",
      "oid" : "13318",
      "districtId" : "1",
      "nameZh" : "菸廠",
      "pgp" : "0",
      "terminal" : "0",
      "latitude" : "24.23688",
      "inDis" : "50",
      "routeId" : "100副",
      "seqNo" : "76"
   },
   {
      "GoBack" : "2",
      "longitude" : "120.71085",
      "outDis" : "50",
      "Id" : "1661",
      "oid" : "13264",
      "districtId" : "1",
      "nameZh" : "文化新村",
      "pgp" : "0",
      "terminal" : "0",
      "latitude" : "24.23837",
      "inDis" : "50",
      "routeId" : "100副",
      "seqNo" : "77"
   },
   {
      "GoBack" : "2",
      "longitude" : "120.7127",
      "outDis" : "50",
      "Id" : "3817",
      "oid" : "13335",
      "districtId" : "1",
      "nameZh" : "輸配電",
      "pgp" : "0",
      "terminal" : "0",
      "latitude" : "24.24153",
      "inDis" : "50",
      "routeId" : "100副",
      "seqNo" : "78"
   },
   {
      "GoBack" : "2",
      "longitude" : "120.71377",
      "outDis" : "50",
      "Id" : "3993",
      "oid" : "13345",
      "districtId" : "1",
      "nameZh" : "警察局",
      "pgp" : "0",
      "terminal" : "0",
      "latitude" : "24.24355",
      "inDis" : "50",
      "routeId" : "100副",
      "seqNo" : "79"
   },
   {
      "GoBack" : "2",
      "longitude" : "120.71752",
      "outDis" : "50",
      "Id" : "4483",
      "oid" : "309850684",
      "districtId" : "1",
      "nameZh" : "圓環東自強南街口",
      "pgp" : "0",
      "terminal" : "0",
      "latitude" : "24.24385",
      "inDis" : "50",
      "routeId" : "100副",
      "seqNo" : "80"
   },
   {
      "GoBack" : "2",
      "longitude" : "120.71926",
      "outDis" : "50",
      "Id" : "4479",
      "oid" : "13851",
      "districtId" : "1",
      "nameZh" : "圓環東田心路口",
      "pgp" : "0",
      "terminal" : "0",
      "latitude" : "24.24335",
      "inDis" : "50",
      "routeId" : "100副",
      "seqNo" : "81"
   },
   {
      "GoBack" : "2",
      "longitude" : "120.72169",
      "outDis" : "50",
      "Id" : "5040",
      "oid" : "309850683",
      "districtId" : "1",
      "nameZh" : "圓環東保康路口",
      "pgp" : "0",
      "terminal" : "0",
      "latitude" : "24.24361",
      "inDis" : "50",
      "routeId" : "100副",
      "seqNo" : "82"
   },
   {
      "GoBack" : "2",
      "longitude" : "120.7238",
      "outDis" : "50",
      "Id" : "0097",
      "oid" : "310061719",
      "districtId" : "1",
      "nameZh" : "圓環東安康路口(陽明市政大樓)",
      "pgp" : "0",
      "terminal" : "0",
      "latitude" : "24.24482",
      "inDis" : "50",
      "routeId" : "100副",
      "seqNo" : "83"
   },
   {
      "GoBack" : "2",
      "longitude" : "120.72562",
      "outDis" : "50",
      "Id" : "4484",
      "oid" : "13856",
      "districtId" : "1",
      "nameZh" : "圓環東南陽路口",
      "pgp" : "0",
      "terminal" : "0",
      "latitude" : "24.246",
      "inDis" : "50",
      "routeId" : "100副",
      "seqNo" : "84"
   },
   {
      "GoBack" : "2",
      "longitude" : "120.72757",
      "outDis" : "50",
      "Id" : "5281",
      "oid" : "310953107",
      "districtId" : "1",
      "nameZh" : "南陽新村",
      "pgp" : "0",
      "terminal" : "0",
      "latitude" : "24.24513",
      "inDis" : "50",
      "routeId" : "100副",
      "seqNo" : "85"
   },
   {
      "GoBack" : "2",
      "longitude" : "120.72918",
      "outDis" : "50",
      "Id" : "1611",
      "oid" : "5418",
      "districtId" : "1",
      "nameZh" : "廣福宮",
      "pgp" : "0",
      "terminal" : "0",
      "latitude" : "24.24407",
      "inDis" : "50",
      "routeId" : "100副",
      "seqNo" : "86"
   },
   {
      "GoBack" : "2",
      "longitude" : "120.73265",
      "outDis" : "50",
      "Id" : "5283",
      "oid" : "310953109",
      "districtId" : "1",
      "nameZh" : "豐原大道中陽路口",
      "pgp" : "0",
      "terminal" : "0",
      "latitude" : "24.24662",
      "inDis" : "50",
      "routeId" : "100副",
      "seqNo" : "87"
   },
   {
      "GoBack" : "2",
      "longitude" : "120.737",
      "outDis" : "50",
      "Id" : "5282",
      "oid" : "310953108",
      "districtId" : "1",
      "nameZh" : "豐原大道中陽503巷口",
      "pgp" : "0",
      "terminal" : "0",
      "latitude" : "24.24835",
      "inDis" : "50",
      "routeId" : "100副",
      "seqNo" : "88"
   },
   {
      "GoBack" : "2",
      "longitude" : "120.73536",
      "outDis" : "50",
      "Id" : "5279",
      "oid" : "310953104",
      "districtId" : "1",
      "nameZh" : "豐原(北陽停車場)",
      "pgp" : "0",
      "terminal" : "0",
      "latitude" : "24.25111",
      "inDis" : "50",
      "routeId" : "100副",
      "seqNo" : "89"
   }
]
