[
   {
      "GoBack" : "1",
      "longitude" : "120.67799",
      "outDis" : "50",
      "Id" : "0071",
      "oid" : "92CABD19F89445B48A30B415D975CDF7",
      "districtId" : "1",
      "nameZh" : "臺中女中",
      "pgp" : "0",
      "terminal" : "0",
      "latitude" : "24.13594",
      "inDis" : "50",
      "routeId" : "75區1",
      "seqNo" : "1"
   },
   {
      "GoBack" : "1",
      "longitude" : "120.6811",
      "outDis" : "50",
      "Id" : "4284",
      "oid" : "753223F679A2463AA37A1E3F09667AD5",
      "districtId" : "1",
      "nameZh" : "民權繼光街口",
      "pgp" : "0",
      "terminal" : "0",
      "latitude" : "24.13702",
      "inDis" : "50",
      "routeId" : "75區1",
      "seqNo" : "2"
   },
   {
      "GoBack" : "1",
      "longitude" : "120.6846",
      "outDis" : "50",
      "Id" : "1824",
      "oid" : "352F71F4F6F9446688F03EED41D42F66",
      "districtId" : "1",
      "nameZh" : "臺中火車站",
      "pgp" : "0",
      "terminal" : "0",
      "latitude" : "24.13734",
      "inDis" : "50",
      "routeId" : "75區1",
      "seqNo" : "3"
   },
   {
      "GoBack" : "1",
      "longitude" : "120.68603",
      "outDis" : "50",
      "Id" : "0402",
      "oid" : "45EA8F87C30E4F00B87292C539BD58EE",
      "districtId" : "1",
      "nameZh" : "干城站",
      "pgp" : "0",
      "terminal" : "0",
      "latitude" : "24.14096",
      "inDis" : "50",
      "routeId" : "75區1",
      "seqNo" : "4"
   },
   {
      "GoBack" : "1",
      "longitude" : "120.68759",
      "outDis" : "50",
      "Id" : "5318",
      "oid" : "A1B75E6B58034DD092CF2F3BFF2785FE",
      "districtId" : "1",
      "nameZh" : "立體停車場(自由路)",
      "pgp" : "0",
      "terminal" : "0",
      "latitude" : "24.14304",
      "inDis" : "50",
      "routeId" : "75區1",
      "seqNo" : "5"
   },
   {
      "GoBack" : "1",
      "longitude" : "120.69065",
      "outDis" : "50",
      "Id" : "2030",
      "oid" : "4D6EAB1C5E774951B5CA349A8B84E625",
      "districtId" : "1",
      "nameZh" : "自由富台東街口",
      "pgp" : "0",
      "terminal" : "0",
      "latitude" : "24.14281",
      "inDis" : "50",
      "routeId" : "75區1",
      "seqNo" : "6"
   },
   {
      "GoBack" : "1",
      "longitude" : "120.69194",
      "outDis" : "50",
      "Id" : "0073",
      "oid" : "F2E108DD972043F19032732E898F5243",
      "districtId" : "1",
      "nameZh" : "明功堂醫院",
      "pgp" : "0",
      "terminal" : "0",
      "latitude" : "24.14277",
      "inDis" : "50",
      "routeId" : "75區1",
      "seqNo" : "7"
   },
   {
      "GoBack" : "1",
      "longitude" : "120.69694",
      "outDis" : "50",
      "Id" : "4563",
      "oid" : "42B3301D5A1D4AE0A2BC2F5AB6158A9B",
      "districtId" : "1",
      "nameZh" : "樂業建成路口",
      "pgp" : "0",
      "terminal" : "0",
      "latitude" : "24.13883",
      "inDis" : "50",
      "routeId" : "75區1",
      "seqNo" : "8"
   },
   {
      "GoBack" : "1",
      "longitude" : "120.69971",
      "outDis" : "50",
      "Id" : "0075",
      "oid" : "5DB8427611E74634A9E58D7DB71E1C4B",
      "districtId" : "1",
      "nameZh" : "育英國中",
      "pgp" : "0",
      "terminal" : "0",
      "latitude" : "24.13893",
      "inDis" : "50",
      "routeId" : "75區1",
      "seqNo" : "9"
   },
   {
      "GoBack" : "1",
      "longitude" : "120.70369",
      "outDis" : "50",
      "Id" : "0083",
      "oid" : "3836",
      "districtId" : "1",
      "nameZh" : "樂成公園",
      "pgp" : "0",
      "terminal" : "0",
      "latitude" : "24.13869",
      "inDis" : "50",
      "routeId" : "75區1",
      "seqNo" : "10"
   },
   {
      "GoBack" : "1",
      "longitude" : "120.70514",
      "outDis" : "50",
      "Id" : "4212",
      "oid" : "248603753",
      "districtId" : "1",
      "nameZh" : "東英樂業路口",
      "pgp" : "0",
      "terminal" : "0",
      "latitude" : "24.13772",
      "inDis" : "50",
      "routeId" : "75區1",
      "seqNo" : "11"
   },
   {
      "GoBack" : "1",
      "longitude" : "120.70597",
      "outDis" : "50",
      "Id" : "4213",
      "oid" : "248603755",
      "districtId" : "1",
      "nameZh" : "東英旱溪街口",
      "pgp" : "0",
      "terminal" : "0",
      "latitude" : "24.13967",
      "inDis" : "50",
      "routeId" : "75區1",
      "seqNo" : "12"
   },
   {
      "GoBack" : "1",
      "longitude" : "120.70616",
      "outDis" : "50",
      "Id" : "4214",
      "oid" : "248603757",
      "districtId" : "1",
      "nameZh" : "東英自由路口",
      "pgp" : "0",
      "terminal" : "0",
      "latitude" : "24.14221",
      "inDis" : "50",
      "routeId" : "75區1",
      "seqNo" : "13"
   },
   {
      "GoBack" : "1",
      "longitude" : "120.70794",
      "outDis" : "50",
      "Id" : "4215",
      "oid" : "248603759",
      "districtId" : "1",
      "nameZh" : "十甲東路口",
      "pgp" : "0",
      "terminal" : "0",
      "latitude" : "24.14442",
      "inDis" : "50",
      "routeId" : "75區1",
      "seqNo" : "14"
   },
   {
      "GoBack" : "1",
      "longitude" : "120.7131",
      "outDis" : "50",
      "Id" : "1043",
      "oid" : "3841",
      "districtId" : "1",
      "nameZh" : "十甲宜昌路口",
      "pgp" : "0",
      "terminal" : "0",
      "latitude" : "24.14435",
      "inDis" : "50",
      "routeId" : "75區1",
      "seqNo" : "15"
   },
   {
      "GoBack" : "1",
      "longitude" : "120.71413",
      "outDis" : "50",
      "Id" : "3764",
      "oid" : "3842",
      "districtId" : "1",
      "nameZh" : "賢德醫院",
      "pgp" : "0",
      "terminal" : "0",
      "latitude" : "24.14546",
      "inDis" : "50",
      "routeId" : "75區1",
      "seqNo" : "16"
   },
   {
      "GoBack" : "1",
      "longitude" : "120.71595",
      "outDis" : "50",
      "Id" : "1422",
      "oid" : "3843",
      "districtId" : "1",
      "nameZh" : "宜昌中山路口",
      "pgp" : "0",
      "terminal" : "0",
      "latitude" : "24.14842",
      "inDis" : "50",
      "routeId" : "75區1",
      "seqNo" : "17"
   },
   {
      "GoBack" : "1",
      "longitude" : "120.71649",
      "outDis" : "50",
      "Id" : "3404",
      "oid" : "3844",
      "districtId" : "1",
      "nameZh" : "新城里福德祠",
      "pgp" : "0",
      "terminal" : "0",
      "latitude" : "24.1503",
      "inDis" : "50",
      "routeId" : "75區1",
      "seqNo" : "18"
   },
   {
      "GoBack" : "1",
      "longitude" : "120.71804",
      "outDis" : "50",
      "Id" : "3374",
      "oid" : "3845",
      "districtId" : "1",
      "nameZh" : "新平國小",
      "pgp" : "0",
      "terminal" : "0",
      "latitude" : "24.15308",
      "inDis" : "50",
      "routeId" : "75區1",
      "seqNo" : "19"
   },
   {
      "GoBack" : "1",
      "longitude" : "120.71989",
      "outDis" : "50",
      "Id" : "3791",
      "oid" : "3846",
      "districtId" : "1",
      "nameZh" : "樹孝育才路口",
      "pgp" : "0",
      "terminal" : "0",
      "latitude" : "24.15595",
      "inDis" : "50",
      "routeId" : "75區1",
      "seqNo" : "20"
   },
   {
      "GoBack" : "1",
      "longitude" : "120.72164",
      "outDis" : "50",
      "Id" : "2267",
      "oid" : "3847",
      "districtId" : "1",
      "nameZh" : "育才育德路口",
      "pgp" : "0",
      "terminal" : "0",
      "latitude" : "24.15586",
      "inDis" : "50",
      "routeId" : "75區1",
      "seqNo" : "21"
   },
   {
      "GoBack" : "1",
      "longitude" : "120.72406",
      "outDis" : "50",
      "Id" : "4315",
      "oid" : "3848",
      "districtId" : "1",
      "nameZh" : "樂安宮",
      "pgp" : "0",
      "terminal" : "0",
      "latitude" : "24.15548",
      "inDis" : "50",
      "routeId" : "75區1",
      "seqNo" : "22"
   },
   {
      "GoBack" : "1",
      "longitude" : "120.72669",
      "outDis" : "50",
      "Id" : "0290",
      "oid" : "318434400",
      "districtId" : "1",
      "nameZh" : "新坪里活動中心",
      "pgp" : "0",
      "terminal" : "0",
      "latitude" : "24.15612",
      "inDis" : "50",
      "routeId" : "75區1",
      "seqNo" : "23"
   },
   {
      "GoBack" : "1",
      "longitude" : "120.72464",
      "outDis" : "50",
      "Id" : "5601",
      "oid" : "FD7E3C75BC3345E0B693823DE22A72F1",
      "districtId" : "1",
      "nameZh" : "萬和社區",
      "pgp" : "0",
      "terminal" : "0",
      "latitude" : "24.15321",
      "inDis" : "50",
      "routeId" : "75區1",
      "seqNo" : "24"
   },
   {
      "GoBack" : "1",
      "longitude" : "120.72326",
      "outDis" : "50",
      "Id" : "2826",
      "oid" : "3850",
      "districtId" : "1",
      "nameZh" : "特二號中山路口",
      "pgp" : "0",
      "terminal" : "0",
      "latitude" : "24.14975",
      "inDis" : "50",
      "routeId" : "75區1",
      "seqNo" : "25"
   },
   {
      "GoBack" : "1",
      "longitude" : "120.72554",
      "outDis" : "50",
      "Id" : "0899",
      "oid" : "3851",
      "districtId" : "1",
      "nameZh" : "精武社區",
      "pgp" : "0",
      "terminal" : "0",
      "latitude" : "24.14959",
      "inDis" : "50",
      "routeId" : "75區1",
      "seqNo" : "26"
   },
   {
      "GoBack" : "1",
      "longitude" : "120.72856",
      "outDis" : "50",
      "Id" : "3560",
      "oid" : "3852",
      "districtId" : "1",
      "nameZh" : "預立二村",
      "pgp" : "0",
      "terminal" : "0",
      "latitude" : "24.15",
      "inDis" : "50",
      "routeId" : "75區1",
      "seqNo" : "27"
   },
   {
      "GoBack" : "1",
      "longitude" : "120.72996",
      "outDis" : "50",
      "Id" : "2934",
      "oid" : "3853",
      "districtId" : "1",
      "nameZh" : "國軍臺中總醫院",
      "pgp" : "0",
      "terminal" : "0",
      "latitude" : "24.15018",
      "inDis" : "50",
      "routeId" : "75區1",
      "seqNo" : "28"
   },
   {
      "GoBack" : "1",
      "longitude" : "120.73296",
      "outDis" : "50",
      "Id" : "0346",
      "oid" : "3854",
      "districtId" : "1",
      "nameZh" : "叉路口",
      "pgp" : "0",
      "terminal" : "0",
      "latitude" : "24.15037",
      "inDis" : "50",
      "routeId" : "75區1",
      "seqNo" : "29"
   },
   {
      "GoBack" : "1",
      "longitude" : "120.73435",
      "outDis" : "50",
      "Id" : "4350",
      "oid" : "13262",
      "districtId" : "1",
      "nameZh" : "太平國中",
      "pgp" : "0",
      "terminal" : "0",
      "latitude" : "24.1491",
      "inDis" : "50",
      "routeId" : "75區1",
      "seqNo" : "30"
   },
   {
      "GoBack" : "1",
      "longitude" : "120.73349",
      "outDis" : "50",
      "Id" : "0319",
      "oid" : "3856",
      "districtId" : "1",
      "nameZh" : "三中心",
      "pgp" : "0",
      "terminal" : "0",
      "latitude" : "24.14677",
      "inDis" : "50",
      "routeId" : "75區1",
      "seqNo" : "31"
   },
   {
      "GoBack" : "1",
      "longitude" : "120.73424",
      "outDis" : "50",
      "Id" : "0632",
      "oid" : "3857",
      "districtId" : "1",
      "nameZh" : "坪林",
      "pgp" : "0",
      "terminal" : "0",
      "latitude" : "24.14494",
      "inDis" : "50",
      "routeId" : "75區1",
      "seqNo" : "32"
   },
   {
      "GoBack" : "1",
      "longitude" : "120.7334",
      "outDis" : "50",
      "Id" : "4364",
      "oid" : "3858",
      "districtId" : "1",
      "nameZh" : "勤益科技大學",
      "pgp" : "0",
      "terminal" : "0",
      "latitude" : "24.14298",
      "inDis" : "50",
      "routeId" : "75區1",
      "seqNo" : "33"
   },
   {
      "GoBack" : "1",
      "longitude" : "120.73201",
      "outDis" : "50",
      "Id" : "0631",
      "oid" : "3859",
      "districtId" : "1",
      "nameZh" : "和平橋",
      "pgp" : "0",
      "terminal" : "0",
      "latitude" : "24.14098",
      "inDis" : "50",
      "routeId" : "75區1",
      "seqNo" : "34"
   },
   {
      "GoBack" : "1",
      "longitude" : "120.73197",
      "outDis" : "50",
      "Id" : "5547",
      "oid" : "316462700",
      "districtId" : "1",
      "nameZh" : "洪厝庄",
      "pgp" : "0",
      "terminal" : "0",
      "latitude" : "24.13912",
      "inDis" : "50",
      "routeId" : "75區1",
      "seqNo" : "35"
   },
   {
      "GoBack" : "1",
      "longitude" : "120.73247",
      "outDis" : "50",
      "Id" : "4229",
      "oid" : "13163",
      "districtId" : "1",
      "nameZh" : "亞姆拉公司",
      "pgp" : "0",
      "terminal" : "0",
      "latitude" : "24.13664",
      "inDis" : "50",
      "routeId" : "75區1",
      "seqNo" : "36"
   },
   {
      "GoBack" : "1",
      "longitude" : "120.73561",
      "outDis" : "50",
      "Id" : "0977",
      "oid" : "5730",
      "districtId" : "1",
      "nameZh" : "一江橋",
      "pgp" : "0",
      "terminal" : "0",
      "latitude" : "24.13352",
      "inDis" : "50",
      "routeId" : "75區1",
      "seqNo" : "37"
   },
   {
      "GoBack" : "2",
      "longitude" : "120.73561",
      "outDis" : "50",
      "Id" : "0977",
      "oid" : "5730",
      "districtId" : "1",
      "nameZh" : "一江橋",
      "pgp" : "0",
      "terminal" : "0",
      "latitude" : "24.13352",
      "inDis" : "50",
      "routeId" : "75區1",
      "seqNo" : "1"
   },
   {
      "GoBack" : "2",
      "longitude" : "120.7325",
      "outDis" : "50",
      "Id" : "4229",
      "oid" : "13164",
      "districtId" : "1",
      "nameZh" : "亞姆拉公司",
      "pgp" : "0",
      "terminal" : "0",
      "latitude" : "24.13701",
      "inDis" : "50",
      "routeId" : "75區1",
      "seqNo" : "2"
   },
   {
      "GoBack" : "2",
      "longitude" : "120.73204",
      "outDis" : "50",
      "Id" : "5547",
      "oid" : "316462701",
      "districtId" : "1",
      "nameZh" : "洪厝庄",
      "pgp" : "0",
      "terminal" : "0",
      "latitude" : "24.13917",
      "inDis" : "50",
      "routeId" : "75區1",
      "seqNo" : "3"
   },
   {
      "GoBack" : "2",
      "longitude" : "120.73204",
      "outDis" : "50",
      "Id" : "0631",
      "oid" : "3860",
      "districtId" : "1",
      "nameZh" : "和平橋",
      "pgp" : "0",
      "terminal" : "0",
      "latitude" : "24.14072",
      "inDis" : "50",
      "routeId" : "75區1",
      "seqNo" : "4"
   },
   {
      "GoBack" : "2",
      "longitude" : "120.73359",
      "outDis" : "50",
      "Id" : "4364",
      "oid" : "3861",
      "districtId" : "1",
      "nameZh" : "勤益科技大學",
      "pgp" : "0",
      "terminal" : "0",
      "latitude" : "24.14283",
      "inDis" : "50",
      "routeId" : "75區1",
      "seqNo" : "5"
   },
   {
      "GoBack" : "2",
      "longitude" : "120.73444",
      "outDis" : "50",
      "Id" : "0632",
      "oid" : "3862",
      "districtId" : "1",
      "nameZh" : "坪林",
      "pgp" : "0",
      "terminal" : "0",
      "latitude" : "24.14491",
      "inDis" : "50",
      "routeId" : "75區1",
      "seqNo" : "6"
   },
   {
      "GoBack" : "2",
      "longitude" : "120.73372",
      "outDis" : "50",
      "Id" : "0319",
      "oid" : "3863",
      "districtId" : "1",
      "nameZh" : "三中心",
      "pgp" : "0",
      "terminal" : "0",
      "latitude" : "24.14684",
      "inDis" : "50",
      "routeId" : "75區1",
      "seqNo" : "7"
   },
   {
      "GoBack" : "2",
      "longitude" : "120.73435",
      "outDis" : "50",
      "Id" : "4350",
      "oid" : "13262",
      "districtId" : "1",
      "nameZh" : "太平國中",
      "pgp" : "0",
      "terminal" : "0",
      "latitude" : "24.1491",
      "inDis" : "50",
      "routeId" : "75區1",
      "seqNo" : "8"
   },
   {
      "GoBack" : "2",
      "longitude" : "120.73288",
      "outDis" : "50",
      "Id" : "0346",
      "oid" : "3865",
      "districtId" : "1",
      "nameZh" : "叉路口",
      "pgp" : "0",
      "terminal" : "0",
      "latitude" : "24.15056",
      "inDis" : "50",
      "routeId" : "75區1",
      "seqNo" : "9"
   },
   {
      "GoBack" : "2",
      "longitude" : "120.73022",
      "outDis" : "50",
      "Id" : "2934",
      "oid" : "3866",
      "districtId" : "1",
      "nameZh" : "國軍臺中總醫院",
      "pgp" : "0",
      "terminal" : "0",
      "latitude" : "24.1504",
      "inDis" : "50",
      "routeId" : "75區1",
      "seqNo" : "10"
   },
   {
      "GoBack" : "2",
      "longitude" : "120.72833",
      "outDis" : "50",
      "Id" : "3560",
      "oid" : "3867",
      "districtId" : "1",
      "nameZh" : "預立二村",
      "pgp" : "0",
      "terminal" : "0",
      "latitude" : "24.15015",
      "inDis" : "50",
      "routeId" : "75區1",
      "seqNo" : "11"
   },
   {
      "GoBack" : "2",
      "longitude" : "120.72578",
      "outDis" : "50",
      "Id" : "0899",
      "oid" : "3868",
      "districtId" : "1",
      "nameZh" : "精武社區",
      "pgp" : "0",
      "terminal" : "0",
      "latitude" : "24.14981",
      "inDis" : "50",
      "routeId" : "75區1",
      "seqNo" : "12"
   },
   {
      "GoBack" : "2",
      "longitude" : "120.72326",
      "outDis" : "50",
      "Id" : "2826",
      "oid" : "3869",
      "districtId" : "1",
      "nameZh" : "特二號中山路口",
      "pgp" : "0",
      "terminal" : "0",
      "latitude" : "24.14978",
      "inDis" : "50",
      "routeId" : "75區1",
      "seqNo" : "13"
   },
   {
      "GoBack" : "2",
      "longitude" : "120.72691",
      "outDis" : "50",
      "Id" : "0290",
      "oid" : "318434401",
      "districtId" : "1",
      "nameZh" : "新坪里活動中心",
      "pgp" : "0",
      "terminal" : "0",
      "latitude" : "24.1561",
      "inDis" : "50",
      "routeId" : "75區1",
      "seqNo" : "14"
   },
   {
      "GoBack" : "2",
      "longitude" : "120.72422",
      "outDis" : "50",
      "Id" : "4315",
      "oid" : "3871",
      "districtId" : "1",
      "nameZh" : "樂安宮",
      "pgp" : "0",
      "terminal" : "0",
      "latitude" : "24.15564",
      "inDis" : "50",
      "routeId" : "75區1",
      "seqNo" : "15"
   },
   {
      "GoBack" : "2",
      "longitude" : "120.72208",
      "outDis" : "50",
      "Id" : "2267",
      "oid" : "3872",
      "districtId" : "1",
      "nameZh" : "育才育德路口",
      "pgp" : "0",
      "terminal" : "0",
      "latitude" : "24.15592",
      "inDis" : "50",
      "routeId" : "75區1",
      "seqNo" : "16"
   },
   {
      "GoBack" : "2",
      "longitude" : "120.71975",
      "outDis" : "50",
      "Id" : "3791",
      "oid" : "3873",
      "districtId" : "1",
      "nameZh" : "樹孝育才路口",
      "pgp" : "0",
      "terminal" : "0",
      "latitude" : "24.15612",
      "inDis" : "50",
      "routeId" : "75區1",
      "seqNo" : "17"
   },
   {
      "GoBack" : "2",
      "longitude" : "120.71791",
      "outDis" : "50",
      "Id" : "3374",
      "oid" : "3874",
      "districtId" : "1",
      "nameZh" : "新平國小",
      "pgp" : "0",
      "terminal" : "0",
      "latitude" : "24.1532",
      "inDis" : "50",
      "routeId" : "75區1",
      "seqNo" : "18"
   },
   {
      "GoBack" : "2",
      "longitude" : "120.71657",
      "outDis" : "50",
      "Id" : "3404",
      "oid" : "3875",
      "districtId" : "1",
      "nameZh" : "新城里福德祠",
      "pgp" : "0",
      "terminal" : "0",
      "latitude" : "24.15114",
      "inDis" : "50",
      "routeId" : "75區1",
      "seqNo" : "19"
   },
   {
      "GoBack" : "2",
      "longitude" : "120.71558",
      "outDis" : "50",
      "Id" : "1422",
      "oid" : "3876",
      "districtId" : "1",
      "nameZh" : "宜昌中山路口",
      "pgp" : "0",
      "terminal" : "0",
      "latitude" : "24.14822",
      "inDis" : "50",
      "routeId" : "75區1",
      "seqNo" : "20"
   },
   {
      "GoBack" : "2",
      "longitude" : "120.71439",
      "outDis" : "50",
      "Id" : "3764",
      "oid" : "3877",
      "districtId" : "1",
      "nameZh" : "賢德醫院",
      "pgp" : "0",
      "terminal" : "0",
      "latitude" : "24.14605",
      "inDis" : "50",
      "routeId" : "75區1",
      "seqNo" : "21"
   },
   {
      "GoBack" : "2",
      "longitude" : "120.71305",
      "outDis" : "50",
      "Id" : "1043",
      "oid" : "3878",
      "districtId" : "1",
      "nameZh" : "十甲宜昌路口",
      "pgp" : "0",
      "terminal" : "0",
      "latitude" : "24.14456",
      "inDis" : "50",
      "routeId" : "75區1",
      "seqNo" : "22"
   },
   {
      "GoBack" : "2",
      "longitude" : "120.70995",
      "outDis" : "50",
      "Id" : "4215",
      "oid" : "248603761",
      "districtId" : "1",
      "nameZh" : "十甲東路口",
      "pgp" : "0",
      "terminal" : "0",
      "latitude" : "24.14457",
      "inDis" : "50",
      "routeId" : "75區1",
      "seqNo" : "23"
   },
   {
      "GoBack" : "2",
      "longitude" : "120.70601",
      "outDis" : "50",
      "Id" : "4214",
      "oid" : "248603763",
      "districtId" : "1",
      "nameZh" : "東英自由路口",
      "pgp" : "0",
      "terminal" : "0",
      "latitude" : "24.14429",
      "inDis" : "50",
      "routeId" : "75區1",
      "seqNo" : "24"
   },
   {
      "GoBack" : "2",
      "longitude" : "120.70601",
      "outDis" : "50",
      "Id" : "4213",
      "oid" : "248603765",
      "districtId" : "1",
      "nameZh" : "東英旱溪街口",
      "pgp" : "0",
      "terminal" : "0",
      "latitude" : "24.14079",
      "inDis" : "50",
      "routeId" : "75區1",
      "seqNo" : "25"
   },
   {
      "GoBack" : "2",
      "longitude" : "120.70548",
      "outDis" : "50",
      "Id" : "4212",
      "oid" : "248603767",
      "districtId" : "1",
      "nameZh" : "東英樂業路口",
      "pgp" : "0",
      "terminal" : "0",
      "latitude" : "24.13848",
      "inDis" : "50",
      "routeId" : "75區1",
      "seqNo" : "26"
   },
   {
      "GoBack" : "2",
      "longitude" : "120.70378",
      "outDis" : "50",
      "Id" : "0083",
      "oid" : "3883",
      "districtId" : "1",
      "nameZh" : "樂成公園",
      "pgp" : "0",
      "terminal" : "0",
      "latitude" : "24.13856",
      "inDis" : "50",
      "routeId" : "75區1",
      "seqNo" : "27"
   },
   {
      "GoBack" : "2",
      "longitude" : "120.69933",
      "outDis" : "50",
      "Id" : "0075",
      "oid" : "598A78EEBCE64C85B31E3C1FA131035C",
      "districtId" : "1",
      "nameZh" : "育英國中",
      "pgp" : "0",
      "terminal" : "0",
      "latitude" : "24.13897",
      "inDis" : "50",
      "routeId" : "75區1",
      "seqNo" : "28"
   },
   {
      "GoBack" : "2",
      "longitude" : "120.69696",
      "outDis" : "50",
      "Id" : "4563",
      "oid" : "379025CD24E346369455262B9DB1A45C",
      "districtId" : "1",
      "nameZh" : "樂業建成路口",
      "pgp" : "0",
      "terminal" : "0",
      "latitude" : "24.13896",
      "inDis" : "50",
      "routeId" : "75區1",
      "seqNo" : "29"
   },
   {
      "GoBack" : "2",
      "longitude" : "120.69224",
      "outDis" : "50",
      "Id" : "0073",
      "oid" : "921C1B317B0F4954AA194E1FAA48ED98",
      "districtId" : "1",
      "nameZh" : "明功堂醫院",
      "pgp" : "0",
      "terminal" : "0",
      "latitude" : "24.14275",
      "inDis" : "50",
      "routeId" : "75區1",
      "seqNo" : "30"
   },
   {
      "GoBack" : "2",
      "longitude" : "120.69054",
      "outDis" : "50",
      "Id" : "2030",
      "oid" : "CA8BB0F24DEA42C3AEE75ECA93177574",
      "districtId" : "1",
      "nameZh" : "自由富台東街口",
      "pgp" : "0",
      "terminal" : "0",
      "latitude" : "24.14284",
      "inDis" : "50",
      "routeId" : "75區1",
      "seqNo" : "31"
   },
   {
      "GoBack" : "2",
      "longitude" : "120.68754",
      "outDis" : "50",
      "Id" : "5318",
      "oid" : "FB03C4089004492492E0123C1CFD304C",
      "districtId" : "1",
      "nameZh" : "立體停車場(自由路)",
      "pgp" : "0",
      "terminal" : "0",
      "latitude" : "24.14306",
      "inDis" : "50",
      "routeId" : "75區1",
      "seqNo" : "32"
   },
   {
      "GoBack" : "2",
      "longitude" : "120.68579",
      "outDis" : "50",
      "Id" : "0402",
      "oid" : "5AB5A51881A44EB39CA6DB4E5E90A7E2",
      "districtId" : "1",
      "nameZh" : "干城站",
      "pgp" : "0",
      "terminal" : "0",
      "latitude" : "24.14196",
      "inDis" : "50",
      "routeId" : "75區1",
      "seqNo" : "33"
   },
   {
      "GoBack" : "2",
      "longitude" : "120.6853",
      "outDis" : "50",
      "Id" : "1824",
      "oid" : "616B01CB26394967931808918B6CA2F3",
      "districtId" : "1",
      "nameZh" : "臺中火車站",
      "pgp" : "0",
      "terminal" : "0",
      "latitude" : "24.1379",
      "inDis" : "50",
      "routeId" : "75區1",
      "seqNo" : "34"
   },
   {
      "GoBack" : "2",
      "longitude" : "120.68093",
      "outDis" : "50",
      "Id" : "4284",
      "oid" : "7A35536C989948AF88620652A0EC81FB",
      "districtId" : "1",
      "nameZh" : "民權繼光街口",
      "pgp" : "0",
      "terminal" : "0",
      "latitude" : "24.1371",
      "inDis" : "50",
      "routeId" : "75區1",
      "seqNo" : "35"
   },
   {
      "GoBack" : "2",
      "longitude" : "120.67764",
      "outDis" : "50",
      "Id" : "0071",
      "oid" : "F764BE34D95843DCB1D98ED13BD21430",
      "districtId" : "1",
      "nameZh" : "臺中女中",
      "pgp" : "0",
      "terminal" : "0",
      "latitude" : "24.1358",
      "inDis" : "50",
      "routeId" : "75區1",
      "seqNo" : "36"
   }
]
