[
   {
      "GoBack" : "1",
      "longitude" : "120.58108",
      "outDis" : "50",
      "Id" : "3531",
      "oid" : "310808429",
      "districtId" : "1",
      "nameZh" : "正英臺灣大道口",
      "pgp" : "0",
      "terminal" : "0",
      "latitude" : "24.2099",
      "inDis" : "50",
      "routeId" : "95副",
      "seqNo" : "1"
   },
   {
      "GoBack" : "1",
      "longitude" : "120.57619",
      "outDis" : "50",
      "Id" : "5429",
      "oid" : "318244646",
      "districtId" : "1",
      "nameZh" : "正英七街口",
      "pgp" : "0",
      "terminal" : "0",
      "latitude" : "24.20993",
      "inDis" : "50",
      "routeId" : "95副",
      "seqNo" : "2"
   },
   {
      "GoBack" : "1",
      "longitude" : "120.57388",
      "outDis" : "50",
      "Id" : "3530",
      "oid" : "310808430",
      "districtId" : "1",
      "nameZh" : "正英鎮南路口",
      "pgp" : "0",
      "terminal" : "0",
      "latitude" : "24.21055",
      "inDis" : "50",
      "routeId" : "95副",
      "seqNo" : "3"
   },
   {
      "GoBack" : "1",
      "longitude" : "120.57184",
      "outDis" : "50",
      "Id" : "5751",
      "oid" : "320470404",
      "districtId" : "1",
      "nameZh" : "正英二街口",
      "pgp" : "0",
      "terminal" : "0",
      "latitude" : "24.21136",
      "inDis" : "50",
      "routeId" : "95副",
      "seqNo" : "4"
   },
   {
      "GoBack" : "1",
      "longitude" : "120.57032",
      "outDis" : "50",
      "Id" : "1782",
      "oid" : "5524",
      "districtId" : "1",
      "nameZh" : "北埔仔",
      "pgp" : "0",
      "terminal" : "0",
      "latitude" : "24.21241",
      "inDis" : "50",
      "routeId" : "95副",
      "seqNo" : "5"
   },
   {
      "GoBack" : "1",
      "longitude" : "120.57057",
      "outDis" : "50",
      "Id" : "2361",
      "oid" : "310808431",
      "districtId" : "1",
      "nameZh" : "明秀",
      "pgp" : "0",
      "terminal" : "0",
      "latitude" : "24.21764",
      "inDis" : "50",
      "routeId" : "95副",
      "seqNo" : "6"
   },
   {
      "GoBack" : "1",
      "longitude" : "120.56962",
      "outDis" : "50",
      "Id" : "3529",
      "oid" : "310808432",
      "districtId" : "1",
      "nameZh" : "鎮南平等路口",
      "pgp" : "0",
      "terminal" : "0",
      "latitude" : "24.2205",
      "inDis" : "50",
      "routeId" : "95副",
      "seqNo" : "7"
   },
   {
      "GoBack" : "1",
      "longitude" : "120.56915",
      "outDis" : "50",
      "Id" : "5785",
      "oid" : "320761419",
      "districtId" : "1",
      "nameZh" : "福興(鎮南路)",
      "pgp" : "0",
      "terminal" : "0",
      "latitude" : "24.22193",
      "inDis" : "50",
      "routeId" : "95副",
      "seqNo" : "8"
   },
   {
      "GoBack" : "1",
      "longitude" : "120.56875",
      "outDis" : "50",
      "Id" : "1796",
      "oid" : "5533",
      "districtId" : "1",
      "nameZh" : "北勢頭",
      "pgp" : "0",
      "terminal" : "0",
      "latitude" : "24.22442",
      "inDis" : "50",
      "routeId" : "95副",
      "seqNo" : "9"
   },
   {
      "GoBack" : "1",
      "longitude" : "120.56802",
      "outDis" : "50",
      "Id" : "5681",
      "oid" : "319625391",
      "districtId" : "1",
      "nameZh" : "鎮南福至路口",
      "pgp" : "0",
      "terminal" : "0",
      "latitude" : "24.2263",
      "inDis" : "50",
      "routeId" : "95副",
      "seqNo" : "10"
   },
   {
      "GoBack" : "1",
      "longitude" : "120.56715",
      "outDis" : "50",
      "Id" : "2362",
      "oid" : "5871",
      "districtId" : "1",
      "nameZh" : "明泰社區",
      "pgp" : "0",
      "terminal" : "0",
      "latitude" : "24.22861",
      "inDis" : "50",
      "routeId" : "95副",
      "seqNo" : "11"
   },
   {
      "GoBack" : "1",
      "longitude" : "120.56548",
      "outDis" : "50",
      "Id" : "4817",
      "oid" : "312512873",
      "districtId" : "1",
      "nameZh" : "沙鹿區公所",
      "pgp" : "0",
      "terminal" : "0",
      "latitude" : "24.23245",
      "inDis" : "50",
      "routeId" : "95副",
      "seqNo" : "12"
   },
   {
      "GoBack" : "1",
      "longitude" : "120.5632",
      "outDis" : "50",
      "Id" : "5794",
      "oid" : "15264",
      "districtId" : "1",
      "nameZh" : "沙鹿國中(鎮南路)",
      "pgp" : "0",
      "terminal" : "0",
      "latitude" : "24.23335",
      "inDis" : "50",
      "routeId" : "95副",
      "seqNo" : "13"
   },
   {
      "GoBack" : "1",
      "longitude" : "120.55882",
      "outDis" : "50",
      "Id" : "4816",
      "oid" : "313222697",
      "districtId" : "1",
      "nameZh" : "沙鹿光田醫院",
      "pgp" : "0",
      "terminal" : "0",
      "latitude" : "24.23492",
      "inDis" : "50",
      "routeId" : "95副",
      "seqNo" : "14"
   },
   {
      "GoBack" : "1",
      "longitude" : "120.55931",
      "outDis" : "50",
      "Id" : "4815",
      "oid" : "15238",
      "districtId" : "1",
      "nameZh" : "沙鹿火車站",
      "pgp" : "0",
      "terminal" : "0",
      "latitude" : "24.23602",
      "inDis" : "50",
      "routeId" : "95副",
      "seqNo" : "15"
   },
   {
      "GoBack" : "1",
      "longitude" : "120.55967",
      "outDis" : "50",
      "Id" : "4681",
      "oid" : "14045",
      "districtId" : "1",
      "nameZh" : "沙鹿市場",
      "pgp" : "0",
      "terminal" : "0",
      "latitude" : "24.23737",
      "inDis" : "50",
      "routeId" : "95副",
      "seqNo" : "16"
   },
   {
      "GoBack" : "1",
      "longitude" : "120.56023",
      "outDis" : "50",
      "Id" : "5135",
      "oid" : "310808433",
      "districtId" : "1",
      "nameZh" : "第一銀行(沙鹿分行)",
      "pgp" : "0",
      "terminal" : "0",
      "latitude" : "24.23925",
      "inDis" : "50",
      "routeId" : "95副",
      "seqNo" : "17"
   },
   {
      "GoBack" : "1",
      "longitude" : "120.55624",
      "outDis" : "50",
      "Id" : "1482",
      "oid" : "13442",
      "districtId" : "1",
      "nameZh" : "中港國小",
      "pgp" : "0",
      "terminal" : "0",
      "latitude" : "24.24263",
      "inDis" : "50",
      "routeId" : "95副",
      "seqNo" : "18"
   },
   {
      "GoBack" : "1",
      "longitude" : "120.55444",
      "outDis" : "50",
      "Id" : "5462",
      "oid" : "317734408",
      "districtId" : "1",
      "nameZh" : "中華路201巷口",
      "pgp" : "0",
      "terminal" : "0",
      "latitude" : "24.24864",
      "inDis" : "50",
      "routeId" : "95副",
      "seqNo" : "19"
   },
   {
      "GoBack" : "1",
      "longitude" : "120.5558",
      "outDis" : "50",
      "Id" : "3525",
      "oid" : "310808434",
      "districtId" : "1",
      "nameZh" : "中華大智路口",
      "pgp" : "0",
      "terminal" : "0",
      "latitude" : "24.25028",
      "inDis" : "50",
      "routeId" : "95副",
      "seqNo" : "20"
   },
   {
      "GoBack" : "1",
      "longitude" : "120.55714",
      "outDis" : "50",
      "Id" : "5636",
      "oid" : "2F1031AA0CD04DF6AD4E9B575E23CFBB",
      "districtId" : "1",
      "nameZh" : "中華田尾巷口",
      "pgp" : "0",
      "terminal" : "0",
      "latitude" : "24.25399",
      "inDis" : "50",
      "routeId" : "95副",
      "seqNo" : "21"
   },
   {
      "GoBack" : "1",
      "longitude" : "120.55856",
      "outDis" : "50",
      "Id" : "3523",
      "oid" : "310808435",
      "districtId" : "1",
      "nameZh" : "中華長春路口",
      "pgp" : "0",
      "terminal" : "0",
      "latitude" : "24.25642",
      "inDis" : "50",
      "routeId" : "95副",
      "seqNo" : "22"
   },
   {
      "GoBack" : "1",
      "longitude" : "120.56252",
      "outDis" : "50",
      "Id" : "3516",
      "oid" : "318712493",
      "districtId" : "1",
      "nameZh" : "中華民族路口",
      "pgp" : "0",
      "terminal" : "0",
      "latitude" : "24.26336",
      "inDis" : "50",
      "routeId" : "95副",
      "seqNo" : "23"
   },
   {
      "GoBack" : "1",
      "longitude" : "120.56091",
      "outDis" : "50",
      "Id" : "0354",
      "oid" : "318654727",
      "districtId" : "1",
      "nameZh" : "鎮政民族路口",
      "pgp" : "0",
      "terminal" : "0",
      "latitude" : "24.26567",
      "inDis" : "50",
      "routeId" : "95副",
      "seqNo" : "24"
   },
   {
      "GoBack" : "1",
      "longitude" : "120.56283",
      "outDis" : "50",
      "Id" : "0355",
      "oid" : "318654728",
      "districtId" : "1",
      "nameZh" : "清水戶政事務所",
      "pgp" : "0",
      "terminal" : "0",
      "latitude" : "24.26598",
      "inDis" : "50",
      "routeId" : "95副",
      "seqNo" : "25"
   },
   {
      "GoBack" : "1",
      "longitude" : "120.56459",
      "outDis" : "50",
      "Id" : "0356",
      "oid" : "318654729",
      "districtId" : "1",
      "nameZh" : "中華南社路口",
      "pgp" : "0",
      "terminal" : "0",
      "latitude" : "24.26566",
      "inDis" : "50",
      "routeId" : "95副",
      "seqNo" : "26"
   },
   {
      "GoBack" : "1",
      "longitude" : "120.56743",
      "outDis" : "50",
      "Id" : "3509",
      "oid" : "310808437",
      "districtId" : "1",
      "nameZh" : "中華鰲峰路口",
      "pgp" : "0",
      "terminal" : "0",
      "latitude" : "24.26914",
      "inDis" : "50",
      "routeId" : "95副",
      "seqNo" : "27"
   },
   {
      "GoBack" : "1",
      "longitude" : "120.57421",
      "outDis" : "50",
      "Id" : "4119",
      "oid" : "17554",
      "districtId" : "1",
      "nameZh" : "清水高中",
      "pgp" : "0",
      "terminal" : "0",
      "latitude" : "24.26615",
      "inDis" : "50",
      "routeId" : "95副",
      "seqNo" : "28"
   },
   {
      "GoBack" : "1",
      "longitude" : "120.57516",
      "outDis" : "50",
      "Id" : "5141",
      "oid" : "14057",
      "districtId" : "1",
      "nameZh" : "華南銀行(清水分行)",
      "pgp" : "0",
      "terminal" : "0",
      "latitude" : "24.2683",
      "inDis" : "50",
      "routeId" : "95副",
      "seqNo" : "29"
   },
   {
      "GoBack" : "1",
      "longitude" : "120.57609",
      "outDis" : "50",
      "Id" : "3013",
      "oid" : "14241",
      "districtId" : "1",
      "nameZh" : "清水",
      "pgp" : "0",
      "terminal" : "0",
      "latitude" : "24.27046",
      "inDis" : "50",
      "routeId" : "95副",
      "seqNo" : "30"
   },
   {
      "GoBack" : "1",
      "longitude" : "120.57687",
      "outDis" : "50",
      "Id" : "4521",
      "oid" : "305513525",
      "districtId" : "1",
      "nameZh" : "中山董公街口",
      "pgp" : "0",
      "terminal" : "0",
      "latitude" : "24.27284",
      "inDis" : "50",
      "routeId" : "95副",
      "seqNo" : "31"
   },
   {
      "GoBack" : "1",
      "longitude" : "120.57725",
      "outDis" : "50",
      "Id" : "4442",
      "oid" : "14059",
      "districtId" : "1",
      "nameZh" : "中山高美路口",
      "pgp" : "0",
      "terminal" : "0",
      "latitude" : "24.27531",
      "inDis" : "50",
      "routeId" : "95副",
      "seqNo" : "32"
   },
   {
      "GoBack" : "1",
      "longitude" : "120.57941",
      "outDis" : "50",
      "Id" : "4065",
      "oid" : "14365",
      "districtId" : "1",
      "nameZh" : "下湳加油站",
      "pgp" : "0",
      "terminal" : "0",
      "latitude" : "24.27854",
      "inDis" : "50",
      "routeId" : "95副",
      "seqNo" : "33"
   },
   {
      "GoBack" : "1",
      "longitude" : "120.58128",
      "outDis" : "50",
      "Id" : "4130",
      "oid" : "17165",
      "districtId" : "1",
      "nameZh" : "朝興宮",
      "pgp" : "0",
      "terminal" : "0",
      "latitude" : "24.28091",
      "inDis" : "50",
      "routeId" : "95副",
      "seqNo" : "34"
   },
   {
      "GoBack" : "1",
      "longitude" : "120.58343",
      "outDis" : "50",
      "Id" : "4063",
      "oid" : "17297",
      "districtId" : "1",
      "nameZh" : "下湳子",
      "pgp" : "0",
      "terminal" : "0",
      "latitude" : "24.2838",
      "inDis" : "50",
      "routeId" : "95副",
      "seqNo" : "35"
   },
   {
      "GoBack" : "1",
      "longitude" : "120.58582",
      "outDis" : "50",
      "Id" : "4058",
      "oid" : "17298",
      "districtId" : "1",
      "nameZh" : "三田國小",
      "pgp" : "0",
      "terminal" : "0",
      "latitude" : "24.28802",
      "inDis" : "50",
      "routeId" : "95副",
      "seqNo" : "36"
   },
   {
      "GoBack" : "1",
      "longitude" : "120.58824",
      "outDis" : "50",
      "Id" : "4127",
      "oid" : "15197",
      "districtId" : "1",
      "nameZh" : "頂湳子",
      "pgp" : "0",
      "terminal" : "0",
      "latitude" : "24.29228",
      "inDis" : "50",
      "routeId" : "95副",
      "seqNo" : "37"
   },
   {
      "GoBack" : "1",
      "longitude" : "120.59084",
      "outDis" : "50",
      "Id" : "4150",
      "oid" : "17301",
      "districtId" : "1",
      "nameZh" : "轉播站",
      "pgp" : "0",
      "terminal" : "0",
      "latitude" : "24.29572",
      "inDis" : "50",
      "routeId" : "95副",
      "seqNo" : "38"
   },
   {
      "GoBack" : "1",
      "longitude" : "120.59554",
      "outDis" : "50",
      "Id" : "4134",
      "oid" : "10881",
      "districtId" : "1",
      "nameZh" : "菁埔里",
      "pgp" : "0",
      "terminal" : "0",
      "latitude" : "24.30063",
      "inDis" : "50",
      "routeId" : "95副",
      "seqNo" : "39"
   },
   {
      "GoBack" : "1",
      "longitude" : "120.59644",
      "outDis" : "50",
      "Id" : "0316",
      "oid" : "318566128",
      "districtId" : "1",
      "nameZh" : "中華北臨港路口",
      "pgp" : "0",
      "terminal" : "0",
      "latitude" : "24.30337",
      "inDis" : "50",
      "routeId" : "95副",
      "seqNo" : "40"
   },
   {
      "GoBack" : "1",
      "longitude" : "120.60849",
      "outDis" : "50",
      "Id" : "1705",
      "oid" : "17306",
      "districtId" : "1",
      "nameZh" : "水汴頭",
      "pgp" : "0",
      "terminal" : "0",
      "latitude" : "24.32679",
      "inDis" : "50",
      "routeId" : "95副",
      "seqNo" : "41"
   },
   {
      "GoBack" : "1",
      "longitude" : "120.61363",
      "outDis" : "50",
      "Id" : "4133",
      "oid" : "14377",
      "districtId" : "1",
      "nameZh" : "番子寮",
      "pgp" : "0",
      "terminal" : "0",
      "latitude" : "24.33235",
      "inDis" : "50",
      "routeId" : "95副",
      "seqNo" : "42"
   },
   {
      "GoBack" : "1",
      "longitude" : "120.61745",
      "outDis" : "50",
      "Id" : "1859",
      "oid" : "15789",
      "districtId" : "1",
      "nameZh" : "外水尾",
      "pgp" : "0",
      "terminal" : "0",
      "latitude" : "24.3379",
      "inDis" : "50",
      "routeId" : "95副",
      "seqNo" : "43"
   },
   {
      "GoBack" : "1",
      "longitude" : "120.61874",
      "outDis" : "50",
      "Id" : "5693",
      "oid" : "319916595",
      "districtId" : "1",
      "nameZh" : "水尾橋 ",
      "pgp" : "0",
      "terminal" : "0",
      "latitude" : "24.33972",
      "inDis" : "50",
      "routeId" : "95副",
      "seqNo" : "44"
   },
   {
      "GoBack" : "1",
      "longitude" : "120.62034",
      "outDis" : "50",
      "Id" : "5361",
      "oid" : "311776166",
      "districtId" : "1",
      "nameZh" : "大甲高中(順天路)",
      "pgp" : "0",
      "terminal" : "0",
      "latitude" : "24.34218",
      "inDis" : "50",
      "routeId" : "95副",
      "seqNo" : "45"
   },
   {
      "GoBack" : "1",
      "longitude" : "120.6217",
      "outDis" : "50",
      "Id" : "2589",
      "oid" : "5995",
      "districtId" : "1",
      "nameZh" : "南門",
      "pgp" : "0",
      "terminal" : "0",
      "latitude" : "24.34371",
      "inDis" : "50",
      "routeId" : "95副",
      "seqNo" : "46"
   },
   {
      "GoBack" : "1",
      "longitude" : "120.62577",
      "outDis" : "50",
      "Id" : "5783",
      "oid" : "310808439",
      "districtId" : "1",
      "nameZh" : "大甲火車站(光明路)",
      "pgp" : "0",
      "terminal" : "0",
      "latitude" : "24.34362",
      "inDis" : "50",
      "routeId" : "95副",
      "seqNo" : "47"
   },
   {
      "GoBack" : "1",
      "longitude" : "120.62445",
      "outDis" : "50",
      "Id" : "2609",
      "oid" : "14073",
      "districtId" : "1",
      "nameZh" : "南陽里",
      "pgp" : "0",
      "terminal" : "0",
      "latitude" : "24.34284",
      "inDis" : "50",
      "routeId" : "95副",
      "seqNo" : "48"
   },
   {
      "GoBack" : "1",
      "longitude" : "120.62285",
      "outDis" : "50",
      "Id" : "4433",
      "oid" : "13832",
      "districtId" : "1",
      "nameZh" : "大甲高中(水源路)",
      "pgp" : "0",
      "terminal" : "0",
      "latitude" : "24.34205",
      "inDis" : "50",
      "routeId" : "95副",
      "seqNo" : "49"
   },
   {
      "GoBack" : "1",
      "longitude" : "120.6259",
      "outDis" : "50",
      "Id" : "3539",
      "oid" : "310808440",
      "districtId" : "1",
      "nameZh" : "中正紀念館(文化中心)",
      "pgp" : "0",
      "terminal" : "0",
      "latitude" : "24.34008",
      "inDis" : "50",
      "routeId" : "95副",
      "seqNo" : "50"
   },
   {
      "GoBack" : "1",
      "longitude" : "120.62844",
      "outDis" : "50",
      "Id" : "1933",
      "oid" : "13770",
      "districtId" : "1",
      "nameZh" : "永光寺",
      "pgp" : "0",
      "terminal" : "0",
      "latitude" : "24.3429",
      "inDis" : "50",
      "routeId" : "95副",
      "seqNo" : "51"
   },
   {
      "GoBack" : "1",
      "longitude" : "120.62933",
      "outDis" : "50",
      "Id" : "1420",
      "oid" : "13769",
      "districtId" : "1",
      "nameZh" : "中山里",
      "pgp" : "0",
      "terminal" : "0",
      "latitude" : "24.34477",
      "inDis" : "50",
      "routeId" : "95副",
      "seqNo" : "52"
   },
   {
      "GoBack" : "1",
      "longitude" : "120.63291",
      "outDis" : "50",
      "Id" : "5060",
      "oid" : "309863810",
      "districtId" : "1",
      "nameZh" : "開元甲后路口",
      "pgp" : "0",
      "terminal" : "0",
      "latitude" : "24.34581",
      "inDis" : "50",
      "routeId" : "95副",
      "seqNo" : "53"
   },
   {
      "GoBack" : "1",
      "longitude" : "120.63938",
      "outDis" : "50",
      "Id" : "4875",
      "oid" : "15437",
      "districtId" : "1",
      "nameZh" : "大甲高工",
      "pgp" : "0",
      "terminal" : "0",
      "latitude" : "24.34644",
      "inDis" : "50",
      "routeId" : "95副",
      "seqNo" : "54"
   },
   {
      "GoBack" : "1",
      "longitude" : "120.64387",
      "outDis" : "50",
      "Id" : "3262",
      "oid" : "6355",
      "districtId" : "1",
      "nameZh" : "番仔田",
      "pgp" : "0",
      "terminal" : "0",
      "latitude" : "24.34672",
      "inDis" : "50",
      "routeId" : "95副",
      "seqNo" : "55"
   },
   {
      "GoBack" : "1",
      "longitude" : "120.64776",
      "outDis" : "50",
      "Id" : "5492",
      "oid" : "314614146",
      "districtId" : "1",
      "nameZh" : "明湖新村",
      "pgp" : "0",
      "terminal" : "0",
      "latitude" : "24.34648",
      "inDis" : "50",
      "routeId" : "95副",
      "seqNo" : "56"
   },
   {
      "GoBack" : "1",
      "longitude" : "120.65337",
      "outDis" : "50",
      "Id" : "4002",
      "oid" : "6735",
      "districtId" : "1",
      "nameZh" : "鐵砧山",
      "pgp" : "0",
      "terminal" : "0",
      "latitude" : "24.34702",
      "inDis" : "50",
      "routeId" : "95副",
      "seqNo" : "57"
   },
   {
      "GoBack" : "1",
      "longitude" : "120.65627",
      "outDis" : "50",
      "Id" : "4001",
      "oid" : "6734",
      "districtId" : "1",
      "nameZh" : "鐵山國小",
      "pgp" : "0",
      "terminal" : "0",
      "latitude" : "24.34847",
      "inDis" : "50",
      "routeId" : "95副",
      "seqNo" : "58"
   },
   {
      "GoBack" : "1",
      "longitude" : "120.66278",
      "outDis" : "50",
      "Id" : "3406",
      "oid" : "6439",
      "districtId" : "1",
      "nameZh" : "新厝(長生路)",
      "pgp" : "0",
      "terminal" : "0",
      "latitude" : "24.34969",
      "inDis" : "50",
      "routeId" : "95副",
      "seqNo" : "59"
   },
   {
      "GoBack" : "1",
      "longitude" : "120.66379",
      "outDis" : "50",
      "Id" : "2946",
      "oid" : "6182",
      "districtId" : "1",
      "nameZh" : "埤腳",
      "pgp" : "0",
      "terminal" : "0",
      "latitude" : "24.34428",
      "inDis" : "50",
      "routeId" : "95副",
      "seqNo" : "60"
   },
   {
      "GoBack" : "1",
      "longitude" : "120.66295",
      "outDis" : "50",
      "Id" : "2900",
      "oid" : "6165",
      "districtId" : "1",
      "nameZh" : "馬鳴埔",
      "pgp" : "0",
      "terminal" : "0",
      "latitude" : "24.34048",
      "inDis" : "50",
      "routeId" : "95副",
      "seqNo" : "61"
   },
   {
      "GoBack" : "1",
      "longitude" : "120.65694",
      "outDis" : "50",
      "Id" : "5348",
      "oid" : "311507732",
      "districtId" : "1",
      "nameZh" : "大馬中山路口",
      "pgp" : "0",
      "terminal" : "0",
      "latitude" : "24.33883",
      "inDis" : "50",
      "routeId" : "95副",
      "seqNo" : "62"
   },
   {
      "GoBack" : "1",
      "longitude" : "120.6423",
      "outDis" : "50",
      "Id" : "0357",
      "oid" : "318654730",
      "districtId" : "1",
      "nameZh" : "大東里活動中心",
      "pgp" : "0",
      "terminal" : "0",
      "latitude" : "24.34102",
      "inDis" : "50",
      "routeId" : "95副",
      "seqNo" : "63"
   },
   {
      "GoBack" : "1",
      "longitude" : "120.64144",
      "outDis" : "50",
      "Id" : "1277",
      "oid" : "318659804",
      "districtId" : "1",
      "nameZh" : "大甲東",
      "pgp" : "0",
      "terminal" : "0",
      "latitude" : "24.34057",
      "inDis" : "50",
      "routeId" : "95副",
      "seqNo" : "64"
   },
   {
      "GoBack" : "1",
      "longitude" : "120.64983",
      "outDis" : "50",
      "Id" : "2652",
      "oid" : "318659805",
      "districtId" : "1",
      "nameZh" : "後寮",
      "pgp" : "0",
      "terminal" : "0",
      "latitude" : "24.33504",
      "inDis" : "50",
      "routeId" : "95副",
      "seqNo" : "65"
   },
   {
      "GoBack" : "1",
      "longitude" : "120.6515",
      "outDis" : "50",
      "Id" : "5433",
      "oid" : "318712495",
      "districtId" : "1",
      "nameZh" : "外埔老人文康中心",
      "pgp" : "0",
      "terminal" : "0",
      "latitude" : "24.33252",
      "inDis" : "50",
      "routeId" : "95副",
      "seqNo" : "66"
   },
   {
      "GoBack" : "2",
      "longitude" : "120.6515",
      "outDis" : "50",
      "Id" : "5433",
      "oid" : "318712495",
      "districtId" : "1",
      "nameZh" : "外埔老人文康中心",
      "pgp" : "0",
      "terminal" : "0",
      "latitude" : "24.33252",
      "inDis" : "50",
      "routeId" : "95副",
      "seqNo" : "1"
   },
   {
      "GoBack" : "2",
      "longitude" : "120.6526",
      "outDis" : "50",
      "Id" : "1865",
      "oid" : "318659806",
      "districtId" : "1",
      "nameZh" : "外埔",
      "pgp" : "0",
      "terminal" : "0",
      "latitude" : "24.33252",
      "inDis" : "50",
      "routeId" : "95副",
      "seqNo" : "2"
   },
   {
      "GoBack" : "2",
      "longitude" : "120.64983",
      "outDis" : "50",
      "Id" : "2652",
      "oid" : "318659805",
      "districtId" : "1",
      "nameZh" : "後寮",
      "pgp" : "0",
      "terminal" : "0",
      "latitude" : "24.33504",
      "inDis" : "50",
      "routeId" : "95副",
      "seqNo" : "3"
   },
   {
      "GoBack" : "2",
      "longitude" : "120.64144",
      "outDis" : "50",
      "Id" : "1277",
      "oid" : "318659804",
      "districtId" : "1",
      "nameZh" : "大甲東",
      "pgp" : "0",
      "terminal" : "0",
      "latitude" : "24.34057",
      "inDis" : "50",
      "routeId" : "95副",
      "seqNo" : "4"
   },
   {
      "GoBack" : "2",
      "longitude" : "120.6423",
      "outDis" : "50",
      "Id" : "0357",
      "oid" : "318654730",
      "districtId" : "1",
      "nameZh" : "大東里活動中心",
      "pgp" : "0",
      "terminal" : "0",
      "latitude" : "24.34102",
      "inDis" : "50",
      "routeId" : "95副",
      "seqNo" : "5"
   },
   {
      "GoBack" : "2",
      "longitude" : "120.65694",
      "outDis" : "50",
      "Id" : "5348",
      "oid" : "311507732",
      "districtId" : "1",
      "nameZh" : "大馬中山路口",
      "pgp" : "0",
      "terminal" : "0",
      "latitude" : "24.33883",
      "inDis" : "50",
      "routeId" : "95副",
      "seqNo" : "6"
   },
   {
      "GoBack" : "2",
      "longitude" : "120.66295",
      "outDis" : "50",
      "Id" : "2900",
      "oid" : "6165",
      "districtId" : "1",
      "nameZh" : "馬鳴埔",
      "pgp" : "0",
      "terminal" : "0",
      "latitude" : "24.34048",
      "inDis" : "50",
      "routeId" : "95副",
      "seqNo" : "7"
   },
   {
      "GoBack" : "2",
      "longitude" : "120.66379",
      "outDis" : "50",
      "Id" : "2946",
      "oid" : "6182",
      "districtId" : "1",
      "nameZh" : "埤腳",
      "pgp" : "0",
      "terminal" : "0",
      "latitude" : "24.34428",
      "inDis" : "50",
      "routeId" : "95副",
      "seqNo" : "8"
   },
   {
      "GoBack" : "2",
      "longitude" : "120.66278",
      "outDis" : "50",
      "Id" : "3406",
      "oid" : "6439",
      "districtId" : "1",
      "nameZh" : "新厝(長生路)",
      "pgp" : "0",
      "terminal" : "0",
      "latitude" : "24.34969",
      "inDis" : "50",
      "routeId" : "95副",
      "seqNo" : "9"
   },
   {
      "GoBack" : "2",
      "longitude" : "120.65627",
      "outDis" : "50",
      "Id" : "4001",
      "oid" : "6734",
      "districtId" : "1",
      "nameZh" : "鐵山國小",
      "pgp" : "0",
      "terminal" : "0",
      "latitude" : "24.34847",
      "inDis" : "50",
      "routeId" : "95副",
      "seqNo" : "10"
   },
   {
      "GoBack" : "2",
      "longitude" : "120.65337",
      "outDis" : "50",
      "Id" : "4002",
      "oid" : "6735",
      "districtId" : "1",
      "nameZh" : "鐵砧山",
      "pgp" : "0",
      "terminal" : "0",
      "latitude" : "24.34702",
      "inDis" : "50",
      "routeId" : "95副",
      "seqNo" : "11"
   },
   {
      "GoBack" : "2",
      "longitude" : "120.64776",
      "outDis" : "50",
      "Id" : "5492",
      "oid" : "314614146",
      "districtId" : "1",
      "nameZh" : "明湖新村",
      "pgp" : "0",
      "terminal" : "0",
      "latitude" : "24.34648",
      "inDis" : "50",
      "routeId" : "95副",
      "seqNo" : "12"
   },
   {
      "GoBack" : "2",
      "longitude" : "120.64387",
      "outDis" : "50",
      "Id" : "3262",
      "oid" : "6355",
      "districtId" : "1",
      "nameZh" : "番仔田",
      "pgp" : "0",
      "terminal" : "0",
      "latitude" : "24.34672",
      "inDis" : "50",
      "routeId" : "95副",
      "seqNo" : "13"
   },
   {
      "GoBack" : "2",
      "longitude" : "120.63938",
      "outDis" : "50",
      "Id" : "4875",
      "oid" : "15437",
      "districtId" : "1",
      "nameZh" : "大甲高工",
      "pgp" : "0",
      "terminal" : "0",
      "latitude" : "24.34644",
      "inDis" : "50",
      "routeId" : "95副",
      "seqNo" : "14"
   },
   {
      "GoBack" : "2",
      "longitude" : "120.63291",
      "outDis" : "50",
      "Id" : "5060",
      "oid" : "309863810",
      "districtId" : "1",
      "nameZh" : "開元甲后路口",
      "pgp" : "0",
      "terminal" : "0",
      "latitude" : "24.34581",
      "inDis" : "50",
      "routeId" : "95副",
      "seqNo" : "15"
   },
   {
      "GoBack" : "2",
      "longitude" : "120.62933",
      "outDis" : "50",
      "Id" : "1420",
      "oid" : "13769",
      "districtId" : "1",
      "nameZh" : "中山里",
      "pgp" : "0",
      "terminal" : "0",
      "latitude" : "24.34477",
      "inDis" : "50",
      "routeId" : "95副",
      "seqNo" : "16"
   },
   {
      "GoBack" : "2",
      "longitude" : "120.62844",
      "outDis" : "50",
      "Id" : "1933",
      "oid" : "5612",
      "districtId" : "1",
      "nameZh" : "永光寺",
      "pgp" : "0",
      "terminal" : "0",
      "latitude" : "24.3429",
      "inDis" : "50",
      "routeId" : "95副",
      "seqNo" : "17"
   },
   {
      "GoBack" : "2",
      "longitude" : "120.62696",
      "outDis" : "50",
      "Id" : "3539",
      "oid" : "310808444",
      "districtId" : "1",
      "nameZh" : "中正紀念館(文化中心)",
      "pgp" : "0",
      "terminal" : "0",
      "latitude" : "24.34071",
      "inDis" : "50",
      "routeId" : "95副",
      "seqNo" : "18"
   },
   {
      "GoBack" : "2",
      "longitude" : "120.6229",
      "outDis" : "50",
      "Id" : "4433",
      "oid" : "14089",
      "districtId" : "1",
      "nameZh" : "大甲高中(水源路)",
      "pgp" : "0",
      "terminal" : "0",
      "latitude" : "24.34182",
      "inDis" : "50",
      "routeId" : "95副",
      "seqNo" : "19"
   },
   {
      "GoBack" : "2",
      "longitude" : "120.62445",
      "outDis" : "50",
      "Id" : "2609",
      "oid" : "14073",
      "districtId" : "1",
      "nameZh" : "南陽里",
      "pgp" : "0",
      "terminal" : "0",
      "latitude" : "24.34284",
      "inDis" : "50",
      "routeId" : "95副",
      "seqNo" : "20"
   },
   {
      "GoBack" : "2",
      "longitude" : "120.6256",
      "outDis" : "50",
      "Id" : "5783",
      "oid" : "310808445",
      "districtId" : "1",
      "nameZh" : "大甲火車站(光明路)",
      "pgp" : "0",
      "terminal" : "0",
      "latitude" : "24.34378",
      "inDis" : "50",
      "routeId" : "95副",
      "seqNo" : "21"
   },
   {
      "GoBack" : "2",
      "longitude" : "120.6217",
      "outDis" : "50",
      "Id" : "2589",
      "oid" : "5995",
      "districtId" : "1",
      "nameZh" : "南門",
      "pgp" : "0",
      "terminal" : "0",
      "latitude" : "24.34371",
      "inDis" : "50",
      "routeId" : "95副",
      "seqNo" : "22"
   },
   {
      "GoBack" : "2",
      "longitude" : "120.62034",
      "outDis" : "50",
      "Id" : "5361",
      "oid" : "311776166",
      "districtId" : "1",
      "nameZh" : "大甲高中(順天路)",
      "pgp" : "0",
      "terminal" : "0",
      "latitude" : "24.34218",
      "inDis" : "50",
      "routeId" : "95副",
      "seqNo" : "23"
   },
   {
      "GoBack" : "2",
      "longitude" : "120.61874",
      "outDis" : "50",
      "Id" : "5693",
      "oid" : "319916595",
      "districtId" : "1",
      "nameZh" : "水尾橋 ",
      "pgp" : "0",
      "terminal" : "0",
      "latitude" : "24.33972",
      "inDis" : "50",
      "routeId" : "95副",
      "seqNo" : "24"
   },
   {
      "GoBack" : "2",
      "longitude" : "120.61743",
      "outDis" : "50",
      "Id" : "1859",
      "oid" : "10760",
      "districtId" : "1",
      "nameZh" : "外水尾",
      "pgp" : "0",
      "terminal" : "0",
      "latitude" : "24.3376",
      "inDis" : "50",
      "routeId" : "95副",
      "seqNo" : "25"
   },
   {
      "GoBack" : "2",
      "longitude" : "120.61384",
      "outDis" : "50",
      "Id" : "4133",
      "oid" : "14225",
      "districtId" : "1",
      "nameZh" : "番子寮",
      "pgp" : "0",
      "terminal" : "0",
      "latitude" : "24.33278",
      "inDis" : "50",
      "routeId" : "95副",
      "seqNo" : "26"
   },
   {
      "GoBack" : "2",
      "longitude" : "120.60827",
      "outDis" : "50",
      "Id" : "1705",
      "oid" : "14226",
      "districtId" : "1",
      "nameZh" : "水汴頭",
      "pgp" : "0",
      "terminal" : "0",
      "latitude" : "24.32677",
      "inDis" : "50",
      "routeId" : "95副",
      "seqNo" : "27"
   },
   {
      "GoBack" : "2",
      "longitude" : "120.59644",
      "outDis" : "50",
      "Id" : "0316",
      "oid" : "318566128",
      "districtId" : "1",
      "nameZh" : "中華北臨港路口",
      "pgp" : "0",
      "terminal" : "0",
      "latitude" : "24.30337",
      "inDis" : "50",
      "routeId" : "95副",
      "seqNo" : "28"
   },
   {
      "GoBack" : "2",
      "longitude" : "120.59516",
      "outDis" : "50",
      "Id" : "4134",
      "oid" : "14067",
      "districtId" : "1",
      "nameZh" : "菁埔里",
      "pgp" : "0",
      "terminal" : "0",
      "latitude" : "24.30035",
      "inDis" : "50",
      "routeId" : "95副",
      "seqNo" : "29"
   },
   {
      "GoBack" : "2",
      "longitude" : "120.59118",
      "outDis" : "50",
      "Id" : "4150",
      "oid" : "10917",
      "districtId" : "1",
      "nameZh" : "轉播站",
      "pgp" : "0",
      "terminal" : "0",
      "latitude" : "24.29611",
      "inDis" : "50",
      "routeId" : "95副",
      "seqNo" : "30"
   },
   {
      "GoBack" : "2",
      "longitude" : "120.58861",
      "outDis" : "50",
      "Id" : "4127",
      "oid" : "16876",
      "districtId" : "1",
      "nameZh" : "頂湳子",
      "pgp" : "0",
      "terminal" : "0",
      "latitude" : "24.29345",
      "inDis" : "50",
      "routeId" : "95副",
      "seqNo" : "31"
   },
   {
      "GoBack" : "2",
      "longitude" : "120.58574",
      "outDis" : "50",
      "Id" : "4058",
      "oid" : "14063",
      "districtId" : "1",
      "nameZh" : "三田國小",
      "pgp" : "0",
      "terminal" : "0",
      "latitude" : "24.2882",
      "inDis" : "50",
      "routeId" : "95副",
      "seqNo" : "32"
   },
   {
      "GoBack" : "2",
      "longitude" : "120.58338",
      "outDis" : "50",
      "Id" : "4063",
      "oid" : "14062",
      "districtId" : "1",
      "nameZh" : "下湳子",
      "pgp" : "0",
      "terminal" : "0",
      "latitude" : "24.28403",
      "inDis" : "50",
      "routeId" : "95副",
      "seqNo" : "33"
   },
   {
      "GoBack" : "2",
      "longitude" : "120.58127",
      "outDis" : "50",
      "Id" : "4130",
      "oid" : "14366",
      "districtId" : "1",
      "nameZh" : "朝興宮",
      "pgp" : "0",
      "terminal" : "0",
      "latitude" : "24.28091",
      "inDis" : "50",
      "routeId" : "95副",
      "seqNo" : "34"
   },
   {
      "GoBack" : "2",
      "longitude" : "120.57941",
      "outDis" : "50",
      "Id" : "4065",
      "oid" : "14237",
      "districtId" : "1",
      "nameZh" : "下湳加油站",
      "pgp" : "0",
      "terminal" : "0",
      "latitude" : "24.2787",
      "inDis" : "50",
      "routeId" : "95副",
      "seqNo" : "35"
   },
   {
      "GoBack" : "2",
      "longitude" : "120.57725",
      "outDis" : "50",
      "Id" : "4442",
      "oid" : "14059",
      "districtId" : "1",
      "nameZh" : "中山高美路口",
      "pgp" : "0",
      "terminal" : "0",
      "latitude" : "24.27531",
      "inDis" : "50",
      "routeId" : "95副",
      "seqNo" : "36"
   },
   {
      "GoBack" : "2",
      "longitude" : "120.57707",
      "outDis" : "50",
      "Id" : "4521",
      "oid" : "14239",
      "districtId" : "1",
      "nameZh" : "中山董公街口",
      "pgp" : "0",
      "terminal" : "0",
      "latitude" : "24.27301",
      "inDis" : "50",
      "routeId" : "95副",
      "seqNo" : "37"
   },
   {
      "GoBack" : "2",
      "longitude" : "120.57609",
      "outDis" : "50",
      "Id" : "3013",
      "oid" : "6221",
      "districtId" : "1",
      "nameZh" : "清水",
      "pgp" : "0",
      "terminal" : "0",
      "latitude" : "24.27046",
      "inDis" : "50",
      "routeId" : "95副",
      "seqNo" : "38"
   },
   {
      "GoBack" : "2",
      "longitude" : "120.57516",
      "outDis" : "50",
      "Id" : "5141",
      "oid" : "14057",
      "districtId" : "1",
      "nameZh" : "華南銀行(清水分行)",
      "pgp" : "0",
      "terminal" : "0",
      "latitude" : "24.2683",
      "inDis" : "50",
      "routeId" : "95副",
      "seqNo" : "39"
   },
   {
      "GoBack" : "2",
      "longitude" : "120.57421",
      "outDis" : "50",
      "Id" : "4119",
      "oid" : "14901",
      "districtId" : "1",
      "nameZh" : "清水高中",
      "pgp" : "0",
      "terminal" : "0",
      "latitude" : "24.26615",
      "inDis" : "50",
      "routeId" : "95副",
      "seqNo" : "40"
   },
   {
      "GoBack" : "2",
      "longitude" : "120.567",
      "outDis" : "50",
      "Id" : "3509",
      "oid" : "310808447",
      "districtId" : "1",
      "nameZh" : "中華鰲峰路口",
      "pgp" : "0",
      "terminal" : "0",
      "latitude" : "24.26963",
      "inDis" : "50",
      "routeId" : "95副",
      "seqNo" : "41"
   },
   {
      "GoBack" : "2",
      "longitude" : "120.56459",
      "outDis" : "50",
      "Id" : "0356",
      "oid" : "318654729",
      "districtId" : "1",
      "nameZh" : "中華南社路口",
      "pgp" : "0",
      "terminal" : "0",
      "latitude" : "24.26566",
      "inDis" : "50",
      "routeId" : "95副",
      "seqNo" : "42"
   },
   {
      "GoBack" : "2",
      "longitude" : "120.56283",
      "outDis" : "50",
      "Id" : "0355",
      "oid" : "318654728",
      "districtId" : "1",
      "nameZh" : "清水戶政事務所",
      "pgp" : "0",
      "terminal" : "0",
      "latitude" : "24.26598",
      "inDis" : "50",
      "routeId" : "95副",
      "seqNo" : "43"
   },
   {
      "GoBack" : "2",
      "longitude" : "120.56091",
      "outDis" : "50",
      "Id" : "0354",
      "oid" : "318654727",
      "districtId" : "1",
      "nameZh" : "鎮政民族路口",
      "pgp" : "0",
      "terminal" : "0",
      "latitude" : "24.26567",
      "inDis" : "50",
      "routeId" : "95副",
      "seqNo" : "44"
   },
   {
      "GoBack" : "2",
      "longitude" : "120.56252",
      "outDis" : "50",
      "Id" : "3516",
      "oid" : "318712493",
      "districtId" : "1",
      "nameZh" : "中華民族路口",
      "pgp" : "0",
      "terminal" : "0",
      "latitude" : "24.26336",
      "inDis" : "50",
      "routeId" : "95副",
      "seqNo" : "45"
   },
   {
      "GoBack" : "2",
      "longitude" : "120.55822",
      "outDis" : "50",
      "Id" : "3523",
      "oid" : "310808449",
      "districtId" : "1",
      "nameZh" : "中華長春路口",
      "pgp" : "0",
      "terminal" : "0",
      "latitude" : "24.25653",
      "inDis" : "50",
      "routeId" : "95副",
      "seqNo" : "46"
   },
   {
      "GoBack" : "2",
      "longitude" : "120.55714",
      "outDis" : "50",
      "Id" : "5636",
      "oid" : "2F1031AA0CD04DF6AD4E9B575E23CFBB",
      "districtId" : "1",
      "nameZh" : "中華田尾巷口",
      "pgp" : "0",
      "terminal" : "0",
      "latitude" : "24.25399",
      "inDis" : "50",
      "routeId" : "95副",
      "seqNo" : "47"
   },
   {
      "GoBack" : "2",
      "longitude" : "120.5555",
      "outDis" : "50",
      "Id" : "3525",
      "oid" : "310808450",
      "districtId" : "1",
      "nameZh" : "中華大智路口",
      "pgp" : "0",
      "terminal" : "0",
      "latitude" : "24.25046",
      "inDis" : "50",
      "routeId" : "95副",
      "seqNo" : "48"
   },
   {
      "GoBack" : "2",
      "longitude" : "120.55444",
      "outDis" : "50",
      "Id" : "5462",
      "oid" : "317734408",
      "districtId" : "1",
      "nameZh" : "中華路201巷口",
      "pgp" : "0",
      "terminal" : "0",
      "latitude" : "24.24864",
      "inDis" : "50",
      "routeId" : "95副",
      "seqNo" : "49"
   },
   {
      "GoBack" : "2",
      "longitude" : "120.55659",
      "outDis" : "50",
      "Id" : "1482",
      "oid" : "14532",
      "districtId" : "1",
      "nameZh" : "中港國小",
      "pgp" : "0",
      "terminal" : "0",
      "latitude" : "24.24273",
      "inDis" : "50",
      "routeId" : "95副",
      "seqNo" : "50"
   },
   {
      "GoBack" : "2",
      "longitude" : "120.56004",
      "outDis" : "50",
      "Id" : "5135",
      "oid" : "310808451",
      "districtId" : "1",
      "nameZh" : "第一銀行(沙鹿分行)",
      "pgp" : "0",
      "terminal" : "0",
      "latitude" : "24.23932",
      "inDis" : "50",
      "routeId" : "95副",
      "seqNo" : "51"
   },
   {
      "GoBack" : "2",
      "longitude" : "120.55985",
      "outDis" : "50",
      "Id" : "4681",
      "oid" : "15268",
      "districtId" : "1",
      "nameZh" : "沙鹿市場",
      "pgp" : "0",
      "terminal" : "0",
      "latitude" : "24.23763",
      "inDis" : "50",
      "routeId" : "95副",
      "seqNo" : "52"
   },
   {
      "GoBack" : "2",
      "longitude" : "120.55931",
      "outDis" : "50",
      "Id" : "4815",
      "oid" : "15238",
      "districtId" : "1",
      "nameZh" : "沙鹿火車站",
      "pgp" : "0",
      "terminal" : "0",
      "latitude" : "24.23602",
      "inDis" : "50",
      "routeId" : "95副",
      "seqNo" : "53"
   },
   {
      "GoBack" : "2",
      "longitude" : "120.5632",
      "outDis" : "50",
      "Id" : "5794",
      "oid" : "15264",
      "districtId" : "1",
      "nameZh" : "沙鹿國中(鎮南路)",
      "pgp" : "0",
      "terminal" : "0",
      "latitude" : "24.23335",
      "inDis" : "50",
      "routeId" : "95副",
      "seqNo" : "54"
   },
   {
      "GoBack" : "2",
      "longitude" : "120.56548",
      "outDis" : "50",
      "Id" : "4817",
      "oid" : "312512873",
      "districtId" : "1",
      "nameZh" : "沙鹿區公所",
      "pgp" : "0",
      "terminal" : "0",
      "latitude" : "24.23245",
      "inDis" : "50",
      "routeId" : "95副",
      "seqNo" : "55"
   },
   {
      "GoBack" : "2",
      "longitude" : "120.56715",
      "outDis" : "50",
      "Id" : "2362",
      "oid" : "5871",
      "districtId" : "1",
      "nameZh" : "明泰社區",
      "pgp" : "0",
      "terminal" : "0",
      "latitude" : "24.22861",
      "inDis" : "50",
      "routeId" : "95副",
      "seqNo" : "56"
   },
   {
      "GoBack" : "2",
      "longitude" : "120.56802",
      "outDis" : "50",
      "Id" : "5681",
      "oid" : "319625391",
      "districtId" : "1",
      "nameZh" : "鎮南福至路口",
      "pgp" : "0",
      "terminal" : "0",
      "latitude" : "24.2263",
      "inDis" : "50",
      "routeId" : "95副",
      "seqNo" : "57"
   },
   {
      "GoBack" : "2",
      "longitude" : "120.56875",
      "outDis" : "50",
      "Id" : "1796",
      "oid" : "5533",
      "districtId" : "1",
      "nameZh" : "北勢頭",
      "pgp" : "0",
      "terminal" : "0",
      "latitude" : "24.22442",
      "inDis" : "50",
      "routeId" : "95副",
      "seqNo" : "58"
   },
   {
      "GoBack" : "2",
      "longitude" : "120.56915",
      "outDis" : "50",
      "Id" : "5785",
      "oid" : "320761419",
      "districtId" : "1",
      "nameZh" : "福興(鎮南路)",
      "pgp" : "0",
      "terminal" : "0",
      "latitude" : "24.22193",
      "inDis" : "50",
      "routeId" : "95副",
      "seqNo" : "59"
   },
   {
      "GoBack" : "2",
      "longitude" : "120.56971",
      "outDis" : "50",
      "Id" : "3529",
      "oid" : "310808452",
      "districtId" : "1",
      "nameZh" : "鎮南平等路口",
      "pgp" : "0",
      "terminal" : "0",
      "latitude" : "24.21931",
      "inDis" : "50",
      "routeId" : "95副",
      "seqNo" : "60"
   },
   {
      "GoBack" : "2",
      "longitude" : "120.57082",
      "outDis" : "50",
      "Id" : "2361",
      "oid" : "5870",
      "districtId" : "1",
      "nameZh" : "明秀",
      "pgp" : "0",
      "terminal" : "0",
      "latitude" : "24.21652",
      "inDis" : "50",
      "routeId" : "95副",
      "seqNo" : "61"
   },
   {
      "GoBack" : "2",
      "longitude" : "120.57032",
      "outDis" : "50",
      "Id" : "1782",
      "oid" : "5524",
      "districtId" : "1",
      "nameZh" : "北埔仔",
      "pgp" : "0",
      "terminal" : "0",
      "latitude" : "24.21241",
      "inDis" : "50",
      "routeId" : "95副",
      "seqNo" : "62"
   },
   {
      "GoBack" : "2",
      "longitude" : "120.57174",
      "outDis" : "50",
      "Id" : "5751",
      "oid" : "320470405",
      "districtId" : "1",
      "nameZh" : "正英二街口",
      "pgp" : "0",
      "terminal" : "0",
      "latitude" : "24.21114",
      "inDis" : "50",
      "routeId" : "95副",
      "seqNo" : "63"
   },
   {
      "GoBack" : "2",
      "longitude" : "120.57221",
      "outDis" : "50",
      "Id" : "3530",
      "oid" : "310808453",
      "districtId" : "1",
      "nameZh" : "正英鎮南路口",
      "pgp" : "0",
      "terminal" : "0",
      "latitude" : "24.21107",
      "inDis" : "50",
      "routeId" : "95副",
      "seqNo" : "64"
   },
   {
      "GoBack" : "2",
      "longitude" : "120.57606",
      "outDis" : "50",
      "Id" : "5429",
      "oid" : "317734409",
      "districtId" : "1",
      "nameZh" : "正英七街口",
      "pgp" : "0",
      "terminal" : "0",
      "latitude" : "24.20963",
      "inDis" : "50",
      "routeId" : "95副",
      "seqNo" : "65"
   },
   {
      "GoBack" : "2",
      "longitude" : "120.58033",
      "outDis" : "50",
      "Id" : "3531",
      "oid" : "310808454",
      "districtId" : "1",
      "nameZh" : "正英臺灣大道口",
      "pgp" : "0",
      "terminal" : "0",
      "latitude" : "24.20961",
      "inDis" : "50",
      "routeId" : "95副",
      "seqNo" : "66"
   }
]
