[
   {
      "GoBack" : "1",
      "longitude" : "120.68572",
      "outDis" : "50",
      "Id" : "1829",
      "oid" : "17342",
      "districtId" : "1",
      "nameZh" : "臺中站",
      "pgp" : "0",
      "terminal" : "0",
      "latitude" : "24.13861",
      "inDis" : "50",
      "routeId" : "169",
      "seqNo" : "1"
   },
   {
      "GoBack" : "1",
      "longitude" : "120.68388",
      "outDis" : "50",
      "Id" : "5670",
      "oid" : "317714375",
      "districtId" : "1",
      "nameZh" : "公園自由路口",
      "pgp" : "0",
      "terminal" : "0",
      "latitude" : "24.14269",
      "inDis" : "50",
      "routeId" : "169",
      "seqNo" : "2"
   },
   {
      "GoBack" : "1",
      "longitude" : "120.6812",
      "outDis" : "50",
      "Id" : "5506",
      "oid" : "17344",
      "districtId" : "1",
      "nameZh" : "光復國小(三民路)",
      "pgp" : "0",
      "terminal" : "0",
      "latitude" : "24.14434",
      "inDis" : "50",
      "routeId" : "169",
      "seqNo" : "3"
   },
   {
      "GoBack" : "1",
      "longitude" : "120.67994",
      "outDis" : "50",
      "Id" : "4609",
      "oid" : "318895923",
      "districtId" : "1",
      "nameZh" : "第二市場(三民路)",
      "pgp" : "0",
      "terminal" : "0",
      "latitude" : "24.14286",
      "inDis" : "50",
      "routeId" : "169",
      "seqNo" : "4"
   },
   {
      "GoBack" : "1",
      "longitude" : "120.67847",
      "outDis" : "50",
      "Id" : "5026",
      "oid" : "318895924",
      "districtId" : "1",
      "nameZh" : "美榮藥局",
      "pgp" : "0",
      "terminal" : "0",
      "latitude" : "24.14144",
      "inDis" : "50",
      "routeId" : "169",
      "seqNo" : "5"
   },
   {
      "GoBack" : "1",
      "longitude" : "120.6766",
      "outDis" : "50",
      "Id" : "0208",
      "oid" : "318895925",
      "districtId" : "1",
      "nameZh" : "臺中醫院",
      "pgp" : "0",
      "terminal" : "0",
      "latitude" : "24.14087",
      "inDis" : "50",
      "routeId" : "169",
      "seqNo" : "6"
   },
   {
      "GoBack" : "1",
      "longitude" : "120.67482",
      "outDis" : "50",
      "Id" : "4623",
      "oid" : "318895926",
      "districtId" : "1",
      "nameZh" : "民權中華路口",
      "pgp" : "0",
      "terminal" : "0",
      "latitude" : "24.14225",
      "inDis" : "50",
      "routeId" : "169",
      "seqNo" : "7"
   },
   {
      "GoBack" : "1",
      "longitude" : "120.67248",
      "outDis" : "50",
      "Id" : "0513",
      "oid" : "318895927",
      "districtId" : "1",
      "nameZh" : "臺中教育大學",
      "pgp" : "0",
      "terminal" : "0",
      "latitude" : "24.14448",
      "inDis" : "50",
      "routeId" : "169",
      "seqNo" : "8"
   },
   {
      "GoBack" : "1",
      "longitude" : "120.66978",
      "outDis" : "50",
      "Id" : "0262",
      "oid" : "319060119",
      "districtId" : "1",
      "nameZh" : "民權路口",
      "pgp" : "0",
      "terminal" : "0",
      "latitude" : "24.14884",
      "inDis" : "50",
      "routeId" : "169",
      "seqNo" : "9"
   },
   {
      "GoBack" : "1",
      "longitude" : "120.66942",
      "outDis" : "50",
      "Id" : "4619",
      "oid" : "17348",
      "districtId" : "1",
      "nameZh" : "臺灣大道民權路口",
      "pgp" : "0",
      "terminal" : "0",
      "latitude" : "24.15136",
      "inDis" : "50",
      "routeId" : "169",
      "seqNo" : "10"
   },
   {
      "GoBack" : "1",
      "longitude" : "120.66735",
      "outDis" : "50",
      "Id" : "0419",
      "oid" : "315867756",
      "districtId" : "1",
      "nameZh" : "中正國小",
      "pgp" : "0",
      "terminal" : "0",
      "latitude" : "24.15314",
      "inDis" : "50",
      "routeId" : "169",
      "seqNo" : "11"
   },
   {
      "GoBack" : "1",
      "longitude" : "120.66313",
      "outDis" : "50",
      "Id" : "0320",
      "oid" : "319472665",
      "districtId" : "1",
      "nameZh" : "科學博物館(臺灣大道)",
      "pgp" : "0",
      "terminal" : "0",
      "latitude" : "24.1552",
      "inDis" : "50",
      "routeId" : "169",
      "seqNo" : "12"
   },
   {
      "GoBack" : "1",
      "longitude" : "120.65894",
      "outDis" : "50",
      "Id" : "0087",
      "oid" : "17351",
      "districtId" : "1",
      "nameZh" : "忠明國小",
      "pgp" : "0",
      "terminal" : "0",
      "latitude" : "24.15741",
      "inDis" : "50",
      "routeId" : "169",
      "seqNo" : "13"
   },
   {
      "GoBack" : "1",
      "longitude" : "120.65624",
      "outDis" : "50",
      "Id" : "4569",
      "oid" : "17352",
      "districtId" : "1",
      "nameZh" : "頂何厝(臺灣大道)",
      "pgp" : "0",
      "terminal" : "0",
      "latitude" : "24.15915",
      "inDis" : "50",
      "routeId" : "169",
      "seqNo" : "14"
   },
   {
      "GoBack" : "1",
      "longitude" : "120.65449",
      "outDis" : "50",
      "Id" : "4566",
      "oid" : "17353",
      "districtId" : "1",
      "nameZh" : "何厝(臺灣大道)",
      "pgp" : "0",
      "terminal" : "0",
      "latitude" : "24.16018",
      "inDis" : "50",
      "routeId" : "169",
      "seqNo" : "15"
   },
   {
      "GoBack" : "1",
      "longitude" : "120.6515",
      "outDis" : "50",
      "Id" : "4564",
      "oid" : "17354",
      "districtId" : "1",
      "nameZh" : "臺灣大道文心路口",
      "pgp" : "0",
      "terminal" : "0",
      "latitude" : "24.16183",
      "inDis" : "50",
      "routeId" : "169",
      "seqNo" : "16"
   },
   {
      "GoBack" : "1",
      "longitude" : "120.64692",
      "outDis" : "50",
      "Id" : "0017",
      "oid" : "17355",
      "districtId" : "1",
      "nameZh" : "臺中市政府",
      "pgp" : "0",
      "terminal" : "0",
      "latitude" : "24.16435",
      "inDis" : "50",
      "routeId" : "169",
      "seqNo" : "17"
   },
   {
      "GoBack" : "1",
      "longitude" : "120.64418",
      "outDis" : "50",
      "Id" : "0016",
      "oid" : "17356",
      "districtId" : "1",
      "nameZh" : "新光三越",
      "pgp" : "0",
      "terminal" : "0",
      "latitude" : "24.1658",
      "inDis" : "50",
      "routeId" : "169",
      "seqNo" : "18"
   },
   {
      "GoBack" : "1",
      "longitude" : "120.6421",
      "outDis" : "50",
      "Id" : "0015",
      "oid" : "17357",
      "districtId" : "1",
      "nameZh" : "教師新村",
      "pgp" : "0",
      "terminal" : "0",
      "latitude" : "24.16704",
      "inDis" : "50",
      "routeId" : "169",
      "seqNo" : "19"
   },
   {
      "GoBack" : "1",
      "longitude" : "120.63968",
      "outDis" : "50",
      "Id" : "0826",
      "oid" : "17358",
      "districtId" : "1",
      "nameZh" : "秋紅谷(朝陽橋)",
      "pgp" : "0",
      "terminal" : "0",
      "latitude" : "24.16892",
      "inDis" : "50",
      "routeId" : "169",
      "seqNo" : "20"
   },
   {
      "GoBack" : "1",
      "longitude" : "120.63717",
      "outDis" : "50",
      "Id" : "0054",
      "oid" : "313524993",
      "districtId" : "1",
      "nameZh" : "朝馬(臺灣大道)",
      "pgp" : "0",
      "terminal" : "0",
      "latitude" : "24.17059",
      "inDis" : "50",
      "routeId" : "169",
      "seqNo" : "21"
   },
   {
      "GoBack" : "1",
      "longitude" : "120.6257",
      "outDis" : "50",
      "Id" : "5149",
      "oid" : "17360",
      "districtId" : "1",
      "nameZh" : "福安里(臺灣大道)",
      "pgp" : "0",
      "terminal" : "0",
      "latitude" : "24.178",
      "inDis" : "50",
      "routeId" : "169",
      "seqNo" : "22"
   },
   {
      "GoBack" : "1",
      "longitude" : "120.62232",
      "outDis" : "50",
      "Id" : "3060",
      "oid" : "17361",
      "districtId" : "1",
      "nameZh" : "統聯轉運站",
      "pgp" : "0",
      "terminal" : "0",
      "latitude" : "24.17983",
      "inDis" : "50",
      "routeId" : "169",
      "seqNo" : "23"
   },
   {
      "GoBack" : "1",
      "longitude" : "120.619",
      "outDis" : "50",
      "Id" : "0008",
      "oid" : "17362",
      "districtId" : "1",
      "nameZh" : "中港新城",
      "pgp" : "0",
      "terminal" : "0",
      "latitude" : "24.18145",
      "inDis" : "50",
      "routeId" : "169",
      "seqNo" : "24"
   },
   {
      "GoBack" : "1",
      "longitude" : "120.61595",
      "outDis" : "50",
      "Id" : "0430",
      "oid" : "17363",
      "districtId" : "1",
      "nameZh" : "中港澄清醫院",
      "pgp" : "0",
      "terminal" : "0",
      "latitude" : "24.18297",
      "inDis" : "50",
      "routeId" : "169",
      "seqNo" : "25"
   },
   {
      "GoBack" : "1",
      "longitude" : "120.61317",
      "outDis" : "50",
      "Id" : "0006",
      "oid" : "17364",
      "districtId" : "1",
      "nameZh" : "臺中捐血中心",
      "pgp" : "0",
      "terminal" : "0",
      "latitude" : "24.18427",
      "inDis" : "50",
      "routeId" : "169",
      "seqNo" : "26"
   },
   {
      "GoBack" : "1",
      "longitude" : "120.6109",
      "outDis" : "50",
      "Id" : "4335",
      "oid" : "17365",
      "districtId" : "1",
      "nameZh" : "臺灣大道玉門路口",
      "pgp" : "0",
      "terminal" : "0",
      "latitude" : "24.1847",
      "inDis" : "50",
      "routeId" : "169",
      "seqNo" : "27"
   },
   {
      "GoBack" : "1",
      "longitude" : "120.60835",
      "outDis" : "50",
      "Id" : "0004",
      "oid" : "17366",
      "districtId" : "1",
      "nameZh" : "普濟寺",
      "pgp" : "0",
      "terminal" : "0",
      "latitude" : "24.18426",
      "inDis" : "50",
      "routeId" : "169",
      "seqNo" : "28"
   },
   {
      "GoBack" : "1",
      "longitude" : "120.60645",
      "outDis" : "50",
      "Id" : "2378",
      "oid" : "17367",
      "districtId" : "1",
      "nameZh" : "東大附中",
      "pgp" : "0",
      "terminal" : "0",
      "latitude" : "24.18384",
      "inDis" : "50",
      "routeId" : "169",
      "seqNo" : "29"
   },
   {
      "GoBack" : "1",
      "longitude" : "120.60491",
      "outDis" : "50",
      "Id" : "5386",
      "oid" : "2260",
      "districtId" : "1",
      "nameZh" : "臺中榮總(臺灣大道)",
      "pgp" : "0",
      "terminal" : "0",
      "latitude" : "24.18349",
      "inDis" : "50",
      "routeId" : "169",
      "seqNo" : "30"
   },
   {
      "GoBack" : "1",
      "longitude" : "120.59758",
      "outDis" : "50",
      "Id" : "0526",
      "oid" : "17369",
      "districtId" : "1",
      "nameZh" : "台中精機",
      "pgp" : "0",
      "terminal" : "0",
      "latitude" : "24.18211",
      "inDis" : "50",
      "routeId" : "169",
      "seqNo" : "31"
   },
   {
      "GoBack" : "1",
      "longitude" : "120.59375",
      "outDis" : "50",
      "Id" : "0240",
      "oid" : "6CC4ACBA022E400EAA879E5848F7CA08",
      "districtId" : "1",
      "nameZh" : "東海別墅",
      "pgp" : "0",
      "terminal" : "0",
      "latitude" : "24.1829",
      "inDis" : "50",
      "routeId" : "169",
      "seqNo" : "32"
   },
   {
      "GoBack" : "1",
      "longitude" : "120.59125",
      "outDis" : "50",
      "Id" : "4383",
      "oid" : "17371",
      "districtId" : "1",
      "nameZh" : "臺糖公營學苑",
      "pgp" : "0",
      "terminal" : "0",
      "latitude" : "24.18374",
      "inDis" : "50",
      "routeId" : "169",
      "seqNo" : "33"
   },
   {
      "GoBack" : "1",
      "longitude" : "120.58816",
      "outDis" : "50",
      "Id" : "5304",
      "oid" : "311454628",
      "districtId" : "1",
      "nameZh" : "東海街口",
      "pgp" : "0",
      "terminal" : "0",
      "latitude" : "24.18523",
      "inDis" : "50",
      "routeId" : "169",
      "seqNo" : "34"
   },
   {
      "GoBack" : "1",
      "longitude" : "120.58505",
      "outDis" : "50",
      "Id" : "2325",
      "oid" : "17523",
      "districtId" : "1",
      "nameZh" : "坪頂",
      "pgp" : "0",
      "terminal" : "0",
      "latitude" : "24.1866",
      "inDis" : "50",
      "routeId" : "169",
      "seqNo" : "35"
   },
   {
      "GoBack" : "1",
      "longitude" : "120.58312",
      "outDis" : "50",
      "Id" : "4061",
      "oid" : "17373",
      "districtId" : "1",
      "nameZh" : "下坪頂",
      "pgp" : "0",
      "terminal" : "0",
      "latitude" : "24.18752",
      "inDis" : "50",
      "routeId" : "169",
      "seqNo" : "36"
   },
   {
      "GoBack" : "1",
      "longitude" : "120.58081",
      "outDis" : "50",
      "Id" : "4388",
      "oid" : "17374",
      "districtId" : "1",
      "nameZh" : "后厝仔",
      "pgp" : "0",
      "terminal" : "0",
      "latitude" : "24.19915",
      "inDis" : "50",
      "routeId" : "169",
      "seqNo" : "37"
   },
   {
      "GoBack" : "1",
      "longitude" : "120.5815",
      "outDis" : "50",
      "Id" : "4136",
      "oid" : "14266",
      "districtId" : "1",
      "nameZh" : "祿清宮",
      "pgp" : "0",
      "terminal" : "0",
      "latitude" : "24.2102",
      "inDis" : "50",
      "routeId" : "169",
      "seqNo" : "38"
   },
   {
      "GoBack" : "1",
      "longitude" : "120.58114",
      "outDis" : "50",
      "Id" : "4124",
      "oid" : "17376",
      "districtId" : "1",
      "nameZh" : "頂六路",
      "pgp" : "0",
      "terminal" : "0",
      "latitude" : "24.21332",
      "inDis" : "50",
      "routeId" : "169",
      "seqNo" : "39"
   },
   {
      "GoBack" : "1",
      "longitude" : "120.5808",
      "outDis" : "50",
      "Id" : "4386",
      "oid" : "17377",
      "districtId" : "1",
      "nameZh" : "弘光科技大學",
      "pgp" : "0",
      "terminal" : "0",
      "latitude" : "24.2166",
      "inDis" : "50",
      "routeId" : "169",
      "seqNo" : "40"
   },
   {
      "GoBack" : "1",
      "longitude" : "120.5794",
      "outDis" : "50",
      "Id" : "4111",
      "oid" : "17529",
      "districtId" : "1",
      "nameZh" : "晉江里",
      "pgp" : "0",
      "terminal" : "0",
      "latitude" : "24.2219",
      "inDis" : "50",
      "routeId" : "169",
      "seqNo" : "41"
   },
   {
      "GoBack" : "1",
      "longitude" : "120.57859",
      "outDis" : "50",
      "Id" : "4062",
      "oid" : "17379",
      "districtId" : "1",
      "nameZh" : "下晉江",
      "pgp" : "0",
      "terminal" : "0",
      "latitude" : "24.22326",
      "inDis" : "50",
      "routeId" : "169",
      "seqNo" : "42"
   },
   {
      "GoBack" : "1",
      "longitude" : "120.57673",
      "outDis" : "50",
      "Id" : "4147",
      "oid" : "17380",
      "districtId" : "1",
      "nameZh" : "靜宜大學",
      "pgp" : "0",
      "terminal" : "0",
      "latitude" : "24.22623",
      "inDis" : "50",
      "routeId" : "169",
      "seqNo" : "43"
   },
   {
      "GoBack" : "1",
      "longitude" : "120.57421",
      "outDis" : "50",
      "Id" : "4086",
      "oid" : "17381",
      "districtId" : "1",
      "nameZh" : "臺灣大道北勢路口",
      "pgp" : "0",
      "terminal" : "0",
      "latitude" : "24.23015",
      "inDis" : "50",
      "routeId" : "169",
      "seqNo" : "44"
   },
   {
      "GoBack" : "1",
      "longitude" : "120.57201",
      "outDis" : "50",
      "Id" : "4392",
      "oid" : "17382",
      "districtId" : "1",
      "nameZh" : "紅竹巷",
      "pgp" : "0",
      "terminal" : "0",
      "latitude" : "24.23365",
      "inDis" : "50",
      "routeId" : "169",
      "seqNo" : "45"
   },
   {
      "GoBack" : "1",
      "longitude" : "120.56918",
      "outDis" : "50",
      "Id" : "5221",
      "oid" : "310787748",
      "districtId" : "1",
      "nameZh" : "中山臺灣大道口",
      "pgp" : "0",
      "terminal" : "0",
      "latitude" : "24.2371",
      "inDis" : "50",
      "routeId" : "169",
      "seqNo" : "46"
   },
   {
      "GoBack" : "1",
      "longitude" : "120.56673",
      "outDis" : "50",
      "Id" : "5222",
      "oid" : "310787750",
      "districtId" : "1",
      "nameZh" : "中山鎮政路口",
      "pgp" : "0",
      "terminal" : "0",
      "latitude" : "24.23698",
      "inDis" : "50",
      "routeId" : "169",
      "seqNo" : "47"
   },
   {
      "GoBack" : "1",
      "longitude" : "120.56491",
      "outDis" : "50",
      "Id" : "4390",
      "oid" : "17385",
      "districtId" : "1",
      "nameZh" : "沙鹿高工(中山路)",
      "pgp" : "0",
      "terminal" : "0",
      "latitude" : "24.23726",
      "inDis" : "50",
      "routeId" : "169",
      "seqNo" : "48"
   },
   {
      "GoBack" : "1",
      "longitude" : "120.56236",
      "outDis" : "50",
      "Id" : "2682",
      "oid" : "312574878",
      "districtId" : "1",
      "nameZh" : "洛泉里",
      "pgp" : "0",
      "terminal" : "0",
      "latitude" : "24.23768",
      "inDis" : "50",
      "routeId" : "169",
      "seqNo" : "49"
   },
   {
      "GoBack" : "1",
      "longitude" : "120.56104",
      "outDis" : "50",
      "Id" : "2248",
      "oid" : "17387",
      "districtId" : "1",
      "nameZh" : "沙鹿站",
      "pgp" : "0",
      "terminal" : "0",
      "latitude" : "24.23792",
      "inDis" : "50",
      "routeId" : "169",
      "seqNo" : "50"
   },
   {
      "GoBack" : "1",
      "longitude" : "120.56",
      "outDis" : "50",
      "Id" : "5135",
      "oid" : "14046",
      "districtId" : "1",
      "nameZh" : "第一銀行(沙鹿分行)",
      "pgp" : "0",
      "terminal" : "0",
      "latitude" : "24.23932",
      "inDis" : "50",
      "routeId" : "169",
      "seqNo" : "51"
   },
   {
      "GoBack" : "1",
      "longitude" : "120.55659",
      "outDis" : "50",
      "Id" : "1482",
      "oid" : "17389",
      "districtId" : "1",
      "nameZh" : "中港國小",
      "pgp" : "0",
      "terminal" : "0",
      "latitude" : "24.24273",
      "inDis" : "50",
      "routeId" : "169",
      "seqNo" : "52"
   },
   {
      "GoBack" : "1",
      "longitude" : "120.54911",
      "outDis" : "50",
      "Id" : "1088",
      "oid" : "17390",
      "districtId" : "1",
      "nameZh" : "三條圳",
      "pgp" : "0",
      "terminal" : "0",
      "latitude" : "24.24548",
      "inDis" : "50",
      "routeId" : "169",
      "seqNo" : "53"
   },
   {
      "GoBack" : "1",
      "longitude" : "120.54653",
      "outDis" : "50",
      "Id" : "4822",
      "oid" : "17391",
      "districtId" : "1",
      "nameZh" : "東大庄",
      "pgp" : "0",
      "terminal" : "0",
      "latitude" : "24.24643",
      "inDis" : "50",
      "routeId" : "169",
      "seqNo" : "54"
   },
   {
      "GoBack" : "1",
      "longitude" : "120.54472",
      "outDis" : "50",
      "Id" : "4007",
      "oid" : "17392",
      "districtId" : "1",
      "nameZh" : "體育館前",
      "pgp" : "0",
      "terminal" : "0",
      "latitude" : "24.2471",
      "inDis" : "50",
      "routeId" : "169",
      "seqNo" : "55"
   },
   {
      "GoBack" : "1",
      "longitude" : "120.54319",
      "outDis" : "50",
      "Id" : "4041",
      "oid" : "17393",
      "districtId" : "1",
      "nameZh" : "童綜合醫院(梧棲院區)",
      "pgp" : "0",
      "terminal" : "0",
      "latitude" : "24.24757",
      "inDis" : "50",
      "routeId" : "169",
      "seqNo" : "56"
   },
   {
      "GoBack" : "1",
      "longitude" : "120.54117",
      "outDis" : "50",
      "Id" : "4824",
      "oid" : "17394",
      "districtId" : "1",
      "nameZh" : "邱厝庄",
      "pgp" : "0",
      "terminal" : "0",
      "latitude" : "24.24818",
      "inDis" : "50",
      "routeId" : "169",
      "seqNo" : "57"
   },
   {
      "GoBack" : "1",
      "longitude" : "120.53916",
      "outDis" : "50",
      "Id" : "1334",
      "oid" : "17395",
      "districtId" : "1",
      "nameZh" : "大庄",
      "pgp" : "0",
      "terminal" : "0",
      "latitude" : "24.24908",
      "inDis" : "50",
      "routeId" : "169",
      "seqNo" : "58"
   },
   {
      "GoBack" : "1",
      "longitude" : "120.53444",
      "outDis" : "50",
      "Id" : "3250",
      "oid" : "17396",
      "districtId" : "1",
      "nameZh" : "臺灣大道港埠路口",
      "pgp" : "0",
      "terminal" : "0",
      "latitude" : "24.25083",
      "inDis" : "50",
      "routeId" : "169",
      "seqNo" : "59"
   },
   {
      "GoBack" : "1",
      "longitude" : "120.53036",
      "outDis" : "50",
      "Id" : "2999",
      "oid" : "17397",
      "districtId" : "1",
      "nameZh" : "梧棲國小",
      "pgp" : "0",
      "terminal" : "0",
      "latitude" : "24.25232",
      "inDis" : "50",
      "routeId" : "169",
      "seqNo" : "60"
   },
   {
      "GoBack" : "1",
      "longitude" : "120.5286",
      "outDis" : "50",
      "Id" : "2107",
      "oid" : "17400",
      "districtId" : "1",
      "nameZh" : "安仁里",
      "pgp" : "0",
      "terminal" : "0",
      "latitude" : "24.25366",
      "inDis" : "50",
      "routeId" : "169",
      "seqNo" : "61"
   },
   {
      "GoBack" : "1",
      "longitude" : "120.52957",
      "outDis" : "50",
      "Id" : "2997",
      "oid" : "17401",
      "districtId" : "1",
      "nameZh" : "梧棲(梧棲路)",
      "pgp" : "0",
      "terminal" : "0",
      "latitude" : "24.25658",
      "inDis" : "50",
      "routeId" : "169",
      "seqNo" : "62"
   },
   {
      "GoBack" : "1",
      "longitude" : "120.53009",
      "outDis" : "50",
      "Id" : "1208",
      "oid" : "17402",
      "districtId" : "1",
      "nameZh" : "下寮社區",
      "pgp" : "0",
      "terminal" : "0",
      "latitude" : "24.25856",
      "inDis" : "50",
      "routeId" : "169",
      "seqNo" : "63"
   },
   {
      "GoBack" : "1",
      "longitude" : "120.53035",
      "outDis" : "50",
      "Id" : "4783",
      "oid" : "15224",
      "districtId" : "1",
      "nameZh" : "下寮里(富美宮)",
      "pgp" : "0",
      "terminal" : "0",
      "latitude" : "24.26079",
      "inDis" : "50",
      "routeId" : "169",
      "seqNo" : "64"
   },
   {
      "GoBack" : "1",
      "longitude" : "120.53229",
      "outDis" : "50",
      "Id" : "4668",
      "oid" : "17403",
      "districtId" : "1",
      "nameZh" : "頂寮里",
      "pgp" : "0",
      "terminal" : "0",
      "latitude" : "24.26037",
      "inDis" : "50",
      "routeId" : "169",
      "seqNo" : "65"
   },
   {
      "GoBack" : "1",
      "longitude" : "120.53495",
      "outDis" : "50",
      "Id" : "4840",
      "oid" : "17404",
      "districtId" : "1",
      "nameZh" : "國都飯店",
      "pgp" : "0",
      "terminal" : "0",
      "latitude" : "24.25932",
      "inDis" : "50",
      "routeId" : "169",
      "seqNo" : "66"
   },
   {
      "GoBack" : "1",
      "longitude" : "120.53662",
      "outDis" : "50",
      "Id" : "5065",
      "oid" : "17405",
      "districtId" : "1",
      "nameZh" : "臺銀中港分行",
      "pgp" : "0",
      "terminal" : "0",
      "latitude" : "24.25995",
      "inDis" : "50",
      "routeId" : "169",
      "seqNo" : "67"
   },
   {
      "GoBack" : "1",
      "longitude" : "120.53741",
      "outDis" : "50",
      "Id" : "5064",
      "oid" : "17406",
      "districtId" : "1",
      "nameZh" : "臺中港郵局",
      "pgp" : "0",
      "terminal" : "0",
      "latitude" : "24.26193",
      "inDis" : "50",
      "routeId" : "169",
      "seqNo" : "68"
   },
   {
      "GoBack" : "1",
      "longitude" : "120.54158",
      "outDis" : "50",
      "Id" : "4810",
      "oid" : "17407",
      "districtId" : "1",
      "nameZh" : "竹圍(港埠路)",
      "pgp" : "0",
      "terminal" : "0",
      "latitude" : "24.2618",
      "inDis" : "50",
      "routeId" : "169",
      "seqNo" : "69"
   },
   {
      "GoBack" : "1",
      "longitude" : "120.54513",
      "outDis" : "50",
      "Id" : "3895",
      "oid" : "17408",
      "districtId" : "1",
      "nameZh" : "糠榔",
      "pgp" : "0",
      "terminal" : "0",
      "latitude" : "24.26342",
      "inDis" : "50",
      "routeId" : "169",
      "seqNo" : "70"
   },
   {
      "GoBack" : "1",
      "longitude" : "120.54853",
      "outDis" : "50",
      "Id" : "2444",
      "oid" : "17409",
      "districtId" : "1",
      "nameZh" : "東糠榔",
      "pgp" : "0",
      "terminal" : "0",
      "latitude" : "24.26431",
      "inDis" : "50",
      "routeId" : "169",
      "seqNo" : "71"
   },
   {
      "GoBack" : "1",
      "longitude" : "120.55146",
      "outDis" : "50",
      "Id" : "2177",
      "oid" : "17410",
      "districtId" : "1",
      "nameZh" : "西牛埔",
      "pgp" : "0",
      "terminal" : "0",
      "latitude" : "24.26504",
      "inDis" : "50",
      "routeId" : "169",
      "seqNo" : "72"
   },
   {
      "GoBack" : "1",
      "longitude" : "120.55556",
      "outDis" : "50",
      "Id" : "1732",
      "oid" : "17411",
      "districtId" : "1",
      "nameZh" : "牛埔",
      "pgp" : "0",
      "terminal" : "0",
      "latitude" : "24.26601",
      "inDis" : "50",
      "routeId" : "169",
      "seqNo" : "73"
   },
   {
      "GoBack" : "1",
      "longitude" : "120.56046",
      "outDis" : "50",
      "Id" : "2588",
      "oid" : "17412",
      "districtId" : "1",
      "nameZh" : "南社里",
      "pgp" : "0",
      "terminal" : "0",
      "latitude" : "24.26715",
      "inDis" : "50",
      "routeId" : "169",
      "seqNo" : "74"
   },
   {
      "GoBack" : "1",
      "longitude" : "120.56271",
      "outDis" : "50",
      "Id" : "3017",
      "oid" : "17414",
      "districtId" : "1",
      "nameZh" : "清水國中",
      "pgp" : "0",
      "terminal" : "0",
      "latitude" : "24.26778",
      "inDis" : "50",
      "routeId" : "169",
      "seqNo" : "76"
   },
   {
      "GoBack" : "1",
      "longitude" : "120.5648",
      "outDis" : "50",
      "Id" : "3700",
      "oid" : "17415",
      "districtId" : "1",
      "nameZh" : "銀聯二村",
      "pgp" : "0",
      "terminal" : "0",
      "latitude" : "24.26832",
      "inDis" : "50",
      "routeId" : "169",
      "seqNo" : "77"
   },
   {
      "GoBack" : "1",
      "longitude" : "120.56825",
      "outDis" : "50",
      "Id" : "2486",
      "oid" : "17416",
      "districtId" : "1",
      "nameZh" : "社口",
      "pgp" : "0",
      "terminal" : "0",
      "latitude" : "24.26845",
      "inDis" : "50",
      "routeId" : "169",
      "seqNo" : "78"
   },
   {
      "GoBack" : "1",
      "longitude" : "120.57004",
      "outDis" : "50",
      "Id" : "5655",
      "oid" : "317714376",
      "districtId" : "1",
      "nameZh" : "鰲峰西社路口",
      "pgp" : "0",
      "terminal" : "0",
      "latitude" : "24.26923",
      "inDis" : "50",
      "routeId" : "169",
      "seqNo" : "79"
   },
   {
      "GoBack" : "1",
      "longitude" : "120.57531",
      "outDis" : "50",
      "Id" : "1615",
      "oid" : "17418",
      "districtId" : "1",
      "nameZh" : "分局前",
      "pgp" : "0",
      "terminal" : "0",
      "latitude" : "24.26919",
      "inDis" : "50",
      "routeId" : "169",
      "seqNo" : "80"
   },
   {
      "GoBack" : "1",
      "longitude" : "120.57594",
      "outDis" : "50",
      "Id" : "3013",
      "oid" : "10843",
      "districtId" : "1",
      "nameZh" : "清水",
      "pgp" : "0",
      "terminal" : "0",
      "latitude" : "24.2703",
      "inDis" : "50",
      "routeId" : "169",
      "seqNo" : "81"
   },
   {
      "GoBack" : "2",
      "longitude" : "120.57594",
      "outDis" : "50",
      "Id" : "3013",
      "oid" : "10843",
      "districtId" : "1",
      "nameZh" : "清水",
      "pgp" : "0",
      "terminal" : "0",
      "latitude" : "24.2703",
      "inDis" : "50",
      "routeId" : "169",
      "seqNo" : "1"
   },
   {
      "GoBack" : "2",
      "longitude" : "120.57531",
      "outDis" : "50",
      "Id" : "1615",
      "oid" : "17421",
      "districtId" : "1",
      "nameZh" : "分局前",
      "pgp" : "0",
      "terminal" : "0",
      "latitude" : "24.26919",
      "inDis" : "50",
      "routeId" : "169",
      "seqNo" : "2"
   },
   {
      "GoBack" : "2",
      "longitude" : "120.57004",
      "outDis" : "50",
      "Id" : "5655",
      "oid" : "317714376",
      "districtId" : "1",
      "nameZh" : "鰲峰西社路口",
      "pgp" : "0",
      "terminal" : "0",
      "latitude" : "24.26923",
      "inDis" : "50",
      "routeId" : "169",
      "seqNo" : "3"
   },
   {
      "GoBack" : "2",
      "longitude" : "120.56825",
      "outDis" : "50",
      "Id" : "2486",
      "oid" : "17423",
      "districtId" : "1",
      "nameZh" : "社口",
      "pgp" : "0",
      "terminal" : "0",
      "latitude" : "24.26845",
      "inDis" : "50",
      "routeId" : "169",
      "seqNo" : "4"
   },
   {
      "GoBack" : "2",
      "longitude" : "120.5648",
      "outDis" : "50",
      "Id" : "3700",
      "oid" : "17424",
      "districtId" : "1",
      "nameZh" : "銀聯二村",
      "pgp" : "0",
      "terminal" : "0",
      "latitude" : "24.26832",
      "inDis" : "50",
      "routeId" : "169",
      "seqNo" : "5"
   },
   {
      "GoBack" : "2",
      "longitude" : "120.56271",
      "outDis" : "50",
      "Id" : "3017",
      "oid" : "17425",
      "districtId" : "1",
      "nameZh" : "清水國中",
      "pgp" : "0",
      "terminal" : "0",
      "latitude" : "24.26778",
      "inDis" : "50",
      "routeId" : "169",
      "seqNo" : "6"
   },
   {
      "GoBack" : "2",
      "longitude" : "120.56046",
      "outDis" : "50",
      "Id" : "2588",
      "oid" : "17427",
      "districtId" : "1",
      "nameZh" : "南社里",
      "pgp" : "0",
      "terminal" : "0",
      "latitude" : "24.26715",
      "inDis" : "50",
      "routeId" : "169",
      "seqNo" : "8"
   },
   {
      "GoBack" : "2",
      "longitude" : "120.55556",
      "outDis" : "50",
      "Id" : "1732",
      "oid" : "17428",
      "districtId" : "1",
      "nameZh" : "牛埔",
      "pgp" : "0",
      "terminal" : "0",
      "latitude" : "24.26601",
      "inDis" : "50",
      "routeId" : "169",
      "seqNo" : "9"
   },
   {
      "GoBack" : "2",
      "longitude" : "120.55146",
      "outDis" : "50",
      "Id" : "2177",
      "oid" : "17429",
      "districtId" : "1",
      "nameZh" : "西牛埔",
      "pgp" : "0",
      "terminal" : "0",
      "latitude" : "24.26504",
      "inDis" : "50",
      "routeId" : "169",
      "seqNo" : "10"
   },
   {
      "GoBack" : "2",
      "longitude" : "120.54853",
      "outDis" : "50",
      "Id" : "2444",
      "oid" : "17430",
      "districtId" : "1",
      "nameZh" : "東糠榔",
      "pgp" : "0",
      "terminal" : "0",
      "latitude" : "24.26431",
      "inDis" : "50",
      "routeId" : "169",
      "seqNo" : "11"
   },
   {
      "GoBack" : "2",
      "longitude" : "120.54513",
      "outDis" : "50",
      "Id" : "3895",
      "oid" : "17431",
      "districtId" : "1",
      "nameZh" : "糠榔",
      "pgp" : "0",
      "terminal" : "0",
      "latitude" : "24.26342",
      "inDis" : "50",
      "routeId" : "169",
      "seqNo" : "12"
   },
   {
      "GoBack" : "2",
      "longitude" : "120.54158",
      "outDis" : "50",
      "Id" : "4810",
      "oid" : "17432",
      "districtId" : "1",
      "nameZh" : "竹圍(港埠路)",
      "pgp" : "0",
      "terminal" : "0",
      "latitude" : "24.2618",
      "inDis" : "50",
      "routeId" : "169",
      "seqNo" : "13"
   },
   {
      "GoBack" : "2",
      "longitude" : "120.53741",
      "outDis" : "50",
      "Id" : "5064",
      "oid" : "17433",
      "districtId" : "1",
      "nameZh" : "臺中港郵局",
      "pgp" : "0",
      "terminal" : "0",
      "latitude" : "24.26193",
      "inDis" : "50",
      "routeId" : "169",
      "seqNo" : "14"
   },
   {
      "GoBack" : "2",
      "longitude" : "120.53642",
      "outDis" : "50",
      "Id" : "5065",
      "oid" : "17434",
      "districtId" : "1",
      "nameZh" : "臺銀中港分行",
      "pgp" : "0",
      "terminal" : "0",
      "latitude" : "24.25989",
      "inDis" : "50",
      "routeId" : "169",
      "seqNo" : "15"
   },
   {
      "GoBack" : "2",
      "longitude" : "120.5349",
      "outDis" : "50",
      "Id" : "4840",
      "oid" : "17435",
      "districtId" : "1",
      "nameZh" : "國都飯店",
      "pgp" : "0",
      "terminal" : "0",
      "latitude" : "24.2594",
      "inDis" : "50",
      "routeId" : "169",
      "seqNo" : "16"
   },
   {
      "GoBack" : "2",
      "longitude" : "120.53231",
      "outDis" : "50",
      "Id" : "4668",
      "oid" : "17436",
      "districtId" : "1",
      "nameZh" : "頂寮里",
      "pgp" : "0",
      "terminal" : "0",
      "latitude" : "24.2604",
      "inDis" : "50",
      "routeId" : "169",
      "seqNo" : "17"
   },
   {
      "GoBack" : "2",
      "longitude" : "120.53035",
      "outDis" : "50",
      "Id" : "4783",
      "oid" : "15281",
      "districtId" : "1",
      "nameZh" : "下寮里(富美宮)",
      "pgp" : "0",
      "terminal" : "0",
      "latitude" : "24.26079",
      "inDis" : "50",
      "routeId" : "169",
      "seqNo" : "18"
   },
   {
      "GoBack" : "2",
      "longitude" : "120.53002",
      "outDis" : "50",
      "Id" : "1208",
      "oid" : "17437",
      "districtId" : "1",
      "nameZh" : "下寮社區",
      "pgp" : "0",
      "terminal" : "0",
      "latitude" : "24.25874",
      "inDis" : "50",
      "routeId" : "169",
      "seqNo" : "19"
   },
   {
      "GoBack" : "2",
      "longitude" : "120.52957",
      "outDis" : "50",
      "Id" : "2997",
      "oid" : "17438",
      "districtId" : "1",
      "nameZh" : "梧棲(梧棲路)",
      "pgp" : "0",
      "terminal" : "0",
      "latitude" : "24.25658",
      "inDis" : "50",
      "routeId" : "169",
      "seqNo" : "20"
   },
   {
      "GoBack" : "2",
      "longitude" : "120.52855",
      "outDis" : "50",
      "Id" : "2107",
      "oid" : "17439",
      "districtId" : "1",
      "nameZh" : "安仁里",
      "pgp" : "0",
      "terminal" : "0",
      "latitude" : "24.25361",
      "inDis" : "50",
      "routeId" : "169",
      "seqNo" : "21"
   },
   {
      "GoBack" : "2",
      "longitude" : "120.53032",
      "outDis" : "50",
      "Id" : "2999",
      "oid" : "17442",
      "districtId" : "1",
      "nameZh" : "梧棲國小",
      "pgp" : "0",
      "terminal" : "0",
      "latitude" : "24.25212",
      "inDis" : "50",
      "routeId" : "169",
      "seqNo" : "22"
   },
   {
      "GoBack" : "2",
      "longitude" : "120.53444",
      "outDis" : "50",
      "Id" : "3250",
      "oid" : "17443",
      "districtId" : "1",
      "nameZh" : "臺灣大道港埠路口",
      "pgp" : "0",
      "terminal" : "0",
      "latitude" : "24.25083",
      "inDis" : "50",
      "routeId" : "169",
      "seqNo" : "23"
   },
   {
      "GoBack" : "2",
      "longitude" : "120.53916",
      "outDis" : "50",
      "Id" : "1334",
      "oid" : "17444",
      "districtId" : "1",
      "nameZh" : "大庄",
      "pgp" : "0",
      "terminal" : "0",
      "latitude" : "24.24908",
      "inDis" : "50",
      "routeId" : "169",
      "seqNo" : "24"
   },
   {
      "GoBack" : "2",
      "longitude" : "120.54117",
      "outDis" : "50",
      "Id" : "4824",
      "oid" : "17445",
      "districtId" : "1",
      "nameZh" : "邱厝庄",
      "pgp" : "0",
      "terminal" : "0",
      "latitude" : "24.24818",
      "inDis" : "50",
      "routeId" : "169",
      "seqNo" : "25"
   },
   {
      "GoBack" : "2",
      "longitude" : "120.54319",
      "outDis" : "50",
      "Id" : "4041",
      "oid" : "17446",
      "districtId" : "1",
      "nameZh" : "童綜合醫院(梧棲院區)",
      "pgp" : "0",
      "terminal" : "0",
      "latitude" : "24.24757",
      "inDis" : "50",
      "routeId" : "169",
      "seqNo" : "26"
   },
   {
      "GoBack" : "2",
      "longitude" : "120.54472",
      "outDis" : "50",
      "Id" : "4007",
      "oid" : "17447",
      "districtId" : "1",
      "nameZh" : "體育館前",
      "pgp" : "0",
      "terminal" : "0",
      "latitude" : "24.2471",
      "inDis" : "50",
      "routeId" : "169",
      "seqNo" : "27"
   },
   {
      "GoBack" : "2",
      "longitude" : "120.54653",
      "outDis" : "50",
      "Id" : "4822",
      "oid" : "17448",
      "districtId" : "1",
      "nameZh" : "東大庄",
      "pgp" : "0",
      "terminal" : "0",
      "latitude" : "24.24643",
      "inDis" : "50",
      "routeId" : "169",
      "seqNo" : "28"
   },
   {
      "GoBack" : "2",
      "longitude" : "120.54911",
      "outDis" : "50",
      "Id" : "1088",
      "oid" : "17449",
      "districtId" : "1",
      "nameZh" : "三條圳",
      "pgp" : "0",
      "terminal" : "0",
      "latitude" : "24.24548",
      "inDis" : "50",
      "routeId" : "169",
      "seqNo" : "29"
   },
   {
      "GoBack" : "2",
      "longitude" : "120.55659",
      "outDis" : "50",
      "Id" : "1482",
      "oid" : "17450",
      "districtId" : "1",
      "nameZh" : "中港國小",
      "pgp" : "0",
      "terminal" : "0",
      "latitude" : "24.24273",
      "inDis" : "50",
      "routeId" : "169",
      "seqNo" : "30"
   },
   {
      "GoBack" : "2",
      "longitude" : "120.56",
      "outDis" : "50",
      "Id" : "5135",
      "oid" : "14046",
      "districtId" : "1",
      "nameZh" : "第一銀行(沙鹿分行)",
      "pgp" : "0",
      "terminal" : "0",
      "latitude" : "24.23932",
      "inDis" : "50",
      "routeId" : "169",
      "seqNo" : "31"
   },
   {
      "GoBack" : "2",
      "longitude" : "120.561",
      "outDis" : "50",
      "Id" : "2248",
      "oid" : "17452",
      "districtId" : "1",
      "nameZh" : "沙鹿站",
      "pgp" : "0",
      "terminal" : "0",
      "latitude" : "24.23782",
      "inDis" : "50",
      "routeId" : "169",
      "seqNo" : "32"
   },
   {
      "GoBack" : "2",
      "longitude" : "120.56236",
      "outDis" : "50",
      "Id" : "2682",
      "oid" : "312574878",
      "districtId" : "1",
      "nameZh" : "洛泉里",
      "pgp" : "0",
      "terminal" : "0",
      "latitude" : "24.23768",
      "inDis" : "50",
      "routeId" : "169",
      "seqNo" : "33"
   },
   {
      "GoBack" : "2",
      "longitude" : "120.56494",
      "outDis" : "50",
      "Id" : "4390",
      "oid" : "17454",
      "districtId" : "1",
      "nameZh" : "沙鹿高工(中山路)",
      "pgp" : "0",
      "terminal" : "0",
      "latitude" : "24.23722",
      "inDis" : "50",
      "routeId" : "169",
      "seqNo" : "34"
   },
   {
      "GoBack" : "2",
      "longitude" : "120.56673",
      "outDis" : "50",
      "Id" : "5222",
      "oid" : "310787750",
      "districtId" : "1",
      "nameZh" : "中山鎮政路口",
      "pgp" : "0",
      "terminal" : "0",
      "latitude" : "24.23698",
      "inDis" : "50",
      "routeId" : "169",
      "seqNo" : "35"
   },
   {
      "GoBack" : "2",
      "longitude" : "120.56918",
      "outDis" : "50",
      "Id" : "5221",
      "oid" : "310787748",
      "districtId" : "1",
      "nameZh" : "中山臺灣大道口",
      "pgp" : "0",
      "terminal" : "0",
      "latitude" : "24.2371",
      "inDis" : "50",
      "routeId" : "169",
      "seqNo" : "36"
   },
   {
      "GoBack" : "2",
      "longitude" : "120.56994",
      "outDis" : "50",
      "Id" : "4389",
      "oid" : "17457",
      "districtId" : "1",
      "nameZh" : "竹林里",
      "pgp" : "0",
      "terminal" : "0",
      "latitude" : "24.23632",
      "inDis" : "50",
      "routeId" : "169",
      "seqNo" : "37"
   },
   {
      "GoBack" : "2",
      "longitude" : "120.57129",
      "outDis" : "50",
      "Id" : "4392",
      "oid" : "17458",
      "districtId" : "1",
      "nameZh" : "紅竹巷",
      "pgp" : "0",
      "terminal" : "0",
      "latitude" : "24.2342",
      "inDis" : "50",
      "routeId" : "169",
      "seqNo" : "38"
   },
   {
      "GoBack" : "2",
      "longitude" : "120.57331",
      "outDis" : "50",
      "Id" : "4086",
      "oid" : "17459",
      "districtId" : "1",
      "nameZh" : "臺灣大道北勢路口",
      "pgp" : "0",
      "terminal" : "0",
      "latitude" : "24.23102",
      "inDis" : "50",
      "routeId" : "169",
      "seqNo" : "39"
   },
   {
      "GoBack" : "2",
      "longitude" : "120.5771",
      "outDis" : "50",
      "Id" : "4147",
      "oid" : "17531",
      "districtId" : "1",
      "nameZh" : "靜宜大學",
      "pgp" : "0",
      "terminal" : "0",
      "latitude" : "24.22495",
      "inDis" : "50",
      "routeId" : "169",
      "seqNo" : "40"
   },
   {
      "GoBack" : "2",
      "longitude" : "120.57809",
      "outDis" : "50",
      "Id" : "4062",
      "oid" : "17461",
      "districtId" : "1",
      "nameZh" : "下晉江",
      "pgp" : "0",
      "terminal" : "0",
      "latitude" : "24.22357",
      "inDis" : "50",
      "routeId" : "169",
      "seqNo" : "41"
   },
   {
      "GoBack" : "2",
      "longitude" : "120.57949",
      "outDis" : "50",
      "Id" : "4111",
      "oid" : "2271",
      "districtId" : "1",
      "nameZh" : "晉江里",
      "pgp" : "0",
      "terminal" : "0",
      "latitude" : "24.22098",
      "inDis" : "50",
      "routeId" : "169",
      "seqNo" : "42"
   },
   {
      "GoBack" : "2",
      "longitude" : "120.5808",
      "outDis" : "50",
      "Id" : "4386",
      "oid" : "17463",
      "districtId" : "1",
      "nameZh" : "弘光科技大學",
      "pgp" : "0",
      "terminal" : "0",
      "latitude" : "24.2166",
      "inDis" : "50",
      "routeId" : "169",
      "seqNo" : "43"
   },
   {
      "GoBack" : "2",
      "longitude" : "120.58079",
      "outDis" : "50",
      "Id" : "4124",
      "oid" : "17464",
      "districtId" : "1",
      "nameZh" : "頂六路",
      "pgp" : "0",
      "terminal" : "0",
      "latitude" : "24.21365",
      "inDis" : "50",
      "routeId" : "169",
      "seqNo" : "44"
   },
   {
      "GoBack" : "2",
      "longitude" : "120.58123",
      "outDis" : "50",
      "Id" : "4136",
      "oid" : "17526",
      "districtId" : "1",
      "nameZh" : "祿清宮",
      "pgp" : "0",
      "terminal" : "0",
      "latitude" : "24.20914",
      "inDis" : "50",
      "routeId" : "169",
      "seqNo" : "45"
   },
   {
      "GoBack" : "2",
      "longitude" : "120.58048",
      "outDis" : "50",
      "Id" : "4388",
      "oid" : "17466",
      "districtId" : "1",
      "nameZh" : "后厝仔",
      "pgp" : "0",
      "terminal" : "0",
      "latitude" : "24.1992",
      "inDis" : "50",
      "routeId" : "169",
      "seqNo" : "46"
   },
   {
      "GoBack" : "2",
      "longitude" : "120.5829",
      "outDis" : "50",
      "Id" : "4061",
      "oid" : "17467",
      "districtId" : "1",
      "nameZh" : "下坪頂",
      "pgp" : "0",
      "terminal" : "0",
      "latitude" : "24.18717",
      "inDis" : "50",
      "routeId" : "169",
      "seqNo" : "47"
   },
   {
      "GoBack" : "2",
      "longitude" : "120.58613",
      "outDis" : "50",
      "Id" : "2325",
      "oid" : "17580",
      "districtId" : "1",
      "nameZh" : "坪頂",
      "pgp" : "0",
      "terminal" : "0",
      "latitude" : "24.1858",
      "inDis" : "50",
      "routeId" : "169",
      "seqNo" : "48"
   },
   {
      "GoBack" : "2",
      "longitude" : "120.58816",
      "outDis" : "50",
      "Id" : "5304",
      "oid" : "311454628",
      "districtId" : "1",
      "nameZh" : "東海街口",
      "pgp" : "0",
      "terminal" : "0",
      "latitude" : "24.18523",
      "inDis" : "50",
      "routeId" : "169",
      "seqNo" : "49"
   },
   {
      "GoBack" : "2",
      "longitude" : "120.59166",
      "outDis" : "50",
      "Id" : "4383",
      "oid" : "17469",
      "districtId" : "1",
      "nameZh" : "臺糖公營學苑",
      "pgp" : "0",
      "terminal" : "0",
      "latitude" : "24.18353",
      "inDis" : "50",
      "routeId" : "169",
      "seqNo" : "50"
   },
   {
      "GoBack" : "2",
      "longitude" : "120.5944",
      "outDis" : "50",
      "Id" : "0240",
      "oid" : "6FD5154F91294ADB99F4EB4273B3DE03",
      "districtId" : "1",
      "nameZh" : "東海別墅",
      "pgp" : "0",
      "terminal" : "0",
      "latitude" : "24.1823",
      "inDis" : "50",
      "routeId" : "169",
      "seqNo" : "51"
   },
   {
      "GoBack" : "2",
      "longitude" : "120.59741",
      "outDis" : "50",
      "Id" : "0526",
      "oid" : "17471",
      "districtId" : "1",
      "nameZh" : "台中精機",
      "pgp" : "0",
      "terminal" : "0",
      "latitude" : "24.18183",
      "inDis" : "50",
      "routeId" : "169",
      "seqNo" : "52"
   },
   {
      "GoBack" : "2",
      "longitude" : "120.60491",
      "outDis" : "50",
      "Id" : "5386",
      "oid" : "17368",
      "districtId" : "1",
      "nameZh" : "臺中榮總(臺灣大道)",
      "pgp" : "0",
      "terminal" : "0",
      "latitude" : "24.18349",
      "inDis" : "50",
      "routeId" : "169",
      "seqNo" : "53"
   },
   {
      "GoBack" : "2",
      "longitude" : "120.6065",
      "outDis" : "50",
      "Id" : "2378",
      "oid" : "17473",
      "districtId" : "1",
      "nameZh" : "東大附中",
      "pgp" : "0",
      "terminal" : "0",
      "latitude" : "24.18356",
      "inDis" : "50",
      "routeId" : "169",
      "seqNo" : "54"
   },
   {
      "GoBack" : "2",
      "longitude" : "120.60865",
      "outDis" : "50",
      "Id" : "0004",
      "oid" : "17474",
      "districtId" : "1",
      "nameZh" : "普濟寺",
      "pgp" : "0",
      "terminal" : "0",
      "latitude" : "24.18406",
      "inDis" : "50",
      "routeId" : "169",
      "seqNo" : "55"
   },
   {
      "GoBack" : "2",
      "longitude" : "120.6109",
      "outDis" : "50",
      "Id" : "4335",
      "oid" : "17365",
      "districtId" : "1",
      "nameZh" : "臺灣大道玉門路口",
      "pgp" : "0",
      "terminal" : "0",
      "latitude" : "24.1847",
      "inDis" : "50",
      "routeId" : "169",
      "seqNo" : "56"
   },
   {
      "GoBack" : "2",
      "longitude" : "120.61281",
      "outDis" : "50",
      "Id" : "0006",
      "oid" : "17476",
      "districtId" : "1",
      "nameZh" : "臺中捐血中心",
      "pgp" : "0",
      "terminal" : "0",
      "latitude" : "24.18439",
      "inDis" : "50",
      "routeId" : "169",
      "seqNo" : "57"
   },
   {
      "GoBack" : "2",
      "longitude" : "120.61568",
      "outDis" : "50",
      "Id" : "0430",
      "oid" : "17477",
      "districtId" : "1",
      "nameZh" : "中港澄清醫院",
      "pgp" : "0",
      "terminal" : "0",
      "latitude" : "24.18257",
      "inDis" : "50",
      "routeId" : "169",
      "seqNo" : "58"
   },
   {
      "GoBack" : "2",
      "longitude" : "120.6183",
      "outDis" : "50",
      "Id" : "0008",
      "oid" : "320062561",
      "districtId" : "1",
      "nameZh" : "中港新城",
      "pgp" : "0",
      "terminal" : "0",
      "latitude" : "24.18145",
      "inDis" : "50",
      "routeId" : "169",
      "seqNo" : "59"
   },
   {
      "GoBack" : "2",
      "longitude" : "120.62067",
      "outDis" : "50",
      "Id" : "3060",
      "oid" : "17479",
      "districtId" : "1",
      "nameZh" : "統聯轉運站",
      "pgp" : "0",
      "terminal" : "0",
      "latitude" : "24.18029",
      "inDis" : "50",
      "routeId" : "169",
      "seqNo" : "60"
   },
   {
      "GoBack" : "2",
      "longitude" : "120.62374",
      "outDis" : "50",
      "Id" : "5149",
      "oid" : "319908747",
      "districtId" : "1",
      "nameZh" : "福安里(臺灣大道)",
      "pgp" : "0",
      "terminal" : "0",
      "latitude" : "24.1787",
      "inDis" : "50",
      "routeId" : "169",
      "seqNo" : "61"
   },
   {
      "GoBack" : "2",
      "longitude" : "120.63717",
      "outDis" : "50",
      "Id" : "0054",
      "oid" : "313524993",
      "districtId" : "1",
      "nameZh" : "朝馬(臺灣大道)",
      "pgp" : "0",
      "terminal" : "0",
      "latitude" : "24.17059",
      "inDis" : "50",
      "routeId" : "169",
      "seqNo" : "62"
   },
   {
      "GoBack" : "2",
      "longitude" : "120.63957",
      "outDis" : "50",
      "Id" : "0826",
      "oid" : "17482",
      "districtId" : "1",
      "nameZh" : "秋紅谷(朝陽橋)",
      "pgp" : "0",
      "terminal" : "0",
      "latitude" : "24.16852",
      "inDis" : "50",
      "routeId" : "169",
      "seqNo" : "63"
   },
   {
      "GoBack" : "2",
      "longitude" : "120.6413",
      "outDis" : "50",
      "Id" : "0015",
      "oid" : "17483",
      "districtId" : "1",
      "nameZh" : "教師新村",
      "pgp" : "0",
      "terminal" : "0",
      "latitude" : "24.1671",
      "inDis" : "50",
      "routeId" : "169",
      "seqNo" : "64"
   },
   {
      "GoBack" : "2",
      "longitude" : "120.64431",
      "outDis" : "50",
      "Id" : "0016",
      "oid" : "17484",
      "districtId" : "1",
      "nameZh" : "新光三越",
      "pgp" : "0",
      "terminal" : "0",
      "latitude" : "24.16537",
      "inDis" : "50",
      "routeId" : "169",
      "seqNo" : "65"
   },
   {
      "GoBack" : "2",
      "longitude" : "120.64738",
      "outDis" : "50",
      "Id" : "0017",
      "oid" : "17485",
      "districtId" : "1",
      "nameZh" : "臺中市政府",
      "pgp" : "0",
      "terminal" : "0",
      "latitude" : "24.16364",
      "inDis" : "50",
      "routeId" : "169",
      "seqNo" : "66"
   },
   {
      "GoBack" : "2",
      "longitude" : "120.64965",
      "outDis" : "50",
      "Id" : "4564",
      "oid" : "17486",
      "districtId" : "1",
      "nameZh" : "臺灣大道文心路口",
      "pgp" : "0",
      "terminal" : "0",
      "latitude" : "24.1626",
      "inDis" : "50",
      "routeId" : "169",
      "seqNo" : "67"
   },
   {
      "GoBack" : "2",
      "longitude" : "120.65309",
      "outDis" : "50",
      "Id" : "4566",
      "oid" : "17487",
      "districtId" : "1",
      "nameZh" : "何厝(臺灣大道)",
      "pgp" : "0",
      "terminal" : "0",
      "latitude" : "24.16082",
      "inDis" : "50",
      "routeId" : "169",
      "seqNo" : "68"
   },
   {
      "GoBack" : "2",
      "longitude" : "120.65674",
      "outDis" : "50",
      "Id" : "4569",
      "oid" : "17488",
      "districtId" : "1",
      "nameZh" : "頂何厝(臺灣大道)",
      "pgp" : "0",
      "terminal" : "0",
      "latitude" : "24.15858",
      "inDis" : "50",
      "routeId" : "169",
      "seqNo" : "69"
   },
   {
      "GoBack" : "2",
      "longitude" : "120.65803",
      "outDis" : "50",
      "Id" : "0087",
      "oid" : "17489",
      "districtId" : "1",
      "nameZh" : "忠明國小",
      "pgp" : "0",
      "terminal" : "0",
      "latitude" : "24.15792",
      "inDis" : "50",
      "routeId" : "169",
      "seqNo" : "70"
   },
   {
      "GoBack" : "2",
      "longitude" : "120.66313",
      "outDis" : "50",
      "Id" : "0320",
      "oid" : "319472665",
      "districtId" : "1",
      "nameZh" : "科學博物館(臺灣大道)",
      "pgp" : "0",
      "terminal" : "0",
      "latitude" : "24.1552",
      "inDis" : "50",
      "routeId" : "169",
      "seqNo" : "71"
   },
   {
      "GoBack" : "2",
      "longitude" : "120.66537",
      "outDis" : "50",
      "Id" : "0419",
      "oid" : "315867757",
      "districtId" : "1",
      "nameZh" : "中正國小",
      "pgp" : "0",
      "terminal" : "0",
      "latitude" : "24.15399",
      "inDis" : "50",
      "routeId" : "169",
      "seqNo" : "72"
   },
   {
      "GoBack" : "2",
      "longitude" : "120.66891",
      "outDis" : "50",
      "Id" : "4619",
      "oid" : "17492",
      "districtId" : "1",
      "nameZh" : "臺灣大道民權路口",
      "pgp" : "0",
      "terminal" : "0",
      "latitude" : "24.15147",
      "inDis" : "50",
      "routeId" : "169",
      "seqNo" : "73"
   },
   {
      "GoBack" : "2",
      "longitude" : "120.67067",
      "outDis" : "50",
      "Id" : "0723",
      "oid" : "317149635",
      "districtId" : "1",
      "nameZh" : "茄苳腳",
      "pgp" : "0",
      "terminal" : "0",
      "latitude" : "24.1501",
      "inDis" : "50",
      "routeId" : "169",
      "seqNo" : "74"
   },
   {
      "GoBack" : "2",
      "longitude" : "120.67488",
      "outDis" : "50",
      "Id" : "4768",
      "oid" : "17494",
      "districtId" : "1",
      "nameZh" : "成功原子街口",
      "pgp" : "0",
      "terminal" : "0",
      "latitude" : "24.14798",
      "inDis" : "50",
      "routeId" : "169",
      "seqNo" : "75"
   },
   {
      "GoBack" : "2",
      "longitude" : "120.67666",
      "outDis" : "50",
      "Id" : "5530",
      "oid" : "316214211",
      "districtId" : "1",
      "nameZh" : "成功中華西街口",
      "pgp" : "0",
      "terminal" : "0",
      "latitude" : "24.14627",
      "inDis" : "50",
      "routeId" : "169",
      "seqNo" : "76"
   },
   {
      "GoBack" : "2",
      "longitude" : "120.67854",
      "outDis" : "50",
      "Id" : "0424",
      "oid" : "17495",
      "districtId" : "1",
      "nameZh" : "中區公所(成功路)",
      "pgp" : "0",
      "terminal" : "0",
      "latitude" : "24.1446",
      "inDis" : "50",
      "routeId" : "169",
      "seqNo" : "77"
   },
   {
      "GoBack" : "2",
      "longitude" : "120.68062",
      "outDis" : "50",
      "Id" : "4766",
      "oid" : "17496",
      "districtId" : "1",
      "nameZh" : "成功平等街口",
      "pgp" : "0",
      "terminal" : "0",
      "latitude" : "24.14279",
      "inDis" : "50",
      "routeId" : "169",
      "seqNo" : "78"
   },
   {
      "GoBack" : "2",
      "longitude" : "120.68232",
      "outDis" : "50",
      "Id" : "4767",
      "oid" : "17497",
      "districtId" : "1",
      "nameZh" : "成功自由路口",
      "pgp" : "0",
      "terminal" : "0",
      "latitude" : "24.14131",
      "inDis" : "50",
      "routeId" : "169",
      "seqNo" : "79"
   },
   {
      "GoBack" : "2",
      "longitude" : "120.68521",
      "outDis" : "50",
      "Id" : "3923",
      "oid" : "17498",
      "districtId" : "1",
      "nameZh" : "豐中戲院",
      "pgp" : "0",
      "terminal" : "0",
      "latitude" : "24.1388",
      "inDis" : "50",
      "routeId" : "169",
      "seqNo" : "80"
   },
   {
      "GoBack" : "2",
      "longitude" : "120.68583",
      "outDis" : "50",
      "Id" : "1829",
      "oid" : "17499",
      "districtId" : "1",
      "nameZh" : "臺中站",
      "pgp" : "0",
      "terminal" : "0",
      "latitude" : "24.13873",
      "inDis" : "50",
      "routeId" : "169",
      "seqNo" : "81"
   }
]
