[
   {
      "GoBack" : "1",
      "longitude" : "120.74882",
      "outDis" : "50",
      "Id" : "2794",
      "oid" : "6111",
      "districtId" : "1",
      "nameZh" : "泰安",
      "pgp" : "0",
      "terminal" : "0",
      "latitude" : "24.32286",
      "inDis" : "50",
      "routeId" : "211區",
      "seqNo" : "1"
   },
   {
      "GoBack" : "1",
      "longitude" : "120.75146",
      "outDis" : "50",
      "Id" : "5055",
      "oid" : "309863805",
      "districtId" : "1",
      "nameZh" : "泰安派出所",
      "pgp" : "0",
      "terminal" : "0",
      "latitude" : "24.32399",
      "inDis" : "50",
      "routeId" : "211區",
      "seqNo" : "2"
   },
   {
      "GoBack" : "1",
      "longitude" : "120.74864",
      "outDis" : "50",
      "Id" : "5056",
      "oid" : "309863806",
      "districtId" : "1",
      "nameZh" : "泰安國小",
      "pgp" : "0",
      "terminal" : "0",
      "latitude" : "24.3262",
      "inDis" : "50",
      "routeId" : "211區",
      "seqNo" : "3"
   },
   {
      "GoBack" : "1",
      "longitude" : "120.74495",
      "outDis" : "50",
      "Id" : "0988",
      "oid" : "5028",
      "districtId" : "1",
      "nameZh" : "七塊厝",
      "pgp" : "0",
      "terminal" : "0",
      "latitude" : "24.328",
      "inDis" : "50",
      "routeId" : "211區",
      "seqNo" : "4"
   },
   {
      "GoBack" : "1",
      "longitude" : "120.74221",
      "outDis" : "50",
      "Id" : "5052",
      "oid" : "309863802",
      "districtId" : "1",
      "nameZh" : "安眉興安路口",
      "pgp" : "0",
      "terminal" : "0",
      "latitude" : "24.32926",
      "inDis" : "50",
      "routeId" : "211區",
      "seqNo" : "5"
   },
   {
      "GoBack" : "1",
      "longitude" : "120.73607",
      "outDis" : "50",
      "Id" : "5051",
      "oid" : "309863801",
      "districtId" : "1",
      "nameZh" : "安眉福美路口",
      "pgp" : "0",
      "terminal" : "0",
      "latitude" : "24.33048",
      "inDis" : "50",
      "routeId" : "211區",
      "seqNo" : "6"
   },
   {
      "GoBack" : "1",
      "longitude" : "120.72948",
      "outDis" : "50",
      "Id" : "5050",
      "oid" : "309863800",
      "districtId" : "1",
      "nameZh" : "公館(安眉路)",
      "pgp" : "0",
      "terminal" : "0",
      "latitude" : "24.33209",
      "inDis" : "50",
      "routeId" : "211區",
      "seqNo" : "7"
   },
   {
      "GoBack" : "1",
      "longitude" : "120.72324",
      "outDis" : "50",
      "Id" : "2229",
      "oid" : "5783",
      "districtId" : "1",
      "nameZh" : "尾社",
      "pgp" : "0",
      "terminal" : "0",
      "latitude" : "24.33327",
      "inDis" : "50",
      "routeId" : "211區",
      "seqNo" : "8"
   },
   {
      "GoBack" : "1",
      "longitude" : "120.71972",
      "outDis" : "50",
      "Id" : "0993",
      "oid" : "5030",
      "districtId" : "1",
      "nameZh" : "九股",
      "pgp" : "0",
      "terminal" : "0",
      "latitude" : "24.33368",
      "inDis" : "50",
      "routeId" : "211區",
      "seqNo" : "9"
   },
   {
      "GoBack" : "1",
      "longitude" : "120.7146",
      "outDis" : "50",
      "Id" : "1522",
      "oid" : "5363",
      "districtId" : "1",
      "nameZh" : "五崁腳",
      "pgp" : "0",
      "terminal" : "0",
      "latitude" : "24.33278",
      "inDis" : "50",
      "routeId" : "211區",
      "seqNo" : "10"
   },
   {
      "GoBack" : "1",
      "longitude" : "120.71186",
      "outDis" : "50",
      "Id" : "0976",
      "oid" : "5016",
      "districtId" : "1",
      "nameZh" : "一安定",
      "pgp" : "0",
      "terminal" : "0",
      "latitude" : "24.33649",
      "inDis" : "50",
      "routeId" : "211區",
      "seqNo" : "11"
   },
   {
      "GoBack" : "1",
      "longitude" : "120.70711",
      "outDis" : "50",
      "Id" : "5617",
      "oid" : "317149628",
      "districtId" : "1",
      "nameZh" : "安定",
      "pgp" : "0",
      "terminal" : "0",
      "latitude" : "24.34294",
      "inDis" : "50",
      "routeId" : "211區",
      "seqNo" : "12"
   },
   {
      "GoBack" : "1",
      "longitude" : "120.70467",
      "outDis" : "50",
      "Id" : "1264",
      "oid" : "5204",
      "districtId" : "1",
      "nameZh" : "土城",
      "pgp" : "0",
      "terminal" : "0",
      "latitude" : "24.34492",
      "inDis" : "50",
      "routeId" : "211區",
      "seqNo" : "13"
   },
   {
      "GoBack" : "1",
      "longitude" : "120.69968",
      "outDis" : "50",
      "Id" : "1243",
      "oid" : "5187",
      "districtId" : "1",
      "nameZh" : "上部仔",
      "pgp" : "0",
      "terminal" : "0",
      "latitude" : "24.34664",
      "inDis" : "50",
      "routeId" : "211區",
      "seqNo" : "14"
   },
   {
      "GoBack" : "1",
      "longitude" : "120.69679",
      "outDis" : "50",
      "Id" : "5480",
      "oid" : "314467970",
      "districtId" : "1",
      "nameZh" : "南路",
      "pgp" : "0",
      "terminal" : "0",
      "latitude" : "24.34624",
      "inDis" : "50",
      "routeId" : "211區",
      "seqNo" : "15"
   },
   {
      "GoBack" : "1",
      "longitude" : "120.69398",
      "outDis" : "50",
      "Id" : "1477",
      "oid" : "5338",
      "districtId" : "1",
      "nameZh" : "中部仔",
      "pgp" : "0",
      "terminal" : "0",
      "latitude" : "24.34583",
      "inDis" : "50",
      "routeId" : "211區",
      "seqNo" : "16"
   },
   {
      "GoBack" : "1",
      "longitude" : "120.69112",
      "outDis" : "50",
      "Id" : "1798",
      "oid" : "5536",
      "districtId" : "1",
      "nameZh" : "北路　",
      "pgp" : "0",
      "terminal" : "0",
      "latitude" : "24.34548",
      "inDis" : "50",
      "routeId" : "211區",
      "seqNo" : "17"
   },
   {
      "GoBack" : "1",
      "longitude" : "120.68569",
      "outDis" : "50",
      "Id" : "1185",
      "oid" : "5141",
      "districtId" : "1",
      "nameZh" : "下部仔",
      "pgp" : "0",
      "terminal" : "0",
      "latitude" : "24.34495",
      "inDis" : "50",
      "routeId" : "211區",
      "seqNo" : "18"
   },
   {
      "GoBack" : "1",
      "longitude" : "120.68384",
      "outDis" : "50",
      "Id" : "5325",
      "oid" : "313909879",
      "districtId" : "1",
      "nameZh" : "土城部子路口",
      "pgp" : "0",
      "terminal" : "0",
      "latitude" : "24.34478",
      "inDis" : "50",
      "routeId" : "211區",
      "seqNo" : "19"
   },
   {
      "GoBack" : "1",
      "longitude" : "120.68193",
      "outDis" : "50",
      "Id" : "2726",
      "oid" : "6079",
      "districtId" : "1",
      "nameZh" : "風坑",
      "pgp" : "0",
      "terminal" : "0",
      "latitude" : "24.3445",
      "inDis" : "50",
      "routeId" : "211區",
      "seqNo" : "20"
   },
   {
      "GoBack" : "1",
      "longitude" : "120.67593",
      "outDis" : "50",
      "Id" : "2964",
      "oid" : "6188",
      "districtId" : "1",
      "nameZh" : "崎頂",
      "pgp" : "0",
      "terminal" : "0",
      "latitude" : "24.34414",
      "inDis" : "50",
      "routeId" : "211區",
      "seqNo" : "21"
   },
   {
      "GoBack" : "1",
      "longitude" : "120.67227",
      "outDis" : "50",
      "Id" : "3114",
      "oid" : "6291",
      "districtId" : "1",
      "nameZh" : "頂竹圍",
      "pgp" : "0",
      "terminal" : "0",
      "latitude" : "24.34153",
      "inDis" : "50",
      "routeId" : "211區",
      "seqNo" : "22"
   },
   {
      "GoBack" : "1",
      "longitude" : "120.66817",
      "outDis" : "50",
      "Id" : "2148",
      "oid" : "5742",
      "districtId" : "1",
      "nameZh" : "竹圍",
      "pgp" : "0",
      "terminal" : "0",
      "latitude" : "24.34133",
      "inDis" : "50",
      "routeId" : "211區",
      "seqNo" : "23"
   },
   {
      "GoBack" : "1",
      "longitude" : "120.66295",
      "outDis" : "50",
      "Id" : "2900",
      "oid" : "6165",
      "districtId" : "1",
      "nameZh" : "馬鳴埔",
      "pgp" : "0",
      "terminal" : "0",
      "latitude" : "24.34048",
      "inDis" : "50",
      "routeId" : "211區",
      "seqNo" : "24"
   },
   {
      "GoBack" : "1",
      "longitude" : "120.66379",
      "outDis" : "50",
      "Id" : "2946",
      "oid" : "6182",
      "districtId" : "1",
      "nameZh" : "埤腳",
      "pgp" : "0",
      "terminal" : "0",
      "latitude" : "24.34428",
      "inDis" : "50",
      "routeId" : "211區",
      "seqNo" : "25"
   },
   {
      "GoBack" : "1",
      "longitude" : "120.66278",
      "outDis" : "50",
      "Id" : "3406",
      "oid" : "6439",
      "districtId" : "1",
      "nameZh" : "新厝(長生路)",
      "pgp" : "0",
      "terminal" : "0",
      "latitude" : "24.34969",
      "inDis" : "50",
      "routeId" : "211區",
      "seqNo" : "26"
   },
   {
      "GoBack" : "1",
      "longitude" : "120.65627",
      "outDis" : "50",
      "Id" : "4001",
      "oid" : "6734",
      "districtId" : "1",
      "nameZh" : "鐵山國小",
      "pgp" : "0",
      "terminal" : "0",
      "latitude" : "24.34847",
      "inDis" : "50",
      "routeId" : "211區",
      "seqNo" : "27"
   },
   {
      "GoBack" : "1",
      "longitude" : "120.65337",
      "outDis" : "50",
      "Id" : "4002",
      "oid" : "6735",
      "districtId" : "1",
      "nameZh" : "鐵砧山",
      "pgp" : "0",
      "terminal" : "0",
      "latitude" : "24.34702",
      "inDis" : "50",
      "routeId" : "211區",
      "seqNo" : "28"
   },
   {
      "GoBack" : "1",
      "longitude" : "120.64776",
      "outDis" : "50",
      "Id" : "5492",
      "oid" : "314614146",
      "districtId" : "1",
      "nameZh" : "明湖新村",
      "pgp" : "0",
      "terminal" : "0",
      "latitude" : "24.34648",
      "inDis" : "50",
      "routeId" : "211區",
      "seqNo" : "29"
   },
   {
      "GoBack" : "1",
      "longitude" : "120.64387",
      "outDis" : "50",
      "Id" : "3262",
      "oid" : "6355",
      "districtId" : "1",
      "nameZh" : "番仔田",
      "pgp" : "0",
      "terminal" : "0",
      "latitude" : "24.34672",
      "inDis" : "50",
      "routeId" : "211區",
      "seqNo" : "30"
   },
   {
      "GoBack" : "1",
      "longitude" : "120.63938",
      "outDis" : "50",
      "Id" : "4875",
      "oid" : "15437",
      "districtId" : "1",
      "nameZh" : "大甲高工",
      "pgp" : "0",
      "terminal" : "0",
      "latitude" : "24.34644",
      "inDis" : "50",
      "routeId" : "211區",
      "seqNo" : "31"
   },
   {
      "GoBack" : "1",
      "longitude" : "120.63291",
      "outDis" : "50",
      "Id" : "5060",
      "oid" : "309863810",
      "districtId" : "1",
      "nameZh" : "開元甲后路口",
      "pgp" : "0",
      "terminal" : "0",
      "latitude" : "24.34581",
      "inDis" : "50",
      "routeId" : "211區",
      "seqNo" : "32"
   },
   {
      "GoBack" : "1",
      "longitude" : "120.62933",
      "outDis" : "50",
      "Id" : "1420",
      "oid" : "5309",
      "districtId" : "1",
      "nameZh" : "中山里",
      "pgp" : "0",
      "terminal" : "0",
      "latitude" : "24.34477",
      "inDis" : "50",
      "routeId" : "211區",
      "seqNo" : "33"
   },
   {
      "GoBack" : "1",
      "longitude" : "120.62844",
      "outDis" : "50",
      "Id" : "1933",
      "oid" : "5612",
      "districtId" : "1",
      "nameZh" : "永光寺",
      "pgp" : "0",
      "terminal" : "0",
      "latitude" : "24.3429",
      "inDis" : "50",
      "routeId" : "211區",
      "seqNo" : "34"
   },
   {
      "GoBack" : "1",
      "longitude" : "120.62643",
      "outDis" : "50",
      "Id" : "4558",
      "oid" : "5451",
      "districtId" : "1",
      "nameZh" : "中正紀念館",
      "pgp" : "0",
      "terminal" : "0",
      "latitude" : "24.34027",
      "inDis" : "50",
      "routeId" : "211區",
      "seqNo" : "35"
   },
   {
      "GoBack" : "1",
      "longitude" : "120.6229",
      "outDis" : "50",
      "Id" : "4433",
      "oid" : "14089",
      "districtId" : "1",
      "nameZh" : "大甲高中(水源路)",
      "pgp" : "0",
      "terminal" : "0",
      "latitude" : "24.34182",
      "inDis" : "50",
      "routeId" : "211區",
      "seqNo" : "36"
   },
   {
      "GoBack" : "1",
      "longitude" : "120.62431",
      "outDis" : "50",
      "Id" : "2609",
      "oid" : "320571957",
      "districtId" : "1",
      "nameZh" : "南陽里(中山路)",
      "pgp" : "0",
      "terminal" : "0",
      "latitude" : "24.34272",
      "inDis" : "50",
      "routeId" : "211區",
      "seqNo" : "37"
   },
   {
      "GoBack" : "1",
      "longitude" : "120.62553",
      "outDis" : "50",
      "Id" : "5084",
      "oid" : "5215",
      "districtId" : "1",
      "nameZh" : "大甲",
      "pgp" : "0",
      "terminal" : "0",
      "latitude" : "24.34321",
      "inDis" : "50",
      "routeId" : "211區",
      "seqNo" : "38"
   },
   {
      "GoBack" : "1",
      "longitude" : "120.62664",
      "outDis" : "50",
      "Id" : "4432",
      "oid" : "14074",
      "districtId" : "1",
      "nameZh" : "大甲火車站",
      "pgp" : "0",
      "terminal" : "0",
      "latitude" : "24.34461",
      "inDis" : "50",
      "routeId" : "211區",
      "seqNo" : "39"
   },
   {
      "GoBack" : "1",
      "longitude" : "120.62286",
      "outDis" : "50",
      "Id" : "1074",
      "oid" : "13774",
      "districtId" : "1",
      "nameZh" : "文昌祠",
      "pgp" : "0",
      "terminal" : "0",
      "latitude" : "24.34726",
      "inDis" : "50",
      "routeId" : "211區",
      "seqNo" : "40"
   },
   {
      "GoBack" : "1",
      "longitude" : "120.62028",
      "outDis" : "50",
      "Id" : "3062",
      "oid" : "13775",
      "districtId" : "1",
      "nameZh" : "庄尾",
      "pgp" : "0",
      "terminal" : "0",
      "latitude" : "24.34819",
      "inDis" : "50",
      "routeId" : "211區",
      "seqNo" : "41"
   },
   {
      "GoBack" : "1",
      "longitude" : "120.61854",
      "outDis" : "50",
      "Id" : "5692",
      "oid" : "319713435",
      "districtId" : "1",
      "nameZh" : "李綜合醫院",
      "pgp" : "0",
      "terminal" : "0",
      "latitude" : "24.35163",
      "inDis" : "50",
      "routeId" : "211區",
      "seqNo" : "42"
   },
   {
      "GoBack" : "1",
      "longitude" : "120.61737",
      "outDis" : "50",
      "Id" : "5691",
      "oid" : "319713434",
      "districtId" : "1",
      "nameZh" : "大甲體育場",
      "pgp" : "0",
      "terminal" : "0",
      "latitude" : "24.35018",
      "inDis" : "50",
      "routeId" : "211區",
      "seqNo" : "43"
   },
   {
      "GoBack" : "1",
      "longitude" : "120.61645",
      "outDis" : "50",
      "Id" : "2038",
      "oid" : "5679",
      "districtId" : "1",
      "nameZh" : "光田",
      "pgp" : "0",
      "terminal" : "0",
      "latitude" : "24.34723",
      "inDis" : "50",
      "routeId" : "211區",
      "seqNo" : "44"
   },
   {
      "GoBack" : "1",
      "longitude" : "120.61478",
      "outDis" : "50",
      "Id" : "5061",
      "oid" : "309863811",
      "districtId" : "1",
      "nameZh" : "新政大安港路口",
      "pgp" : "0",
      "terminal" : "0",
      "latitude" : "24.35087",
      "inDis" : "50",
      "routeId" : "211區",
      "seqNo" : "45"
   },
   {
      "GoBack" : "2",
      "longitude" : "120.61478",
      "outDis" : "50",
      "Id" : "5061",
      "oid" : "309863811",
      "districtId" : "1",
      "nameZh" : "新政大安港路口",
      "pgp" : "0",
      "terminal" : "0",
      "latitude" : "24.35087",
      "inDis" : "50",
      "routeId" : "211區",
      "seqNo" : "1"
   },
   {
      "GoBack" : "2",
      "longitude" : "120.61645",
      "outDis" : "50",
      "Id" : "2038",
      "oid" : "5679",
      "districtId" : "1",
      "nameZh" : "光田",
      "pgp" : "0",
      "terminal" : "0",
      "latitude" : "24.34723",
      "inDis" : "50",
      "routeId" : "211區",
      "seqNo" : "2"
   },
   {
      "GoBack" : "2",
      "longitude" : "120.61737",
      "outDis" : "50",
      "Id" : "5691",
      "oid" : "319713434",
      "districtId" : "1",
      "nameZh" : "大甲體育場",
      "pgp" : "0",
      "terminal" : "0",
      "latitude" : "24.35018",
      "inDis" : "50",
      "routeId" : "211區",
      "seqNo" : "3"
   },
   {
      "GoBack" : "2",
      "longitude" : "120.61854",
      "outDis" : "50",
      "Id" : "5692",
      "oid" : "319713435",
      "districtId" : "1",
      "nameZh" : "李綜合醫院",
      "pgp" : "0",
      "terminal" : "0",
      "latitude" : "24.35163",
      "inDis" : "50",
      "routeId" : "211區",
      "seqNo" : "4"
   },
   {
      "GoBack" : "2",
      "longitude" : "120.62028",
      "outDis" : "50",
      "Id" : "3062",
      "oid" : "13775",
      "districtId" : "1",
      "nameZh" : "庄尾",
      "pgp" : "0",
      "terminal" : "0",
      "latitude" : "24.34819",
      "inDis" : "50",
      "routeId" : "211區",
      "seqNo" : "5"
   },
   {
      "GoBack" : "2",
      "longitude" : "120.62286",
      "outDis" : "50",
      "Id" : "1074",
      "oid" : "13774",
      "districtId" : "1",
      "nameZh" : "文昌祠",
      "pgp" : "0",
      "terminal" : "0",
      "latitude" : "24.34726",
      "inDis" : "50",
      "routeId" : "211區",
      "seqNo" : "6"
   },
   {
      "GoBack" : "2",
      "longitude" : "120.62664",
      "outDis" : "50",
      "Id" : "4432",
      "oid" : "14074",
      "districtId" : "1",
      "nameZh" : "大甲火車站",
      "pgp" : "0",
      "terminal" : "0",
      "latitude" : "24.34461",
      "inDis" : "50",
      "routeId" : "211區",
      "seqNo" : "7"
   },
   {
      "GoBack" : "2",
      "longitude" : "120.62553",
      "outDis" : "50",
      "Id" : "5084",
      "oid" : "5215",
      "districtId" : "1",
      "nameZh" : "大甲",
      "pgp" : "0",
      "terminal" : "0",
      "latitude" : "24.34321",
      "inDis" : "50",
      "routeId" : "211區",
      "seqNo" : "8"
   },
   {
      "GoBack" : "2",
      "longitude" : "120.62431",
      "outDis" : "50",
      "Id" : "2609",
      "oid" : "320571957",
      "districtId" : "1",
      "nameZh" : "南陽里(中山路)",
      "pgp" : "0",
      "terminal" : "0",
      "latitude" : "24.34272",
      "inDis" : "50",
      "routeId" : "211區",
      "seqNo" : "9"
   },
   {
      "GoBack" : "2",
      "longitude" : "120.6229",
      "outDis" : "50",
      "Id" : "4433",
      "oid" : "14089",
      "districtId" : "1",
      "nameZh" : "大甲高中(水源路)",
      "pgp" : "0",
      "terminal" : "0",
      "latitude" : "24.34182",
      "inDis" : "50",
      "routeId" : "211區",
      "seqNo" : "10"
   },
   {
      "GoBack" : "2",
      "longitude" : "120.62643",
      "outDis" : "50",
      "Id" : "4558",
      "oid" : "5451",
      "districtId" : "1",
      "nameZh" : "中正紀念館",
      "pgp" : "0",
      "terminal" : "0",
      "latitude" : "24.34027",
      "inDis" : "50",
      "routeId" : "211區",
      "seqNo" : "11"
   },
   {
      "GoBack" : "2",
      "longitude" : "120.62844",
      "outDis" : "50",
      "Id" : "1933",
      "oid" : "5612",
      "districtId" : "1",
      "nameZh" : "永光寺",
      "pgp" : "0",
      "terminal" : "0",
      "latitude" : "24.3429",
      "inDis" : "50",
      "routeId" : "211區",
      "seqNo" : "12"
   },
   {
      "GoBack" : "2",
      "longitude" : "120.62933",
      "outDis" : "50",
      "Id" : "1420",
      "oid" : "5309",
      "districtId" : "1",
      "nameZh" : "中山里",
      "pgp" : "0",
      "terminal" : "0",
      "latitude" : "24.34477",
      "inDis" : "50",
      "routeId" : "211區",
      "seqNo" : "13"
   },
   {
      "GoBack" : "2",
      "longitude" : "120.63291",
      "outDis" : "50",
      "Id" : "5060",
      "oid" : "309863810",
      "districtId" : "1",
      "nameZh" : "開元甲后路口",
      "pgp" : "0",
      "terminal" : "0",
      "latitude" : "24.34581",
      "inDis" : "50",
      "routeId" : "211區",
      "seqNo" : "14"
   },
   {
      "GoBack" : "2",
      "longitude" : "120.63938",
      "outDis" : "50",
      "Id" : "4875",
      "oid" : "15438",
      "districtId" : "1",
      "nameZh" : "大甲高工",
      "pgp" : "0",
      "terminal" : "0",
      "latitude" : "24.34644",
      "inDis" : "50",
      "routeId" : "211區",
      "seqNo" : "15"
   },
   {
      "GoBack" : "2",
      "longitude" : "120.64387",
      "outDis" : "50",
      "Id" : "3262",
      "oid" : "6355",
      "districtId" : "1",
      "nameZh" : "番仔田",
      "pgp" : "0",
      "terminal" : "0",
      "latitude" : "24.34672",
      "inDis" : "50",
      "routeId" : "211區",
      "seqNo" : "16"
   },
   {
      "GoBack" : "2",
      "longitude" : "120.64776",
      "outDis" : "50",
      "Id" : "5492",
      "oid" : "314614146",
      "districtId" : "1",
      "nameZh" : "明湖新村",
      "pgp" : "0",
      "terminal" : "0",
      "latitude" : "24.34648",
      "inDis" : "50",
      "routeId" : "211區",
      "seqNo" : "17"
   },
   {
      "GoBack" : "2",
      "longitude" : "120.65337",
      "outDis" : "50",
      "Id" : "4002",
      "oid" : "6735",
      "districtId" : "1",
      "nameZh" : "鐵砧山",
      "pgp" : "0",
      "terminal" : "0",
      "latitude" : "24.34702",
      "inDis" : "50",
      "routeId" : "211區",
      "seqNo" : "18"
   },
   {
      "GoBack" : "2",
      "longitude" : "120.65627",
      "outDis" : "50",
      "Id" : "4001",
      "oid" : "6734",
      "districtId" : "1",
      "nameZh" : "鐵山國小",
      "pgp" : "0",
      "terminal" : "0",
      "latitude" : "24.34847",
      "inDis" : "50",
      "routeId" : "211區",
      "seqNo" : "19"
   },
   {
      "GoBack" : "2",
      "longitude" : "120.66278",
      "outDis" : "50",
      "Id" : "3406",
      "oid" : "6439",
      "districtId" : "1",
      "nameZh" : "新厝(長生路)",
      "pgp" : "0",
      "terminal" : "0",
      "latitude" : "24.34969",
      "inDis" : "50",
      "routeId" : "211區",
      "seqNo" : "20"
   },
   {
      "GoBack" : "2",
      "longitude" : "120.66379",
      "outDis" : "50",
      "Id" : "2946",
      "oid" : "6182",
      "districtId" : "1",
      "nameZh" : "埤腳",
      "pgp" : "0",
      "terminal" : "0",
      "latitude" : "24.34428",
      "inDis" : "50",
      "routeId" : "211區",
      "seqNo" : "21"
   },
   {
      "GoBack" : "2",
      "longitude" : "120.66295",
      "outDis" : "50",
      "Id" : "2900",
      "oid" : "6165",
      "districtId" : "1",
      "nameZh" : "馬鳴埔",
      "pgp" : "0",
      "terminal" : "0",
      "latitude" : "24.34048",
      "inDis" : "50",
      "routeId" : "211區",
      "seqNo" : "22"
   },
   {
      "GoBack" : "2",
      "longitude" : "120.66817",
      "outDis" : "50",
      "Id" : "2148",
      "oid" : "5742",
      "districtId" : "1",
      "nameZh" : "竹圍",
      "pgp" : "0",
      "terminal" : "0",
      "latitude" : "24.34133",
      "inDis" : "50",
      "routeId" : "211區",
      "seqNo" : "23"
   },
   {
      "GoBack" : "2",
      "longitude" : "120.67227",
      "outDis" : "50",
      "Id" : "3114",
      "oid" : "6291",
      "districtId" : "1",
      "nameZh" : "頂竹圍",
      "pgp" : "0",
      "terminal" : "0",
      "latitude" : "24.34153",
      "inDis" : "50",
      "routeId" : "211區",
      "seqNo" : "24"
   },
   {
      "GoBack" : "2",
      "longitude" : "120.67593",
      "outDis" : "50",
      "Id" : "2964",
      "oid" : "6188",
      "districtId" : "1",
      "nameZh" : "崎頂",
      "pgp" : "0",
      "terminal" : "0",
      "latitude" : "24.34414",
      "inDis" : "50",
      "routeId" : "211區",
      "seqNo" : "25"
   },
   {
      "GoBack" : "2",
      "longitude" : "120.68193",
      "outDis" : "50",
      "Id" : "2726",
      "oid" : "6079",
      "districtId" : "1",
      "nameZh" : "風坑",
      "pgp" : "0",
      "terminal" : "0",
      "latitude" : "24.3445",
      "inDis" : "50",
      "routeId" : "211區",
      "seqNo" : "26"
   },
   {
      "GoBack" : "2",
      "longitude" : "120.68384",
      "outDis" : "50",
      "Id" : "5325",
      "oid" : "313909879",
      "districtId" : "1",
      "nameZh" : "土城部子路口",
      "pgp" : "0",
      "terminal" : "0",
      "latitude" : "24.34478",
      "inDis" : "50",
      "routeId" : "211區",
      "seqNo" : "27"
   },
   {
      "GoBack" : "2",
      "longitude" : "120.68569",
      "outDis" : "50",
      "Id" : "1185",
      "oid" : "5141",
      "districtId" : "1",
      "nameZh" : "下部仔",
      "pgp" : "0",
      "terminal" : "0",
      "latitude" : "24.34495",
      "inDis" : "50",
      "routeId" : "211區",
      "seqNo" : "28"
   },
   {
      "GoBack" : "2",
      "longitude" : "120.69112",
      "outDis" : "50",
      "Id" : "1798",
      "oid" : "5536",
      "districtId" : "1",
      "nameZh" : "北路　",
      "pgp" : "0",
      "terminal" : "0",
      "latitude" : "24.34548",
      "inDis" : "50",
      "routeId" : "211區",
      "seqNo" : "29"
   },
   {
      "GoBack" : "2",
      "longitude" : "120.69398",
      "outDis" : "50",
      "Id" : "1477",
      "oid" : "5338",
      "districtId" : "1",
      "nameZh" : "中部仔",
      "pgp" : "0",
      "terminal" : "0",
      "latitude" : "24.34583",
      "inDis" : "50",
      "routeId" : "211區",
      "seqNo" : "30"
   },
   {
      "GoBack" : "2",
      "longitude" : "120.69679",
      "outDis" : "50",
      "Id" : "5480",
      "oid" : "314467970",
      "districtId" : "1",
      "nameZh" : "南路",
      "pgp" : "0",
      "terminal" : "0",
      "latitude" : "24.34624",
      "inDis" : "50",
      "routeId" : "211區",
      "seqNo" : "31"
   },
   {
      "GoBack" : "2",
      "longitude" : "120.69968",
      "outDis" : "50",
      "Id" : "1243",
      "oid" : "5187",
      "districtId" : "1",
      "nameZh" : "上部仔",
      "pgp" : "0",
      "terminal" : "0",
      "latitude" : "24.34664",
      "inDis" : "50",
      "routeId" : "211區",
      "seqNo" : "32"
   },
   {
      "GoBack" : "2",
      "longitude" : "120.70467",
      "outDis" : "50",
      "Id" : "1264",
      "oid" : "5204",
      "districtId" : "1",
      "nameZh" : "土城",
      "pgp" : "0",
      "terminal" : "0",
      "latitude" : "24.34492",
      "inDis" : "50",
      "routeId" : "211區",
      "seqNo" : "33"
   },
   {
      "GoBack" : "2",
      "longitude" : "120.70711",
      "outDis" : "50",
      "Id" : "5617",
      "oid" : "317149628",
      "districtId" : "1",
      "nameZh" : "安定",
      "pgp" : "0",
      "terminal" : "0",
      "latitude" : "24.34294",
      "inDis" : "50",
      "routeId" : "211區",
      "seqNo" : "34"
   },
   {
      "GoBack" : "2",
      "longitude" : "120.71186",
      "outDis" : "50",
      "Id" : "0976",
      "oid" : "5016",
      "districtId" : "1",
      "nameZh" : "一安定",
      "pgp" : "0",
      "terminal" : "0",
      "latitude" : "24.33649",
      "inDis" : "50",
      "routeId" : "211區",
      "seqNo" : "35"
   },
   {
      "GoBack" : "2",
      "longitude" : "120.7146",
      "outDis" : "50",
      "Id" : "1522",
      "oid" : "5363",
      "districtId" : "1",
      "nameZh" : "五崁腳",
      "pgp" : "0",
      "terminal" : "0",
      "latitude" : "24.33278",
      "inDis" : "50",
      "routeId" : "211區",
      "seqNo" : "36"
   },
   {
      "GoBack" : "2",
      "longitude" : "120.71972",
      "outDis" : "50",
      "Id" : "0993",
      "oid" : "5030",
      "districtId" : "1",
      "nameZh" : "九股",
      "pgp" : "0",
      "terminal" : "0",
      "latitude" : "24.33368",
      "inDis" : "50",
      "routeId" : "211區",
      "seqNo" : "37"
   },
   {
      "GoBack" : "2",
      "longitude" : "120.72324",
      "outDis" : "50",
      "Id" : "2229",
      "oid" : "5783",
      "districtId" : "1",
      "nameZh" : "尾社",
      "pgp" : "0",
      "terminal" : "0",
      "latitude" : "24.33327",
      "inDis" : "50",
      "routeId" : "211區",
      "seqNo" : "38"
   },
   {
      "GoBack" : "2",
      "longitude" : "120.72948",
      "outDis" : "50",
      "Id" : "5050",
      "oid" : "309863800",
      "districtId" : "1",
      "nameZh" : "公館(安眉路)",
      "pgp" : "0",
      "terminal" : "0",
      "latitude" : "24.33209",
      "inDis" : "50",
      "routeId" : "211區",
      "seqNo" : "39"
   },
   {
      "GoBack" : "2",
      "longitude" : "120.73607",
      "outDis" : "50",
      "Id" : "5051",
      "oid" : "309863801",
      "districtId" : "1",
      "nameZh" : "安眉福美路口",
      "pgp" : "0",
      "terminal" : "0",
      "latitude" : "24.33048",
      "inDis" : "50",
      "routeId" : "211區",
      "seqNo" : "40"
   },
   {
      "GoBack" : "2",
      "longitude" : "120.74221",
      "outDis" : "50",
      "Id" : "5052",
      "oid" : "309863802",
      "districtId" : "1",
      "nameZh" : "安眉興安路口",
      "pgp" : "0",
      "terminal" : "0",
      "latitude" : "24.32926",
      "inDis" : "50",
      "routeId" : "211區",
      "seqNo" : "41"
   },
   {
      "GoBack" : "2",
      "longitude" : "120.74495",
      "outDis" : "50",
      "Id" : "0988",
      "oid" : "5028",
      "districtId" : "1",
      "nameZh" : "七塊厝",
      "pgp" : "0",
      "terminal" : "0",
      "latitude" : "24.328",
      "inDis" : "50",
      "routeId" : "211區",
      "seqNo" : "42"
   },
   {
      "GoBack" : "2",
      "longitude" : "120.74864",
      "outDis" : "50",
      "Id" : "5056",
      "oid" : "309863806",
      "districtId" : "1",
      "nameZh" : "泰安國小",
      "pgp" : "0",
      "terminal" : "0",
      "latitude" : "24.3262",
      "inDis" : "50",
      "routeId" : "211區",
      "seqNo" : "43"
   },
   {
      "GoBack" : "2",
      "longitude" : "120.75146",
      "outDis" : "50",
      "Id" : "5055",
      "oid" : "309863805",
      "districtId" : "1",
      "nameZh" : "泰安派出所",
      "pgp" : "0",
      "terminal" : "0",
      "latitude" : "24.32399",
      "inDis" : "50",
      "routeId" : "211區",
      "seqNo" : "44"
   },
   {
      "GoBack" : "2",
      "longitude" : "120.74882",
      "outDis" : "50",
      "Id" : "2794",
      "oid" : "6111",
      "districtId" : "1",
      "nameZh" : "泰安",
      "pgp" : "0",
      "terminal" : "0",
      "latitude" : "24.32286",
      "inDis" : "50",
      "routeId" : "211區",
      "seqNo" : "45"
   }
]
