[
   {
      "GoBack" : "1",
      "longitude" : "120.72154",
      "outDis" : "70",
      "Id" : "3935",
      "oid" : "6693",
      "districtId" : "1",
      "nameZh" : "豐原",
      "pgp" : "0",
      "terminal" : "0",
      "latitude" : "24.2538",
      "inDis" : "70",
      "routeId" : "229",
      "seqNo" : "1"
   },
   {
      "GoBack" : "1",
      "longitude" : "120.71865",
      "outDis" : "50",
      "Id" : "3343",
      "oid" : "306625599",
      "districtId" : "1",
      "nameZh" : "媽祖廟",
      "pgp" : "0",
      "terminal" : "0",
      "latitude" : "24.25202",
      "inDis" : "50",
      "routeId" : "229",
      "seqNo" : "2"
   },
   {
      "GoBack" : "1",
      "longitude" : "120.71526",
      "outDis" : "50",
      "Id" : "3939",
      "oid" : "6698",
      "districtId" : "1",
      "nameZh" : "豐原郵局",
      "pgp" : "0",
      "terminal" : "0",
      "latitude" : "24.25136",
      "inDis" : "50",
      "routeId" : "229",
      "seqNo" : "3"
   },
   {
      "GoBack" : "1",
      "longitude" : "120.712",
      "outDis" : "50",
      "Id" : "3357",
      "oid" : "6406",
      "districtId" : "1",
      "nameZh" : "慈龍寺",
      "pgp" : "0",
      "terminal" : "0",
      "latitude" : "24.25079",
      "inDis" : "50",
      "routeId" : "229",
      "seqNo" : "4"
   },
   {
      "GoBack" : "1",
      "longitude" : "120.70963",
      "outDis" : "50",
      "Id" : "4448",
      "oid" : "13809",
      "districtId" : "1",
      "nameZh" : "中正圓環西路口",
      "pgp" : "0",
      "terminal" : "0",
      "latitude" : "24.25039",
      "inDis" : "50",
      "routeId" : "229",
      "seqNo" : "5"
   },
   {
      "GoBack" : "1",
      "longitude" : "120.70672",
      "outDis" : "50",
      "Id" : "1065",
      "oid" : "5072",
      "districtId" : "1",
      "nameZh" : "三光新村",
      "pgp" : "0",
      "terminal" : "0",
      "latitude" : "24.24999",
      "inDis" : "50",
      "routeId" : "229",
      "seqNo" : "6"
   },
   {
      "GoBack" : "1",
      "longitude" : "120.70434",
      "outDis" : "50",
      "Id" : "2349",
      "oid" : "5856",
      "districtId" : "1",
      "nameZh" : "忠勤新村",
      "pgp" : "0",
      "terminal" : "0",
      "latitude" : "24.24962",
      "inDis" : "50",
      "routeId" : "229",
      "seqNo" : "7"
   },
   {
      "GoBack" : "1",
      "longitude" : "120.70229",
      "outDis" : "50",
      "Id" : "2489",
      "oid" : "5943",
      "districtId" : "1",
      "nameZh" : "社皮鐵路巷",
      "pgp" : "0",
      "terminal" : "0",
      "latitude" : "24.24951",
      "inDis" : "50",
      "routeId" : "229",
      "seqNo" : "8"
   },
   {
      "GoBack" : "1",
      "longitude" : "120.70003",
      "outDis" : "50",
      "Id" : "4498",
      "oid" : "13826",
      "districtId" : "1",
      "nameZh" : "臺豐社區",
      "pgp" : "0",
      "terminal" : "0",
      "latitude" : "24.249",
      "inDis" : "50",
      "routeId" : "229",
      "seqNo" : "9"
   },
   {
      "GoBack" : "1",
      "longitude" : "120.69799",
      "outDis" : "50",
      "Id" : "5438",
      "oid" : "5237",
      "districtId" : "1",
      "nameZh" : "岸裡國小",
      "pgp" : "0",
      "terminal" : "0",
      "latitude" : "24.2487",
      "inDis" : "50",
      "routeId" : "229",
      "seqNo" : "10"
   },
   {
      "GoBack" : "1",
      "longitude" : "120.69323",
      "outDis" : "50",
      "Id" : "2993",
      "oid" : "6203",
      "districtId" : "1",
      "nameZh" : "望寮",
      "pgp" : "0",
      "terminal" : "0",
      "latitude" : "24.24841",
      "inDis" : "50",
      "routeId" : "229",
      "seqNo" : "11"
   },
   {
      "GoBack" : "1",
      "longitude" : "120.6896",
      "outDis" : "50",
      "Id" : "2700",
      "oid" : "6056",
      "districtId" : "1",
      "nameZh" : "紅瓦厝口",
      "pgp" : "0",
      "terminal" : "0",
      "latitude" : "24.2476",
      "inDis" : "50",
      "routeId" : "229",
      "seqNo" : "12"
   },
   {
      "GoBack" : "1",
      "longitude" : "120.68563",
      "outDis" : "50",
      "Id" : "2486",
      "oid" : "5941",
      "districtId" : "1",
      "nameZh" : "社口",
      "pgp" : "0",
      "terminal" : "0",
      "latitude" : "24.24668",
      "inDis" : "50",
      "routeId" : "229",
      "seqNo" : "13"
   },
   {
      "GoBack" : "1",
      "longitude" : "120.68237",
      "outDis" : "50",
      "Id" : "2492",
      "oid" : "5945",
      "districtId" : "1",
      "nameZh" : "社南廟",
      "pgp" : "0",
      "terminal" : "0",
      "latitude" : "24.24607",
      "inDis" : "50",
      "routeId" : "229",
      "seqNo" : "14"
   },
   {
      "GoBack" : "1",
      "longitude" : "120.67895",
      "outDis" : "50",
      "Id" : "3103",
      "oid" : "6287",
      "districtId" : "1",
      "nameZh" : "頂牛埔",
      "pgp" : "0",
      "terminal" : "0",
      "latitude" : "24.24386",
      "inDis" : "50",
      "routeId" : "229",
      "seqNo" : "15"
   },
   {
      "GoBack" : "1",
      "longitude" : "120.67731",
      "outDis" : "50",
      "Id" : "4721",
      "oid" : "306625603",
      "districtId" : "1",
      "nameZh" : "三采幼稚園",
      "pgp" : "0",
      "terminal" : "0",
      "latitude" : "24.24282",
      "inDis" : "50",
      "routeId" : "229",
      "seqNo" : "16"
   },
   {
      "GoBack" : "1",
      "longitude" : "120.67445",
      "outDis" : "50",
      "Id" : "1733",
      "oid" : "5499",
      "districtId" : "1",
      "nameZh" : "牛埔仔",
      "pgp" : "0",
      "terminal" : "0",
      "latitude" : "24.24073",
      "inDis" : "50",
      "routeId" : "229",
      "seqNo" : "17"
   },
   {
      "GoBack" : "1",
      "longitude" : "120.67004",
      "outDis" : "50",
      "Id" : "3707",
      "oid" : "6589",
      "districtId" : "1",
      "nameZh" : "億鴻新村",
      "pgp" : "0",
      "terminal" : "0",
      "latitude" : "24.23781",
      "inDis" : "50",
      "routeId" : "229",
      "seqNo" : "18"
   },
   {
      "GoBack" : "1",
      "longitude" : "120.66726",
      "outDis" : "50",
      "Id" : "3454",
      "oid" : "6471",
      "districtId" : "1",
      "nameZh" : "楓樹腳",
      "pgp" : "0",
      "terminal" : "0",
      "latitude" : "24.23591",
      "inDis" : "50",
      "routeId" : "229",
      "seqNo" : "19"
   },
   {
      "GoBack" : "1",
      "longitude" : "120.66354",
      "outDis" : "50",
      "Id" : "1204",
      "oid" : "5156",
      "districtId" : "1",
      "nameZh" : "下楓樹腳",
      "pgp" : "0",
      "terminal" : "0",
      "latitude" : "24.23335",
      "inDis" : "50",
      "routeId" : "229",
      "seqNo" : "20"
   },
   {
      "GoBack" : "1",
      "longitude" : "120.65948",
      "outDis" : "50",
      "Id" : "3544",
      "oid" : "6510",
      "districtId" : "1",
      "nameZh" : "達聲",
      "pgp" : "0",
      "terminal" : "0",
      "latitude" : "24.23155",
      "inDis" : "50",
      "routeId" : "229",
      "seqNo" : "21"
   },
   {
      "GoBack" : "1",
      "longitude" : "120.65401",
      "outDis" : "50",
      "Id" : "3304",
      "oid" : "6380",
      "districtId" : "1",
      "nameZh" : "雅洲新城",
      "pgp" : "0",
      "terminal" : "0",
      "latitude" : "24.22915",
      "inDis" : "50",
      "routeId" : "229",
      "seqNo" : "22"
   },
   {
      "GoBack" : "1",
      "longitude" : "120.65112",
      "outDis" : "50",
      "Id" : "1366",
      "oid" : "5281",
      "districtId" : "1",
      "nameZh" : "大榮橋",
      "pgp" : "0",
      "terminal" : "0",
      "latitude" : "24.22764",
      "inDis" : "50",
      "routeId" : "229",
      "seqNo" : "23"
   },
   {
      "GoBack" : "1",
      "longitude" : "120.64796",
      "outDis" : "50",
      "Id" : "4722",
      "oid" : "306625604",
      "districtId" : "1",
      "nameZh" : "玉山銀行大雅分行",
      "pgp" : "0",
      "terminal" : "0",
      "latitude" : "24.22531",
      "inDis" : "50",
      "routeId" : "229",
      "seqNo" : "24"
   },
   {
      "GoBack" : "1",
      "longitude" : "120.64789",
      "outDis" : "50",
      "Id" : "1346",
      "oid" : "7231",
      "districtId" : "1",
      "nameZh" : "大雅",
      "pgp" : "0",
      "terminal" : "0",
      "latitude" : "24.22364",
      "inDis" : "50",
      "routeId" : "229",
      "seqNo" : "25"
   },
   {
      "GoBack" : "1",
      "longitude" : "120.64885",
      "outDis" : "50",
      "Id" : "4092",
      "oid" : "D76F25AE554F4169987DC2BF02E6803A",
      "districtId" : "1",
      "nameZh" : "中山中清路口",
      "pgp" : "0",
      "terminal" : "0",
      "latitude" : "24.21801",
      "inDis" : "50",
      "routeId" : "229",
      "seqNo" : "26"
   },
   {
      "GoBack" : "1",
      "longitude" : "120.64783",
      "outDis" : "50",
      "Id" : "3643",
      "oid" : "6548",
      "districtId" : "1",
      "nameZh" : "福志",
      "pgp" : "0",
      "terminal" : "0",
      "latitude" : "24.21606",
      "inDis" : "50",
      "routeId" : "229",
      "seqNo" : "27"
   },
   {
      "GoBack" : "1",
      "longitude" : "120.64405",
      "outDis" : "50",
      "Id" : "1210",
      "oid" : "5160",
      "districtId" : "1",
      "nameZh" : "下橫山",
      "pgp" : "0",
      "terminal" : "0",
      "latitude" : "24.20829",
      "inDis" : "50",
      "routeId" : "229",
      "seqNo" : "28"
   },
   {
      "GoBack" : "1",
      "longitude" : "120.64447",
      "outDis" : "50",
      "Id" : "5473",
      "oid" : "314251942",
      "districtId" : "1",
      "nameZh" : "中山大同巷口",
      "pgp" : "0",
      "terminal" : "0",
      "latitude" : "24.20528",
      "inDis" : "50",
      "routeId" : "229",
      "seqNo" : "29"
   },
   {
      "GoBack" : "1",
      "longitude" : "120.64442",
      "outDis" : "50",
      "Id" : "4943",
      "oid" : "308835212",
      "districtId" : "1",
      "nameZh" : "廣福中科路口",
      "pgp" : "0",
      "terminal" : "0",
      "latitude" : "24.20287",
      "inDis" : "50",
      "routeId" : "229",
      "seqNo" : "30"
   },
   {
      "GoBack" : "1",
      "longitude" : "120.64286",
      "outDis" : "50",
      "Id" : "1025",
      "oid" : "5045",
      "districtId" : "1",
      "nameZh" : "八張犁",
      "pgp" : "0",
      "terminal" : "0",
      "latitude" : "24.19867",
      "inDis" : "50",
      "routeId" : "229",
      "seqNo" : "31"
   },
   {
      "GoBack" : "1",
      "longitude" : "120.64187",
      "outDis" : "50",
      "Id" : "4327",
      "oid" : "6520",
      "districtId" : "1",
      "nameZh" : "僑光科技大學",
      "pgp" : "0",
      "terminal" : "0",
      "latitude" : "24.18954",
      "inDis" : "50",
      "routeId" : "229",
      "seqNo" : "32"
   },
   {
      "GoBack" : "1",
      "longitude" : "120.64195",
      "outDis" : "50",
      "Id" : "4723",
      "oid" : "306625606",
      "districtId" : "1",
      "nameZh" : "黎明光明路口",
      "pgp" : "0",
      "terminal" : "0",
      "latitude" : "24.18725",
      "inDis" : "50",
      "routeId" : "229",
      "seqNo" : "33"
   },
   {
      "GoBack" : "1",
      "longitude" : "120.64441",
      "outDis" : "50",
      "Id" : "4327",
      "oid" : "8020EE8F01BE412EB75CABCD4B885952",
      "districtId" : "1",
      "nameZh" : "僑光科技大學",
      "pgp" : "0",
      "terminal" : "0",
      "latitude" : "24.1865",
      "inDis" : "100",
      "routeId" : "229",
      "seqNo" : "34"
   },
   {
      "GoBack" : "1",
      "longitude" : "120.64472",
      "outDis" : "50",
      "Id" : "5658",
      "oid" : "313222695",
      "districtId" : "1",
      "nameZh" : "漢翔公司(星享道)",
      "pgp" : "0",
      "terminal" : "0",
      "latitude" : "24.18421",
      "inDis" : "50",
      "routeId" : "229",
      "seqNo" : "35"
   },
   {
      "GoBack" : "1",
      "longitude" : "120.64388",
      "outDis" : "50",
      "Id" : "0277",
      "oid" : "DF0122C7EDE04632892AFC82F7F420E9",
      "districtId" : "1",
      "nameZh" : "逢甲大學城",
      "pgp" : "0",
      "terminal" : "0",
      "latitude" : "24.18235",
      "inDis" : "50",
      "routeId" : "229",
      "seqNo" : "36"
   },
   {
      "GoBack" : "1",
      "longitude" : "120.64227",
      "outDis" : "50",
      "Id" : "0851",
      "oid" : "306628469",
      "districtId" : "1",
      "nameZh" : "集福堂",
      "pgp" : "0",
      "terminal" : "0",
      "latitude" : "24.18233",
      "inDis" : "50",
      "routeId" : "229",
      "seqNo" : "37"
   },
   {
      "GoBack" : "1",
      "longitude" : "120.64074",
      "outDis" : "50",
      "Id" : "4622",
      "oid" : "306628470",
      "districtId" : "1",
      "nameZh" : "福星同心路口",
      "pgp" : "0",
      "terminal" : "0",
      "latitude" : "24.18234",
      "inDis" : "50",
      "routeId" : "229",
      "seqNo" : "38"
   },
   {
      "GoBack" : "1",
      "longitude" : "120.63857",
      "outDis" : "50",
      "Id" : "2175",
      "oid" : "306628471",
      "districtId" : "1",
      "nameZh" : "西屯派出所",
      "pgp" : "0",
      "terminal" : "0",
      "latitude" : "24.18202",
      "inDis" : "50",
      "routeId" : "229",
      "seqNo" : "39"
   },
   {
      "GoBack" : "1",
      "longitude" : "120.63744",
      "outDis" : "50",
      "Id" : "0238",
      "oid" : "306628472",
      "districtId" : "1",
      "nameZh" : "西屯郵局",
      "pgp" : "0",
      "terminal" : "0",
      "latitude" : "24.17652",
      "inDis" : "50",
      "routeId" : "229",
      "seqNo" : "40"
   },
   {
      "GoBack" : "1",
      "longitude" : "120.63693",
      "outDis" : "50",
      "Id" : "0013",
      "oid" : "C2DCBB422E414C728938F74C149AEDC0",
      "districtId" : "1",
      "nameZh" : "朝馬(黎明路)",
      "pgp" : "0",
      "terminal" : "0",
      "latitude" : "24.17181",
      "inDis" : "50",
      "routeId" : "229",
      "seqNo" : "41"
   },
   {
      "GoBack" : "2",
      "longitude" : "120.6369",
      "outDis" : "50",
      "Id" : "0013",
      "oid" : "8304256BA31A41CD89E24D392430C0CF",
      "districtId" : "1",
      "nameZh" : "朝馬(黎明路)",
      "pgp" : "0",
      "terminal" : "0",
      "latitude" : "24.17186",
      "inDis" : "50",
      "routeId" : "229",
      "seqNo" : "1"
   },
   {
      "GoBack" : "2",
      "longitude" : "120.63744",
      "outDis" : "50",
      "Id" : "0238",
      "oid" : "306628472",
      "districtId" : "1",
      "nameZh" : "西屯郵局",
      "pgp" : "0",
      "terminal" : "0",
      "latitude" : "24.17652",
      "inDis" : "50",
      "routeId" : "229",
      "seqNo" : "2"
   },
   {
      "GoBack" : "2",
      "longitude" : "120.63857",
      "outDis" : "50",
      "Id" : "2175",
      "oid" : "306628471",
      "districtId" : "1",
      "nameZh" : "西屯派出所",
      "pgp" : "0",
      "terminal" : "0",
      "latitude" : "24.18202",
      "inDis" : "50",
      "routeId" : "229",
      "seqNo" : "3"
   },
   {
      "GoBack" : "2",
      "longitude" : "120.64074",
      "outDis" : "50",
      "Id" : "4622",
      "oid" : "306628470",
      "districtId" : "1",
      "nameZh" : "福星同心路口",
      "pgp" : "0",
      "terminal" : "0",
      "latitude" : "24.18234",
      "inDis" : "50",
      "routeId" : "229",
      "seqNo" : "4"
   },
   {
      "GoBack" : "2",
      "longitude" : "120.64227",
      "outDis" : "50",
      "Id" : "0851",
      "oid" : "306628469",
      "districtId" : "1",
      "nameZh" : "集福堂",
      "pgp" : "0",
      "terminal" : "0",
      "latitude" : "24.18233",
      "inDis" : "50",
      "routeId" : "229",
      "seqNo" : "5"
   },
   {
      "GoBack" : "2",
      "longitude" : "120.64472",
      "outDis" : "50",
      "Id" : "5658",
      "oid" : "313222695",
      "districtId" : "1",
      "nameZh" : "漢翔公司(星享道)",
      "pgp" : "0",
      "terminal" : "0",
      "latitude" : "24.18421",
      "inDis" : "50",
      "routeId" : "229",
      "seqNo" : "6"
   },
   {
      "GoBack" : "2",
      "longitude" : "120.64429",
      "outDis" : "50",
      "Id" : "4327",
      "oid" : "306625607",
      "districtId" : "1",
      "nameZh" : "僑光科技大學",
      "pgp" : "0",
      "terminal" : "0",
      "latitude" : "24.18676",
      "inDis" : "50",
      "routeId" : "229",
      "seqNo" : "7"
   },
   {
      "GoBack" : "2",
      "longitude" : "120.64195",
      "outDis" : "50",
      "Id" : "4723",
      "oid" : "306625606",
      "districtId" : "1",
      "nameZh" : "黎明光明路口",
      "pgp" : "0",
      "terminal" : "0",
      "latitude" : "24.18725",
      "inDis" : "50",
      "routeId" : "229",
      "seqNo" : "8"
   },
   {
      "GoBack" : "2",
      "longitude" : "120.64286",
      "outDis" : "50",
      "Id" : "1025",
      "oid" : "5045",
      "districtId" : "1",
      "nameZh" : "八張犁",
      "pgp" : "0",
      "terminal" : "0",
      "latitude" : "24.19867",
      "inDis" : "50",
      "routeId" : "229",
      "seqNo" : "9"
   },
   {
      "GoBack" : "2",
      "longitude" : "120.64442",
      "outDis" : "50",
      "Id" : "4943",
      "oid" : "308835212",
      "districtId" : "1",
      "nameZh" : "廣福中科路口",
      "pgp" : "0",
      "terminal" : "0",
      "latitude" : "24.20287",
      "inDis" : "50",
      "routeId" : "229",
      "seqNo" : "10"
   },
   {
      "GoBack" : "2",
      "longitude" : "120.64447",
      "outDis" : "50",
      "Id" : "5473",
      "oid" : "314251942",
      "districtId" : "1",
      "nameZh" : "中山大同巷口",
      "pgp" : "0",
      "terminal" : "0",
      "latitude" : "24.20528",
      "inDis" : "50",
      "routeId" : "229",
      "seqNo" : "11"
   },
   {
      "GoBack" : "2",
      "longitude" : "120.64405",
      "outDis" : "50",
      "Id" : "1210",
      "oid" : "5160",
      "districtId" : "1",
      "nameZh" : "下橫山",
      "pgp" : "0",
      "terminal" : "0",
      "latitude" : "24.20829",
      "inDis" : "50",
      "routeId" : "229",
      "seqNo" : "12"
   },
   {
      "GoBack" : "2",
      "longitude" : "120.64783",
      "outDis" : "50",
      "Id" : "3643",
      "oid" : "6548",
      "districtId" : "1",
      "nameZh" : "福志",
      "pgp" : "0",
      "terminal" : "0",
      "latitude" : "24.21606",
      "inDis" : "50",
      "routeId" : "229",
      "seqNo" : "13"
   },
   {
      "GoBack" : "2",
      "longitude" : "120.64885",
      "outDis" : "50",
      "Id" : "4092",
      "oid" : "D76F25AE554F4169987DC2BF02E6803A",
      "districtId" : "1",
      "nameZh" : "中山中清路口",
      "pgp" : "0",
      "terminal" : "0",
      "latitude" : "24.21801",
      "inDis" : "50",
      "routeId" : "229",
      "seqNo" : "14"
   },
   {
      "GoBack" : "2",
      "longitude" : "120.64789",
      "outDis" : "50",
      "Id" : "1346",
      "oid" : "7231",
      "districtId" : "1",
      "nameZh" : "大雅",
      "pgp" : "0",
      "terminal" : "0",
      "latitude" : "24.22364",
      "inDis" : "50",
      "routeId" : "229",
      "seqNo" : "15"
   },
   {
      "GoBack" : "2",
      "longitude" : "120.64796",
      "outDis" : "50",
      "Id" : "4722",
      "oid" : "306625604",
      "districtId" : "1",
      "nameZh" : "玉山銀行大雅分行",
      "pgp" : "0",
      "terminal" : "0",
      "latitude" : "24.22531",
      "inDis" : "50",
      "routeId" : "229",
      "seqNo" : "16"
   },
   {
      "GoBack" : "2",
      "longitude" : "120.65112",
      "outDis" : "50",
      "Id" : "1366",
      "oid" : "5281",
      "districtId" : "1",
      "nameZh" : "大榮橋",
      "pgp" : "0",
      "terminal" : "0",
      "latitude" : "24.22764",
      "inDis" : "50",
      "routeId" : "229",
      "seqNo" : "17"
   },
   {
      "GoBack" : "2",
      "longitude" : "120.65401",
      "outDis" : "50",
      "Id" : "3304",
      "oid" : "6380",
      "districtId" : "1",
      "nameZh" : "雅洲新城",
      "pgp" : "0",
      "terminal" : "0",
      "latitude" : "24.22915",
      "inDis" : "50",
      "routeId" : "229",
      "seqNo" : "18"
   },
   {
      "GoBack" : "2",
      "longitude" : "120.65948",
      "outDis" : "50",
      "Id" : "3544",
      "oid" : "6510",
      "districtId" : "1",
      "nameZh" : "達聲",
      "pgp" : "0",
      "terminal" : "0",
      "latitude" : "24.23155",
      "inDis" : "50",
      "routeId" : "229",
      "seqNo" : "19"
   },
   {
      "GoBack" : "2",
      "longitude" : "120.66354",
      "outDis" : "50",
      "Id" : "1204",
      "oid" : "5156",
      "districtId" : "1",
      "nameZh" : "下楓樹腳",
      "pgp" : "0",
      "terminal" : "0",
      "latitude" : "24.23335",
      "inDis" : "50",
      "routeId" : "229",
      "seqNo" : "20"
   },
   {
      "GoBack" : "2",
      "longitude" : "120.66726",
      "outDis" : "50",
      "Id" : "3454",
      "oid" : "6471",
      "districtId" : "1",
      "nameZh" : "楓樹腳",
      "pgp" : "0",
      "terminal" : "0",
      "latitude" : "24.23591",
      "inDis" : "50",
      "routeId" : "229",
      "seqNo" : "21"
   },
   {
      "GoBack" : "2",
      "longitude" : "120.67004",
      "outDis" : "50",
      "Id" : "3707",
      "oid" : "6589",
      "districtId" : "1",
      "nameZh" : "億鴻新村",
      "pgp" : "0",
      "terminal" : "0",
      "latitude" : "24.23781",
      "inDis" : "50",
      "routeId" : "229",
      "seqNo" : "22"
   },
   {
      "GoBack" : "2",
      "longitude" : "120.67445",
      "outDis" : "50",
      "Id" : "1733",
      "oid" : "5499",
      "districtId" : "1",
      "nameZh" : "牛埔仔",
      "pgp" : "0",
      "terminal" : "0",
      "latitude" : "24.24073",
      "inDis" : "50",
      "routeId" : "229",
      "seqNo" : "23"
   },
   {
      "GoBack" : "2",
      "longitude" : "120.67731",
      "outDis" : "50",
      "Id" : "4721",
      "oid" : "306625603",
      "districtId" : "1",
      "nameZh" : "三采幼稚園",
      "pgp" : "0",
      "terminal" : "0",
      "latitude" : "24.24282",
      "inDis" : "50",
      "routeId" : "229",
      "seqNo" : "24"
   },
   {
      "GoBack" : "2",
      "longitude" : "120.67895",
      "outDis" : "50",
      "Id" : "3103",
      "oid" : "6287",
      "districtId" : "1",
      "nameZh" : "頂牛埔",
      "pgp" : "0",
      "terminal" : "0",
      "latitude" : "24.24386",
      "inDis" : "50",
      "routeId" : "229",
      "seqNo" : "25"
   },
   {
      "GoBack" : "2",
      "longitude" : "120.68237",
      "outDis" : "50",
      "Id" : "2492",
      "oid" : "5945",
      "districtId" : "1",
      "nameZh" : "社南廟",
      "pgp" : "0",
      "terminal" : "0",
      "latitude" : "24.24607",
      "inDis" : "50",
      "routeId" : "229",
      "seqNo" : "26"
   },
   {
      "GoBack" : "2",
      "longitude" : "120.68563",
      "outDis" : "50",
      "Id" : "2486",
      "oid" : "5941",
      "districtId" : "1",
      "nameZh" : "社口",
      "pgp" : "0",
      "terminal" : "0",
      "latitude" : "24.24668",
      "inDis" : "50",
      "routeId" : "229",
      "seqNo" : "27"
   },
   {
      "GoBack" : "2",
      "longitude" : "120.6896",
      "outDis" : "50",
      "Id" : "2700",
      "oid" : "6056",
      "districtId" : "1",
      "nameZh" : "紅瓦厝口",
      "pgp" : "0",
      "terminal" : "0",
      "latitude" : "24.2476",
      "inDis" : "50",
      "routeId" : "229",
      "seqNo" : "28"
   },
   {
      "GoBack" : "2",
      "longitude" : "120.69323",
      "outDis" : "50",
      "Id" : "2993",
      "oid" : "6203",
      "districtId" : "1",
      "nameZh" : "望寮",
      "pgp" : "0",
      "terminal" : "0",
      "latitude" : "24.24841",
      "inDis" : "50",
      "routeId" : "229",
      "seqNo" : "29"
   },
   {
      "GoBack" : "2",
      "longitude" : "120.69799",
      "outDis" : "50",
      "Id" : "5438",
      "oid" : "5237",
      "districtId" : "1",
      "nameZh" : "岸裡國小",
      "pgp" : "0",
      "terminal" : "0",
      "latitude" : "24.2487",
      "inDis" : "50",
      "routeId" : "229",
      "seqNo" : "30"
   },
   {
      "GoBack" : "2",
      "longitude" : "120.70003",
      "outDis" : "50",
      "Id" : "4498",
      "oid" : "13826",
      "districtId" : "1",
      "nameZh" : "臺豐社區",
      "pgp" : "0",
      "terminal" : "0",
      "latitude" : "24.249",
      "inDis" : "50",
      "routeId" : "229",
      "seqNo" : "31"
   },
   {
      "GoBack" : "2",
      "longitude" : "120.70229",
      "outDis" : "50",
      "Id" : "2489",
      "oid" : "5943",
      "districtId" : "1",
      "nameZh" : "社皮鐵路巷",
      "pgp" : "0",
      "terminal" : "0",
      "latitude" : "24.24951",
      "inDis" : "50",
      "routeId" : "229",
      "seqNo" : "32"
   },
   {
      "GoBack" : "2",
      "longitude" : "120.70434",
      "outDis" : "50",
      "Id" : "2349",
      "oid" : "5856",
      "districtId" : "1",
      "nameZh" : "忠勤新村",
      "pgp" : "0",
      "terminal" : "0",
      "latitude" : "24.24962",
      "inDis" : "50",
      "routeId" : "229",
      "seqNo" : "33"
   },
   {
      "GoBack" : "2",
      "longitude" : "120.70672",
      "outDis" : "50",
      "Id" : "1065",
      "oid" : "5072",
      "districtId" : "1",
      "nameZh" : "三光新村",
      "pgp" : "0",
      "terminal" : "0",
      "latitude" : "24.24999",
      "inDis" : "50",
      "routeId" : "229",
      "seqNo" : "34"
   },
   {
      "GoBack" : "2",
      "longitude" : "120.70963",
      "outDis" : "50",
      "Id" : "4448",
      "oid" : "13809",
      "districtId" : "1",
      "nameZh" : "中正圓環西路口",
      "pgp" : "0",
      "terminal" : "0",
      "latitude" : "24.25039",
      "inDis" : "50",
      "routeId" : "229",
      "seqNo" : "35"
   },
   {
      "GoBack" : "2",
      "longitude" : "120.712",
      "outDis" : "50",
      "Id" : "3357",
      "oid" : "6406",
      "districtId" : "1",
      "nameZh" : "慈龍寺",
      "pgp" : "0",
      "terminal" : "0",
      "latitude" : "24.25079",
      "inDis" : "50",
      "routeId" : "229",
      "seqNo" : "36"
   },
   {
      "GoBack" : "2",
      "longitude" : "120.71526",
      "outDis" : "50",
      "Id" : "3939",
      "oid" : "6698",
      "districtId" : "1",
      "nameZh" : "豐原郵局",
      "pgp" : "0",
      "terminal" : "0",
      "latitude" : "24.25136",
      "inDis" : "50",
      "routeId" : "229",
      "seqNo" : "37"
   },
   {
      "GoBack" : "2",
      "longitude" : "120.71865",
      "outDis" : "50",
      "Id" : "3343",
      "oid" : "306625599",
      "districtId" : "1",
      "nameZh" : "媽祖廟",
      "pgp" : "0",
      "terminal" : "0",
      "latitude" : "24.25202",
      "inDis" : "50",
      "routeId" : "229",
      "seqNo" : "38"
   },
   {
      "GoBack" : "2",
      "longitude" : "120.71857",
      "outDis" : "50",
      "Id" : "2309",
      "oid" : "306625398",
      "districtId" : "1",
      "nameZh" : "和平街",
      "pgp" : "0",
      "terminal" : "0",
      "latitude" : "24.25322",
      "inDis" : "50",
      "routeId" : "229",
      "seqNo" : "39"
   },
   {
      "GoBack" : "2",
      "longitude" : "120.72154",
      "outDis" : "70",
      "Id" : "3935",
      "oid" : "6693",
      "districtId" : "1",
      "nameZh" : "豐原",
      "pgp" : "0",
      "terminal" : "0",
      "latitude" : "24.2538",
      "inDis" : "70",
      "routeId" : "229",
      "seqNo" : "40"
   }
]
