[
   {
      "GoBack" : "1",
      "longitude" : "120.72154",
      "outDis" : "70",
      "Id" : "3935",
      "oid" : "6693",
      "districtId" : "1",
      "nameZh" : "豐原",
      "pgp" : "0",
      "terminal" : "0",
      "latitude" : "24.2538",
      "inDis" : "70",
      "routeId" : "208",
      "seqNo" : "1"
   },
   {
      "GoBack" : "1",
      "longitude" : "120.7212",
      "outDis" : "50",
      "Id" : "3157",
      "oid" : "13609",
      "districtId" : "1",
      "nameZh" : "頂街",
      "pgp" : "0",
      "terminal" : "0",
      "latitude" : "24.25229",
      "inDis" : "50",
      "routeId" : "208",
      "seqNo" : "2"
   },
   {
      "GoBack" : "1",
      "longitude" : "120.72394",
      "outDis" : "50",
      "Id" : "4203",
      "oid" : "6447",
      "districtId" : "1",
      "nameZh" : "新都酒店",
      "pgp" : "0",
      "terminal" : "0",
      "latitude" : "24.25221",
      "inDis" : "50",
      "routeId" : "208",
      "seqNo" : "3"
   },
   {
      "GoBack" : "1",
      "longitude" : "120.72603",
      "outDis" : "50",
      "Id" : "4408",
      "oid" : "5744",
      "districtId" : "1",
      "nameZh" : "豐原老人會館",
      "pgp" : "0",
      "terminal" : "0",
      "latitude" : "24.25219",
      "inDis" : "50",
      "routeId" : "208",
      "seqNo" : "4"
   },
   {
      "GoBack" : "1",
      "longitude" : "120.72786",
      "outDis" : "50",
      "Id" : "4457",
      "oid" : "6393",
      "districtId" : "1",
      "nameZh" : "向陽圓環東路口",
      "pgp" : "0",
      "terminal" : "0",
      "latitude" : "24.25133",
      "inDis" : "50",
      "routeId" : "208",
      "seqNo" : "5"
   },
   {
      "GoBack" : "1",
      "longitude" : "120.72976",
      "outDis" : "50",
      "Id" : "5544",
      "oid" : "316462696",
      "districtId" : "1",
      "nameZh" : "葫蘆墩文化中心",
      "pgp" : "0",
      "terminal" : "0",
      "latitude" : "24.25299",
      "inDis" : "50",
      "routeId" : "208",
      "seqNo" : "6"
   },
   {
      "GoBack" : "1",
      "longitude" : "120.72983",
      "outDis" : "50",
      "Id" : "4478",
      "oid" : "5488",
      "districtId" : "1",
      "nameZh" : "圓環東水源路口",
      "pgp" : "0",
      "terminal" : "0",
      "latitude" : "24.25577",
      "inDis" : "50",
      "routeId" : "208",
      "seqNo" : "7"
   },
   {
      "GoBack" : "1",
      "longitude" : "120.73227",
      "outDis" : "50",
      "Id" : "4407",
      "oid" : "5626",
      "districtId" : "1",
      "nameZh" : "永豐原紙廠",
      "pgp" : "0",
      "terminal" : "0",
      "latitude" : "24.2587",
      "inDis" : "50",
      "routeId" : "208",
      "seqNo" : "8"
   },
   {
      "GoBack" : "1",
      "longitude" : "120.73593",
      "outDis" : "50",
      "Id" : "2843",
      "oid" : "6144",
      "districtId" : "1",
      "nameZh" : "翁子",
      "pgp" : "0",
      "terminal" : "0",
      "latitude" : "24.26058",
      "inDis" : "50",
      "routeId" : "208",
      "seqNo" : "9"
   },
   {
      "GoBack" : "1",
      "longitude" : "120.73947",
      "outDis" : "50",
      "Id" : "2844",
      "oid" : "6145",
      "districtId" : "1",
      "nameZh" : "翁子保養場",
      "pgp" : "0",
      "terminal" : "0",
      "latitude" : "24.26226",
      "inDis" : "50",
      "routeId" : "208",
      "seqNo" : "10"
   },
   {
      "GoBack" : "1",
      "longitude" : "120.74277",
      "outDis" : "50",
      "Id" : "2845",
      "oid" : "6146",
      "districtId" : "1",
      "nameZh" : "翁子國小",
      "pgp" : "0",
      "terminal" : "0",
      "latitude" : "24.26379",
      "inDis" : "50",
      "routeId" : "208",
      "seqNo" : "11"
   },
   {
      "GoBack" : "1",
      "longitude" : "120.74564",
      "outDis" : "50",
      "Id" : "1806",
      "oid" : "5541",
      "districtId" : "1",
      "nameZh" : "半張",
      "pgp" : "0",
      "terminal" : "0",
      "latitude" : "24.26517",
      "inDis" : "50",
      "routeId" : "208",
      "seqNo" : "12"
   },
   {
      "GoBack" : "1",
      "longitude" : "120.74924",
      "outDis" : "50",
      "Id" : "4490",
      "oid" : "5728",
      "districtId" : "1",
      "nameZh" : "豐勢國豐路口",
      "pgp" : "0",
      "terminal" : "0",
      "latitude" : "24.2678",
      "inDis" : "50",
      "routeId" : "208",
      "seqNo" : "13"
   },
   {
      "GoBack" : "1",
      "longitude" : "120.75175",
      "outDis" : "50",
      "Id" : "4412",
      "oid" : "304270264",
      "districtId" : "1",
      "nameZh" : "國家教育研究院",
      "pgp" : "0",
      "terminal" : "0",
      "latitude" : "24.27084",
      "inDis" : "50",
      "routeId" : "208",
      "seqNo" : "14"
   },
   {
      "GoBack" : "1",
      "longitude" : "120.75398",
      "outDis" : "50",
      "Id" : "2128",
      "oid" : "5729",
      "districtId" : "1",
      "nameZh" : "朴子口",
      "pgp" : "0",
      "terminal" : "0",
      "latitude" : "24.27345",
      "inDis" : "50",
      "routeId" : "208",
      "seqNo" : "15"
   },
   {
      "GoBack" : "1",
      "longitude" : "120.75652",
      "outDis" : "50",
      "Id" : "4454",
      "oid" : "6472",
      "districtId" : "1",
      "nameZh" : "民安",
      "pgp" : "0",
      "terminal" : "0",
      "latitude" : "24.27507",
      "inDis" : "50",
      "routeId" : "208",
      "seqNo" : "16"
   },
   {
      "GoBack" : "1",
      "longitude" : "120.75916",
      "outDis" : "50",
      "Id" : "2947",
      "oid" : "6184",
      "districtId" : "1",
      "nameZh" : "埤頭",
      "pgp" : "0",
      "terminal" : "0",
      "latitude" : "24.27657",
      "inDis" : "50",
      "routeId" : "208",
      "seqNo" : "17"
   },
   {
      "GoBack" : "1",
      "longitude" : "120.76675",
      "outDis" : "50",
      "Id" : "2005",
      "oid" : "5658",
      "districtId" : "1",
      "nameZh" : "石岡水壩",
      "pgp" : "0",
      "terminal" : "0",
      "latitude" : "24.27812",
      "inDis" : "50",
      "routeId" : "208",
      "seqNo" : "18"
   },
   {
      "GoBack" : "1",
      "longitude" : "120.7719",
      "outDis" : "50",
      "Id" : "2337",
      "oid" : "5848",
      "districtId" : "1",
      "nameZh" : "岡尾",
      "pgp" : "0",
      "terminal" : "0",
      "latitude" : "24.27755",
      "inDis" : "50",
      "routeId" : "208",
      "seqNo" : "19"
   },
   {
      "GoBack" : "1",
      "longitude" : "120.77635",
      "outDis" : "50",
      "Id" : "2004",
      "oid" : "5657",
      "districtId" : "1",
      "nameZh" : "石岡",
      "pgp" : "0",
      "terminal" : "0",
      "latitude" : "24.27653",
      "inDis" : "50",
      "routeId" : "208",
      "seqNo" : "20"
   },
   {
      "GoBack" : "1",
      "longitude" : "120.78075",
      "outDis" : "50",
      "Id" : "4456",
      "oid" : "5659",
      "districtId" : "1",
      "nameZh" : "石岡區公所",
      "pgp" : "0",
      "terminal" : "0",
      "latitude" : "24.27492",
      "inDis" : "50",
      "routeId" : "208",
      "seqNo" : "21"
   },
   {
      "GoBack" : "1",
      "longitude" : "120.78428",
      "outDis" : "50",
      "Id" : "0992",
      "oid" : "5029",
      "districtId" : "1",
      "nameZh" : "九房厝",
      "pgp" : "0",
      "terminal" : "0",
      "latitude" : "24.27447",
      "inDis" : "50",
      "routeId" : "208",
      "seqNo" : "22"
   },
   {
      "GoBack" : "1",
      "longitude" : "120.78874",
      "outDis" : "50",
      "Id" : "2983",
      "oid" : "6194",
      "districtId" : "1",
      "nameZh" : "情人木橋",
      "pgp" : "0",
      "terminal" : "0",
      "latitude" : "24.27386",
      "inDis" : "50",
      "routeId" : "208",
      "seqNo" : "23"
   },
   {
      "GoBack" : "1",
      "longitude" : "120.79172",
      "outDis" : "50",
      "Id" : "2496",
      "oid" : "5947",
      "districtId" : "1",
      "nameZh" : "社寮角",
      "pgp" : "0",
      "terminal" : "0",
      "latitude" : "24.2726",
      "inDis" : "50",
      "routeId" : "208",
      "seqNo" : "24"
   },
   {
      "GoBack" : "1",
      "longitude" : "120.79624",
      "outDis" : "50",
      "Id" : "3440",
      "oid" : "6459",
      "districtId" : "1",
      "nameZh" : "新豐冷凍",
      "pgp" : "0",
      "terminal" : "0",
      "latitude" : "24.2708",
      "inDis" : "50",
      "routeId" : "208",
      "seqNo" : "25"
   },
   {
      "GoBack" : "1",
      "longitude" : "120.80127",
      "outDis" : "50",
      "Id" : "3003",
      "oid" : "6213",
      "districtId" : "1",
      "nameZh" : "梅子",
      "pgp" : "0",
      "terminal" : "0",
      "latitude" : "24.26864",
      "inDis" : "50",
      "routeId" : "208",
      "seqNo" : "26"
   },
   {
      "GoBack" : "1",
      "longitude" : "120.80419",
      "outDis" : "50",
      "Id" : "2357",
      "oid" : "5865",
      "districtId" : "1",
      "nameZh" : "明山寺",
      "pgp" : "0",
      "terminal" : "0",
      "latitude" : "24.26745",
      "inDis" : "50",
      "routeId" : "208",
      "seqNo" : "27"
   },
   {
      "GoBack" : "1",
      "longitude" : "120.80692",
      "outDis" : "50",
      "Id" : "1114",
      "oid" : "5101",
      "districtId" : "1",
      "nameZh" : "下土牛",
      "pgp" : "0",
      "terminal" : "0",
      "latitude" : "24.26608",
      "inDis" : "50",
      "routeId" : "208",
      "seqNo" : "28"
   },
   {
      "GoBack" : "1",
      "longitude" : "120.81019",
      "outDis" : "50",
      "Id" : "3074",
      "oid" : "6268",
      "districtId" : "1",
      "nameZh" : "連厝",
      "pgp" : "0",
      "terminal" : "0",
      "latitude" : "24.26398",
      "inDis" : "50",
      "routeId" : "208",
      "seqNo" : "29"
   },
   {
      "GoBack" : "1",
      "longitude" : "120.8127",
      "outDis" : "50",
      "Id" : "3728",
      "oid" : "6595",
      "districtId" : "1",
      "nameZh" : "德興里",
      "pgp" : "0",
      "terminal" : "0",
      "latitude" : "24.26237",
      "inDis" : "50",
      "routeId" : "208",
      "seqNo" : "30"
   },
   {
      "GoBack" : "1",
      "longitude" : "120.81608",
      "outDis" : "50",
      "Id" : "4430",
      "oid" : "5198",
      "districtId" : "1",
      "nameZh" : "土牛(豐勢路)",
      "pgp" : "0",
      "terminal" : "0",
      "latitude" : "24.26021",
      "inDis" : "50",
      "routeId" : "208",
      "seqNo" : "31"
   },
   {
      "GoBack" : "1",
      "longitude" : "120.82456",
      "outDis" : "50",
      "Id" : "4415",
      "oid" : "304371955",
      "districtId" : "1",
      "nameZh" : "東勢游泳池",
      "pgp" : "0",
      "terminal" : "0",
      "latitude" : "24.26119",
      "inDis" : "50",
      "routeId" : "208",
      "seqNo" : "32"
   },
   {
      "GoBack" : "1",
      "longitude" : "120.82784",
      "outDis" : "80",
      "Id" : "2428",
      "oid" : "5899",
      "districtId" : "1",
      "nameZh" : "東勢",
      "pgp" : "0",
      "terminal" : "0",
      "latitude" : "24.25838",
      "inDis" : "50",
      "routeId" : "208",
      "seqNo" : "35"
   },
   {
      "GoBack" : "1",
      "longitude" : "120.82709",
      "outDis" : "80",
      "Id" : "4500",
      "oid" : "6757",
      "districtId" : "1",
      "nameZh" : "東勢老人會館",
      "pgp" : "0",
      "terminal" : "0",
      "latitude" : "24.26113",
      "inDis" : "50",
      "routeId" : "208",
      "seqNo" : "36"
   },
   {
      "GoBack" : "1",
      "longitude" : "120.82678",
      "outDis" : "80",
      "Id" : "2434",
      "oid" : "6761",
      "districtId" : "1",
      "nameZh" : "東新國中",
      "pgp" : "0",
      "terminal" : "0",
      "latitude" : "24.26235",
      "inDis" : "50",
      "routeId" : "208",
      "seqNo" : "37"
   },
   {
      "GoBack" : "1",
      "longitude" : "120.826",
      "outDis" : "50",
      "Id" : "1200",
      "oid" : "5154",
      "districtId" : "1",
      "nameZh" : "下新社區",
      "pgp" : "0",
      "terminal" : "0",
      "latitude" : "24.26491",
      "inDis" : "50",
      "routeId" : "208",
      "seqNo" : "38"
   },
   {
      "GoBack" : "1",
      "longitude" : "120.8248",
      "outDis" : "50",
      "Id" : "1197",
      "oid" : "5150",
      "districtId" : "1",
      "nameZh" : "下新",
      "pgp" : "0",
      "terminal" : "0",
      "latitude" : "24.26667",
      "inDis" : "50",
      "routeId" : "208",
      "seqNo" : "39"
   },
   {
      "GoBack" : "1",
      "longitude" : "120.82331",
      "outDis" : "50",
      "Id" : "2190",
      "oid" : "5762",
      "districtId" : "1",
      "nameZh" : "東蘭西門巷口",
      "pgp" : "0",
      "terminal" : "0",
      "latitude" : "24.26853",
      "inDis" : "50",
      "routeId" : "208",
      "seqNo" : "40"
   },
   {
      "GoBack" : "1",
      "longitude" : "120.82224",
      "outDis" : "50",
      "Id" : "1019",
      "oid" : "5042",
      "districtId" : "1",
      "nameZh" : "八分",
      "pgp" : "0",
      "terminal" : "0",
      "latitude" : "24.2716",
      "inDis" : "50",
      "routeId" : "208",
      "seqNo" : "41"
   },
   {
      "GoBack" : "1",
      "longitude" : "120.82082",
      "outDis" : "50",
      "Id" : "2044",
      "oid" : "5683",
      "districtId" : "1",
      "nameZh" : "東蘭光明路口",
      "pgp" : "0",
      "terminal" : "0",
      "latitude" : "24.27315",
      "inDis" : "50",
      "routeId" : "208",
      "seqNo" : "42"
   },
   {
      "GoBack" : "1",
      "longitude" : "120.81871",
      "outDis" : "50",
      "Id" : "1977",
      "oid" : "5635",
      "districtId" : "1",
      "nameZh" : "田中央",
      "pgp" : "0",
      "terminal" : "0",
      "latitude" : "24.27559",
      "inDis" : "50",
      "routeId" : "208",
      "seqNo" : "43"
   },
   {
      "GoBack" : "1",
      "longitude" : "120.81678",
      "outDis" : "50",
      "Id" : "3640",
      "oid" : "6546",
      "districtId" : "1",
      "nameZh" : "福成橋",
      "pgp" : "0",
      "terminal" : "0",
      "latitude" : "24.27817",
      "inDis" : "50",
      "routeId" : "208",
      "seqNo" : "44"
   },
   {
      "GoBack" : "1",
      "longitude" : "120.81301",
      "outDis" : "50",
      "Id" : "4653",
      "oid" : "5234",
      "districtId" : "1",
      "nameZh" : "東蘭大明路口",
      "pgp" : "0",
      "terminal" : "0",
      "latitude" : "24.28103",
      "inDis" : "50",
      "routeId" : "208",
      "seqNo" : "45"
   },
   {
      "GoBack" : "1",
      "longitude" : "120.81048",
      "outDis" : "50",
      "Id" : "2786",
      "oid" : "6107",
      "districtId" : "1",
      "nameZh" : "校栗埔",
      "pgp" : "0",
      "terminal" : "0",
      "latitude" : "24.2819",
      "inDis" : "50",
      "routeId" : "208",
      "seqNo" : "46"
   },
   {
      "GoBack" : "1",
      "longitude" : "120.80814",
      "outDis" : "50",
      "Id" : "1089",
      "oid" : "5085",
      "districtId" : "1",
      "nameZh" : "三清宮",
      "pgp" : "0",
      "terminal" : "0",
      "latitude" : "24.28331",
      "inDis" : "50",
      "routeId" : "208",
      "seqNo" : "47"
   },
   {
      "GoBack" : "1",
      "longitude" : "120.80343",
      "outDis" : "50",
      "Id" : "1175",
      "oid" : "5136",
      "districtId" : "1",
      "nameZh" : "下校栗埔",
      "pgp" : "0",
      "terminal" : "0",
      "latitude" : "24.28411",
      "inDis" : "50",
      "routeId" : "208",
      "seqNo" : "48"
   },
   {
      "GoBack" : "1",
      "longitude" : "120.8014",
      "outDis" : "50",
      "Id" : "1925",
      "oid" : "5609",
      "districtId" : "1",
      "nameZh" : "民誠宮",
      "pgp" : "0",
      "terminal" : "0",
      "latitude" : "24.28486",
      "inDis" : "50",
      "routeId" : "208",
      "seqNo" : "49"
   },
   {
      "GoBack" : "1",
      "longitude" : "120.79774",
      "outDis" : "50",
      "Id" : "2010",
      "oid" : "5663",
      "districtId" : "1",
      "nameZh" : "石城橋頭",
      "pgp" : "0",
      "terminal" : "0",
      "latitude" : "24.28518",
      "inDis" : "50",
      "routeId" : "208",
      "seqNo" : "50"
   },
   {
      "GoBack" : "1",
      "longitude" : "120.79564",
      "outDis" : "50",
      "Id" : "2008",
      "oid" : "5661",
      "districtId" : "1",
      "nameZh" : "石城",
      "pgp" : "0",
      "terminal" : "0",
      "latitude" : "24.2867",
      "inDis" : "50",
      "routeId" : "208",
      "seqNo" : "51"
   },
   {
      "GoBack" : "1",
      "longitude" : "120.79599",
      "outDis" : "50",
      "Id" : "1228",
      "oid" : "5176",
      "districtId" : "1",
      "nameZh" : "上石城",
      "pgp" : "0",
      "terminal" : "0",
      "latitude" : "24.28812",
      "inDis" : "50",
      "routeId" : "208",
      "seqNo" : "52"
   },
   {
      "GoBack" : "1",
      "longitude" : "120.8011",
      "outDis" : "50",
      "Id" : "3090",
      "oid" : "6279",
      "districtId" : "1",
      "nameZh" : "頂上",
      "pgp" : "0",
      "terminal" : "0",
      "latitude" : "24.29391",
      "inDis" : "50",
      "routeId" : "208",
      "seqNo" : "53"
   },
   {
      "GoBack" : "1",
      "longitude" : "120.80272",
      "outDis" : "50",
      "Id" : "2012",
      "oid" : "5665",
      "districtId" : "1",
      "nameZh" : "石排",
      "pgp" : "0",
      "terminal" : "0",
      "latitude" : "24.29847",
      "inDis" : "50",
      "routeId" : "208",
      "seqNo" : "54"
   },
   {
      "GoBack" : "1",
      "longitude" : "120.80099",
      "outDis" : "50",
      "Id" : "2017",
      "oid" : "5666",
      "districtId" : "1",
      "nameZh" : "石壁坑口",
      "pgp" : "0",
      "terminal" : "0",
      "latitude" : "24.30194",
      "inDis" : "50",
      "routeId" : "208",
      "seqNo" : "55"
   },
   {
      "GoBack" : "1",
      "longitude" : "120.8047",
      "outDis" : "50",
      "Id" : "3444",
      "oid" : "6464",
      "districtId" : "1",
      "nameZh" : "暗山",
      "pgp" : "0",
      "terminal" : "0",
      "latitude" : "24.30323",
      "inDis" : "50",
      "routeId" : "208",
      "seqNo" : "56"
   },
   {
      "GoBack" : "1",
      "longitude" : "120.81133",
      "outDis" : "50",
      "Id" : "1290",
      "oid" : "5224",
      "districtId" : "1",
      "nameZh" : "大安溪",
      "pgp" : "0",
      "terminal" : "0",
      "latitude" : "24.30356",
      "inDis" : "50",
      "routeId" : "208",
      "seqNo" : "57"
   },
   {
      "GoBack" : "1",
      "longitude" : "120.8222",
      "outDis" : "50",
      "Id" : "2123",
      "oid" : "5727",
      "districtId" : "1",
      "nameZh" : "收費站",
      "pgp" : "0",
      "terminal" : "0",
      "latitude" : "24.31026",
      "inDis" : "50",
      "routeId" : "208",
      "seqNo" : "58"
   },
   {
      "GoBack" : "1",
      "longitude" : "120.8246",
      "outDis" : "50",
      "Id" : "3472",
      "oid" : "6484",
      "districtId" : "1",
      "nameZh" : "溪洲",
      "pgp" : "0",
      "terminal" : "0",
      "latitude" : "24.31046",
      "inDis" : "50",
      "routeId" : "208",
      "seqNo" : "59"
   },
   {
      "GoBack" : "1",
      "longitude" : "120.82557",
      "outDis" : "50",
      "Id" : "1488",
      "oid" : "5343",
      "districtId" : "1",
      "nameZh" : "中街",
      "pgp" : "0",
      "terminal" : "0",
      "latitude" : "24.3109",
      "inDis" : "50",
      "routeId" : "208",
      "seqNo" : "60"
   },
   {
      "GoBack" : "1",
      "longitude" : "120.82533",
      "outDis" : "50",
      "Id" : "3917",
      "oid" : "6686",
      "districtId" : "1",
      "nameZh" : "舊站",
      "pgp" : "0",
      "terminal" : "0",
      "latitude" : "24.31227",
      "inDis" : "50",
      "routeId" : "208",
      "seqNo" : "61"
   },
   {
      "GoBack" : "1",
      "longitude" : "120.82445",
      "outDis" : "50",
      "Id" : "3296",
      "oid" : "6378",
      "districtId" : "1",
      "nameZh" : "郵局前",
      "pgp" : "0",
      "terminal" : "0",
      "latitude" : "24.31332",
      "inDis" : "50",
      "routeId" : "208",
      "seqNo" : "62"
   },
   {
      "GoBack" : "1",
      "longitude" : "120.8238",
      "outDis" : "50",
      "Id" : "2300",
      "oid" : "5825",
      "districtId" : "1",
      "nameZh" : "卓蘭",
      "pgp" : "0",
      "terminal" : "0",
      "latitude" : "24.3143",
      "inDis" : "50",
      "routeId" : "208",
      "seqNo" : "63"
   },
   {
      "GoBack" : "2",
      "longitude" : "120.8238",
      "outDis" : "50",
      "Id" : "2300",
      "oid" : "5825",
      "districtId" : "1",
      "nameZh" : "卓蘭",
      "pgp" : "0",
      "terminal" : "0",
      "latitude" : "24.3143",
      "inDis" : "50",
      "routeId" : "208",
      "seqNo" : "1"
   },
   {
      "GoBack" : "2",
      "longitude" : "120.82431",
      "outDis" : "50",
      "Id" : "0100",
      "oid" : "317813147",
      "districtId" : "1",
      "nameZh" : "卓蘭郵局前",
      "pgp" : "0",
      "terminal" : "0",
      "latitude" : "24.31348",
      "inDis" : "50",
      "routeId" : "208",
      "seqNo" : "2"
   },
   {
      "GoBack" : "2",
      "longitude" : "120.82533",
      "outDis" : "50",
      "Id" : "3917",
      "oid" : "6686",
      "districtId" : "1",
      "nameZh" : "舊站",
      "pgp" : "0",
      "terminal" : "0",
      "latitude" : "24.31227",
      "inDis" : "50",
      "routeId" : "208",
      "seqNo" : "3"
   },
   {
      "GoBack" : "2",
      "longitude" : "120.82557",
      "outDis" : "50",
      "Id" : "1488",
      "oid" : "5343",
      "districtId" : "1",
      "nameZh" : "中街",
      "pgp" : "0",
      "terminal" : "0",
      "latitude" : "24.3109",
      "inDis" : "50",
      "routeId" : "208",
      "seqNo" : "4"
   },
   {
      "GoBack" : "2",
      "longitude" : "120.8246",
      "outDis" : "50",
      "Id" : "3472",
      "oid" : "6484",
      "districtId" : "1",
      "nameZh" : "溪洲",
      "pgp" : "0",
      "terminal" : "0",
      "latitude" : "24.31046",
      "inDis" : "50",
      "routeId" : "208",
      "seqNo" : "5"
   },
   {
      "GoBack" : "2",
      "longitude" : "120.8222",
      "outDis" : "50",
      "Id" : "2123",
      "oid" : "5727",
      "districtId" : "1",
      "nameZh" : "收費站",
      "pgp" : "0",
      "terminal" : "0",
      "latitude" : "24.31026",
      "inDis" : "50",
      "routeId" : "208",
      "seqNo" : "6"
   },
   {
      "GoBack" : "2",
      "longitude" : "120.81133",
      "outDis" : "50",
      "Id" : "1290",
      "oid" : "5224",
      "districtId" : "1",
      "nameZh" : "大安溪",
      "pgp" : "0",
      "terminal" : "0",
      "latitude" : "24.30356",
      "inDis" : "50",
      "routeId" : "208",
      "seqNo" : "7"
   },
   {
      "GoBack" : "2",
      "longitude" : "120.8047",
      "outDis" : "50",
      "Id" : "3444",
      "oid" : "6464",
      "districtId" : "1",
      "nameZh" : "暗山",
      "pgp" : "0",
      "terminal" : "0",
      "latitude" : "24.30323",
      "inDis" : "50",
      "routeId" : "208",
      "seqNo" : "8"
   },
   {
      "GoBack" : "2",
      "longitude" : "120.80099",
      "outDis" : "50",
      "Id" : "2017",
      "oid" : "5666",
      "districtId" : "1",
      "nameZh" : "石壁坑口",
      "pgp" : "0",
      "terminal" : "0",
      "latitude" : "24.30194",
      "inDis" : "50",
      "routeId" : "208",
      "seqNo" : "9"
   },
   {
      "GoBack" : "2",
      "longitude" : "120.80272",
      "outDis" : "50",
      "Id" : "2012",
      "oid" : "5665",
      "districtId" : "1",
      "nameZh" : "石排",
      "pgp" : "0",
      "terminal" : "0",
      "latitude" : "24.29847",
      "inDis" : "50",
      "routeId" : "208",
      "seqNo" : "10"
   },
   {
      "GoBack" : "2",
      "longitude" : "120.8011",
      "outDis" : "50",
      "Id" : "3090",
      "oid" : "6279",
      "districtId" : "1",
      "nameZh" : "頂上",
      "pgp" : "0",
      "terminal" : "0",
      "latitude" : "24.29391",
      "inDis" : "50",
      "routeId" : "208",
      "seqNo" : "11"
   },
   {
      "GoBack" : "2",
      "longitude" : "120.79599",
      "outDis" : "50",
      "Id" : "1228",
      "oid" : "5176",
      "districtId" : "1",
      "nameZh" : "上石城",
      "pgp" : "0",
      "terminal" : "0",
      "latitude" : "24.28812",
      "inDis" : "50",
      "routeId" : "208",
      "seqNo" : "12"
   },
   {
      "GoBack" : "2",
      "longitude" : "120.79564",
      "outDis" : "50",
      "Id" : "2008",
      "oid" : "5661",
      "districtId" : "1",
      "nameZh" : "石城",
      "pgp" : "0",
      "terminal" : "0",
      "latitude" : "24.2867",
      "inDis" : "50",
      "routeId" : "208",
      "seqNo" : "13"
   },
   {
      "GoBack" : "2",
      "longitude" : "120.79774",
      "outDis" : "50",
      "Id" : "2010",
      "oid" : "5663",
      "districtId" : "1",
      "nameZh" : "石城橋頭",
      "pgp" : "0",
      "terminal" : "0",
      "latitude" : "24.28518",
      "inDis" : "50",
      "routeId" : "208",
      "seqNo" : "14"
   },
   {
      "GoBack" : "2",
      "longitude" : "120.8014",
      "outDis" : "50",
      "Id" : "1925",
      "oid" : "5609",
      "districtId" : "1",
      "nameZh" : "民誠宮",
      "pgp" : "0",
      "terminal" : "0",
      "latitude" : "24.28486",
      "inDis" : "50",
      "routeId" : "208",
      "seqNo" : "15"
   },
   {
      "GoBack" : "2",
      "longitude" : "120.80343",
      "outDis" : "50",
      "Id" : "1175",
      "oid" : "5136",
      "districtId" : "1",
      "nameZh" : "下校栗埔",
      "pgp" : "0",
      "terminal" : "0",
      "latitude" : "24.28411",
      "inDis" : "50",
      "routeId" : "208",
      "seqNo" : "16"
   },
   {
      "GoBack" : "2",
      "longitude" : "120.80814",
      "outDis" : "50",
      "Id" : "1089",
      "oid" : "5085",
      "districtId" : "1",
      "nameZh" : "三清宮",
      "pgp" : "0",
      "terminal" : "0",
      "latitude" : "24.28331",
      "inDis" : "50",
      "routeId" : "208",
      "seqNo" : "17"
   },
   {
      "GoBack" : "2",
      "longitude" : "120.81048",
      "outDis" : "50",
      "Id" : "2786",
      "oid" : "6107",
      "districtId" : "1",
      "nameZh" : "校栗埔",
      "pgp" : "0",
      "terminal" : "0",
      "latitude" : "24.2819",
      "inDis" : "50",
      "routeId" : "208",
      "seqNo" : "18"
   },
   {
      "GoBack" : "2",
      "longitude" : "120.81301",
      "outDis" : "50",
      "Id" : "4653",
      "oid" : "5234",
      "districtId" : "1",
      "nameZh" : "東蘭大明路口",
      "pgp" : "0",
      "terminal" : "0",
      "latitude" : "24.28103",
      "inDis" : "50",
      "routeId" : "208",
      "seqNo" : "19"
   },
   {
      "GoBack" : "2",
      "longitude" : "120.81678",
      "outDis" : "50",
      "Id" : "3640",
      "oid" : "6546",
      "districtId" : "1",
      "nameZh" : "福成橋",
      "pgp" : "0",
      "terminal" : "0",
      "latitude" : "24.27817",
      "inDis" : "50",
      "routeId" : "208",
      "seqNo" : "20"
   },
   {
      "GoBack" : "2",
      "longitude" : "120.81871",
      "outDis" : "50",
      "Id" : "1977",
      "oid" : "5635",
      "districtId" : "1",
      "nameZh" : "田中央",
      "pgp" : "0",
      "terminal" : "0",
      "latitude" : "24.27559",
      "inDis" : "50",
      "routeId" : "208",
      "seqNo" : "21"
   },
   {
      "GoBack" : "2",
      "longitude" : "120.82082",
      "outDis" : "50",
      "Id" : "2044",
      "oid" : "5683",
      "districtId" : "1",
      "nameZh" : "東蘭光明路口",
      "pgp" : "0",
      "terminal" : "0",
      "latitude" : "24.27315",
      "inDis" : "50",
      "routeId" : "208",
      "seqNo" : "22"
   },
   {
      "GoBack" : "2",
      "longitude" : "120.82224",
      "outDis" : "50",
      "Id" : "1019",
      "oid" : "5042",
      "districtId" : "1",
      "nameZh" : "八分",
      "pgp" : "0",
      "terminal" : "0",
      "latitude" : "24.2716",
      "inDis" : "50",
      "routeId" : "208",
      "seqNo" : "23"
   },
   {
      "GoBack" : "2",
      "longitude" : "120.82331",
      "outDis" : "50",
      "Id" : "2190",
      "oid" : "5762",
      "districtId" : "1",
      "nameZh" : "東蘭西門巷口",
      "pgp" : "0",
      "terminal" : "0",
      "latitude" : "24.26853",
      "inDis" : "50",
      "routeId" : "208",
      "seqNo" : "24"
   },
   {
      "GoBack" : "2",
      "longitude" : "120.8248",
      "outDis" : "50",
      "Id" : "1197",
      "oid" : "5150",
      "districtId" : "1",
      "nameZh" : "下新",
      "pgp" : "0",
      "terminal" : "0",
      "latitude" : "24.26667",
      "inDis" : "50",
      "routeId" : "208",
      "seqNo" : "25"
   },
   {
      "GoBack" : "2",
      "longitude" : "120.826",
      "outDis" : "50",
      "Id" : "1200",
      "oid" : "5154",
      "districtId" : "1",
      "nameZh" : "下新社區",
      "pgp" : "0",
      "terminal" : "0",
      "latitude" : "24.26491",
      "inDis" : "50",
      "routeId" : "208",
      "seqNo" : "26"
   },
   {
      "GoBack" : "2",
      "longitude" : "120.82676",
      "outDis" : "80",
      "Id" : "2434",
      "oid" : "5905",
      "districtId" : "1",
      "nameZh" : "東新國中",
      "pgp" : "0",
      "terminal" : "0",
      "latitude" : "24.26256",
      "inDis" : "50",
      "routeId" : "208",
      "seqNo" : "27"
   },
   {
      "GoBack" : "2",
      "longitude" : "120.82709",
      "outDis" : "80",
      "Id" : "4500",
      "oid" : "6757",
      "districtId" : "1",
      "nameZh" : "東勢老人會館",
      "pgp" : "0",
      "terminal" : "0",
      "latitude" : "24.26113",
      "inDis" : "50",
      "routeId" : "208",
      "seqNo" : "28"
   },
   {
      "GoBack" : "2",
      "longitude" : "120.82784",
      "outDis" : "80",
      "Id" : "2428",
      "oid" : "5899",
      "districtId" : "1",
      "nameZh" : "東勢",
      "pgp" : "0",
      "terminal" : "0",
      "latitude" : "24.25838",
      "inDis" : "50",
      "routeId" : "208",
      "seqNo" : "29"
   },
   {
      "GoBack" : "2",
      "longitude" : "120.82921",
      "outDis" : "80",
      "Id" : "2570",
      "oid" : "13643",
      "districtId" : "1",
      "nameZh" : "南平里",
      "pgp" : "0",
      "terminal" : "0",
      "latitude" : "24.25529",
      "inDis" : "50",
      "routeId" : "208",
      "seqNo" : "30"
   },
   {
      "GoBack" : "2",
      "longitude" : "120.8299",
      "outDis" : "80",
      "Id" : "1415",
      "oid" : "13644",
      "districtId" : "1",
      "nameZh" : "中嵙口",
      "pgp" : "0",
      "terminal" : "0",
      "latitude" : "24.25274",
      "inDis" : "50",
      "routeId" : "208",
      "seqNo" : "31"
   },
   {
      "GoBack" : "2",
      "longitude" : "120.83063",
      "outDis" : "80",
      "Id" : "4409",
      "oid" : "5889",
      "districtId" : "1",
      "nameZh" : "東勢南站",
      "pgp" : "0",
      "terminal" : "0",
      "latitude" : "24.24998",
      "inDis" : "50",
      "routeId" : "208",
      "seqNo" : "32"
   },
   {
      "GoBack" : "2",
      "longitude" : "120.8317",
      "outDis" : "80",
      "Id" : "2002",
      "oid" : "13646",
      "districtId" : "1",
      "nameZh" : "石角口",
      "pgp" : "0",
      "terminal" : "0",
      "latitude" : "24.24822",
      "inDis" : "50",
      "routeId" : "208",
      "seqNo" : "33"
   },
   {
      "GoBack" : "2",
      "longitude" : "120.8321",
      "outDis" : "50",
      "Id" : "4524",
      "oid" : "305529400",
      "districtId" : "1",
      "nameZh" : "東坑豐勢路口",
      "pgp" : "0",
      "terminal" : "0",
      "latitude" : "24.24749",
      "inDis" : "50",
      "routeId" : "208",
      "seqNo" : "34"
   },
   {
      "GoBack" : "2",
      "longitude" : "120.83329",
      "outDis" : "50",
      "Id" : "0312",
      "oid" : "13647",
      "districtId" : "1",
      "nameZh" : "新盛里(東勢高工)",
      "pgp" : "0",
      "terminal" : "0",
      "latitude" : "24.24339",
      "inDis" : "50",
      "routeId" : "208",
      "seqNo" : "35"
   },
   {
      "GoBack" : "2",
      "longitude" : "120.83189",
      "outDis" : "80",
      "Id" : "2002",
      "oid" : "5654",
      "districtId" : "1",
      "nameZh" : "石角口",
      "pgp" : "0",
      "terminal" : "0",
      "latitude" : "24.24803",
      "inDis" : "50",
      "routeId" : "208",
      "seqNo" : "36"
   },
   {
      "GoBack" : "2",
      "longitude" : "120.83065",
      "outDis" : "80",
      "Id" : "4409",
      "oid" : "8005",
      "districtId" : "1",
      "nameZh" : "東勢南站",
      "pgp" : "0",
      "terminal" : "0",
      "latitude" : "24.24976",
      "inDis" : "50",
      "routeId" : "208",
      "seqNo" : "37"
   },
   {
      "GoBack" : "2",
      "longitude" : "120.83003",
      "outDis" : "80",
      "Id" : "1415",
      "oid" : "5302",
      "districtId" : "1",
      "nameZh" : "中嵙口",
      "pgp" : "0",
      "terminal" : "0",
      "latitude" : "24.25251",
      "inDis" : "50",
      "routeId" : "208",
      "seqNo" : "38"
   },
   {
      "GoBack" : "2",
      "longitude" : "120.82934",
      "outDis" : "80",
      "Id" : "2570",
      "oid" : "5987",
      "districtId" : "1",
      "nameZh" : "南平里",
      "pgp" : "0",
      "terminal" : "0",
      "latitude" : "24.25515",
      "inDis" : "50",
      "routeId" : "208",
      "seqNo" : "39"
   },
   {
      "GoBack" : "2",
      "longitude" : "120.82798",
      "outDis" : "80",
      "Id" : "2428",
      "oid" : "13642",
      "districtId" : "1",
      "nameZh" : "東勢",
      "pgp" : "0",
      "terminal" : "0",
      "latitude" : "24.2582",
      "inDis" : "50",
      "routeId" : "208",
      "seqNo" : "40"
   },
   {
      "GoBack" : "2",
      "longitude" : "120.8272",
      "outDis" : "80",
      "Id" : "4500",
      "oid" : "5745",
      "districtId" : "1",
      "nameZh" : "東勢老人會館",
      "pgp" : "0",
      "terminal" : "0",
      "latitude" : "24.26098",
      "inDis" : "50",
      "routeId" : "208",
      "seqNo" : "41"
   },
   {
      "GoBack" : "2",
      "longitude" : "120.82678",
      "outDis" : "80",
      "Id" : "2434",
      "oid" : "6761",
      "districtId" : "1",
      "nameZh" : "東新國中",
      "pgp" : "0",
      "terminal" : "0",
      "latitude" : "24.26235",
      "inDis" : "50",
      "routeId" : "208",
      "seqNo" : "42"
   },
   {
      "GoBack" : "2",
      "longitude" : "120.82464",
      "outDis" : "50",
      "Id" : "4494",
      "oid" : "6462",
      "districtId" : "1",
      "nameZh" : "新豐新寧街口",
      "pgp" : "0",
      "terminal" : "0",
      "latitude" : "24.26264",
      "inDis" : "50",
      "routeId" : "208",
      "seqNo" : "43"
   },
   {
      "GoBack" : "2",
      "longitude" : "120.81608",
      "outDis" : "50",
      "Id" : "4430",
      "oid" : "5198",
      "districtId" : "1",
      "nameZh" : "土牛(豐勢路)",
      "pgp" : "0",
      "terminal" : "0",
      "latitude" : "24.26021",
      "inDis" : "50",
      "routeId" : "208",
      "seqNo" : "44"
   },
   {
      "GoBack" : "2",
      "longitude" : "120.8127",
      "outDis" : "50",
      "Id" : "3728",
      "oid" : "6595",
      "districtId" : "1",
      "nameZh" : "德興里",
      "pgp" : "0",
      "terminal" : "0",
      "latitude" : "24.26237",
      "inDis" : "50",
      "routeId" : "208",
      "seqNo" : "45"
   },
   {
      "GoBack" : "2",
      "longitude" : "120.81019",
      "outDis" : "50",
      "Id" : "3074",
      "oid" : "6268",
      "districtId" : "1",
      "nameZh" : "連厝",
      "pgp" : "0",
      "terminal" : "0",
      "latitude" : "24.26398",
      "inDis" : "50",
      "routeId" : "208",
      "seqNo" : "46"
   },
   {
      "GoBack" : "2",
      "longitude" : "120.80692",
      "outDis" : "50",
      "Id" : "1114",
      "oid" : "5101",
      "districtId" : "1",
      "nameZh" : "下土牛",
      "pgp" : "0",
      "terminal" : "0",
      "latitude" : "24.26608",
      "inDis" : "50",
      "routeId" : "208",
      "seqNo" : "47"
   },
   {
      "GoBack" : "2",
      "longitude" : "120.80419",
      "outDis" : "50",
      "Id" : "2357",
      "oid" : "5865",
      "districtId" : "1",
      "nameZh" : "明山寺",
      "pgp" : "0",
      "terminal" : "0",
      "latitude" : "24.26745",
      "inDis" : "50",
      "routeId" : "208",
      "seqNo" : "48"
   },
   {
      "GoBack" : "2",
      "longitude" : "120.80127",
      "outDis" : "50",
      "Id" : "3003",
      "oid" : "6213",
      "districtId" : "1",
      "nameZh" : "梅子",
      "pgp" : "0",
      "terminal" : "0",
      "latitude" : "24.26864",
      "inDis" : "50",
      "routeId" : "208",
      "seqNo" : "49"
   },
   {
      "GoBack" : "2",
      "longitude" : "120.79624",
      "outDis" : "50",
      "Id" : "3440",
      "oid" : "6459",
      "districtId" : "1",
      "nameZh" : "新豐冷凍",
      "pgp" : "0",
      "terminal" : "0",
      "latitude" : "24.2708",
      "inDis" : "50",
      "routeId" : "208",
      "seqNo" : "50"
   },
   {
      "GoBack" : "2",
      "longitude" : "120.79172",
      "outDis" : "50",
      "Id" : "2496",
      "oid" : "5947",
      "districtId" : "1",
      "nameZh" : "社寮角",
      "pgp" : "0",
      "terminal" : "0",
      "latitude" : "24.2726",
      "inDis" : "50",
      "routeId" : "208",
      "seqNo" : "51"
   },
   {
      "GoBack" : "2",
      "longitude" : "120.78874",
      "outDis" : "50",
      "Id" : "2983",
      "oid" : "6194",
      "districtId" : "1",
      "nameZh" : "情人木橋",
      "pgp" : "0",
      "terminal" : "0",
      "latitude" : "24.27386",
      "inDis" : "50",
      "routeId" : "208",
      "seqNo" : "52"
   },
   {
      "GoBack" : "2",
      "longitude" : "120.78428",
      "outDis" : "50",
      "Id" : "0992",
      "oid" : "5029",
      "districtId" : "1",
      "nameZh" : "九房厝",
      "pgp" : "0",
      "terminal" : "0",
      "latitude" : "24.27447",
      "inDis" : "50",
      "routeId" : "208",
      "seqNo" : "53"
   },
   {
      "GoBack" : "2",
      "longitude" : "120.78075",
      "outDis" : "50",
      "Id" : "4456",
      "oid" : "5659",
      "districtId" : "1",
      "nameZh" : "石岡區公所",
      "pgp" : "0",
      "terminal" : "0",
      "latitude" : "24.27492",
      "inDis" : "50",
      "routeId" : "208",
      "seqNo" : "54"
   },
   {
      "GoBack" : "2",
      "longitude" : "120.77635",
      "outDis" : "50",
      "Id" : "2004",
      "oid" : "5657",
      "districtId" : "1",
      "nameZh" : "石岡",
      "pgp" : "0",
      "terminal" : "0",
      "latitude" : "24.27653",
      "inDis" : "50",
      "routeId" : "208",
      "seqNo" : "55"
   },
   {
      "GoBack" : "2",
      "longitude" : "120.7719",
      "outDis" : "50",
      "Id" : "2337",
      "oid" : "5848",
      "districtId" : "1",
      "nameZh" : "岡尾",
      "pgp" : "0",
      "terminal" : "0",
      "latitude" : "24.27755",
      "inDis" : "50",
      "routeId" : "208",
      "seqNo" : "56"
   },
   {
      "GoBack" : "2",
      "longitude" : "120.76675",
      "outDis" : "50",
      "Id" : "2005",
      "oid" : "5658",
      "districtId" : "1",
      "nameZh" : "石岡水壩",
      "pgp" : "0",
      "terminal" : "0",
      "latitude" : "24.27812",
      "inDis" : "50",
      "routeId" : "208",
      "seqNo" : "57"
   },
   {
      "GoBack" : "2",
      "longitude" : "120.75916",
      "outDis" : "50",
      "Id" : "2947",
      "oid" : "6184",
      "districtId" : "1",
      "nameZh" : "埤頭",
      "pgp" : "0",
      "terminal" : "0",
      "latitude" : "24.27657",
      "inDis" : "50",
      "routeId" : "208",
      "seqNo" : "58"
   },
   {
      "GoBack" : "2",
      "longitude" : "120.75652",
      "outDis" : "50",
      "Id" : "4454",
      "oid" : "6472",
      "districtId" : "1",
      "nameZh" : "民安",
      "pgp" : "0",
      "terminal" : "0",
      "latitude" : "24.27507",
      "inDis" : "50",
      "routeId" : "208",
      "seqNo" : "59"
   },
   {
      "GoBack" : "2",
      "longitude" : "120.75398",
      "outDis" : "50",
      "Id" : "2128",
      "oid" : "5729",
      "districtId" : "1",
      "nameZh" : "朴子口",
      "pgp" : "0",
      "terminal" : "0",
      "latitude" : "24.27345",
      "inDis" : "50",
      "routeId" : "208",
      "seqNo" : "60"
   },
   {
      "GoBack" : "2",
      "longitude" : "120.75175",
      "outDis" : "50",
      "Id" : "4412",
      "oid" : "304270265",
      "districtId" : "1",
      "nameZh" : "國家教育研究院",
      "pgp" : "0",
      "terminal" : "0",
      "latitude" : "24.27084",
      "inDis" : "50",
      "routeId" : "208",
      "seqNo" : "61"
   },
   {
      "GoBack" : "2",
      "longitude" : "120.74924",
      "outDis" : "50",
      "Id" : "4490",
      "oid" : "5728",
      "districtId" : "1",
      "nameZh" : "豐勢國豐路口",
      "pgp" : "0",
      "terminal" : "0",
      "latitude" : "24.2678",
      "inDis" : "50",
      "routeId" : "208",
      "seqNo" : "62"
   },
   {
      "GoBack" : "2",
      "longitude" : "120.74564",
      "outDis" : "50",
      "Id" : "1806",
      "oid" : "5541",
      "districtId" : "1",
      "nameZh" : "半張",
      "pgp" : "0",
      "terminal" : "0",
      "latitude" : "24.26517",
      "inDis" : "50",
      "routeId" : "208",
      "seqNo" : "63"
   },
   {
      "GoBack" : "2",
      "longitude" : "120.74277",
      "outDis" : "50",
      "Id" : "2845",
      "oid" : "6146",
      "districtId" : "1",
      "nameZh" : "翁子國小",
      "pgp" : "0",
      "terminal" : "0",
      "latitude" : "24.26379",
      "inDis" : "50",
      "routeId" : "208",
      "seqNo" : "64"
   },
   {
      "GoBack" : "2",
      "longitude" : "120.73947",
      "outDis" : "50",
      "Id" : "2844",
      "oid" : "6145",
      "districtId" : "1",
      "nameZh" : "翁子保養場",
      "pgp" : "0",
      "terminal" : "0",
      "latitude" : "24.26226",
      "inDis" : "50",
      "routeId" : "208",
      "seqNo" : "65"
   },
   {
      "GoBack" : "2",
      "longitude" : "120.73593",
      "outDis" : "50",
      "Id" : "2843",
      "oid" : "6144",
      "districtId" : "1",
      "nameZh" : "翁子",
      "pgp" : "0",
      "terminal" : "0",
      "latitude" : "24.26058",
      "inDis" : "50",
      "routeId" : "208",
      "seqNo" : "66"
   },
   {
      "GoBack" : "2",
      "longitude" : "120.73227",
      "outDis" : "50",
      "Id" : "4407",
      "oid" : "5626",
      "districtId" : "1",
      "nameZh" : "永豐原紙廠",
      "pgp" : "0",
      "terminal" : "0",
      "latitude" : "24.2587",
      "inDis" : "50",
      "routeId" : "208",
      "seqNo" : "67"
   },
   {
      "GoBack" : "2",
      "longitude" : "120.72983",
      "outDis" : "50",
      "Id" : "4478",
      "oid" : "5488",
      "districtId" : "1",
      "nameZh" : "圓環東水源路口",
      "pgp" : "0",
      "terminal" : "0",
      "latitude" : "24.25577",
      "inDis" : "50",
      "routeId" : "208",
      "seqNo" : "68"
   },
   {
      "GoBack" : "2",
      "longitude" : "120.72976",
      "outDis" : "50",
      "Id" : "5544",
      "oid" : "316462696",
      "districtId" : "1",
      "nameZh" : "葫蘆墩文化中心",
      "pgp" : "0",
      "terminal" : "0",
      "latitude" : "24.25299",
      "inDis" : "50",
      "routeId" : "208",
      "seqNo" : "69"
   },
   {
      "GoBack" : "2",
      "longitude" : "120.72786",
      "outDis" : "50",
      "Id" : "4457",
      "oid" : "6393",
      "districtId" : "1",
      "nameZh" : "向陽圓環東路口",
      "pgp" : "0",
      "terminal" : "0",
      "latitude" : "24.25133",
      "inDis" : "50",
      "routeId" : "208",
      "seqNo" : "70"
   },
   {
      "GoBack" : "2",
      "longitude" : "120.72603",
      "outDis" : "50",
      "Id" : "4408",
      "oid" : "5744",
      "districtId" : "1",
      "nameZh" : "豐原老人會館",
      "pgp" : "0",
      "terminal" : "0",
      "latitude" : "24.25219",
      "inDis" : "50",
      "routeId" : "208",
      "seqNo" : "71"
   },
   {
      "GoBack" : "2",
      "longitude" : "120.72394",
      "outDis" : "50",
      "Id" : "4203",
      "oid" : "6447",
      "districtId" : "1",
      "nameZh" : "新都酒店",
      "pgp" : "0",
      "terminal" : "0",
      "latitude" : "24.25221",
      "inDis" : "50",
      "routeId" : "208",
      "seqNo" : "72"
   },
   {
      "GoBack" : "2",
      "longitude" : "120.71992",
      "outDis" : "50",
      "Id" : "2309",
      "oid" : "6309",
      "districtId" : "1",
      "nameZh" : "和平街",
      "pgp" : "0",
      "terminal" : "0",
      "latitude" : "24.25225",
      "inDis" : "50",
      "routeId" : "208",
      "seqNo" : "73"
   },
   {
      "GoBack" : "2",
      "longitude" : "120.72154",
      "outDis" : "70",
      "Id" : "3935",
      "oid" : "6693",
      "districtId" : "1",
      "nameZh" : "豐原",
      "pgp" : "0",
      "terminal" : "0",
      "latitude" : "24.2538",
      "inDis" : "70",
      "routeId" : "208",
      "seqNo" : "74"
   }
]
