[
   {
      "GoBack" : "1",
      "longitude" : "120.56399",
      "outDis" : "50",
      "Id" : "0386",
      "oid" : "318895940",
      "districtId" : "1",
      "nameZh" : "裕國社區",
      "pgp" : "0",
      "terminal" : "0",
      "latitude" : "24.19554",
      "inDis" : "50",
      "routeId" : "藍5",
      "seqNo" : "1"
   },
   {
      "GoBack" : "1",
      "longitude" : "120.56355",
      "outDis" : "50",
      "Id" : "0384",
      "oid" : "318895939",
      "districtId" : "1",
      "nameZh" : "水裡社公園",
      "pgp" : "0",
      "terminal" : "0",
      "latitude" : "24.19882",
      "inDis" : "50",
      "routeId" : "藍5",
      "seqNo" : "2"
   },
   {
      "GoBack" : "1",
      "longitude" : "120.56658",
      "outDis" : "50",
      "Id" : "0383",
      "oid" : "318895938",
      "districtId" : "1",
      "nameZh" : "自立中樂街口",
      "pgp" : "0",
      "terminal" : "0",
      "latitude" : "24.19886",
      "inDis" : "50",
      "routeId" : "藍5",
      "seqNo" : "3"
   },
   {
      "GoBack" : "1",
      "longitude" : "120.56844",
      "outDis" : "50",
      "Id" : "0382",
      "oid" : "318895937",
      "districtId" : "1",
      "nameZh" : "中正新城(自立路)",
      "pgp" : "0",
      "terminal" : "0",
      "latitude" : "24.19842",
      "inDis" : "50",
      "routeId" : "藍5",
      "seqNo" : "4"
   },
   {
      "GoBack" : "1",
      "longitude" : "120.56834",
      "outDis" : "50",
      "Id" : "3198",
      "oid" : "6320",
      "districtId" : "1",
      "nameZh" : "鹿港寮",
      "pgp" : "0",
      "terminal" : "0",
      "latitude" : "24.20115",
      "inDis" : "50",
      "routeId" : "藍5",
      "seqNo" : "5"
   },
   {
      "GoBack" : "1",
      "longitude" : "120.56698",
      "outDis" : "50",
      "Id" : "0379",
      "oid" : "318895936",
      "districtId" : "1",
      "nameZh" : "向上屏西路口",
      "pgp" : "0",
      "terminal" : "0",
      "latitude" : "24.20365",
      "inDis" : "50",
      "routeId" : "藍5",
      "seqNo" : "6"
   },
   {
      "GoBack" : "1",
      "longitude" : "120.56436",
      "outDis" : "50",
      "Id" : "0397",
      "oid" : "318895942",
      "districtId" : "1",
      "nameZh" : "向上保寧路口",
      "pgp" : "0",
      "terminal" : "0",
      "latitude" : "24.20585",
      "inDis" : "50",
      "routeId" : "藍5",
      "seqNo" : "7"
   },
   {
      "GoBack" : "1",
      "longitude" : "120.56422",
      "outDis" : "50",
      "Id" : "0373",
      "oid" : "318895935",
      "districtId" : "1",
      "nameZh" : "保寧向上路口",
      "pgp" : "0",
      "terminal" : "0",
      "latitude" : "24.20671",
      "inDis" : "50",
      "routeId" : "藍5",
      "seqNo" : "8"
   },
   {
      "GoBack" : "1",
      "longitude" : "120.5669",
      "outDis" : "50",
      "Id" : "0372",
      "oid" : "318895934",
      "districtId" : "1",
      "nameZh" : "保安保寧路口",
      "pgp" : "0",
      "terminal" : "0",
      "latitude" : "24.20735",
      "inDis" : "50",
      "routeId" : "藍5",
      "seqNo" : "9"
   },
   {
      "GoBack" : "1",
      "longitude" : "120.56922",
      "outDis" : "50",
      "Id" : "0371",
      "oid" : "318895933",
      "districtId" : "1",
      "nameZh" : "正德路72巷口",
      "pgp" : "0",
      "terminal" : "0",
      "latitude" : "24.20596",
      "inDis" : "50",
      "routeId" : "藍5",
      "seqNo" : "10"
   },
   {
      "GoBack" : "1",
      "longitude" : "120.5712",
      "outDis" : "50",
      "Id" : "0370",
      "oid" : "318895932",
      "districtId" : "1",
      "nameZh" : "正德正順路口",
      "pgp" : "0",
      "terminal" : "0",
      "latitude" : "24.20369",
      "inDis" : "50",
      "routeId" : "藍5",
      "seqNo" : "11"
   },
   {
      "GoBack" : "1",
      "longitude" : "120.57322",
      "outDis" : "50",
      "Id" : "0369",
      "oid" : "318895931",
      "districtId" : "1",
      "nameZh" : "正德正義路口",
      "pgp" : "0",
      "terminal" : "0",
      "latitude" : "24.20163",
      "inDis" : "50",
      "routeId" : "藍5",
      "seqNo" : "12"
   },
   {
      "GoBack" : "1",
      "longitude" : "120.57449",
      "outDis" : "50",
      "Id" : "0368",
      "oid" : "318895930",
      "districtId" : "1",
      "nameZh" : "溫莎城堡社區",
      "pgp" : "0",
      "terminal" : "0",
      "latitude" : "24.20266",
      "inDis" : "50",
      "routeId" : "藍5",
      "seqNo" : "13"
   },
   {
      "GoBack" : "1",
      "longitude" : "120.57364",
      "outDis" : "50",
      "Id" : "0367",
      "oid" : "318895929",
      "districtId" : "1",
      "nameZh" : "正順正義路口",
      "pgp" : "0",
      "terminal" : "0",
      "latitude" : "24.20607",
      "inDis" : "50",
      "routeId" : "藍5",
      "seqNo" : "14"
   },
   {
      "GoBack" : "1",
      "longitude" : "120.57619",
      "outDis" : "50",
      "Id" : "5429",
      "oid" : "318244646",
      "districtId" : "1",
      "nameZh" : "正英七街口",
      "pgp" : "0",
      "terminal" : "0",
      "latitude" : "24.20993",
      "inDis" : "50",
      "routeId" : "藍5",
      "seqNo" : "15"
   },
   {
      "GoBack" : "1",
      "longitude" : "120.58108",
      "outDis" : "50",
      "Id" : "3531",
      "oid" : "310808429",
      "districtId" : "1",
      "nameZh" : "正英臺灣大道口",
      "pgp" : "0",
      "terminal" : "0",
      "latitude" : "24.2099",
      "inDis" : "50",
      "routeId" : "藍5",
      "seqNo" : "16"
   },
   {
      "GoBack" : "1",
      "longitude" : "120.58079",
      "outDis" : "50",
      "Id" : "4124",
      "oid" : "16769",
      "districtId" : "1",
      "nameZh" : "頂六路",
      "pgp" : "0",
      "terminal" : "0",
      "latitude" : "24.21365",
      "inDis" : "50",
      "routeId" : "藍5",
      "seqNo" : "17"
   },
   {
      "GoBack" : "1",
      "longitude" : "120.5808",
      "outDis" : "50",
      "Id" : "4386",
      "oid" : "17377",
      "districtId" : "1",
      "nameZh" : "弘光科技大學",
      "pgp" : "0",
      "terminal" : "0",
      "latitude" : "24.2166",
      "inDis" : "50",
      "routeId" : "藍5",
      "seqNo" : "18"
   },
   {
      "GoBack" : "1",
      "longitude" : "120.57986",
      "outDis" : "50",
      "Id" : "4111",
      "oid" : "15031",
      "districtId" : "1",
      "nameZh" : "晉江里",
      "pgp" : "0",
      "terminal" : "0",
      "latitude" : "24.22106",
      "inDis" : "50",
      "routeId" : "藍5",
      "seqNo" : "19"
   },
   {
      "GoBack" : "1",
      "longitude" : "120.57809",
      "outDis" : "50",
      "Id" : "4062",
      "oid" : "14262",
      "districtId" : "1",
      "nameZh" : "下晉江",
      "pgp" : "0",
      "terminal" : "0",
      "latitude" : "24.22357",
      "inDis" : "50",
      "routeId" : "藍5",
      "seqNo" : "20"
   },
   {
      "GoBack" : "1",
      "longitude" : "120.57533",
      "outDis" : "50",
      "Id" : "0498",
      "oid" : "319559959",
      "districtId" : "1",
      "nameZh" : "靜宜大學(英才路)",
      "pgp" : "0",
      "terminal" : "0",
      "latitude" : "24.22699",
      "inDis" : "50",
      "routeId" : "藍5",
      "seqNo" : "21"
   },
   {
      "GoBack" : "1",
      "longitude" : "120.5729",
      "outDis" : "100",
      "Id" : "5370",
      "oid" : "312034310",
      "districtId" : "1",
      "nameZh" : "英才東英路口",
      "pgp" : "0",
      "terminal" : "0",
      "latitude" : "24.22609",
      "inDis" : "50",
      "routeId" : "藍5",
      "seqNo" : "22"
   },
   {
      "GoBack" : "1",
      "longitude" : "120.56939",
      "outDis" : "50",
      "Id" : "4794",
      "oid" : "15245",
      "districtId" : "1",
      "nameZh" : "北勢國中",
      "pgp" : "0",
      "terminal" : "0",
      "latitude" : "24.22506",
      "inDis" : "50",
      "routeId" : "藍5",
      "seqNo" : "23"
   },
   {
      "GoBack" : "1",
      "longitude" : "120.56701",
      "outDis" : "100",
      "Id" : "2362",
      "oid" : "312034308",
      "districtId" : "1",
      "nameZh" : "明泰社區",
      "pgp" : "0",
      "terminal" : "0",
      "latitude" : "24.22883",
      "inDis" : "50",
      "routeId" : "藍5",
      "seqNo" : "24"
   },
   {
      "GoBack" : "1",
      "longitude" : "120.5657",
      "outDis" : "50",
      "Id" : "4817",
      "oid" : "311577494",
      "districtId" : "1",
      "nameZh" : "沙鹿區公所",
      "pgp" : "0",
      "terminal" : "0",
      "latitude" : "24.232",
      "inDis" : "50",
      "routeId" : "藍5",
      "seqNo" : "25"
   },
   {
      "GoBack" : "1",
      "longitude" : "120.5659",
      "outDis" : "50",
      "Id" : "5504",
      "oid" : "314838065",
      "districtId" : "1",
      "nameZh" : "沙鹿戶政事務所",
      "pgp" : "0",
      "terminal" : "0",
      "latitude" : "24.2335",
      "inDis" : "50",
      "routeId" : "藍5",
      "seqNo" : "26"
   },
   {
      "GoBack" : "1",
      "longitude" : "120.56455",
      "outDis" : "50",
      "Id" : "4390",
      "oid" : "307279327",
      "districtId" : "1",
      "nameZh" : "沙鹿高工(中山路)",
      "pgp" : "0",
      "terminal" : "0",
      "latitude" : "24.23731",
      "inDis" : "50",
      "routeId" : "藍5",
      "seqNo" : "27"
   },
   {
      "GoBack" : "1",
      "longitude" : "120.56236",
      "outDis" : "50",
      "Id" : "2682",
      "oid" : "312574878",
      "districtId" : "1",
      "nameZh" : "洛泉里",
      "pgp" : "0",
      "terminal" : "0",
      "latitude" : "24.23768",
      "inDis" : "50",
      "routeId" : "藍5",
      "seqNo" : "28"
   },
   {
      "GoBack" : "1",
      "longitude" : "120.56103",
      "outDis" : "50",
      "Id" : "2248",
      "oid" : "14254",
      "districtId" : "1",
      "nameZh" : "沙鹿站",
      "pgp" : "0",
      "terminal" : "0",
      "latitude" : "24.23795",
      "inDis" : "50",
      "routeId" : "藍5",
      "seqNo" : "29"
   },
   {
      "GoBack" : "2",
      "longitude" : "120.56103",
      "outDis" : "50",
      "Id" : "2248",
      "oid" : "14254",
      "districtId" : "1",
      "nameZh" : "沙鹿站",
      "pgp" : "0",
      "terminal" : "0",
      "latitude" : "24.23795",
      "inDis" : "50",
      "routeId" : "藍5",
      "seqNo" : "1"
   },
   {
      "GoBack" : "2",
      "longitude" : "120.56236",
      "outDis" : "50",
      "Id" : "2682",
      "oid" : "312574878",
      "districtId" : "1",
      "nameZh" : "洛泉里",
      "pgp" : "0",
      "terminal" : "0",
      "latitude" : "24.23768",
      "inDis" : "50",
      "routeId" : "藍5",
      "seqNo" : "2"
   },
   {
      "GoBack" : "2",
      "longitude" : "120.56455",
      "outDis" : "50",
      "Id" : "4390",
      "oid" : "307279327",
      "districtId" : "1",
      "nameZh" : "沙鹿高工(中山路)",
      "pgp" : "0",
      "terminal" : "0",
      "latitude" : "24.23731",
      "inDis" : "50",
      "routeId" : "藍5",
      "seqNo" : "3"
   },
   {
      "GoBack" : "2",
      "longitude" : "120.56649",
      "outDis" : "100",
      "Id" : "5222",
      "oid" : "312034306",
      "districtId" : "1",
      "nameZh" : "中山鎮政路口",
      "pgp" : "0",
      "terminal" : "0",
      "latitude" : "24.23696",
      "inDis" : "50",
      "routeId" : "藍5",
      "seqNo" : "4"
   },
   {
      "GoBack" : "2",
      "longitude" : "120.5659",
      "outDis" : "50",
      "Id" : "5504",
      "oid" : "314838065",
      "districtId" : "1",
      "nameZh" : "沙鹿戶政事務所",
      "pgp" : "0",
      "terminal" : "0",
      "latitude" : "24.2335",
      "inDis" : "50",
      "routeId" : "藍5",
      "seqNo" : "5"
   },
   {
      "GoBack" : "2",
      "longitude" : "120.5657",
      "outDis" : "50",
      "Id" : "4817",
      "oid" : "311577494",
      "districtId" : "1",
      "nameZh" : "沙鹿區公所",
      "pgp" : "0",
      "terminal" : "0",
      "latitude" : "24.232",
      "inDis" : "50",
      "routeId" : "藍5",
      "seqNo" : "6"
   },
   {
      "GoBack" : "2",
      "longitude" : "120.56701",
      "outDis" : "100",
      "Id" : "2362",
      "oid" : "312034308",
      "districtId" : "1",
      "nameZh" : "明泰社區",
      "pgp" : "0",
      "terminal" : "0",
      "latitude" : "24.22883",
      "inDis" : "50",
      "routeId" : "藍5",
      "seqNo" : "7"
   },
   {
      "GoBack" : "2",
      "longitude" : "120.56939",
      "outDis" : "50",
      "Id" : "4794",
      "oid" : "15245",
      "districtId" : "1",
      "nameZh" : "北勢國中",
      "pgp" : "0",
      "terminal" : "0",
      "latitude" : "24.22506",
      "inDis" : "50",
      "routeId" : "藍5",
      "seqNo" : "8"
   },
   {
      "GoBack" : "2",
      "longitude" : "120.5729",
      "outDis" : "100",
      "Id" : "5370",
      "oid" : "312034310",
      "districtId" : "1",
      "nameZh" : "英才東英路口",
      "pgp" : "0",
      "terminal" : "0",
      "latitude" : "24.22609",
      "inDis" : "50",
      "routeId" : "藍5",
      "seqNo" : "9"
   },
   {
      "GoBack" : "2",
      "longitude" : "120.57483",
      "outDis" : "50",
      "Id" : "0498",
      "oid" : "319559960",
      "districtId" : "1",
      "nameZh" : "靜宜大學(英才路)",
      "pgp" : "0",
      "terminal" : "0",
      "latitude" : "24.22665",
      "inDis" : "50",
      "routeId" : "藍5",
      "seqNo" : "10"
   },
   {
      "GoBack" : "2",
      "longitude" : "120.5771",
      "outDis" : "50",
      "Id" : "4147",
      "oid" : "17531",
      "districtId" : "1",
      "nameZh" : "靜宜大學",
      "pgp" : "0",
      "terminal" : "0",
      "latitude" : "24.22495",
      "inDis" : "50",
      "routeId" : "藍5",
      "seqNo" : "11"
   },
   {
      "GoBack" : "2",
      "longitude" : "120.57809",
      "outDis" : "50",
      "Id" : "4062",
      "oid" : "14262",
      "districtId" : "1",
      "nameZh" : "下晉江",
      "pgp" : "0",
      "terminal" : "0",
      "latitude" : "24.22357",
      "inDis" : "50",
      "routeId" : "藍5",
      "seqNo" : "12"
   },
   {
      "GoBack" : "2",
      "longitude" : "120.57986",
      "outDis" : "50",
      "Id" : "4111",
      "oid" : "15031",
      "districtId" : "1",
      "nameZh" : "晉江里",
      "pgp" : "0",
      "terminal" : "0",
      "latitude" : "24.22106",
      "inDis" : "50",
      "routeId" : "藍5",
      "seqNo" : "13"
   },
   {
      "GoBack" : "2",
      "longitude" : "120.5808",
      "outDis" : "50",
      "Id" : "4386",
      "oid" : "17377",
      "districtId" : "1",
      "nameZh" : "弘光科技大學",
      "pgp" : "0",
      "terminal" : "0",
      "latitude" : "24.2166",
      "inDis" : "50",
      "routeId" : "藍5",
      "seqNo" : "14"
   },
   {
      "GoBack" : "2",
      "longitude" : "120.58079",
      "outDis" : "50",
      "Id" : "4124",
      "oid" : "16769",
      "districtId" : "1",
      "nameZh" : "頂六路",
      "pgp" : "0",
      "terminal" : "0",
      "latitude" : "24.21365",
      "inDis" : "50",
      "routeId" : "藍5",
      "seqNo" : "15"
   },
   {
      "GoBack" : "2",
      "longitude" : "120.58108",
      "outDis" : "50",
      "Id" : "3531",
      "oid" : "310808429",
      "districtId" : "1",
      "nameZh" : "正英臺灣大道口",
      "pgp" : "0",
      "terminal" : "0",
      "latitude" : "24.2099",
      "inDis" : "50",
      "routeId" : "藍5",
      "seqNo" : "16"
   },
   {
      "GoBack" : "2",
      "longitude" : "120.57619",
      "outDis" : "50",
      "Id" : "5429",
      "oid" : "318244646",
      "districtId" : "1",
      "nameZh" : "正英七街口",
      "pgp" : "0",
      "terminal" : "0",
      "latitude" : "24.20993",
      "inDis" : "50",
      "routeId" : "藍5",
      "seqNo" : "17"
   },
   {
      "GoBack" : "2",
      "longitude" : "120.57364",
      "outDis" : "50",
      "Id" : "0367",
      "oid" : "318895929",
      "districtId" : "1",
      "nameZh" : "正順正義路口",
      "pgp" : "0",
      "terminal" : "0",
      "latitude" : "24.20607",
      "inDis" : "50",
      "routeId" : "藍5",
      "seqNo" : "18"
   },
   {
      "GoBack" : "2",
      "longitude" : "120.57449",
      "outDis" : "50",
      "Id" : "0368",
      "oid" : "318895930",
      "districtId" : "1",
      "nameZh" : "溫莎城堡社區",
      "pgp" : "0",
      "terminal" : "0",
      "latitude" : "24.20266",
      "inDis" : "50",
      "routeId" : "藍5",
      "seqNo" : "19"
   },
   {
      "GoBack" : "2",
      "longitude" : "120.57322",
      "outDis" : "50",
      "Id" : "0369",
      "oid" : "318895931",
      "districtId" : "1",
      "nameZh" : "正德正義路口",
      "pgp" : "0",
      "terminal" : "0",
      "latitude" : "24.20163",
      "inDis" : "50",
      "routeId" : "藍5",
      "seqNo" : "20"
   },
   {
      "GoBack" : "2",
      "longitude" : "120.5712",
      "outDis" : "50",
      "Id" : "0370",
      "oid" : "318895932",
      "districtId" : "1",
      "nameZh" : "正德正順路口",
      "pgp" : "0",
      "terminal" : "0",
      "latitude" : "24.20369",
      "inDis" : "50",
      "routeId" : "藍5",
      "seqNo" : "21"
   },
   {
      "GoBack" : "2",
      "longitude" : "120.56922",
      "outDis" : "50",
      "Id" : "0371",
      "oid" : "318895933",
      "districtId" : "1",
      "nameZh" : "正德路72巷口",
      "pgp" : "0",
      "terminal" : "0",
      "latitude" : "24.20596",
      "inDis" : "50",
      "routeId" : "藍5",
      "seqNo" : "22"
   },
   {
      "GoBack" : "2",
      "longitude" : "120.5669",
      "outDis" : "50",
      "Id" : "0372",
      "oid" : "318895934",
      "districtId" : "1",
      "nameZh" : "保安保寧路口",
      "pgp" : "0",
      "terminal" : "0",
      "latitude" : "24.20735",
      "inDis" : "50",
      "routeId" : "藍5",
      "seqNo" : "23"
   },
   {
      "GoBack" : "2",
      "longitude" : "120.56422",
      "outDis" : "50",
      "Id" : "0373",
      "oid" : "318895935",
      "districtId" : "1",
      "nameZh" : "保寧向上路口",
      "pgp" : "0",
      "terminal" : "0",
      "latitude" : "24.20671",
      "inDis" : "50",
      "routeId" : "藍5",
      "seqNo" : "24"
   },
   {
      "GoBack" : "2",
      "longitude" : "120.56436",
      "outDis" : "50",
      "Id" : "0397",
      "oid" : "318895942",
      "districtId" : "1",
      "nameZh" : "向上保寧路口",
      "pgp" : "0",
      "terminal" : "0",
      "latitude" : "24.20585",
      "inDis" : "50",
      "routeId" : "藍5",
      "seqNo" : "25"
   },
   {
      "GoBack" : "2",
      "longitude" : "120.56698",
      "outDis" : "50",
      "Id" : "0379",
      "oid" : "318895936",
      "districtId" : "1",
      "nameZh" : "向上屏西路口",
      "pgp" : "0",
      "terminal" : "0",
      "latitude" : "24.20365",
      "inDis" : "50",
      "routeId" : "藍5",
      "seqNo" : "26"
   },
   {
      "GoBack" : "2",
      "longitude" : "120.56834",
      "outDis" : "50",
      "Id" : "3198",
      "oid" : "6320",
      "districtId" : "1",
      "nameZh" : "鹿港寮",
      "pgp" : "0",
      "terminal" : "0",
      "latitude" : "24.20115",
      "inDis" : "50",
      "routeId" : "藍5",
      "seqNo" : "27"
   },
   {
      "GoBack" : "2",
      "longitude" : "120.56844",
      "outDis" : "50",
      "Id" : "0382",
      "oid" : "318895937",
      "districtId" : "1",
      "nameZh" : "中正新城(自立路)",
      "pgp" : "0",
      "terminal" : "0",
      "latitude" : "24.19842",
      "inDis" : "50",
      "routeId" : "藍5",
      "seqNo" : "28"
   },
   {
      "GoBack" : "2",
      "longitude" : "120.56658",
      "outDis" : "50",
      "Id" : "0383",
      "oid" : "318895938",
      "districtId" : "1",
      "nameZh" : "自立中樂街口",
      "pgp" : "0",
      "terminal" : "0",
      "latitude" : "24.19886",
      "inDis" : "50",
      "routeId" : "藍5",
      "seqNo" : "29"
   },
   {
      "GoBack" : "2",
      "longitude" : "120.56355",
      "outDis" : "50",
      "Id" : "0384",
      "oid" : "318895939",
      "districtId" : "1",
      "nameZh" : "水裡社公園",
      "pgp" : "0",
      "terminal" : "0",
      "latitude" : "24.19882",
      "inDis" : "50",
      "routeId" : "藍5",
      "seqNo" : "30"
   },
   {
      "GoBack" : "2",
      "longitude" : "120.56399",
      "outDis" : "50",
      "Id" : "0386",
      "oid" : "318895940",
      "districtId" : "1",
      "nameZh" : "裕國社區",
      "pgp" : "0",
      "terminal" : "0",
      "latitude" : "24.19554",
      "inDis" : "50",
      "routeId" : "藍5",
      "seqNo" : "31"
   }
]
