[
   {
      "GoBack" : "1",
      "longitude" : "120.56252",
      "outDis" : "50",
      "Id" : "3017",
      "oid" : "2000",
      "districtId" : "1",
      "nameZh" : "清水國中",
      "pgp" : "0",
      "terminal" : "0",
      "latitude" : "24.26778",
      "inDis" : "50",
      "routeId" : "164",
      "seqNo" : "1"
   },
   {
      "GoBack" : "1",
      "longitude" : "120.58249",
      "outDis" : "50",
      "Id" : "4137",
      "oid" : "2001",
      "districtId" : "1",
      "nameZh" : "嘉陽高中",
      "pgp" : "0",
      "terminal" : "0",
      "latitude" : "24.2659",
      "inDis" : "50",
      "routeId" : "164",
      "seqNo" : "2"
   },
   {
      "GoBack" : "1",
      "longitude" : "120.59534",
      "outDis" : "50",
      "Id" : "4083",
      "oid" : "2002",
      "districtId" : "1",
      "nameZh" : "公館國小",
      "pgp" : "0",
      "terminal" : "0",
      "latitude" : "24.26088",
      "inDis" : "50",
      "routeId" : "164",
      "seqNo" : "3"
   },
   {
      "GoBack" : "1",
      "longitude" : "120.59853",
      "outDis" : "50",
      "Id" : "4101",
      "oid" : "2033",
      "districtId" : "1",
      "nameZh" : "西勢里",
      "pgp" : "0",
      "terminal" : "0",
      "latitude" : "24.25996",
      "inDis" : "50",
      "routeId" : "164",
      "seqNo" : "4"
   },
   {
      "GoBack" : "1",
      "longitude" : "120.60197",
      "outDis" : "50",
      "Id" : "4790",
      "oid" : "2004",
      "districtId" : "1",
      "nameZh" : "友仁公司",
      "pgp" : "0",
      "terminal" : "0",
      "latitude" : "24.25929",
      "inDis" : "50",
      "routeId" : "164",
      "seqNo" : "6"
   },
   {
      "GoBack" : "1",
      "longitude" : "120.60407",
      "outDis" : "50",
      "Id" : "3295",
      "oid" : "2005",
      "districtId" : "1",
      "nameZh" : "澔明公司",
      "pgp" : "0",
      "terminal" : "0",
      "latitude" : "24.26222",
      "inDis" : "50",
      "routeId" : "164",
      "seqNo" : "7"
   },
   {
      "GoBack" : "1",
      "longitude" : "120.60642",
      "outDis" : "50",
      "Id" : "2223",
      "oid" : "2006",
      "districtId" : "1",
      "nameZh" : "吳厝里",
      "pgp" : "0",
      "terminal" : "0",
      "latitude" : "24.2666",
      "inDis" : "50",
      "routeId" : "164",
      "seqNo" : "8"
   },
   {
      "GoBack" : "1",
      "longitude" : "120.60777",
      "outDis" : "50",
      "Id" : "3434",
      "oid" : "2007",
      "districtId" : "1",
      "nameZh" : "新興社區",
      "pgp" : "0",
      "terminal" : "0",
      "latitude" : "24.2694",
      "inDis" : "50",
      "routeId" : "164",
      "seqNo" : "9"
   },
   {
      "GoBack" : "1",
      "longitude" : "120.6111",
      "outDis" : "50",
      "Id" : "3119",
      "oid" : "2008",
      "districtId" : "1",
      "nameZh" : "頂吳厝里",
      "pgp" : "0",
      "terminal" : "0",
      "latitude" : "24.27625",
      "inDis" : "50",
      "routeId" : "164",
      "seqNo" : "10"
   },
   {
      "GoBack" : "1",
      "longitude" : "120.61287",
      "outDis" : "50",
      "Id" : "3071",
      "oid" : "2009",
      "districtId" : "1",
      "nameZh" : "許厝里",
      "pgp" : "0",
      "terminal" : "0",
      "latitude" : "24.27944",
      "inDis" : "50",
      "routeId" : "164",
      "seqNo" : "11"
   },
   {
      "GoBack" : "1",
      "longitude" : "120.61334",
      "outDis" : "50",
      "Id" : "1203",
      "oid" : "2010",
      "districtId" : "1",
      "nameZh" : "下楊厝里",
      "pgp" : "0",
      "terminal" : "0",
      "latitude" : "24.28542",
      "inDis" : "50",
      "routeId" : "164",
      "seqNo" : "12"
   },
   {
      "GoBack" : "1",
      "longitude" : "120.61558",
      "outDis" : "50",
      "Id" : "3448",
      "oid" : "2011",
      "districtId" : "1",
      "nameZh" : "楊厝里",
      "pgp" : "0",
      "terminal" : "0",
      "latitude" : "24.28931",
      "inDis" : "50",
      "routeId" : "164",
      "seqNo" : "13"
   },
   {
      "GoBack" : "1",
      "longitude" : "120.61354",
      "outDis" : "50",
      "Id" : "4781",
      "oid" : "2012",
      "districtId" : "1",
      "nameZh" : "三元宮",
      "pgp" : "0",
      "terminal" : "0",
      "latitude" : "24.29099",
      "inDis" : "50",
      "routeId" : "164",
      "seqNo" : "14"
   },
   {
      "GoBack" : "2",
      "longitude" : "120.61588",
      "outDis" : "50",
      "Id" : "3448",
      "oid" : "2018",
      "districtId" : "1",
      "nameZh" : "楊厝里",
      "pgp" : "0",
      "terminal" : "0",
      "latitude" : "24.28928",
      "inDis" : "50",
      "routeId" : "164",
      "seqNo" : "1"
   },
   {
      "GoBack" : "2",
      "longitude" : "120.61336",
      "outDis" : "50",
      "Id" : "1203",
      "oid" : "2019",
      "districtId" : "1",
      "nameZh" : "下楊厝里",
      "pgp" : "0",
      "terminal" : "0",
      "latitude" : "24.28537",
      "inDis" : "50",
      "routeId" : "164",
      "seqNo" : "2"
   },
   {
      "GoBack" : "2",
      "longitude" : "120.61307",
      "outDis" : "50",
      "Id" : "3071",
      "oid" : "2020",
      "districtId" : "1",
      "nameZh" : "許厝里",
      "pgp" : "0",
      "terminal" : "0",
      "latitude" : "24.27969",
      "inDis" : "50",
      "routeId" : "164",
      "seqNo" : "3"
   },
   {
      "GoBack" : "2",
      "longitude" : "120.61122",
      "outDis" : "50",
      "Id" : "3119",
      "oid" : "2021",
      "districtId" : "1",
      "nameZh" : "頂吳厝里",
      "pgp" : "0",
      "terminal" : "0",
      "latitude" : "24.27619",
      "inDis" : "50",
      "routeId" : "164",
      "seqNo" : "4"
   },
   {
      "GoBack" : "2",
      "longitude" : "120.60756",
      "outDis" : "50",
      "Id" : "3434",
      "oid" : "2022",
      "districtId" : "1",
      "nameZh" : "新興社區",
      "pgp" : "0",
      "terminal" : "0",
      "latitude" : "24.26899",
      "inDis" : "50",
      "routeId" : "164",
      "seqNo" : "5"
   },
   {
      "GoBack" : "2",
      "longitude" : "120.60629",
      "outDis" : "50",
      "Id" : "2223",
      "oid" : "2023",
      "districtId" : "1",
      "nameZh" : "吳厝里",
      "pgp" : "0",
      "terminal" : "0",
      "latitude" : "24.26658",
      "inDis" : "50",
      "routeId" : "164",
      "seqNo" : "6"
   },
   {
      "GoBack" : "2",
      "longitude" : "120.60411",
      "outDis" : "50",
      "Id" : "3295",
      "oid" : "2024",
      "districtId" : "1",
      "nameZh" : "澔明公司",
      "pgp" : "0",
      "terminal" : "0",
      "latitude" : "24.26231",
      "inDis" : "50",
      "routeId" : "164",
      "seqNo" : "7"
   },
   {
      "GoBack" : "2",
      "longitude" : "120.602",
      "outDis" : "50",
      "Id" : "4790",
      "oid" : "2025",
      "districtId" : "1",
      "nameZh" : "友仁公司",
      "pgp" : "0",
      "terminal" : "0",
      "latitude" : "24.25926",
      "inDis" : "50",
      "routeId" : "164",
      "seqNo" : "8"
   },
   {
      "GoBack" : "2",
      "longitude" : "120.59843",
      "outDis" : "50",
      "Id" : "4101",
      "oid" : "2060",
      "districtId" : "1",
      "nameZh" : "西勢里",
      "pgp" : "0",
      "terminal" : "0",
      "latitude" : "24.25989",
      "inDis" : "50",
      "routeId" : "164",
      "seqNo" : "10"
   },
   {
      "GoBack" : "2",
      "longitude" : "120.59535",
      "outDis" : "50",
      "Id" : "4083",
      "oid" : "2027",
      "districtId" : "1",
      "nameZh" : "公館國小",
      "pgp" : "0",
      "terminal" : "0",
      "latitude" : "24.2609",
      "inDis" : "50",
      "routeId" : "164",
      "seqNo" : "11"
   },
   {
      "GoBack" : "2",
      "longitude" : "120.58273",
      "outDis" : "50",
      "Id" : "4137",
      "oid" : "2028",
      "districtId" : "1",
      "nameZh" : "嘉陽高中",
      "pgp" : "0",
      "terminal" : "0",
      "latitude" : "24.26616",
      "inDis" : "50",
      "routeId" : "164",
      "seqNo" : "12"
   },
   {
      "GoBack" : "2",
      "longitude" : "120.56293",
      "outDis" : "50",
      "Id" : "3017",
      "oid" : "2029",
      "districtId" : "1",
      "nameZh" : "清水國中",
      "pgp" : "0",
      "terminal" : "0",
      "latitude" : "24.26786",
      "inDis" : "50",
      "routeId" : "164",
      "seqNo" : "13"
   }
]
