[
   {
      "GoBack" : "1",
      "longitude" : "120.5815",
      "outDis" : "50",
      "Id" : "4136",
      "oid" : "14266",
      "districtId" : "1",
      "nameZh" : "祿清宮",
      "pgp" : "0",
      "terminal" : "0",
      "latitude" : "24.2102",
      "inDis" : "50",
      "routeId" : "169區",
      "seqNo" : "1"
   },
   {
      "GoBack" : "1",
      "longitude" : "120.58114",
      "outDis" : "50",
      "Id" : "4124",
      "oid" : "2269",
      "districtId" : "1",
      "nameZh" : "頂六路",
      "pgp" : "0",
      "terminal" : "0",
      "latitude" : "24.21332",
      "inDis" : "50",
      "routeId" : "169區",
      "seqNo" : "2"
   },
   {
      "GoBack" : "1",
      "longitude" : "120.58048",
      "outDis" : "50",
      "Id" : "4386",
      "oid" : "13476",
      "districtId" : "1",
      "nameZh" : "弘光科技大學",
      "pgp" : "0",
      "terminal" : "0",
      "latitude" : "24.21757",
      "inDis" : "50",
      "routeId" : "169區",
      "seqNo" : "3"
   },
   {
      "GoBack" : "1",
      "longitude" : "120.5794",
      "outDis" : "50",
      "Id" : "4111",
      "oid" : "17529",
      "districtId" : "1",
      "nameZh" : "晉江里",
      "pgp" : "0",
      "terminal" : "0",
      "latitude" : "24.2219",
      "inDis" : "50",
      "routeId" : "169區",
      "seqNo" : "4"
   },
   {
      "GoBack" : "1",
      "longitude" : "120.57859",
      "outDis" : "50",
      "Id" : "4062",
      "oid" : "2272",
      "districtId" : "1",
      "nameZh" : "下晉江",
      "pgp" : "0",
      "terminal" : "0",
      "latitude" : "24.22326",
      "inDis" : "50",
      "routeId" : "169區",
      "seqNo" : "5"
   },
   {
      "GoBack" : "1",
      "longitude" : "120.57673",
      "outDis" : "50",
      "Id" : "4147",
      "oid" : "2273",
      "districtId" : "1",
      "nameZh" : "靜宜大學",
      "pgp" : "0",
      "terminal" : "0",
      "latitude" : "24.22623",
      "inDis" : "50",
      "routeId" : "169區",
      "seqNo" : "6"
   },
   {
      "GoBack" : "1",
      "longitude" : "120.57331",
      "outDis" : "50",
      "Id" : "4086",
      "oid" : "2203",
      "districtId" : "1",
      "nameZh" : "臺灣大道北勢路口",
      "pgp" : "0",
      "terminal" : "0",
      "latitude" : "24.23102",
      "inDis" : "50",
      "routeId" : "169區",
      "seqNo" : "7"
   },
   {
      "GoBack" : "1",
      "longitude" : "120.57242",
      "outDis" : "50",
      "Id" : "4392",
      "oid" : "2275",
      "districtId" : "1",
      "nameZh" : "紅竹巷",
      "pgp" : "0",
      "terminal" : "0",
      "latitude" : "24.23312",
      "inDis" : "50",
      "routeId" : "169區",
      "seqNo" : "8"
   },
   {
      "GoBack" : "1",
      "longitude" : "120.56918",
      "outDis" : "50",
      "Id" : "5221",
      "oid" : "310787748",
      "districtId" : "1",
      "nameZh" : "中山臺灣大道口",
      "pgp" : "0",
      "terminal" : "0",
      "latitude" : "24.2371",
      "inDis" : "50",
      "routeId" : "169區",
      "seqNo" : "9"
   },
   {
      "GoBack" : "1",
      "longitude" : "120.56704",
      "outDis" : "50",
      "Id" : "5222",
      "oid" : "318961613",
      "districtId" : "1",
      "nameZh" : "中山鎮政路口",
      "pgp" : "0",
      "terminal" : "0",
      "latitude" : "24.23707",
      "inDis" : "50",
      "routeId" : "169區",
      "seqNo" : "10"
   },
   {
      "GoBack" : "1",
      "longitude" : "120.5642",
      "outDis" : "50",
      "Id" : "4390",
      "oid" : "2278",
      "districtId" : "1",
      "nameZh" : "沙鹿高工(中山路)",
      "pgp" : "0",
      "terminal" : "0",
      "latitude" : "24.23747",
      "inDis" : "50",
      "routeId" : "169區",
      "seqNo" : "11"
   },
   {
      "GoBack" : "1",
      "longitude" : "120.56236",
      "outDis" : "50",
      "Id" : "2682",
      "oid" : "312574878",
      "districtId" : "1",
      "nameZh" : "洛泉里",
      "pgp" : "0",
      "terminal" : "0",
      "latitude" : "24.23768",
      "inDis" : "50",
      "routeId" : "169區",
      "seqNo" : "12"
   },
   {
      "GoBack" : "1",
      "longitude" : "120.56106",
      "outDis" : "50",
      "Id" : "2248",
      "oid" : "10784",
      "districtId" : "1",
      "nameZh" : "沙鹿站",
      "pgp" : "0",
      "terminal" : "0",
      "latitude" : "24.23783",
      "inDis" : "50",
      "routeId" : "169區",
      "seqNo" : "13"
   },
   {
      "GoBack" : "1",
      "longitude" : "120.56",
      "outDis" : "50",
      "Id" : "5135",
      "oid" : "14046",
      "districtId" : "1",
      "nameZh" : "第一銀行(沙鹿分行)",
      "pgp" : "0",
      "terminal" : "0",
      "latitude" : "24.23932",
      "inDis" : "50",
      "routeId" : "169區",
      "seqNo" : "14"
   },
   {
      "GoBack" : "1",
      "longitude" : "120.55659",
      "outDis" : "50",
      "Id" : "1482",
      "oid" : "15270",
      "districtId" : "1",
      "nameZh" : "中港國小",
      "pgp" : "0",
      "terminal" : "0",
      "latitude" : "24.24273",
      "inDis" : "50",
      "routeId" : "169區",
      "seqNo" : "15"
   },
   {
      "GoBack" : "1",
      "longitude" : "120.54911",
      "outDis" : "50",
      "Id" : "1088",
      "oid" : "15271",
      "districtId" : "1",
      "nameZh" : "三條圳",
      "pgp" : "0",
      "terminal" : "0",
      "latitude" : "24.24548",
      "inDis" : "50",
      "routeId" : "169區",
      "seqNo" : "16"
   },
   {
      "GoBack" : "1",
      "longitude" : "120.54653",
      "outDis" : "50",
      "Id" : "4822",
      "oid" : "14530",
      "districtId" : "1",
      "nameZh" : "東大庄",
      "pgp" : "0",
      "terminal" : "0",
      "latitude" : "24.24643",
      "inDis" : "50",
      "routeId" : "169區",
      "seqNo" : "17"
   },
   {
      "GoBack" : "1",
      "longitude" : "120.54471",
      "outDis" : "50",
      "Id" : "4007",
      "oid" : "7638",
      "districtId" : "1",
      "nameZh" : "體育館前",
      "pgp" : "0",
      "terminal" : "0",
      "latitude" : "24.24672",
      "inDis" : "50",
      "routeId" : "169區",
      "seqNo" : "18"
   },
   {
      "GoBack" : "1",
      "longitude" : "120.54319",
      "outDis" : "50",
      "Id" : "4041",
      "oid" : "17393",
      "districtId" : "1",
      "nameZh" : "童綜合醫院(梧棲院區)",
      "pgp" : "0",
      "terminal" : "0",
      "latitude" : "24.24757",
      "inDis" : "50",
      "routeId" : "169區",
      "seqNo" : "19"
   },
   {
      "GoBack" : "1",
      "longitude" : "120.54117",
      "outDis" : "50",
      "Id" : "4824",
      "oid" : "15614",
      "districtId" : "1",
      "nameZh" : "邱厝庄",
      "pgp" : "0",
      "terminal" : "0",
      "latitude" : "24.24818",
      "inDis" : "50",
      "routeId" : "169區",
      "seqNo" : "20"
   },
   {
      "GoBack" : "1",
      "longitude" : "120.5389",
      "outDis" : "50",
      "Id" : "1334",
      "oid" : "7662",
      "districtId" : "1",
      "nameZh" : "大庄",
      "pgp" : "0",
      "terminal" : "0",
      "latitude" : "24.24882",
      "inDis" : "50",
      "routeId" : "169區",
      "seqNo" : "21"
   },
   {
      "GoBack" : "1",
      "longitude" : "120.53444",
      "outDis" : "50",
      "Id" : "3250",
      "oid" : "17396",
      "districtId" : "1",
      "nameZh" : "臺灣大道港埠路口",
      "pgp" : "0",
      "terminal" : "0",
      "latitude" : "24.25083",
      "inDis" : "50",
      "routeId" : "169區",
      "seqNo" : "22"
   },
   {
      "GoBack" : "1",
      "longitude" : "120.53036",
      "outDis" : "50",
      "Id" : "2999",
      "oid" : "17397",
      "districtId" : "1",
      "nameZh" : "梧棲國小",
      "pgp" : "0",
      "terminal" : "0",
      "latitude" : "24.25232",
      "inDis" : "50",
      "routeId" : "169區",
      "seqNo" : "23"
   },
   {
      "GoBack" : "1",
      "longitude" : "120.5286",
      "outDis" : "50",
      "Id" : "2107",
      "oid" : "15480",
      "districtId" : "1",
      "nameZh" : "安仁里",
      "pgp" : "0",
      "terminal" : "0",
      "latitude" : "24.25366",
      "inDis" : "50",
      "routeId" : "169區",
      "seqNo" : "24"
   },
   {
      "GoBack" : "1",
      "longitude" : "120.52953",
      "outDis" : "50",
      "Id" : "4841",
      "oid" : "15279",
      "districtId" : "1",
      "nameZh" : "梧棲(朝元宮)",
      "pgp" : "0",
      "terminal" : "0",
      "latitude" : "24.25661",
      "inDis" : "50",
      "routeId" : "169區",
      "seqNo" : "25"
   },
   {
      "GoBack" : "1",
      "longitude" : "120.53009",
      "outDis" : "50",
      "Id" : "1208",
      "oid" : "15280",
      "districtId" : "1",
      "nameZh" : "下寮社區",
      "pgp" : "0",
      "terminal" : "0",
      "latitude" : "24.25856",
      "inDis" : "50",
      "routeId" : "169區",
      "seqNo" : "26"
   },
   {
      "GoBack" : "1",
      "longitude" : "120.53035",
      "outDis" : "50",
      "Id" : "4783",
      "oid" : "15281",
      "districtId" : "1",
      "nameZh" : "下寮里(富美宮)",
      "pgp" : "0",
      "terminal" : "0",
      "latitude" : "24.26079",
      "inDis" : "50",
      "routeId" : "169區",
      "seqNo" : "27"
   },
   {
      "GoBack" : "1",
      "longitude" : "120.53231",
      "outDis" : "50",
      "Id" : "4668",
      "oid" : "15506",
      "districtId" : "1",
      "nameZh" : "頂寮里",
      "pgp" : "0",
      "terminal" : "0",
      "latitude" : "24.2604",
      "inDis" : "50",
      "routeId" : "169區",
      "seqNo" : "28"
   },
   {
      "GoBack" : "1",
      "longitude" : "120.53495",
      "outDis" : "50",
      "Id" : "4840",
      "oid" : "15282",
      "districtId" : "1",
      "nameZh" : "國都飯店",
      "pgp" : "0",
      "terminal" : "0",
      "latitude" : "24.25932",
      "inDis" : "50",
      "routeId" : "169區",
      "seqNo" : "29"
   },
   {
      "GoBack" : "1",
      "longitude" : "120.53662",
      "outDis" : "50",
      "Id" : "5065",
      "oid" : "15283",
      "districtId" : "1",
      "nameZh" : "臺銀中港分行",
      "pgp" : "0",
      "terminal" : "0",
      "latitude" : "24.25995",
      "inDis" : "50",
      "routeId" : "169區",
      "seqNo" : "30"
   },
   {
      "GoBack" : "1",
      "longitude" : "120.53741",
      "outDis" : "50",
      "Id" : "5064",
      "oid" : "15284",
      "districtId" : "1",
      "nameZh" : "臺中港郵局",
      "pgp" : "0",
      "terminal" : "0",
      "latitude" : "24.26193",
      "inDis" : "50",
      "routeId" : "169區",
      "seqNo" : "31"
   },
   {
      "GoBack" : "1",
      "longitude" : "120.54158",
      "outDis" : "50",
      "Id" : "4810",
      "oid" : "15285",
      "districtId" : "1",
      "nameZh" : "竹圍(港埠路)",
      "pgp" : "0",
      "terminal" : "0",
      "latitude" : "24.2618",
      "inDis" : "50",
      "routeId" : "169區",
      "seqNo" : "32"
   },
   {
      "GoBack" : "1",
      "longitude" : "120.54513",
      "outDis" : "50",
      "Id" : "3895",
      "oid" : "15286",
      "districtId" : "1",
      "nameZh" : "糠榔",
      "pgp" : "0",
      "terminal" : "0",
      "latitude" : "24.26342",
      "inDis" : "50",
      "routeId" : "169區",
      "seqNo" : "33"
   },
   {
      "GoBack" : "1",
      "longitude" : "120.54853",
      "outDis" : "50",
      "Id" : "2444",
      "oid" : "15287",
      "districtId" : "1",
      "nameZh" : "東糠榔",
      "pgp" : "0",
      "terminal" : "0",
      "latitude" : "24.26431",
      "inDis" : "50",
      "routeId" : "169區",
      "seqNo" : "34"
   },
   {
      "GoBack" : "1",
      "longitude" : "120.55146",
      "outDis" : "50",
      "Id" : "2177",
      "oid" : "15288",
      "districtId" : "1",
      "nameZh" : "西牛埔",
      "pgp" : "0",
      "terminal" : "0",
      "latitude" : "24.26504",
      "inDis" : "50",
      "routeId" : "169區",
      "seqNo" : "35"
   },
   {
      "GoBack" : "1",
      "longitude" : "120.55556",
      "outDis" : "50",
      "Id" : "1732",
      "oid" : "15289",
      "districtId" : "1",
      "nameZh" : "牛埔",
      "pgp" : "0",
      "terminal" : "0",
      "latitude" : "24.26601",
      "inDis" : "50",
      "routeId" : "169區",
      "seqNo" : "36"
   },
   {
      "GoBack" : "1",
      "longitude" : "120.56046",
      "outDis" : "50",
      "Id" : "2588",
      "oid" : "15290",
      "districtId" : "1",
      "nameZh" : "南社里",
      "pgp" : "0",
      "terminal" : "0",
      "latitude" : "24.26715",
      "inDis" : "50",
      "routeId" : "169區",
      "seqNo" : "37"
   },
   {
      "GoBack" : "1",
      "longitude" : "120.56271",
      "outDis" : "50",
      "Id" : "3017",
      "oid" : "15291",
      "districtId" : "1",
      "nameZh" : "清水國中",
      "pgp" : "0",
      "terminal" : "0",
      "latitude" : "24.26778",
      "inDis" : "50",
      "routeId" : "169區",
      "seqNo" : "38"
   },
   {
      "GoBack" : "1",
      "longitude" : "120.5648",
      "outDis" : "50",
      "Id" : "3700",
      "oid" : "15292",
      "districtId" : "1",
      "nameZh" : "銀聯二村",
      "pgp" : "0",
      "terminal" : "0",
      "latitude" : "24.26832",
      "inDis" : "50",
      "routeId" : "169區",
      "seqNo" : "39"
   },
   {
      "GoBack" : "1",
      "longitude" : "120.56825",
      "outDis" : "50",
      "Id" : "2486",
      "oid" : "15293",
      "districtId" : "1",
      "nameZh" : "社口",
      "pgp" : "0",
      "terminal" : "0",
      "latitude" : "24.26845",
      "inDis" : "50",
      "routeId" : "169區",
      "seqNo" : "40"
   },
   {
      "GoBack" : "1",
      "longitude" : "120.57004",
      "outDis" : "50",
      "Id" : "5655",
      "oid" : "317714376",
      "districtId" : "1",
      "nameZh" : "鰲峰西社路口",
      "pgp" : "0",
      "terminal" : "0",
      "latitude" : "24.26923",
      "inDis" : "50",
      "routeId" : "169區",
      "seqNo" : "41"
   },
   {
      "GoBack" : "1",
      "longitude" : "120.57531",
      "outDis" : "50",
      "Id" : "1615",
      "oid" : "15295",
      "districtId" : "1",
      "nameZh" : "分局前",
      "pgp" : "0",
      "terminal" : "0",
      "latitude" : "24.26919",
      "inDis" : "50",
      "routeId" : "169區",
      "seqNo" : "42"
   },
   {
      "GoBack" : "1",
      "longitude" : "120.57594",
      "outDis" : "50",
      "Id" : "3013",
      "oid" : "10843",
      "districtId" : "1",
      "nameZh" : "清水",
      "pgp" : "0",
      "terminal" : "0",
      "latitude" : "24.2703",
      "inDis" : "50",
      "routeId" : "169區",
      "seqNo" : "43"
   },
   {
      "GoBack" : "2",
      "longitude" : "120.57594",
      "outDis" : "50",
      "Id" : "3013",
      "oid" : "10843",
      "districtId" : "1",
      "nameZh" : "清水",
      "pgp" : "0",
      "terminal" : "0",
      "latitude" : "24.2703",
      "inDis" : "50",
      "routeId" : "169區",
      "seqNo" : "1"
   },
   {
      "GoBack" : "2",
      "longitude" : "120.57531",
      "outDis" : "50",
      "Id" : "1615",
      "oid" : "15210",
      "districtId" : "1",
      "nameZh" : "分局前",
      "pgp" : "0",
      "terminal" : "0",
      "latitude" : "24.26919",
      "inDis" : "50",
      "routeId" : "169區",
      "seqNo" : "2"
   },
   {
      "GoBack" : "2",
      "longitude" : "120.57004",
      "outDis" : "50",
      "Id" : "5655",
      "oid" : "317714376",
      "districtId" : "1",
      "nameZh" : "鰲峰西社路口",
      "pgp" : "0",
      "terminal" : "0",
      "latitude" : "24.26923",
      "inDis" : "50",
      "routeId" : "169區",
      "seqNo" : "3"
   },
   {
      "GoBack" : "2",
      "longitude" : "120.56825",
      "outDis" : "50",
      "Id" : "2486",
      "oid" : "15212",
      "districtId" : "1",
      "nameZh" : "社口",
      "pgp" : "0",
      "terminal" : "0",
      "latitude" : "24.26845",
      "inDis" : "50",
      "routeId" : "169區",
      "seqNo" : "4"
   },
   {
      "GoBack" : "2",
      "longitude" : "120.5648",
      "outDis" : "50",
      "Id" : "3700",
      "oid" : "15213",
      "districtId" : "1",
      "nameZh" : "銀聯二村",
      "pgp" : "0",
      "terminal" : "0",
      "latitude" : "24.26832",
      "inDis" : "50",
      "routeId" : "169區",
      "seqNo" : "5"
   },
   {
      "GoBack" : "2",
      "longitude" : "120.56271",
      "outDis" : "50",
      "Id" : "3017",
      "oid" : "15214",
      "districtId" : "1",
      "nameZh" : "清水國中",
      "pgp" : "0",
      "terminal" : "0",
      "latitude" : "24.26778",
      "inDis" : "50",
      "routeId" : "169區",
      "seqNo" : "6"
   },
   {
      "GoBack" : "2",
      "longitude" : "120.56046",
      "outDis" : "50",
      "Id" : "2588",
      "oid" : "15215",
      "districtId" : "1",
      "nameZh" : "南社里",
      "pgp" : "0",
      "terminal" : "0",
      "latitude" : "24.26715",
      "inDis" : "50",
      "routeId" : "169區",
      "seqNo" : "7"
   },
   {
      "GoBack" : "2",
      "longitude" : "120.55556",
      "outDis" : "50",
      "Id" : "1732",
      "oid" : "15216",
      "districtId" : "1",
      "nameZh" : "牛埔",
      "pgp" : "0",
      "terminal" : "0",
      "latitude" : "24.26601",
      "inDis" : "50",
      "routeId" : "169區",
      "seqNo" : "8"
   },
   {
      "GoBack" : "2",
      "longitude" : "120.55146",
      "outDis" : "50",
      "Id" : "2177",
      "oid" : "15217",
      "districtId" : "1",
      "nameZh" : "西牛埔",
      "pgp" : "0",
      "terminal" : "0",
      "latitude" : "24.26504",
      "inDis" : "50",
      "routeId" : "169區",
      "seqNo" : "9"
   },
   {
      "GoBack" : "2",
      "longitude" : "120.54853",
      "outDis" : "50",
      "Id" : "2444",
      "oid" : "15218",
      "districtId" : "1",
      "nameZh" : "東糠榔",
      "pgp" : "0",
      "terminal" : "0",
      "latitude" : "24.26431",
      "inDis" : "50",
      "routeId" : "169區",
      "seqNo" : "10"
   },
   {
      "GoBack" : "2",
      "longitude" : "120.54513",
      "outDis" : "50",
      "Id" : "3895",
      "oid" : "15219",
      "districtId" : "1",
      "nameZh" : "糠榔",
      "pgp" : "0",
      "terminal" : "0",
      "latitude" : "24.26342",
      "inDis" : "50",
      "routeId" : "169區",
      "seqNo" : "11"
   },
   {
      "GoBack" : "2",
      "longitude" : "120.54158",
      "outDis" : "50",
      "Id" : "4810",
      "oid" : "15220",
      "districtId" : "1",
      "nameZh" : "竹圍(港埠路)",
      "pgp" : "0",
      "terminal" : "0",
      "latitude" : "24.2618",
      "inDis" : "50",
      "routeId" : "169區",
      "seqNo" : "12"
   },
   {
      "GoBack" : "2",
      "longitude" : "120.53741",
      "outDis" : "50",
      "Id" : "5064",
      "oid" : "15221",
      "districtId" : "1",
      "nameZh" : "臺中港郵局",
      "pgp" : "0",
      "terminal" : "0",
      "latitude" : "24.26193",
      "inDis" : "50",
      "routeId" : "169區",
      "seqNo" : "13"
   },
   {
      "GoBack" : "2",
      "longitude" : "120.53662",
      "outDis" : "50",
      "Id" : "5065",
      "oid" : "15222",
      "districtId" : "1",
      "nameZh" : "臺銀中港分行",
      "pgp" : "0",
      "terminal" : "0",
      "latitude" : "24.25995",
      "inDis" : "50",
      "routeId" : "169區",
      "seqNo" : "14"
   },
   {
      "GoBack" : "2",
      "longitude" : "120.53495",
      "outDis" : "50",
      "Id" : "4840",
      "oid" : "15223",
      "districtId" : "1",
      "nameZh" : "國都飯店",
      "pgp" : "0",
      "terminal" : "0",
      "latitude" : "24.25932",
      "inDis" : "50",
      "routeId" : "169區",
      "seqNo" : "15"
   },
   {
      "GoBack" : "2",
      "longitude" : "120.53231",
      "outDis" : "50",
      "Id" : "4668",
      "oid" : "15506",
      "districtId" : "1",
      "nameZh" : "頂寮里",
      "pgp" : "0",
      "terminal" : "0",
      "latitude" : "24.2604",
      "inDis" : "50",
      "routeId" : "169區",
      "seqNo" : "16"
   },
   {
      "GoBack" : "2",
      "longitude" : "120.53035",
      "outDis" : "50",
      "Id" : "4783",
      "oid" : "15224",
      "districtId" : "1",
      "nameZh" : "下寮里(富美宮)",
      "pgp" : "0",
      "terminal" : "0",
      "latitude" : "24.26079",
      "inDis" : "50",
      "routeId" : "169區",
      "seqNo" : "17"
   },
   {
      "GoBack" : "2",
      "longitude" : "120.53002",
      "outDis" : "50",
      "Id" : "1208",
      "oid" : "15225",
      "districtId" : "1",
      "nameZh" : "下寮社區",
      "pgp" : "0",
      "terminal" : "0",
      "latitude" : "24.25874",
      "inDis" : "50",
      "routeId" : "169區",
      "seqNo" : "18"
   },
   {
      "GoBack" : "2",
      "longitude" : "120.52956",
      "outDis" : "50",
      "Id" : "4841",
      "oid" : "15226",
      "districtId" : "1",
      "nameZh" : "梧棲(朝元宮)",
      "pgp" : "0",
      "terminal" : "0",
      "latitude" : "24.25664",
      "inDis" : "50",
      "routeId" : "169區",
      "seqNo" : "19"
   },
   {
      "GoBack" : "2",
      "longitude" : "120.5286",
      "outDis" : "50",
      "Id" : "2107",
      "oid" : "15480",
      "districtId" : "1",
      "nameZh" : "安仁里",
      "pgp" : "0",
      "terminal" : "0",
      "latitude" : "24.25366",
      "inDis" : "50",
      "routeId" : "169區",
      "seqNo" : "20"
   },
   {
      "GoBack" : "2",
      "longitude" : "120.53032",
      "outDis" : "50",
      "Id" : "2999",
      "oid" : "17442",
      "districtId" : "1",
      "nameZh" : "梧棲國小",
      "pgp" : "0",
      "terminal" : "0",
      "latitude" : "24.25212",
      "inDis" : "50",
      "routeId" : "169區",
      "seqNo" : "21"
   },
   {
      "GoBack" : "2",
      "longitude" : "120.53444",
      "outDis" : "50",
      "Id" : "3250",
      "oid" : "17443",
      "districtId" : "1",
      "nameZh" : "臺灣大道港埠路口",
      "pgp" : "0",
      "terminal" : "0",
      "latitude" : "24.25083",
      "inDis" : "50",
      "routeId" : "169區",
      "seqNo" : "22"
   },
   {
      "GoBack" : "2",
      "longitude" : "120.5389",
      "outDis" : "50",
      "Id" : "1334",
      "oid" : "7662",
      "districtId" : "1",
      "nameZh" : "大庄",
      "pgp" : "0",
      "terminal" : "0",
      "latitude" : "24.24882",
      "inDis" : "50",
      "routeId" : "169區",
      "seqNo" : "23"
   },
   {
      "GoBack" : "2",
      "longitude" : "120.54117",
      "outDis" : "50",
      "Id" : "4824",
      "oid" : "15614",
      "districtId" : "1",
      "nameZh" : "邱厝庄",
      "pgp" : "0",
      "terminal" : "0",
      "latitude" : "24.24818",
      "inDis" : "50",
      "routeId" : "169區",
      "seqNo" : "24"
   },
   {
      "GoBack" : "2",
      "longitude" : "120.54319",
      "outDis" : "50",
      "Id" : "4041",
      "oid" : "17393",
      "districtId" : "1",
      "nameZh" : "童綜合醫院(梧棲院區)",
      "pgp" : "0",
      "terminal" : "0",
      "latitude" : "24.24757",
      "inDis" : "50",
      "routeId" : "169區",
      "seqNo" : "25"
   },
   {
      "GoBack" : "2",
      "longitude" : "120.54471",
      "outDis" : "50",
      "Id" : "4007",
      "oid" : "7638",
      "districtId" : "1",
      "nameZh" : "體育館前",
      "pgp" : "0",
      "terminal" : "0",
      "latitude" : "24.24672",
      "inDis" : "50",
      "routeId" : "169區",
      "seqNo" : "26"
   },
   {
      "GoBack" : "2",
      "longitude" : "120.54653",
      "outDis" : "50",
      "Id" : "4822",
      "oid" : "14530",
      "districtId" : "1",
      "nameZh" : "東大庄",
      "pgp" : "0",
      "terminal" : "0",
      "latitude" : "24.24643",
      "inDis" : "50",
      "routeId" : "169區",
      "seqNo" : "27"
   },
   {
      "GoBack" : "2",
      "longitude" : "120.54911",
      "outDis" : "50",
      "Id" : "1088",
      "oid" : "15234",
      "districtId" : "1",
      "nameZh" : "三條圳",
      "pgp" : "0",
      "terminal" : "0",
      "latitude" : "24.24548",
      "inDis" : "50",
      "routeId" : "169區",
      "seqNo" : "28"
   },
   {
      "GoBack" : "2",
      "longitude" : "120.55659",
      "outDis" : "50",
      "Id" : "1482",
      "oid" : "15235",
      "districtId" : "1",
      "nameZh" : "中港國小",
      "pgp" : "0",
      "terminal" : "0",
      "latitude" : "24.24273",
      "inDis" : "50",
      "routeId" : "169區",
      "seqNo" : "29"
   },
   {
      "GoBack" : "2",
      "longitude" : "120.56",
      "outDis" : "50",
      "Id" : "5135",
      "oid" : "14046",
      "districtId" : "1",
      "nameZh" : "第一銀行(沙鹿分行)",
      "pgp" : "0",
      "terminal" : "0",
      "latitude" : "24.23932",
      "inDis" : "50",
      "routeId" : "169區",
      "seqNo" : "30"
   },
   {
      "GoBack" : "2",
      "longitude" : "120.56103",
      "outDis" : "50",
      "Id" : "2248",
      "oid" : "7094",
      "districtId" : "1",
      "nameZh" : "沙鹿站",
      "pgp" : "0",
      "terminal" : "0",
      "latitude" : "24.23783",
      "inDis" : "50",
      "routeId" : "169區",
      "seqNo" : "31"
   },
   {
      "GoBack" : "2",
      "longitude" : "120.56236",
      "outDis" : "50",
      "Id" : "2682",
      "oid" : "312574878",
      "districtId" : "1",
      "nameZh" : "洛泉里",
      "pgp" : "0",
      "terminal" : "0",
      "latitude" : "24.23768",
      "inDis" : "50",
      "routeId" : "169區",
      "seqNo" : "32"
   },
   {
      "GoBack" : "2",
      "longitude" : "120.5642",
      "outDis" : "50",
      "Id" : "4390",
      "oid" : "2278",
      "districtId" : "1",
      "nameZh" : "沙鹿高工(中山路)",
      "pgp" : "0",
      "terminal" : "0",
      "latitude" : "24.23747",
      "inDis" : "50",
      "routeId" : "169區",
      "seqNo" : "33"
   },
   {
      "GoBack" : "2",
      "longitude" : "120.56704",
      "outDis" : "50",
      "Id" : "5222",
      "oid" : "318961613",
      "districtId" : "1",
      "nameZh" : "中山鎮政路口",
      "pgp" : "0",
      "terminal" : "0",
      "latitude" : "24.23707",
      "inDis" : "50",
      "routeId" : "169區",
      "seqNo" : "34"
   },
   {
      "GoBack" : "2",
      "longitude" : "120.56918",
      "outDis" : "50",
      "Id" : "5221",
      "oid" : "310787748",
      "districtId" : "1",
      "nameZh" : "中山臺灣大道口",
      "pgp" : "0",
      "terminal" : "0",
      "latitude" : "24.2371",
      "inDis" : "50",
      "routeId" : "169區",
      "seqNo" : "35"
   },
   {
      "GoBack" : "2",
      "longitude" : "120.57242",
      "outDis" : "50",
      "Id" : "4392",
      "oid" : "2275",
      "districtId" : "1",
      "nameZh" : "紅竹巷",
      "pgp" : "0",
      "terminal" : "0",
      "latitude" : "24.23312",
      "inDis" : "50",
      "routeId" : "169區",
      "seqNo" : "36"
   },
   {
      "GoBack" : "2",
      "longitude" : "120.57331",
      "outDis" : "50",
      "Id" : "4086",
      "oid" : "2203",
      "districtId" : "1",
      "nameZh" : "臺灣大道北勢路口",
      "pgp" : "0",
      "terminal" : "0",
      "latitude" : "24.23102",
      "inDis" : "50",
      "routeId" : "169區",
      "seqNo" : "37"
   },
   {
      "GoBack" : "2",
      "longitude" : "120.57673",
      "outDis" : "50",
      "Id" : "4147",
      "oid" : "2273",
      "districtId" : "1",
      "nameZh" : "靜宜大學",
      "pgp" : "0",
      "terminal" : "0",
      "latitude" : "24.22623",
      "inDis" : "50",
      "routeId" : "169區",
      "seqNo" : "38"
   },
   {
      "GoBack" : "2",
      "longitude" : "120.57859",
      "outDis" : "50",
      "Id" : "4062",
      "oid" : "2272",
      "districtId" : "1",
      "nameZh" : "下晉江",
      "pgp" : "0",
      "terminal" : "0",
      "latitude" : "24.22326",
      "inDis" : "50",
      "routeId" : "169區",
      "seqNo" : "39"
   },
   {
      "GoBack" : "2",
      "longitude" : "120.5794",
      "outDis" : "50",
      "Id" : "4111",
      "oid" : "17529",
      "districtId" : "1",
      "nameZh" : "晉江里",
      "pgp" : "0",
      "terminal" : "0",
      "latitude" : "24.2219",
      "inDis" : "50",
      "routeId" : "169區",
      "seqNo" : "40"
   },
   {
      "GoBack" : "2",
      "longitude" : "120.58048",
      "outDis" : "50",
      "Id" : "4386",
      "oid" : "13476",
      "districtId" : "1",
      "nameZh" : "弘光科技大學",
      "pgp" : "0",
      "terminal" : "0",
      "latitude" : "24.21757",
      "inDis" : "50",
      "routeId" : "169區",
      "seqNo" : "41"
   },
   {
      "GoBack" : "2",
      "longitude" : "120.58114",
      "outDis" : "50",
      "Id" : "4124",
      "oid" : "2269",
      "districtId" : "1",
      "nameZh" : "頂六路",
      "pgp" : "0",
      "terminal" : "0",
      "latitude" : "24.21332",
      "inDis" : "50",
      "routeId" : "169區",
      "seqNo" : "42"
   },
   {
      "GoBack" : "2",
      "longitude" : "120.5815",
      "outDis" : "50",
      "Id" : "4136",
      "oid" : "14266",
      "districtId" : "1",
      "nameZh" : "祿清宮",
      "pgp" : "0",
      "terminal" : "0",
      "latitude" : "24.2102",
      "inDis" : "50",
      "routeId" : "169區",
      "seqNo" : "43"
   }
]
