[
   {
      "GoBack" : "1",
      "longitude" : "120.64792",
      "outDis" : "50",
      "Id" : "1346",
      "oid" : "5264",
      "districtId" : "1",
      "nameZh" : "大雅",
      "pgp" : "0",
      "terminal" : "0",
      "latitude" : "24.22361",
      "inDis" : "50",
      "routeId" : "128",
      "seqNo" : "1"
   },
   {
      "GoBack" : "1",
      "longitude" : "120.64674",
      "outDis" : "50",
      "Id" : "1620",
      "oid" : "5426",
      "districtId" : "1",
      "nameZh" : "大雅分駐所",
      "pgp" : "0",
      "terminal" : "0",
      "latitude" : "24.22498",
      "inDis" : "50",
      "routeId" : "128",
      "seqNo" : "2"
   },
   {
      "GoBack" : "1",
      "longitude" : "120.64457",
      "outDis" : "50",
      "Id" : "5423",
      "oid" : "313288973",
      "districtId" : "1",
      "nameZh" : "大雅澄清醫院",
      "pgp" : "0",
      "terminal" : "0",
      "latitude" : "24.22699",
      "inDis" : "50",
      "routeId" : "128",
      "seqNo" : "3"
   },
   {
      "GoBack" : "1",
      "longitude" : "120.64284",
      "outDis" : "50",
      "Id" : "4651",
      "oid" : "7222",
      "districtId" : "1",
      "nameZh" : "大明國小(中清路)",
      "pgp" : "0",
      "terminal" : "0",
      "latitude" : "24.22844",
      "inDis" : "50",
      "routeId" : "128",
      "seqNo" : "4"
   },
   {
      "GoBack" : "1",
      "longitude" : "120.64123",
      "outDis" : "50",
      "Id" : "2253",
      "oid" : "5796",
      "districtId" : "1",
      "nameZh" : "秀山里",
      "pgp" : "0",
      "terminal" : "0",
      "latitude" : "24.23041",
      "inDis" : "50",
      "routeId" : "128",
      "seqNo" : "5"
   },
   {
      "GoBack" : "1",
      "longitude" : "120.63847",
      "outDis" : "50",
      "Id" : "2798",
      "oid" : "6114",
      "districtId" : "1",
      "nameZh" : "泰聯公司",
      "pgp" : "0",
      "terminal" : "0",
      "latitude" : "24.2331",
      "inDis" : "50",
      "routeId" : "128",
      "seqNo" : "6"
   },
   {
      "GoBack" : "1",
      "longitude" : "120.63451",
      "outDis" : "50",
      "Id" : "1593",
      "oid" : "5410",
      "districtId" : "1",
      "nameZh" : "六寶里",
      "pgp" : "0",
      "terminal" : "0",
      "latitude" : "24.23695",
      "inDis" : "50",
      "routeId" : "128",
      "seqNo" : "7"
   },
   {
      "GoBack" : "1",
      "longitude" : "120.63235",
      "outDis" : "50",
      "Id" : "2289",
      "oid" : "5817",
      "districtId" : "1",
      "nameZh" : "亞東公司",
      "pgp" : "0",
      "terminal" : "0",
      "latitude" : "24.23908",
      "inDis" : "50",
      "routeId" : "128",
      "seqNo" : "8"
   },
   {
      "GoBack" : "1",
      "longitude" : "120.63117",
      "outDis" : "50",
      "Id" : "1591",
      "oid" : "5407",
      "districtId" : "1",
      "nameZh" : "六張犁",
      "pgp" : "0",
      "terminal" : "0",
      "latitude" : "24.24023",
      "inDis" : "50",
      "routeId" : "128",
      "seqNo" : "9"
   },
   {
      "GoBack" : "1",
      "longitude" : "120.62673",
      "outDis" : "50",
      "Id" : "3663",
      "oid" : "00F44A45672A4A16994A287A6E61763B",
      "districtId" : "1",
      "nameZh" : "福樂新城",
      "pgp" : "0",
      "terminal" : "0",
      "latitude" : "24.24248",
      "inDis" : "50",
      "routeId" : "128",
      "seqNo" : "10"
   },
   {
      "GoBack" : "1",
      "longitude" : "120.61986",
      "outDis" : "50",
      "Id" : "4669",
      "oid" : "310614298",
      "districtId" : "1",
      "nameZh" : "中清信義路口",
      "pgp" : "0",
      "terminal" : "0",
      "latitude" : "24.24257",
      "inDis" : "50",
      "routeId" : "128",
      "seqNo" : "11"
   },
   {
      "GoBack" : "1",
      "longitude" : "120.61776",
      "outDis" : "50",
      "Id" : "4960",
      "oid" : "310614299",
      "districtId" : "1",
      "nameZh" : "中清清泉路口",
      "pgp" : "0",
      "terminal" : "0",
      "latitude" : "24.24336",
      "inDis" : "50",
      "routeId" : "128",
      "seqNo" : "12"
   },
   {
      "GoBack" : "1",
      "longitude" : "120.6147",
      "outDis" : "50",
      "Id" : "3023",
      "oid" : "6231",
      "districtId" : "1",
      "nameZh" : "清泉里",
      "pgp" : "0",
      "terminal" : "0",
      "latitude" : "24.24428",
      "inDis" : "50",
      "routeId" : "128",
      "seqNo" : "13"
   },
   {
      "GoBack" : "1",
      "longitude" : "120.61048",
      "outDis" : "50",
      "Id" : "0169",
      "oid" : "318241812",
      "districtId" : "1",
      "nameZh" : "清泉派出所",
      "pgp" : "0",
      "terminal" : "0",
      "latitude" : "24.24561",
      "inDis" : "50",
      "routeId" : "128",
      "seqNo" : "14"
   },
   {
      "GoBack" : "1",
      "longitude" : "120.6077",
      "outDis" : "50",
      "Id" : "1604",
      "oid" : "5417",
      "districtId" : "1",
      "nameZh" : "公明里",
      "pgp" : "0",
      "terminal" : "0",
      "latitude" : "24.24684",
      "inDis" : "50",
      "routeId" : "128",
      "seqNo" : "15"
   },
   {
      "GoBack" : "1",
      "longitude" : "120.60486",
      "outDis" : "50",
      "Id" : "3738",
      "oid" : "310614300",
      "districtId" : "1",
      "nameZh" : "樂群二村",
      "pgp" : "0",
      "terminal" : "0",
      "latitude" : "24.24773",
      "inDis" : "50",
      "routeId" : "128",
      "seqNo" : "16"
   },
   {
      "GoBack" : "1",
      "longitude" : "120.60177",
      "outDis" : "50",
      "Id" : "1556",
      "oid" : "5384",
      "districtId" : "1",
      "nameZh" : "中清仁愛巷口",
      "pgp" : "0",
      "terminal" : "0",
      "latitude" : "24.24949",
      "inDis" : "50",
      "routeId" : "128",
      "seqNo" : "17"
   },
   {
      "GoBack" : "1",
      "longitude" : "120.59881",
      "outDis" : "50",
      "Id" : "4713",
      "oid" : "310614301",
      "districtId" : "1",
      "nameZh" : "公明國中",
      "pgp" : "0",
      "terminal" : "0",
      "latitude" : "24.2501",
      "inDis" : "50",
      "routeId" : "128",
      "seqNo" : "18"
   },
   {
      "GoBack" : "1",
      "longitude" : "120.5984",
      "outDis" : "50",
      "Id" : "4982",
      "oid" : "306167896",
      "districtId" : "1",
      "nameZh" : "漢翔複材中心",
      "pgp" : "0",
      "terminal" : "0",
      "latitude" : "24.25234",
      "inDis" : "50",
      "routeId" : "128",
      "seqNo" : "19"
   },
   {
      "GoBack" : "1",
      "longitude" : "120.59899",
      "outDis" : "50",
      "Id" : "0135",
      "oid" : "312174380",
      "districtId" : "1",
      "nameZh" : "臺中航空站",
      "pgp" : "0",
      "terminal" : "0",
      "latitude" : "24.25348",
      "inDis" : "50",
      "routeId" : "128",
      "seqNo" : "20"
   },
   {
      "GoBack" : "1",
      "longitude" : "120.59626",
      "outDis" : "50",
      "Id" : "2202",
      "oid" : "5767",
      "districtId" : "1",
      "nameZh" : "西勢寮",
      "pgp" : "0",
      "terminal" : "0",
      "latitude" : "24.25027",
      "inDis" : "50",
      "routeId" : "128",
      "seqNo" : "22"
   },
   {
      "GoBack" : "1",
      "longitude" : "120.57118",
      "outDis" : "100",
      "Id" : "3035",
      "oid" : "6238",
      "districtId" : "1",
      "nameZh" : "犁份",
      "pgp" : "0",
      "terminal" : "0",
      "latitude" : "24.24204",
      "inDis" : "50",
      "routeId" : "128",
      "seqNo" : "25"
   },
   {
      "GoBack" : "1",
      "longitude" : "120.56791",
      "outDis" : "50",
      "Id" : "2147",
      "oid" : "5740",
      "districtId" : "1",
      "nameZh" : "竹林國小",
      "pgp" : "0",
      "terminal" : "0",
      "latitude" : "24.2382",
      "inDis" : "50",
      "routeId" : "128",
      "seqNo" : "26"
   },
   {
      "GoBack" : "1",
      "longitude" : "120.56519",
      "outDis" : "50",
      "Id" : "0005",
      "oid" : "310614303",
      "districtId" : "1",
      "nameZh" : "沙鹿高工(臺灣大道)",
      "pgp" : "0",
      "terminal" : "0",
      "latitude" : "24.23917",
      "inDis" : "50",
      "routeId" : "128",
      "seqNo" : "27"
   },
   {
      "GoBack" : "1",
      "longitude" : "120.56247",
      "outDis" : "50",
      "Id" : "2335",
      "oid" : "310656068",
      "districtId" : "1",
      "nameZh" : "居仁里",
      "pgp" : "0",
      "terminal" : "0",
      "latitude" : "24.24026",
      "inDis" : "50",
      "routeId" : "128",
      "seqNo" : "28"
   },
   {
      "GoBack" : "1",
      "longitude" : "120.5612",
      "outDis" : "50",
      "Id" : "5388",
      "oid" : "312690453",
      "districtId" : "1",
      "nameZh" : "臺灣大道中山路口",
      "pgp" : "0",
      "terminal" : "0",
      "latitude" : "24.24064",
      "inDis" : "50",
      "routeId" : "128",
      "seqNo" : "29"
   },
   {
      "GoBack" : "1",
      "longitude" : "120.55633",
      "outDis" : "50",
      "Id" : "1482",
      "oid" : "5340",
      "districtId" : "1",
      "nameZh" : "中港國小",
      "pgp" : "0",
      "terminal" : "0",
      "latitude" : "24.24274",
      "inDis" : "50",
      "routeId" : "128",
      "seqNo" : "30"
   },
   {
      "GoBack" : "1",
      "longitude" : "120.54909",
      "outDis" : "50",
      "Id" : "1088",
      "oid" : "5084",
      "districtId" : "1",
      "nameZh" : "三條圳",
      "pgp" : "0",
      "terminal" : "0",
      "latitude" : "24.24552",
      "inDis" : "50",
      "routeId" : "128",
      "seqNo" : "31"
   },
   {
      "GoBack" : "1",
      "longitude" : "120.54653",
      "outDis" : "50",
      "Id" : "4822",
      "oid" : "5876",
      "districtId" : "1",
      "nameZh" : "東大庄",
      "pgp" : "0",
      "terminal" : "0",
      "latitude" : "24.24643",
      "inDis" : "50",
      "routeId" : "128",
      "seqNo" : "32"
   },
   {
      "GoBack" : "1",
      "longitude" : "120.54466",
      "outDis" : "50",
      "Id" : "4007",
      "oid" : "6739",
      "districtId" : "1",
      "nameZh" : "體育館前",
      "pgp" : "0",
      "terminal" : "0",
      "latitude" : "24.24714",
      "inDis" : "50",
      "routeId" : "128",
      "seqNo" : "33"
   },
   {
      "GoBack" : "1",
      "longitude" : "120.54319",
      "outDis" : "50",
      "Id" : "4041",
      "oid" : "17393",
      "districtId" : "1",
      "nameZh" : "童綜合醫院(梧棲院區)",
      "pgp" : "0",
      "terminal" : "0",
      "latitude" : "24.24757",
      "inDis" : "50",
      "routeId" : "128",
      "seqNo" : "34"
   },
   {
      "GoBack" : "1",
      "longitude" : "120.54117",
      "outDis" : "50",
      "Id" : "4824",
      "oid" : "17394",
      "districtId" : "1",
      "nameZh" : "邱厝庄",
      "pgp" : "0",
      "terminal" : "0",
      "latitude" : "24.24818",
      "inDis" : "50",
      "routeId" : "128",
      "seqNo" : "35"
   },
   {
      "GoBack" : "1",
      "longitude" : "120.53924",
      "outDis" : "50",
      "Id" : "1334",
      "oid" : "5252",
      "districtId" : "1",
      "nameZh" : "大庄",
      "pgp" : "0",
      "terminal" : "0",
      "latitude" : "24.24914",
      "inDis" : "50",
      "routeId" : "128",
      "seqNo" : "36"
   },
   {
      "GoBack" : "1",
      "longitude" : "120.53423",
      "outDis" : "50",
      "Id" : "3250",
      "oid" : "6350",
      "districtId" : "1",
      "nameZh" : "臺灣大道港埠路口",
      "pgp" : "0",
      "terminal" : "0",
      "latitude" : "24.25087",
      "inDis" : "50",
      "routeId" : "128",
      "seqNo" : "37"
   },
   {
      "GoBack" : "1",
      "longitude" : "120.53036",
      "outDis" : "50",
      "Id" : "2999",
      "oid" : "6211",
      "districtId" : "1",
      "nameZh" : "梧棲國小",
      "pgp" : "0",
      "terminal" : "0",
      "latitude" : "24.25234",
      "inDis" : "50",
      "routeId" : "128",
      "seqNo" : "38"
   },
   {
      "GoBack" : "1",
      "longitude" : "120.52859",
      "outDis" : "50",
      "Id" : "2107",
      "oid" : "5717",
      "districtId" : "1",
      "nameZh" : "安仁里",
      "pgp" : "0",
      "terminal" : "0",
      "latitude" : "24.25374",
      "inDis" : "50",
      "routeId" : "128",
      "seqNo" : "39"
   },
   {
      "GoBack" : "1",
      "longitude" : "120.5291",
      "outDis" : "50",
      "Id" : "2997",
      "oid" : "6207",
      "districtId" : "1",
      "nameZh" : "梧棲(梧棲路)",
      "pgp" : "0",
      "terminal" : "0",
      "latitude" : "24.25525",
      "inDis" : "50",
      "routeId" : "128",
      "seqNo" : "40"
   },
   {
      "GoBack" : "1",
      "longitude" : "120.52986",
      "outDis" : "50",
      "Id" : "5057",
      "oid" : "310614304",
      "districtId" : "1",
      "nameZh" : "梧棲郵局",
      "pgp" : "0",
      "terminal" : "0",
      "latitude" : "24.25757",
      "inDis" : "50",
      "routeId" : "128",
      "seqNo" : "41"
   },
   {
      "GoBack" : "1",
      "longitude" : "120.53011",
      "outDis" : "50",
      "Id" : "1208",
      "oid" : "5159",
      "districtId" : "1",
      "nameZh" : "下寮社區",
      "pgp" : "0",
      "terminal" : "0",
      "latitude" : "24.25861",
      "inDis" : "50",
      "routeId" : "128",
      "seqNo" : "42"
   },
   {
      "GoBack" : "1",
      "longitude" : "120.53033",
      "outDis" : "50",
      "Id" : "4979",
      "oid" : "310614305",
      "districtId" : "1",
      "nameZh" : "下寮里",
      "pgp" : "0",
      "terminal" : "0",
      "latitude" : "24.26076",
      "inDis" : "50",
      "routeId" : "128",
      "seqNo" : "43"
   },
   {
      "GoBack" : "1",
      "longitude" : "120.53234",
      "outDis" : "50",
      "Id" : "4668",
      "oid" : "310614306",
      "districtId" : "1",
      "nameZh" : "頂寮里",
      "pgp" : "0",
      "terminal" : "0",
      "latitude" : "24.26039",
      "inDis" : "50",
      "routeId" : "128",
      "seqNo" : "44"
   },
   {
      "GoBack" : "1",
      "longitude" : "120.53485",
      "outDis" : "50",
      "Id" : "4840",
      "oid" : "310614307",
      "districtId" : "1",
      "nameZh" : "國都飯店",
      "pgp" : "0",
      "terminal" : "0",
      "latitude" : "24.25942",
      "inDis" : "50",
      "routeId" : "128",
      "seqNo" : "45"
   },
   {
      "GoBack" : "1",
      "longitude" : "120.53645",
      "outDis" : "50",
      "Id" : "4963",
      "oid" : "310614308",
      "districtId" : "1",
      "nameZh" : "臺銀中港分行",
      "pgp" : "0",
      "terminal" : "0",
      "latitude" : "24.25992",
      "inDis" : "50",
      "routeId" : "128",
      "seqNo" : "46"
   },
   {
      "GoBack" : "1",
      "longitude" : "120.53741",
      "outDis" : "50",
      "Id" : "5064",
      "oid" : "17406",
      "districtId" : "1",
      "nameZh" : "臺中港郵局",
      "pgp" : "0",
      "terminal" : "0",
      "latitude" : "24.26193",
      "inDis" : "50",
      "routeId" : "128",
      "seqNo" : "47"
   },
   {
      "GoBack" : "1",
      "longitude" : "120.54158",
      "outDis" : "50",
      "Id" : "4810",
      "oid" : "312205533",
      "districtId" : "1",
      "nameZh" : "竹圍(港埠路)",
      "pgp" : "0",
      "terminal" : "0",
      "latitude" : "24.2618",
      "inDis" : "50",
      "routeId" : "128",
      "seqNo" : "48"
   },
   {
      "GoBack" : "1",
      "longitude" : "120.54568",
      "outDis" : "50",
      "Id" : "3895",
      "oid" : "7608",
      "districtId" : "1",
      "nameZh" : "糠榔",
      "pgp" : "0",
      "terminal" : "0",
      "latitude" : "24.26362",
      "inDis" : "50",
      "routeId" : "128",
      "seqNo" : "49"
   },
   {
      "GoBack" : "1",
      "longitude" : "120.54898",
      "outDis" : "50",
      "Id" : "2444",
      "oid" : "7131",
      "districtId" : "1",
      "nameZh" : "東糠榔",
      "pgp" : "0",
      "terminal" : "0",
      "latitude" : "24.26447",
      "inDis" : "50",
      "routeId" : "128",
      "seqNo" : "50"
   },
   {
      "GoBack" : "1",
      "longitude" : "120.55143",
      "outDis" : "50",
      "Id" : "2177",
      "oid" : "5755",
      "districtId" : "1",
      "nameZh" : "西牛埔",
      "pgp" : "0",
      "terminal" : "0",
      "latitude" : "24.26504",
      "inDis" : "50",
      "routeId" : "128",
      "seqNo" : "51"
   },
   {
      "GoBack" : "1",
      "longitude" : "120.55556",
      "outDis" : "50",
      "Id" : "1732",
      "oid" : "5497",
      "districtId" : "1",
      "nameZh" : "牛埔",
      "pgp" : "0",
      "terminal" : "0",
      "latitude" : "24.26603",
      "inDis" : "50",
      "routeId" : "128",
      "seqNo" : "52"
   },
   {
      "GoBack" : "1",
      "longitude" : "120.56062",
      "outDis" : "50",
      "Id" : "2588",
      "oid" : "5993",
      "districtId" : "1",
      "nameZh" : "南社里",
      "pgp" : "0",
      "terminal" : "0",
      "latitude" : "24.2672",
      "inDis" : "50",
      "routeId" : "128",
      "seqNo" : "53"
   },
   {
      "GoBack" : "1",
      "longitude" : "120.56302",
      "outDis" : "50",
      "Id" : "3017",
      "oid" : "6225",
      "districtId" : "1",
      "nameZh" : "清水國中",
      "pgp" : "0",
      "terminal" : "0",
      "latitude" : "24.26782",
      "inDis" : "50",
      "routeId" : "128",
      "seqNo" : "54"
   },
   {
      "GoBack" : "1",
      "longitude" : "120.56503",
      "outDis" : "50",
      "Id" : "3700",
      "oid" : "7574",
      "districtId" : "1",
      "nameZh" : "銀聯二村",
      "pgp" : "0",
      "terminal" : "0",
      "latitude" : "24.26848",
      "inDis" : "50",
      "routeId" : "128",
      "seqNo" : "55"
   },
   {
      "GoBack" : "1",
      "longitude" : "120.56832",
      "outDis" : "50",
      "Id" : "2486",
      "oid" : "5940",
      "districtId" : "1",
      "nameZh" : "社口",
      "pgp" : "0",
      "terminal" : "0",
      "latitude" : "24.26845",
      "inDis" : "50",
      "routeId" : "128",
      "seqNo" : "56"
   },
   {
      "GoBack" : "1",
      "longitude" : "120.57004",
      "outDis" : "50",
      "Id" : "5655",
      "oid" : "317714376",
      "districtId" : "1",
      "nameZh" : "鰲峰西社路口",
      "pgp" : "0",
      "terminal" : "0",
      "latitude" : "24.26923",
      "inDis" : "50",
      "routeId" : "128",
      "seqNo" : "57"
   },
   {
      "GoBack" : "1",
      "longitude" : "120.57503",
      "outDis" : "50",
      "Id" : "1615",
      "oid" : "5423",
      "districtId" : "1",
      "nameZh" : "分局前",
      "pgp" : "0",
      "terminal" : "0",
      "latitude" : "24.26922",
      "inDis" : "50",
      "routeId" : "128",
      "seqNo" : "58"
   },
   {
      "GoBack" : "1",
      "longitude" : "120.57583",
      "outDis" : "50",
      "Id" : "3013",
      "oid" : "6222",
      "districtId" : "1",
      "nameZh" : "清水",
      "pgp" : "0",
      "terminal" : "0",
      "latitude" : "24.27009",
      "inDis" : "50",
      "routeId" : "128",
      "seqNo" : "59"
   },
   {
      "GoBack" : "2",
      "longitude" : "120.57583",
      "outDis" : "50",
      "Id" : "3013",
      "oid" : "6222",
      "districtId" : "1",
      "nameZh" : "清水",
      "pgp" : "0",
      "terminal" : "0",
      "latitude" : "24.27009",
      "inDis" : "50",
      "routeId" : "128",
      "seqNo" : "1"
   },
   {
      "GoBack" : "2",
      "longitude" : "120.57503",
      "outDis" : "50",
      "Id" : "1615",
      "oid" : "5423",
      "districtId" : "1",
      "nameZh" : "分局前",
      "pgp" : "0",
      "terminal" : "0",
      "latitude" : "24.26922",
      "inDis" : "50",
      "routeId" : "128",
      "seqNo" : "2"
   },
   {
      "GoBack" : "2",
      "longitude" : "120.57004",
      "outDis" : "50",
      "Id" : "5655",
      "oid" : "317714376",
      "districtId" : "1",
      "nameZh" : "鰲峰西社路口",
      "pgp" : "0",
      "terminal" : "0",
      "latitude" : "24.26923",
      "inDis" : "50",
      "routeId" : "128",
      "seqNo" : "3"
   },
   {
      "GoBack" : "2",
      "longitude" : "120.56832",
      "outDis" : "50",
      "Id" : "2486",
      "oid" : "5940",
      "districtId" : "1",
      "nameZh" : "社口",
      "pgp" : "0",
      "terminal" : "0",
      "latitude" : "24.26845",
      "inDis" : "50",
      "routeId" : "128",
      "seqNo" : "4"
   },
   {
      "GoBack" : "2",
      "longitude" : "120.56503",
      "outDis" : "50",
      "Id" : "3700",
      "oid" : "7574",
      "districtId" : "1",
      "nameZh" : "銀聯二村",
      "pgp" : "0",
      "terminal" : "0",
      "latitude" : "24.26848",
      "inDis" : "50",
      "routeId" : "128",
      "seqNo" : "5"
   },
   {
      "GoBack" : "2",
      "longitude" : "120.56302",
      "outDis" : "50",
      "Id" : "3017",
      "oid" : "6225",
      "districtId" : "1",
      "nameZh" : "清水國中",
      "pgp" : "0",
      "terminal" : "0",
      "latitude" : "24.26782",
      "inDis" : "50",
      "routeId" : "128",
      "seqNo" : "6"
   },
   {
      "GoBack" : "2",
      "longitude" : "120.56062",
      "outDis" : "50",
      "Id" : "2588",
      "oid" : "5993",
      "districtId" : "1",
      "nameZh" : "南社里",
      "pgp" : "0",
      "terminal" : "0",
      "latitude" : "24.2672",
      "inDis" : "50",
      "routeId" : "128",
      "seqNo" : "7"
   },
   {
      "GoBack" : "2",
      "longitude" : "120.55556",
      "outDis" : "50",
      "Id" : "1732",
      "oid" : "5497",
      "districtId" : "1",
      "nameZh" : "牛埔",
      "pgp" : "0",
      "terminal" : "0",
      "latitude" : "24.26603",
      "inDis" : "50",
      "routeId" : "128",
      "seqNo" : "8"
   },
   {
      "GoBack" : "2",
      "longitude" : "120.55143",
      "outDis" : "50",
      "Id" : "2177",
      "oid" : "5755",
      "districtId" : "1",
      "nameZh" : "西牛埔",
      "pgp" : "0",
      "terminal" : "0",
      "latitude" : "24.26504",
      "inDis" : "50",
      "routeId" : "128",
      "seqNo" : "9"
   },
   {
      "GoBack" : "2",
      "longitude" : "120.54898",
      "outDis" : "50",
      "Id" : "2444",
      "oid" : "7131",
      "districtId" : "1",
      "nameZh" : "東糠榔",
      "pgp" : "0",
      "terminal" : "0",
      "latitude" : "24.26447",
      "inDis" : "50",
      "routeId" : "128",
      "seqNo" : "10"
   },
   {
      "GoBack" : "2",
      "longitude" : "120.54568",
      "outDis" : "50",
      "Id" : "3895",
      "oid" : "7608",
      "districtId" : "1",
      "nameZh" : "糠榔",
      "pgp" : "0",
      "terminal" : "0",
      "latitude" : "24.26362",
      "inDis" : "50",
      "routeId" : "128",
      "seqNo" : "11"
   },
   {
      "GoBack" : "2",
      "longitude" : "120.54158",
      "outDis" : "50",
      "Id" : "4810",
      "oid" : "312205533",
      "districtId" : "1",
      "nameZh" : "竹圍(港埠路)",
      "pgp" : "0",
      "terminal" : "0",
      "latitude" : "24.2618",
      "inDis" : "50",
      "routeId" : "128",
      "seqNo" : "12"
   },
   {
      "GoBack" : "2",
      "longitude" : "120.53741",
      "outDis" : "50",
      "Id" : "5064",
      "oid" : "17433",
      "districtId" : "1",
      "nameZh" : "臺中港郵局",
      "pgp" : "0",
      "terminal" : "0",
      "latitude" : "24.26193",
      "inDis" : "50",
      "routeId" : "128",
      "seqNo" : "13"
   },
   {
      "GoBack" : "2",
      "longitude" : "120.53645",
      "outDis" : "50",
      "Id" : "4963",
      "oid" : "310614308",
      "districtId" : "1",
      "nameZh" : "臺銀中港分行",
      "pgp" : "0",
      "terminal" : "0",
      "latitude" : "24.25992",
      "inDis" : "50",
      "routeId" : "128",
      "seqNo" : "14"
   },
   {
      "GoBack" : "2",
      "longitude" : "120.53485",
      "outDis" : "50",
      "Id" : "4840",
      "oid" : "310614307",
      "districtId" : "1",
      "nameZh" : "國都飯店",
      "pgp" : "0",
      "terminal" : "0",
      "latitude" : "24.25942",
      "inDis" : "50",
      "routeId" : "128",
      "seqNo" : "15"
   },
   {
      "GoBack" : "2",
      "longitude" : "120.53234",
      "outDis" : "50",
      "Id" : "4668",
      "oid" : "310614306",
      "districtId" : "1",
      "nameZh" : "頂寮里",
      "pgp" : "0",
      "terminal" : "0",
      "latitude" : "24.26039",
      "inDis" : "50",
      "routeId" : "128",
      "seqNo" : "16"
   },
   {
      "GoBack" : "2",
      "longitude" : "120.53033",
      "outDis" : "50",
      "Id" : "4979",
      "oid" : "310614305",
      "districtId" : "1",
      "nameZh" : "下寮里",
      "pgp" : "0",
      "terminal" : "0",
      "latitude" : "24.26076",
      "inDis" : "50",
      "routeId" : "128",
      "seqNo" : "17"
   },
   {
      "GoBack" : "2",
      "longitude" : "120.53011",
      "outDis" : "50",
      "Id" : "1208",
      "oid" : "5159",
      "districtId" : "1",
      "nameZh" : "下寮社區",
      "pgp" : "0",
      "terminal" : "0",
      "latitude" : "24.25861",
      "inDis" : "50",
      "routeId" : "128",
      "seqNo" : "18"
   },
   {
      "GoBack" : "2",
      "longitude" : "120.52986",
      "outDis" : "50",
      "Id" : "5057",
      "oid" : "310614304",
      "districtId" : "1",
      "nameZh" : "梧棲郵局",
      "pgp" : "0",
      "terminal" : "0",
      "latitude" : "24.25757",
      "inDis" : "50",
      "routeId" : "128",
      "seqNo" : "19"
   },
   {
      "GoBack" : "2",
      "longitude" : "120.5291",
      "outDis" : "50",
      "Id" : "2997",
      "oid" : "6207",
      "districtId" : "1",
      "nameZh" : "梧棲(梧棲路)",
      "pgp" : "0",
      "terminal" : "0",
      "latitude" : "24.25525",
      "inDis" : "50",
      "routeId" : "128",
      "seqNo" : "20"
   },
   {
      "GoBack" : "2",
      "longitude" : "120.53036",
      "outDis" : "50",
      "Id" : "2999",
      "oid" : "6211",
      "districtId" : "1",
      "nameZh" : "梧棲國小",
      "pgp" : "0",
      "terminal" : "0",
      "latitude" : "24.25234",
      "inDis" : "50",
      "routeId" : "128",
      "seqNo" : "21"
   },
   {
      "GoBack" : "2",
      "longitude" : "120.53423",
      "outDis" : "50",
      "Id" : "3250",
      "oid" : "6350",
      "districtId" : "1",
      "nameZh" : "臺灣大道港埠路口",
      "pgp" : "0",
      "terminal" : "0",
      "latitude" : "24.25087",
      "inDis" : "50",
      "routeId" : "128",
      "seqNo" : "22"
   },
   {
      "GoBack" : "2",
      "longitude" : "120.53924",
      "outDis" : "50",
      "Id" : "1334",
      "oid" : "5252",
      "districtId" : "1",
      "nameZh" : "大庄",
      "pgp" : "0",
      "terminal" : "0",
      "latitude" : "24.24914",
      "inDis" : "50",
      "routeId" : "128",
      "seqNo" : "23"
   },
   {
      "GoBack" : "2",
      "longitude" : "120.54117",
      "outDis" : "50",
      "Id" : "4824",
      "oid" : "17394",
      "districtId" : "1",
      "nameZh" : "邱厝庄",
      "pgp" : "0",
      "terminal" : "0",
      "latitude" : "24.24818",
      "inDis" : "50",
      "routeId" : "128",
      "seqNo" : "24"
   },
   {
      "GoBack" : "2",
      "longitude" : "120.54319",
      "outDis" : "50",
      "Id" : "4041",
      "oid" : "17393",
      "districtId" : "1",
      "nameZh" : "童綜合醫院(梧棲院區)",
      "pgp" : "0",
      "terminal" : "0",
      "latitude" : "24.24757",
      "inDis" : "50",
      "routeId" : "128",
      "seqNo" : "25"
   },
   {
      "GoBack" : "2",
      "longitude" : "120.54466",
      "outDis" : "50",
      "Id" : "4007",
      "oid" : "6739",
      "districtId" : "1",
      "nameZh" : "體育館前",
      "pgp" : "0",
      "terminal" : "0",
      "latitude" : "24.24714",
      "inDis" : "50",
      "routeId" : "128",
      "seqNo" : "26"
   },
   {
      "GoBack" : "2",
      "longitude" : "120.54653",
      "outDis" : "50",
      "Id" : "4822",
      "oid" : "5876",
      "districtId" : "1",
      "nameZh" : "東大庄",
      "pgp" : "0",
      "terminal" : "0",
      "latitude" : "24.24643",
      "inDis" : "50",
      "routeId" : "128",
      "seqNo" : "27"
   },
   {
      "GoBack" : "2",
      "longitude" : "120.54909",
      "outDis" : "50",
      "Id" : "1088",
      "oid" : "5084",
      "districtId" : "1",
      "nameZh" : "三條圳",
      "pgp" : "0",
      "terminal" : "0",
      "latitude" : "24.24552",
      "inDis" : "50",
      "routeId" : "128",
      "seqNo" : "28"
   },
   {
      "GoBack" : "2",
      "longitude" : "120.55633",
      "outDis" : "50",
      "Id" : "1482",
      "oid" : "5340",
      "districtId" : "1",
      "nameZh" : "中港國小",
      "pgp" : "0",
      "terminal" : "0",
      "latitude" : "24.24274",
      "inDis" : "50",
      "routeId" : "128",
      "seqNo" : "29"
   },
   {
      "GoBack" : "2",
      "longitude" : "120.5612",
      "outDis" : "50",
      "Id" : "5388",
      "oid" : "312690453",
      "districtId" : "1",
      "nameZh" : "臺灣大道中山路口",
      "pgp" : "0",
      "terminal" : "0",
      "latitude" : "24.24064",
      "inDis" : "50",
      "routeId" : "128",
      "seqNo" : "30"
   },
   {
      "GoBack" : "2",
      "longitude" : "120.56297",
      "outDis" : "50",
      "Id" : "2335",
      "oid" : "5847",
      "districtId" : "1",
      "nameZh" : "居仁里",
      "pgp" : "0",
      "terminal" : "0",
      "latitude" : "24.24034",
      "inDis" : "50",
      "routeId" : "128",
      "seqNo" : "31"
   },
   {
      "GoBack" : "2",
      "longitude" : "120.56519",
      "outDis" : "50",
      "Id" : "0005",
      "oid" : "310614303",
      "districtId" : "1",
      "nameZh" : "沙鹿高工(臺灣大道)",
      "pgp" : "0",
      "terminal" : "0",
      "latitude" : "24.23917",
      "inDis" : "50",
      "routeId" : "128",
      "seqNo" : "32"
   },
   {
      "GoBack" : "2",
      "longitude" : "120.56791",
      "outDis" : "50",
      "Id" : "2147",
      "oid" : "5740",
      "districtId" : "1",
      "nameZh" : "竹林國小",
      "pgp" : "0",
      "terminal" : "0",
      "latitude" : "24.2382",
      "inDis" : "50",
      "routeId" : "128",
      "seqNo" : "33"
   },
   {
      "GoBack" : "2",
      "longitude" : "120.57118",
      "outDis" : "100",
      "Id" : "3035",
      "oid" : "6238",
      "districtId" : "1",
      "nameZh" : "犁份",
      "pgp" : "0",
      "terminal" : "0",
      "latitude" : "24.24204",
      "inDis" : "50",
      "routeId" : "128",
      "seqNo" : "34"
   },
   {
      "GoBack" : "2",
      "longitude" : "120.59626",
      "outDis" : "50",
      "Id" : "2202",
      "oid" : "5767",
      "districtId" : "1",
      "nameZh" : "西勢寮",
      "pgp" : "0",
      "terminal" : "0",
      "latitude" : "24.25027",
      "inDis" : "50",
      "routeId" : "128",
      "seqNo" : "37"
   },
   {
      "GoBack" : "2",
      "longitude" : "120.59899",
      "outDis" : "50",
      "Id" : "0135",
      "oid" : "312174380",
      "districtId" : "1",
      "nameZh" : "臺中航空站",
      "pgp" : "0",
      "terminal" : "0",
      "latitude" : "24.25348",
      "inDis" : "50",
      "routeId" : "128",
      "seqNo" : "40"
   },
   {
      "GoBack" : "2",
      "longitude" : "120.5984",
      "outDis" : "50",
      "Id" : "4982",
      "oid" : "306167896",
      "districtId" : "1",
      "nameZh" : "漢翔複材中心",
      "pgp" : "0",
      "terminal" : "0",
      "latitude" : "24.25234",
      "inDis" : "50",
      "routeId" : "128",
      "seqNo" : "41"
   },
   {
      "GoBack" : "2",
      "longitude" : "120.59881",
      "outDis" : "50",
      "Id" : "4713",
      "oid" : "310614301",
      "districtId" : "1",
      "nameZh" : "公明國中",
      "pgp" : "0",
      "terminal" : "0",
      "latitude" : "24.2501",
      "inDis" : "50",
      "routeId" : "128",
      "seqNo" : "42"
   },
   {
      "GoBack" : "2",
      "longitude" : "120.60177",
      "outDis" : "50",
      "Id" : "1556",
      "oid" : "5384",
      "districtId" : "1",
      "nameZh" : "中清仁愛巷口",
      "pgp" : "0",
      "terminal" : "0",
      "latitude" : "24.24949",
      "inDis" : "50",
      "routeId" : "128",
      "seqNo" : "43"
   },
   {
      "GoBack" : "2",
      "longitude" : "120.60486",
      "outDis" : "50",
      "Id" : "3738",
      "oid" : "310614300",
      "districtId" : "1",
      "nameZh" : "樂群二村",
      "pgp" : "0",
      "terminal" : "0",
      "latitude" : "24.24773",
      "inDis" : "50",
      "routeId" : "128",
      "seqNo" : "44"
   },
   {
      "GoBack" : "2",
      "longitude" : "120.6077",
      "outDis" : "50",
      "Id" : "1604",
      "oid" : "5417",
      "districtId" : "1",
      "nameZh" : "公明里",
      "pgp" : "0",
      "terminal" : "0",
      "latitude" : "24.24684",
      "inDis" : "50",
      "routeId" : "128",
      "seqNo" : "45"
   },
   {
      "GoBack" : "2",
      "longitude" : "120.61048",
      "outDis" : "50",
      "Id" : "0169",
      "oid" : "318241812",
      "districtId" : "1",
      "nameZh" : "清泉派出所",
      "pgp" : "0",
      "terminal" : "0",
      "latitude" : "24.24561",
      "inDis" : "50",
      "routeId" : "128",
      "seqNo" : "46"
   },
   {
      "GoBack" : "2",
      "longitude" : "120.6147",
      "outDis" : "50",
      "Id" : "3023",
      "oid" : "6231",
      "districtId" : "1",
      "nameZh" : "清泉里",
      "pgp" : "0",
      "terminal" : "0",
      "latitude" : "24.24428",
      "inDis" : "50",
      "routeId" : "128",
      "seqNo" : "47"
   },
   {
      "GoBack" : "2",
      "longitude" : "120.61776",
      "outDis" : "50",
      "Id" : "4960",
      "oid" : "310614299",
      "districtId" : "1",
      "nameZh" : "中清清泉路口",
      "pgp" : "0",
      "terminal" : "0",
      "latitude" : "24.24336",
      "inDis" : "50",
      "routeId" : "128",
      "seqNo" : "48"
   },
   {
      "GoBack" : "2",
      "longitude" : "120.61986",
      "outDis" : "50",
      "Id" : "4669",
      "oid" : "310614298",
      "districtId" : "1",
      "nameZh" : "中清信義路口",
      "pgp" : "0",
      "terminal" : "0",
      "latitude" : "24.24257",
      "inDis" : "50",
      "routeId" : "128",
      "seqNo" : "49"
   },
   {
      "GoBack" : "2",
      "longitude" : "120.62673",
      "outDis" : "50",
      "Id" : "3663",
      "oid" : "00F44A45672A4A16994A287A6E61763B",
      "districtId" : "1",
      "nameZh" : "福樂新城",
      "pgp" : "0",
      "terminal" : "0",
      "latitude" : "24.24248",
      "inDis" : "50",
      "routeId" : "128",
      "seqNo" : "50"
   },
   {
      "GoBack" : "2",
      "longitude" : "120.63117",
      "outDis" : "50",
      "Id" : "1591",
      "oid" : "5407",
      "districtId" : "1",
      "nameZh" : "六張犁",
      "pgp" : "0",
      "terminal" : "0",
      "latitude" : "24.24023",
      "inDis" : "50",
      "routeId" : "128",
      "seqNo" : "51"
   },
   {
      "GoBack" : "2",
      "longitude" : "120.63235",
      "outDis" : "50",
      "Id" : "2289",
      "oid" : "5817",
      "districtId" : "1",
      "nameZh" : "亞東公司",
      "pgp" : "0",
      "terminal" : "0",
      "latitude" : "24.23908",
      "inDis" : "50",
      "routeId" : "128",
      "seqNo" : "52"
   },
   {
      "GoBack" : "2",
      "longitude" : "120.63451",
      "outDis" : "50",
      "Id" : "1593",
      "oid" : "5410",
      "districtId" : "1",
      "nameZh" : "六寶里",
      "pgp" : "0",
      "terminal" : "0",
      "latitude" : "24.23695",
      "inDis" : "50",
      "routeId" : "128",
      "seqNo" : "53"
   },
   {
      "GoBack" : "2",
      "longitude" : "120.63847",
      "outDis" : "50",
      "Id" : "2798",
      "oid" : "6114",
      "districtId" : "1",
      "nameZh" : "泰聯公司",
      "pgp" : "0",
      "terminal" : "0",
      "latitude" : "24.2331",
      "inDis" : "50",
      "routeId" : "128",
      "seqNo" : "54"
   },
   {
      "GoBack" : "2",
      "longitude" : "120.64123",
      "outDis" : "50",
      "Id" : "2253",
      "oid" : "5796",
      "districtId" : "1",
      "nameZh" : "秀山里",
      "pgp" : "0",
      "terminal" : "0",
      "latitude" : "24.23041",
      "inDis" : "50",
      "routeId" : "128",
      "seqNo" : "55"
   },
   {
      "GoBack" : "2",
      "longitude" : "120.64284",
      "outDis" : "50",
      "Id" : "4651",
      "oid" : "7222",
      "districtId" : "1",
      "nameZh" : "大明國小(中清路)",
      "pgp" : "0",
      "terminal" : "0",
      "latitude" : "24.22844",
      "inDis" : "50",
      "routeId" : "128",
      "seqNo" : "56"
   },
   {
      "GoBack" : "2",
      "longitude" : "120.64457",
      "outDis" : "50",
      "Id" : "5423",
      "oid" : "313288973",
      "districtId" : "1",
      "nameZh" : "大雅澄清醫院",
      "pgp" : "0",
      "terminal" : "0",
      "latitude" : "24.22699",
      "inDis" : "50",
      "routeId" : "128",
      "seqNo" : "57"
   },
   {
      "GoBack" : "2",
      "longitude" : "120.64674",
      "outDis" : "50",
      "Id" : "1620",
      "oid" : "5426",
      "districtId" : "1",
      "nameZh" : "大雅分駐所",
      "pgp" : "0",
      "terminal" : "0",
      "latitude" : "24.22498",
      "inDis" : "50",
      "routeId" : "128",
      "seqNo" : "58"
   },
   {
      "GoBack" : "2",
      "longitude" : "120.64792",
      "outDis" : "50",
      "Id" : "1346",
      "oid" : "5264",
      "districtId" : "1",
      "nameZh" : "大雅",
      "pgp" : "0",
      "terminal" : "0",
      "latitude" : "24.22361",
      "inDis" : "50",
      "routeId" : "128",
      "seqNo" : "59"
   }
]
