[
   {
      "GoBack" : "1",
      "longitude" : "120.61564",
      "outDis" : "50",
      "Id" : "5487",
      "oid" : "314581889",
      "districtId" : "1",
      "nameZh" : "高鐵臺中站(21月台)",
      "pgp" : "0",
      "terminal" : "0",
      "latitude" : "24.11387",
      "inDis" : "50",
      "routeId" : "155副",
      "seqNo" : "1"
   },
   {
      "GoBack" : "1",
      "longitude" : "120.62968",
      "outDis" : "80",
      "Id" : "5468",
      "oid" : "314182470",
      "districtId" : "1",
      "nameZh" : "環中市政路口",
      "pgp" : "0",
      "terminal" : "0",
      "latitude" : "24.16376",
      "inDis" : "80",
      "routeId" : "155副",
      "seqNo" : "4"
   },
   {
      "GoBack" : "1",
      "longitude" : "120.62252",
      "outDis" : "50",
      "Id" : "5106",
      "oid" : "CFF2B1C135AB4FC8A4DB332DCEB1C42D",
      "districtId" : "1",
      "nameZh" : "安和朝馬路口",
      "pgp" : "0",
      "terminal" : "0",
      "latitude" : "24.17466",
      "inDis" : "50",
      "routeId" : "155副",
      "seqNo" : "6"
   },
   {
      "GoBack" : "1",
      "longitude" : "120.62438",
      "outDis" : "50",
      "Id" : "1481",
      "oid" : "10235",
      "districtId" : "1",
      "nameZh" : "安和臺灣大道口",
      "pgp" : "0",
      "terminal" : "0",
      "latitude" : "24.17838",
      "inDis" : "50",
      "routeId" : "155副",
      "seqNo" : "7"
   },
   {
      "GoBack" : "1",
      "longitude" : "120.62466",
      "outDis" : "50",
      "Id" : "0010",
      "oid" : "F55A416D15F3411A829D10BD69A8B247",
      "districtId" : "1",
      "nameZh" : "福科安和路口",
      "pgp" : "0",
      "terminal" : "0",
      "latitude" : "24.18224",
      "inDis" : "50",
      "routeId" : "155副",
      "seqNo" : "8"
   },
   {
      "GoBack" : "1",
      "longitude" : "120.62203",
      "outDis" : "50",
      "Id" : "3060",
      "oid" : "13533",
      "districtId" : "1",
      "nameZh" : "統聯轉運站",
      "pgp" : "0",
      "terminal" : "0",
      "latitude" : "24.17956",
      "inDis" : "50",
      "routeId" : "155副",
      "seqNo" : "9"
   },
   {
      "GoBack" : "1",
      "longitude" : "120.72285",
      "outDis" : "50",
      "Id" : "1911",
      "oid" : "5605",
      "districtId" : "1",
      "nameZh" : "正隆紙廠",
      "pgp" : "0",
      "terminal" : "0",
      "latitude" : "24.28434",
      "inDis" : "50",
      "routeId" : "155副",
      "seqNo" : "15"
   },
   {
      "GoBack" : "1",
      "longitude" : "120.72322",
      "outDis" : "50",
      "Id" : "2374",
      "oid" : "5874",
      "districtId" : "1",
      "nameZh" : "枋寮",
      "pgp" : "0",
      "terminal" : "0",
      "latitude" : "24.28785",
      "inDis" : "50",
      "routeId" : "155副",
      "seqNo" : "16"
   },
   {
      "GoBack" : "1",
      "longitude" : "120.72373",
      "outDis" : "50",
      "Id" : "0987",
      "oid" : "5025",
      "districtId" : "1",
      "nameZh" : "七星農場",
      "pgp" : "0",
      "terminal" : "0",
      "latitude" : "24.2933",
      "inDis" : "50",
      "routeId" : "155副",
      "seqNo" : "17"
   },
   {
      "GoBack" : "1",
      "longitude" : "120.7246",
      "outDis" : "50",
      "Id" : "5589",
      "oid" : "129901855",
      "districtId" : "1",
      "nameZh" : "馬場三豐路口",
      "pgp" : "0",
      "terminal" : "0",
      "latitude" : "24.2981",
      "inDis" : "50",
      "routeId" : "155副",
      "seqNo" : "18"
   },
   {
      "GoBack" : "1",
      "longitude" : "120.7317",
      "outDis" : "50",
      "Id" : "5643",
      "oid" : "317318302",
      "districtId" : "1",
      "nameZh" : "馬場后科路口",
      "pgp" : "0",
      "terminal" : "0",
      "latitude" : "24.2984",
      "inDis" : "50",
      "routeId" : "155副",
      "seqNo" : "19"
   },
   {
      "GoBack" : "1",
      "longitude" : "120.73515",
      "outDis" : "50",
      "Id" : "5422",
      "oid" : "313273920",
      "districtId" : "1",
      "nameZh" : "后里馬場",
      "pgp" : "0",
      "terminal" : "0",
      "latitude" : "24.29857",
      "inDis" : "50",
      "routeId" : "155副",
      "seqNo" : "20"
   },
   {
      "GoBack" : "1",
      "longitude" : "120.73095",
      "outDis" : "50",
      "Id" : "5421",
      "oid" : "313273918",
      "districtId" : "1",
      "nameZh" : "內東路營區",
      "pgp" : "0",
      "terminal" : "0",
      "latitude" : "24.30467",
      "inDis" : "50",
      "routeId" : "155副",
      "seqNo" : "21"
   },
   {
      "GoBack" : "1",
      "longitude" : "120.73086",
      "outDis" : "50",
      "Id" : "5420",
      "oid" : "313273916",
      "districtId" : "1",
      "nameZh" : "內東大山路口",
      "pgp" : "0",
      "terminal" : "0",
      "latitude" : "24.30756",
      "inDis" : "50",
      "routeId" : "155副",
      "seqNo" : "22"
   },
   {
      "GoBack" : "1",
      "longitude" : "120.73032",
      "outDis" : "50",
      "Id" : "5419",
      "oid" : "313273914",
      "districtId" : "1",
      "nameZh" : "后里火車站(后里國小)",
      "pgp" : "0",
      "terminal" : "0",
      "latitude" : "24.30933",
      "inDis" : "50",
      "routeId" : "155副",
      "seqNo" : "23"
   },
   {
      "GoBack" : "1",
      "longitude" : "120.72843",
      "outDis" : "50",
      "Id" : "5418",
      "oid" : "313273912",
      "districtId" : "1",
      "nameZh" : "后里義里郵局",
      "pgp" : "0",
      "terminal" : "0",
      "latitude" : "24.30923",
      "inDis" : "50",
      "routeId" : "155副",
      "seqNo" : "24"
   },
   {
      "GoBack" : "1",
      "longitude" : "120.72468",
      "outDis" : "50",
      "Id" : "5417",
      "oid" : "313273910",
      "districtId" : "1",
      "nameZh" : "甲后路329巷口",
      "pgp" : "0",
      "terminal" : "0",
      "latitude" : "24.30905",
      "inDis" : "50",
      "routeId" : "155副",
      "seqNo" : "25"
   },
   {
      "GoBack" : "1",
      "longitude" : "120.72164",
      "outDis" : "50",
      "Id" : "1169",
      "oid" : "5132",
      "districtId" : "1",
      "nameZh" : "下后里",
      "pgp" : "0",
      "terminal" : "0",
      "latitude" : "24.30903",
      "inDis" : "50",
      "routeId" : "155副",
      "seqNo" : "26"
   },
   {
      "GoBack" : "1",
      "longitude" : "120.71814",
      "outDis" : "50",
      "Id" : "5416",
      "oid" : "313273909",
      "districtId" : "1",
      "nameZh" : "成功甲后路口",
      "pgp" : "0",
      "terminal" : "0",
      "latitude" : "24.3102",
      "inDis" : "50",
      "routeId" : "155副",
      "seqNo" : "27"
   },
   {
      "GoBack" : "1",
      "longitude" : "120.72146",
      "outDis" : "50",
      "Id" : "5415",
      "oid" : "313273907",
      "districtId" : "1",
      "nameZh" : "成功路105巷口",
      "pgp" : "0",
      "terminal" : "0",
      "latitude" : "24.31227",
      "inDis" : "50",
      "routeId" : "155副",
      "seqNo" : "28"
   },
   {
      "GoBack" : "1",
      "longitude" : "120.72352",
      "outDis" : "50",
      "Id" : "5046",
      "oid" : "309863796",
      "districtId" : "1",
      "nameZh" : "三豐泉洲路口",
      "pgp" : "0",
      "terminal" : "0",
      "latitude" : "24.31333",
      "inDis" : "50",
      "routeId" : "155副",
      "seqNo" : "29"
   },
   {
      "GoBack" : "1",
      "longitude" : "120.72493",
      "outDis" : "50",
      "Id" : "5469",
      "oid" : "314182473",
      "districtId" : "1",
      "nameZh" : "三豐后科南路口",
      "pgp" : "0",
      "terminal" : "0",
      "latitude" : "24.31873",
      "inDis" : "50",
      "routeId" : "155副",
      "seqNo" : "30"
   },
   {
      "GoBack" : "1",
      "longitude" : "120.72366",
      "outDis" : "50",
      "Id" : "5045",
      "oid" : "309863795",
      "districtId" : "1",
      "nameZh" : "三豐九甲路口",
      "pgp" : "0",
      "terminal" : "0",
      "latitude" : "24.32342",
      "inDis" : "50",
      "routeId" : "155副",
      "seqNo" : "31"
   },
   {
      "GoBack" : "1",
      "longitude" : "120.71885",
      "outDis" : "50",
      "Id" : "5414",
      "oid" : "313273905",
      "districtId" : "1",
      "nameZh" : "義德宮",
      "pgp" : "0",
      "terminal" : "0",
      "latitude" : "24.32559",
      "inDis" : "50",
      "routeId" : "155副",
      "seqNo" : "32"
   },
   {
      "GoBack" : "1",
      "longitude" : "120.71552",
      "outDis" : "50",
      "Id" : "5413",
      "oid" : "313273903",
      "districtId" : "1",
      "nameZh" : "泰安服務區",
      "pgp" : "0",
      "terminal" : "0",
      "latitude" : "24.32751",
      "inDis" : "50",
      "routeId" : "155副",
      "seqNo" : "33"
   },
   {
      "GoBack" : "1",
      "longitude" : "120.71097",
      "outDis" : "50",
      "Id" : "5412",
      "oid" : "313273901",
      "districtId" : "1",
      "nameZh" : "崁頂土地公廟",
      "pgp" : "0",
      "terminal" : "0",
      "latitude" : "24.32839",
      "inDis" : "50",
      "routeId" : "155副",
      "seqNo" : "34"
   },
   {
      "GoBack" : "1",
      "longitude" : "120.70839",
      "outDis" : "50",
      "Id" : "5411",
      "oid" : "313273899",
      "districtId" : "1",
      "nameZh" : "安眉月湖路口",
      "pgp" : "0",
      "terminal" : "0",
      "latitude" : "24.3264",
      "inDis" : "50",
      "routeId" : "155副",
      "seqNo" : "35"
   },
   {
      "GoBack" : "1",
      "longitude" : "120.70222",
      "outDis" : "50",
      "Id" : "5410",
      "oid" : "313273897",
      "districtId" : "1",
      "nameZh" : "月眉北路口",
      "pgp" : "0",
      "terminal" : "0",
      "latitude" : "24.32446",
      "inDis" : "50",
      "routeId" : "155副",
      "seqNo" : "36"
   },
   {
      "GoBack" : "1",
      "longitude" : "120.69226",
      "outDis" : "50",
      "Id" : "1685",
      "oid" : "313359593",
      "districtId" : "1",
      "nameZh" : "麗寶樂園",
      "pgp" : "0",
      "terminal" : "0",
      "latitude" : "24.3192",
      "inDis" : "50",
      "routeId" : "155副",
      "seqNo" : "37"
   },
   {
      "GoBack" : "2",
      "longitude" : "120.69226",
      "outDis" : "50",
      "Id" : "1685",
      "oid" : "313359593",
      "districtId" : "1",
      "nameZh" : "麗寶樂園",
      "pgp" : "0",
      "terminal" : "0",
      "latitude" : "24.3192",
      "inDis" : "50",
      "routeId" : "155副",
      "seqNo" : "1"
   },
   {
      "GoBack" : "2",
      "longitude" : "120.70222",
      "outDis" : "50",
      "Id" : "5410",
      "oid" : "313273897",
      "districtId" : "1",
      "nameZh" : "月眉北路口",
      "pgp" : "0",
      "terminal" : "0",
      "latitude" : "24.32446",
      "inDis" : "50",
      "routeId" : "155副",
      "seqNo" : "2"
   },
   {
      "GoBack" : "2",
      "longitude" : "120.70839",
      "outDis" : "50",
      "Id" : "5411",
      "oid" : "313273899",
      "districtId" : "1",
      "nameZh" : "安眉月湖路口",
      "pgp" : "0",
      "terminal" : "0",
      "latitude" : "24.3264",
      "inDis" : "50",
      "routeId" : "155副",
      "seqNo" : "3"
   },
   {
      "GoBack" : "2",
      "longitude" : "120.71097",
      "outDis" : "50",
      "Id" : "5412",
      "oid" : "313273901",
      "districtId" : "1",
      "nameZh" : "崁頂土地公廟",
      "pgp" : "0",
      "terminal" : "0",
      "latitude" : "24.32839",
      "inDis" : "50",
      "routeId" : "155副",
      "seqNo" : "4"
   },
   {
      "GoBack" : "2",
      "longitude" : "120.71552",
      "outDis" : "50",
      "Id" : "5413",
      "oid" : "313273903",
      "districtId" : "1",
      "nameZh" : "泰安服務區",
      "pgp" : "0",
      "terminal" : "0",
      "latitude" : "24.32751",
      "inDis" : "50",
      "routeId" : "155副",
      "seqNo" : "5"
   },
   {
      "GoBack" : "2",
      "longitude" : "120.71885",
      "outDis" : "50",
      "Id" : "5414",
      "oid" : "313273905",
      "districtId" : "1",
      "nameZh" : "義德宮",
      "pgp" : "0",
      "terminal" : "0",
      "latitude" : "24.32559",
      "inDis" : "50",
      "routeId" : "155副",
      "seqNo" : "6"
   },
   {
      "GoBack" : "2",
      "longitude" : "120.72366",
      "outDis" : "50",
      "Id" : "5045",
      "oid" : "309863795",
      "districtId" : "1",
      "nameZh" : "三豐九甲路口",
      "pgp" : "0",
      "terminal" : "0",
      "latitude" : "24.32342",
      "inDis" : "50",
      "routeId" : "155副",
      "seqNo" : "7"
   },
   {
      "GoBack" : "2",
      "longitude" : "120.72493",
      "outDis" : "50",
      "Id" : "5469",
      "oid" : "314182473",
      "districtId" : "1",
      "nameZh" : "三豐后科南路口",
      "pgp" : "0",
      "terminal" : "0",
      "latitude" : "24.31873",
      "inDis" : "50",
      "routeId" : "155副",
      "seqNo" : "8"
   },
   {
      "GoBack" : "2",
      "longitude" : "120.72352",
      "outDis" : "50",
      "Id" : "5046",
      "oid" : "309863796",
      "districtId" : "1",
      "nameZh" : "三豐泉洲路口",
      "pgp" : "0",
      "terminal" : "0",
      "latitude" : "24.31333",
      "inDis" : "50",
      "routeId" : "155副",
      "seqNo" : "9"
   },
   {
      "GoBack" : "2",
      "longitude" : "120.72146",
      "outDis" : "50",
      "Id" : "5415",
      "oid" : "313273907",
      "districtId" : "1",
      "nameZh" : "成功路105巷口",
      "pgp" : "0",
      "terminal" : "0",
      "latitude" : "24.31227",
      "inDis" : "50",
      "routeId" : "155副",
      "seqNo" : "10"
   },
   {
      "GoBack" : "2",
      "longitude" : "120.71814",
      "outDis" : "50",
      "Id" : "5416",
      "oid" : "313273909",
      "districtId" : "1",
      "nameZh" : "成功甲后路口",
      "pgp" : "0",
      "terminal" : "0",
      "latitude" : "24.3102",
      "inDis" : "50",
      "routeId" : "155副",
      "seqNo" : "11"
   },
   {
      "GoBack" : "2",
      "longitude" : "120.72164",
      "outDis" : "50",
      "Id" : "1169",
      "oid" : "5132",
      "districtId" : "1",
      "nameZh" : "下后里",
      "pgp" : "0",
      "terminal" : "0",
      "latitude" : "24.30903",
      "inDis" : "50",
      "routeId" : "155副",
      "seqNo" : "12"
   },
   {
      "GoBack" : "2",
      "longitude" : "120.72453",
      "outDis" : "50",
      "Id" : "5417",
      "oid" : "313273911",
      "districtId" : "1",
      "nameZh" : "甲后路329巷口",
      "pgp" : "0",
      "terminal" : "0",
      "latitude" : "24.30891",
      "inDis" : "50",
      "routeId" : "155副",
      "seqNo" : "13"
   },
   {
      "GoBack" : "2",
      "longitude" : "120.72833",
      "outDis" : "50",
      "Id" : "5418",
      "oid" : "313273913",
      "districtId" : "1",
      "nameZh" : "后里義里郵局",
      "pgp" : "0",
      "terminal" : "0",
      "latitude" : "24.30911",
      "inDis" : "50",
      "routeId" : "155副",
      "seqNo" : "14"
   },
   {
      "GoBack" : "2",
      "longitude" : "120.73065",
      "outDis" : "50",
      "Id" : "5419",
      "oid" : "313273915",
      "districtId" : "1",
      "nameZh" : "后里火車站(后里國小)",
      "pgp" : "0",
      "terminal" : "0",
      "latitude" : "24.30924",
      "inDis" : "50",
      "routeId" : "155副",
      "seqNo" : "15"
   },
   {
      "GoBack" : "2",
      "longitude" : "120.73078",
      "outDis" : "50",
      "Id" : "5420",
      "oid" : "313273917",
      "districtId" : "1",
      "nameZh" : "內東大山路口",
      "pgp" : "0",
      "terminal" : "0",
      "latitude" : "24.30778",
      "inDis" : "50",
      "routeId" : "155副",
      "seqNo" : "16"
   },
   {
      "GoBack" : "2",
      "longitude" : "120.73095",
      "outDis" : "50",
      "Id" : "5421",
      "oid" : "313273919",
      "districtId" : "1",
      "nameZh" : "內東路營區",
      "pgp" : "0",
      "terminal" : "0",
      "latitude" : "24.30502",
      "inDis" : "50",
      "routeId" : "155副",
      "seqNo" : "17"
   },
   {
      "GoBack" : "2",
      "longitude" : "120.73515",
      "outDis" : "50",
      "Id" : "5422",
      "oid" : "313273920",
      "districtId" : "1",
      "nameZh" : "后里馬場",
      "pgp" : "0",
      "terminal" : "0",
      "latitude" : "24.29857",
      "inDis" : "50",
      "routeId" : "155副",
      "seqNo" : "18"
   },
   {
      "GoBack" : "2",
      "longitude" : "120.7317",
      "outDis" : "50",
      "Id" : "5643",
      "oid" : "317318302",
      "districtId" : "1",
      "nameZh" : "馬場后科路口",
      "pgp" : "0",
      "terminal" : "0",
      "latitude" : "24.2984",
      "inDis" : "50",
      "routeId" : "155副",
      "seqNo" : "19"
   },
   {
      "GoBack" : "2",
      "longitude" : "120.7246",
      "outDis" : "50",
      "Id" : "5589",
      "oid" : "129901855",
      "districtId" : "1",
      "nameZh" : "馬場三豐路口",
      "pgp" : "0",
      "terminal" : "0",
      "latitude" : "24.2981",
      "inDis" : "50",
      "routeId" : "155副",
      "seqNo" : "20"
   },
   {
      "GoBack" : "2",
      "longitude" : "120.72373",
      "outDis" : "50",
      "Id" : "0987",
      "oid" : "5025",
      "districtId" : "1",
      "nameZh" : "七星農場",
      "pgp" : "0",
      "terminal" : "0",
      "latitude" : "24.2933",
      "inDis" : "50",
      "routeId" : "155副",
      "seqNo" : "21"
   },
   {
      "GoBack" : "2",
      "longitude" : "120.72322",
      "outDis" : "50",
      "Id" : "2374",
      "oid" : "5874",
      "districtId" : "1",
      "nameZh" : "枋寮",
      "pgp" : "0",
      "terminal" : "0",
      "latitude" : "24.28785",
      "inDis" : "50",
      "routeId" : "155副",
      "seqNo" : "22"
   },
   {
      "GoBack" : "2",
      "longitude" : "120.72285",
      "outDis" : "50",
      "Id" : "1911",
      "oid" : "5605",
      "districtId" : "1",
      "nameZh" : "正隆紙廠",
      "pgp" : "0",
      "terminal" : "0",
      "latitude" : "24.28434",
      "inDis" : "50",
      "routeId" : "155副",
      "seqNo" : "23"
   },
   {
      "GoBack" : "2",
      "longitude" : "120.62494",
      "outDis" : "50",
      "Id" : "5149",
      "oid" : "320851040",
      "districtId" : "1",
      "nameZh" : "福安里(臺灣大道)",
      "pgp" : "0",
      "terminal" : "0",
      "latitude" : "24.17845",
      "inDis" : "50",
      "routeId" : "155副",
      "seqNo" : "29"
   },
   {
      "GoBack" : "2",
      "longitude" : "120.62447",
      "outDis" : "50",
      "Id" : "0010",
      "oid" : "0B8BB139044A433193D90A6EBEFA7A30",
      "districtId" : "1",
      "nameZh" : "福科安和路口",
      "pgp" : "0",
      "terminal" : "0",
      "latitude" : "24.18235",
      "inDis" : "50",
      "routeId" : "155副",
      "seqNo" : "30"
   },
   {
      "GoBack" : "2",
      "longitude" : "120.62203",
      "outDis" : "50",
      "Id" : "3060",
      "oid" : "13533",
      "districtId" : "1",
      "nameZh" : "統聯轉運站",
      "pgp" : "0",
      "terminal" : "0",
      "latitude" : "24.17956",
      "inDis" : "50",
      "routeId" : "155副",
      "seqNo" : "31"
   },
   {
      "GoBack" : "2",
      "longitude" : "120.62438",
      "outDis" : "50",
      "Id" : "1481",
      "oid" : "10235",
      "districtId" : "1",
      "nameZh" : "安和臺灣大道口",
      "pgp" : "0",
      "terminal" : "0",
      "latitude" : "24.17838",
      "inDis" : "50",
      "routeId" : "155副",
      "seqNo" : "32"
   },
   {
      "GoBack" : "2",
      "longitude" : "120.62243",
      "outDis" : "50",
      "Id" : "5106",
      "oid" : "F7DDB5F0EE6348F4B255E082575BC2F8",
      "districtId" : "1",
      "nameZh" : "安和朝馬路口",
      "pgp" : "0",
      "terminal" : "0",
      "latitude" : "24.1748",
      "inDis" : "50",
      "routeId" : "155副",
      "seqNo" : "33"
   },
   {
      "GoBack" : "2",
      "longitude" : "120.62968",
      "outDis" : "80",
      "Id" : "5468",
      "oid" : "314182470",
      "districtId" : "1",
      "nameZh" : "環中市政路口",
      "pgp" : "0",
      "terminal" : "0",
      "latitude" : "24.16376",
      "inDis" : "80",
      "routeId" : "155副",
      "seqNo" : "35"
   },
   {
      "GoBack" : "2",
      "longitude" : "120.61564",
      "outDis" : "50",
      "Id" : "5487",
      "oid" : "314581889",
      "districtId" : "1",
      "nameZh" : "高鐵臺中站(21月台)",
      "pgp" : "0",
      "terminal" : "0",
      "latitude" : "24.11387",
      "inDis" : "50",
      "routeId" : "155副",
      "seqNo" : "38"
   }
]
