[
   {
      "GoBack" : "1",
      "longitude" : "120.72154",
      "outDis" : "70",
      "Id" : "3935",
      "oid" : "6693",
      "districtId" : "1",
      "nameZh" : "豐原",
      "pgp" : "0",
      "terminal" : "0",
      "latitude" : "24.2538",
      "inDis" : "70",
      "routeId" : "183",
      "seqNo" : "1"
   },
   {
      "GoBack" : "1",
      "longitude" : "120.71851",
      "outDis" : "50",
      "Id" : "3343",
      "oid" : "6397",
      "districtId" : "1",
      "nameZh" : "媽祖廟",
      "pgp" : "0",
      "terminal" : "0",
      "latitude" : "24.25157",
      "inDis" : "50",
      "routeId" : "183",
      "seqNo" : "2"
   },
   {
      "GoBack" : "1",
      "longitude" : "120.71526",
      "outDis" : "50",
      "Id" : "3939",
      "oid" : "6698",
      "districtId" : "1",
      "nameZh" : "豐原郵局",
      "pgp" : "0",
      "terminal" : "0",
      "latitude" : "24.25136",
      "inDis" : "50",
      "routeId" : "183",
      "seqNo" : "3"
   },
   {
      "GoBack" : "1",
      "longitude" : "120.712",
      "outDis" : "50",
      "Id" : "3357",
      "oid" : "6406",
      "districtId" : "1",
      "nameZh" : "慈龍寺",
      "pgp" : "0",
      "terminal" : "0",
      "latitude" : "24.25079",
      "inDis" : "50",
      "routeId" : "183",
      "seqNo" : "4"
   },
   {
      "GoBack" : "1",
      "longitude" : "120.70963",
      "outDis" : "50",
      "Id" : "4448",
      "oid" : "6688",
      "districtId" : "1",
      "nameZh" : "中正圓環西路口",
      "pgp" : "0",
      "terminal" : "0",
      "latitude" : "24.25039",
      "inDis" : "50",
      "routeId" : "183",
      "seqNo" : "5"
   },
   {
      "GoBack" : "1",
      "longitude" : "120.70672",
      "outDis" : "50",
      "Id" : "1065",
      "oid" : "5072",
      "districtId" : "1",
      "nameZh" : "三光新村",
      "pgp" : "0",
      "terminal" : "0",
      "latitude" : "24.24999",
      "inDis" : "50",
      "routeId" : "183",
      "seqNo" : "6"
   },
   {
      "GoBack" : "1",
      "longitude" : "120.70434",
      "outDis" : "50",
      "Id" : "2349",
      "oid" : "5856",
      "districtId" : "1",
      "nameZh" : "忠勤新村",
      "pgp" : "0",
      "terminal" : "0",
      "latitude" : "24.24962",
      "inDis" : "50",
      "routeId" : "183",
      "seqNo" : "7"
   },
   {
      "GoBack" : "1",
      "longitude" : "120.70229",
      "outDis" : "50",
      "Id" : "2489",
      "oid" : "5943",
      "districtId" : "1",
      "nameZh" : "社皮鐵路巷",
      "pgp" : "0",
      "terminal" : "0",
      "latitude" : "24.24951",
      "inDis" : "50",
      "routeId" : "183",
      "seqNo" : "8"
   },
   {
      "GoBack" : "1",
      "longitude" : "120.70003",
      "outDis" : "50",
      "Id" : "4498",
      "oid" : "13826",
      "districtId" : "1",
      "nameZh" : "臺豐社區",
      "pgp" : "0",
      "terminal" : "0",
      "latitude" : "24.249",
      "inDis" : "50",
      "routeId" : "183",
      "seqNo" : "9"
   },
   {
      "GoBack" : "1",
      "longitude" : "120.69799",
      "outDis" : "50",
      "Id" : "5438",
      "oid" : "5237",
      "districtId" : "1",
      "nameZh" : "岸裡國小",
      "pgp" : "0",
      "terminal" : "0",
      "latitude" : "24.2487",
      "inDis" : "50",
      "routeId" : "183",
      "seqNo" : "10"
   },
   {
      "GoBack" : "1",
      "longitude" : "120.69323",
      "outDis" : "50",
      "Id" : "2993",
      "oid" : "6203",
      "districtId" : "1",
      "nameZh" : "望寮",
      "pgp" : "0",
      "terminal" : "0",
      "latitude" : "24.24841",
      "inDis" : "50",
      "routeId" : "183",
      "seqNo" : "11"
   },
   {
      "GoBack" : "1",
      "longitude" : "120.6896",
      "outDis" : "50",
      "Id" : "2700",
      "oid" : "6056",
      "districtId" : "1",
      "nameZh" : "紅瓦厝口",
      "pgp" : "0",
      "terminal" : "0",
      "latitude" : "24.2476",
      "inDis" : "50",
      "routeId" : "183",
      "seqNo" : "12"
   },
   {
      "GoBack" : "1",
      "longitude" : "120.68563",
      "outDis" : "50",
      "Id" : "2486",
      "oid" : "5941",
      "districtId" : "1",
      "nameZh" : "社口",
      "pgp" : "0",
      "terminal" : "0",
      "latitude" : "24.24668",
      "inDis" : "50",
      "routeId" : "183",
      "seqNo" : "13"
   },
   {
      "GoBack" : "1",
      "longitude" : "120.68146",
      "outDis" : "50",
      "Id" : "2836",
      "oid" : "6140",
      "districtId" : "1",
      "nameZh" : "神岡國中",
      "pgp" : "0",
      "terminal" : "0",
      "latitude" : "24.24731",
      "inDis" : "50",
      "routeId" : "183",
      "seqNo" : "14"
   },
   {
      "GoBack" : "1",
      "longitude" : "120.67946",
      "outDis" : "50",
      "Id" : "3656",
      "oid" : "6553",
      "districtId" : "1",
      "nameZh" : "福隆新村",
      "pgp" : "0",
      "terminal" : "0",
      "latitude" : "24.24901",
      "inDis" : "50",
      "routeId" : "183",
      "seqNo" : "15"
   },
   {
      "GoBack" : "1",
      "longitude" : "120.67622",
      "outDis" : "50",
      "Id" : "3655",
      "oid" : "6552",
      "districtId" : "1",
      "nameZh" : "福華公司",
      "pgp" : "0",
      "terminal" : "0",
      "latitude" : "24.25099",
      "inDis" : "50",
      "routeId" : "183",
      "seqNo" : "16"
   },
   {
      "GoBack" : "1",
      "longitude" : "120.67387",
      "outDis" : "50",
      "Id" : "3556",
      "oid" : "307752281",
      "districtId" : "1",
      "nameZh" : "電信局",
      "pgp" : "0",
      "terminal" : "0",
      "latitude" : "24.25294",
      "inDis" : "50",
      "routeId" : "183",
      "seqNo" : "17"
   },
   {
      "GoBack" : "1",
      "longitude" : "120.67224",
      "outDis" : "50",
      "Id" : "3460",
      "oid" : "6474",
      "districtId" : "1",
      "nameZh" : "中山溝心路口",
      "pgp" : "0",
      "terminal" : "0",
      "latitude" : "24.25521",
      "inDis" : "50",
      "routeId" : "183",
      "seqNo" : "18"
   },
   {
      "GoBack" : "1",
      "longitude" : "120.66832",
      "outDis" : "50",
      "Id" : "1783",
      "oid" : "5526",
      "districtId" : "1",
      "nameZh" : "北庄",
      "pgp" : "0",
      "terminal" : "0",
      "latitude" : "24.25732",
      "inDis" : "50",
      "routeId" : "183",
      "seqNo" : "19"
   },
   {
      "GoBack" : "1",
      "longitude" : "120.66294",
      "outDis" : "50",
      "Id" : "3066",
      "oid" : "6265",
      "districtId" : "1",
      "nameZh" : "庄頭",
      "pgp" : "0",
      "terminal" : "0",
      "latitude" : "24.25812",
      "inDis" : "50",
      "routeId" : "183",
      "seqNo" : "20"
   },
   {
      "GoBack" : "1",
      "longitude" : "120.66141",
      "outDis" : "50",
      "Id" : "2837",
      "oid" : "6141",
      "districtId" : "1",
      "nameZh" : "神岡區公所",
      "pgp" : "0",
      "terminal" : "0",
      "latitude" : "24.25771",
      "inDis" : "50",
      "routeId" : "183",
      "seqNo" : "21"
   },
   {
      "GoBack" : "1",
      "longitude" : "120.6593",
      "outDis" : "50",
      "Id" : "2835",
      "oid" : "6139",
      "districtId" : "1",
      "nameZh" : "神岡",
      "pgp" : "0",
      "terminal" : "0",
      "latitude" : "24.25703",
      "inDis" : "50",
      "routeId" : "183",
      "seqNo" : "22"
   },
   {
      "GoBack" : "1",
      "longitude" : "120.65858",
      "outDis" : "50",
      "Id" : "2838",
      "oid" : "6142",
      "districtId" : "1",
      "nameZh" : "神岡農會",
      "pgp" : "0",
      "terminal" : "0",
      "latitude" : "24.25847",
      "inDis" : "50",
      "routeId" : "183",
      "seqNo" : "23"
   },
   {
      "GoBack" : "1",
      "longitude" : "120.65861",
      "outDis" : "50",
      "Id" : "4962",
      "oid" : "308514219",
      "districtId" : "1",
      "nameZh" : "神圳國中",
      "pgp" : "0",
      "terminal" : "0",
      "latitude" : "24.26062",
      "inDis" : "50",
      "routeId" : "183",
      "seqNo" : "24"
   },
   {
      "GoBack" : "1",
      "longitude" : "120.65766",
      "outDis" : "50",
      "Id" : "2094",
      "oid" : "5707",
      "districtId" : "1",
      "nameZh" : "圳前里",
      "pgp" : "0",
      "terminal" : "0",
      "latitude" : "24.26399",
      "inDis" : "50",
      "routeId" : "183",
      "seqNo" : "25"
   },
   {
      "GoBack" : "1",
      "longitude" : "120.65595",
      "outDis" : "50",
      "Id" : "3111",
      "oid" : "6290",
      "districtId" : "1",
      "nameZh" : "頂圳前",
      "pgp" : "0",
      "terminal" : "0",
      "latitude" : "24.26742",
      "inDis" : "50",
      "routeId" : "183",
      "seqNo" : "26"
   },
   {
      "GoBack" : "1",
      "longitude" : "120.65642",
      "outDis" : "50",
      "Id" : "4755",
      "oid" : "307119931",
      "districtId" : "1",
      "nameZh" : "圳堵里口",
      "pgp" : "0",
      "terminal" : "0",
      "latitude" : "24.26864",
      "inDis" : "50",
      "routeId" : "183",
      "seqNo" : "27"
   },
   {
      "GoBack" : "1",
      "longitude" : "120.65753",
      "outDis" : "50",
      "Id" : "2095",
      "oid" : "5708",
      "districtId" : "1",
      "nameZh" : "圳堵",
      "pgp" : "0",
      "terminal" : "0",
      "latitude" : "24.27116",
      "inDis" : "50",
      "routeId" : "183",
      "seqNo" : "28"
   },
   {
      "GoBack" : "1",
      "longitude" : "120.65903",
      "outDis" : "50",
      "Id" : "3121",
      "oid" : "6295",
      "districtId" : "1",
      "nameZh" : "頂車站",
      "pgp" : "0",
      "terminal" : "0",
      "latitude" : "24.27418",
      "inDis" : "50",
      "routeId" : "183",
      "seqNo" : "29"
   },
   {
      "GoBack" : "1",
      "longitude" : "120.6566",
      "outDis" : "50",
      "Id" : "3660",
      "oid" : "6556",
      "districtId" : "1",
      "nameZh" : "福德祠",
      "pgp" : "0",
      "terminal" : "0",
      "latitude" : "24.27887",
      "inDis" : "50",
      "routeId" : "183",
      "seqNo" : "30"
   },
   {
      "GoBack" : "1",
      "longitude" : "120.65427",
      "outDis" : "50",
      "Id" : "3415",
      "oid" : "6445",
      "districtId" : "1",
      "nameZh" : "新庄",
      "pgp" : "0",
      "terminal" : "0",
      "latitude" : "24.28033",
      "inDis" : "50",
      "routeId" : "183",
      "seqNo" : "31"
   },
   {
      "GoBack" : "1",
      "longitude" : "120.65244",
      "outDis" : "50",
      "Id" : "3418",
      "oid" : "6446",
      "districtId" : "1",
      "nameZh" : "新庄車庫",
      "pgp" : "0",
      "terminal" : "0",
      "latitude" : "24.28102",
      "inDis" : "50",
      "routeId" : "183",
      "seqNo" : "32"
   },
   {
      "GoBack" : "1",
      "longitude" : "120.64462",
      "outDis" : "50",
      "Id" : "3062",
      "oid" : "6262",
      "districtId" : "1",
      "nameZh" : "庄尾",
      "pgp" : "0",
      "terminal" : "0",
      "latitude" : "24.28459",
      "inDis" : "50",
      "routeId" : "183",
      "seqNo" : "33"
   },
   {
      "GoBack" : "1",
      "longitude" : "120.64146",
      "outDis" : "50",
      "Id" : "1948",
      "oid" : "5619",
      "districtId" : "1",
      "nameZh" : "永進公司",
      "pgp" : "0",
      "terminal" : "0",
      "latitude" : "24.28672",
      "inDis" : "50",
      "routeId" : "183",
      "seqNo" : "34"
   },
   {
      "GoBack" : "1",
      "longitude" : "120.63516",
      "outDis" : "50",
      "Id" : "3180",
      "oid" : "6319",
      "districtId" : "1",
      "nameZh" : "頂舊庄",
      "pgp" : "0",
      "terminal" : "0",
      "latitude" : "24.2898",
      "inDis" : "50",
      "routeId" : "183",
      "seqNo" : "35"
   },
   {
      "GoBack" : "1",
      "longitude" : "120.63278",
      "outDis" : "50",
      "Id" : "3918",
      "oid" : "6687",
      "districtId" : "1",
      "nameZh" : "舊庄",
      "pgp" : "0",
      "terminal" : "0",
      "latitude" : "24.29185",
      "inDis" : "50",
      "routeId" : "183",
      "seqNo" : "36"
   },
   {
      "GoBack" : "1",
      "longitude" : "120.63047",
      "outDis" : "50",
      "Id" : "1215",
      "oid" : "5164",
      "districtId" : "1",
      "nameZh" : "下舊庄",
      "pgp" : "0",
      "terminal" : "0",
      "latitude" : "24.29275",
      "inDis" : "50",
      "routeId" : "183",
      "seqNo" : "37"
   },
   {
      "GoBack" : "1",
      "longitude" : "120.62546",
      "outDis" : "50",
      "Id" : "2271",
      "oid" : "5805",
      "districtId" : "1",
      "nameZh" : "良逸公司",
      "pgp" : "0",
      "terminal" : "0",
      "latitude" : "24.29249",
      "inDis" : "50",
      "routeId" : "183",
      "seqNo" : "38"
   },
   {
      "GoBack" : "1",
      "longitude" : "120.61939",
      "outDis" : "50",
      "Id" : "2807",
      "oid" : "6125",
      "districtId" : "1",
      "nameZh" : "海風里",
      "pgp" : "0",
      "terminal" : "0",
      "latitude" : "24.29252",
      "inDis" : "50",
      "routeId" : "183",
      "seqNo" : "39"
   },
   {
      "GoBack" : "1",
      "longitude" : "120.61558",
      "outDis" : "50",
      "Id" : "3448",
      "oid" : "6466",
      "districtId" : "1",
      "nameZh" : "楊厝里",
      "pgp" : "0",
      "terminal" : "0",
      "latitude" : "24.28907",
      "inDis" : "50",
      "routeId" : "183",
      "seqNo" : "40"
   },
   {
      "GoBack" : "1",
      "longitude" : "120.6133",
      "outDis" : "50",
      "Id" : "1203",
      "oid" : "5155",
      "districtId" : "1",
      "nameZh" : "下楊厝里",
      "pgp" : "0",
      "terminal" : "0",
      "latitude" : "24.28594",
      "inDis" : "50",
      "routeId" : "183",
      "seqNo" : "41"
   },
   {
      "GoBack" : "1",
      "longitude" : "120.61289",
      "outDis" : "50",
      "Id" : "4955",
      "oid" : "17809",
      "districtId" : "1",
      "nameZh" : "許厝寮",
      "pgp" : "0",
      "terminal" : "0",
      "latitude" : "24.27944",
      "inDis" : "50",
      "routeId" : "183",
      "seqNo" : "42"
   },
   {
      "GoBack" : "1",
      "longitude" : "120.61116",
      "outDis" : "50",
      "Id" : "3119",
      "oid" : "6294",
      "districtId" : "1",
      "nameZh" : "頂吳厝里",
      "pgp" : "0",
      "terminal" : "0",
      "latitude" : "24.27616",
      "inDis" : "50",
      "routeId" : "183",
      "seqNo" : "43"
   },
   {
      "GoBack" : "1",
      "longitude" : "120.60769",
      "outDis" : "50",
      "Id" : "3434",
      "oid" : "6454",
      "districtId" : "1",
      "nameZh" : "新興社區",
      "pgp" : "0",
      "terminal" : "0",
      "latitude" : "24.26934",
      "inDis" : "50",
      "routeId" : "183",
      "seqNo" : "44"
   },
   {
      "GoBack" : "1",
      "longitude" : "120.60631",
      "outDis" : "50",
      "Id" : "2223",
      "oid" : "5781",
      "districtId" : "1",
      "nameZh" : "吳厝里",
      "pgp" : "0",
      "terminal" : "0",
      "latitude" : "24.2666",
      "inDis" : "50",
      "routeId" : "183",
      "seqNo" : "45"
   },
   {
      "GoBack" : "1",
      "longitude" : "120.60402",
      "outDis" : "50",
      "Id" : "3295",
      "oid" : "6370",
      "districtId" : "1",
      "nameZh" : "澔明公司",
      "pgp" : "0",
      "terminal" : "0",
      "latitude" : "24.26215",
      "inDis" : "50",
      "routeId" : "183",
      "seqNo" : "46"
   },
   {
      "GoBack" : "1",
      "longitude" : "120.60119",
      "outDis" : "50",
      "Id" : "5662",
      "oid" : "317773386",
      "districtId" : "1",
      "nameZh" : "中航和睦路口",
      "pgp" : "0",
      "terminal" : "0",
      "latitude" : "24.2578",
      "inDis" : "50",
      "routeId" : "183",
      "seqNo" : "47"
   },
   {
      "GoBack" : "1",
      "longitude" : "120.60003",
      "outDis" : "50",
      "Id" : "5381",
      "oid" : "312172944",
      "districtId" : "1",
      "nameZh" : "西勢十巷口",
      "pgp" : "0",
      "terminal" : "0",
      "latitude" : "24.25557",
      "inDis" : "50",
      "routeId" : "183",
      "seqNo" : "48"
   },
   {
      "GoBack" : "1",
      "longitude" : "120.59899",
      "outDis" : "50",
      "Id" : "0135",
      "oid" : "312174380",
      "districtId" : "1",
      "nameZh" : "臺中航空站",
      "pgp" : "0",
      "terminal" : "0",
      "latitude" : "24.25348",
      "inDis" : "50",
      "routeId" : "183",
      "seqNo" : "49"
   },
   {
      "GoBack" : "1",
      "longitude" : "120.59992",
      "outDis" : "50",
      "Id" : "5381",
      "oid" : "319604756",
      "districtId" : "1",
      "nameZh" : "西勢十巷口",
      "pgp" : "0",
      "terminal" : "0",
      "latitude" : "24.25515",
      "inDis" : "50",
      "routeId" : "183",
      "seqNo" : "50"
   },
   {
      "GoBack" : "1",
      "longitude" : "120.60111",
      "outDis" : "50",
      "Id" : "5662",
      "oid" : "319604757",
      "districtId" : "1",
      "nameZh" : "中航和睦路口",
      "pgp" : "0",
      "terminal" : "0",
      "latitude" : "24.25767",
      "inDis" : "50",
      "routeId" : "183",
      "seqNo" : "51"
   },
   {
      "GoBack" : "1",
      "longitude" : "120.5987",
      "outDis" : "50",
      "Id" : "4101",
      "oid" : "317773389",
      "districtId" : "1",
      "nameZh" : "西勢里",
      "pgp" : "0",
      "terminal" : "0",
      "latitude" : "24.25982",
      "inDis" : "50",
      "routeId" : "183",
      "seqNo" : "52"
   },
   {
      "GoBack" : "1",
      "longitude" : "120.59513",
      "outDis" : "50",
      "Id" : "4083",
      "oid" : "13450",
      "districtId" : "1",
      "nameZh" : "公館國小",
      "pgp" : "0",
      "terminal" : "0",
      "latitude" : "24.26084",
      "inDis" : "50",
      "routeId" : "183",
      "seqNo" : "53"
   },
   {
      "GoBack" : "1",
      "longitude" : "120.58787",
      "outDis" : "50",
      "Id" : "5033",
      "oid" : "309555541",
      "districtId" : "1",
      "nameZh" : "國仕加油站",
      "pgp" : "0",
      "terminal" : "0",
      "latitude" : "24.26416",
      "inDis" : "50",
      "routeId" : "183",
      "seqNo" : "54"
   },
   {
      "GoBack" : "1",
      "longitude" : "120.58224",
      "outDis" : "50",
      "Id" : "4137",
      "oid" : "13560",
      "districtId" : "1",
      "nameZh" : "嘉陽高中",
      "pgp" : "0",
      "terminal" : "0",
      "latitude" : "24.26578",
      "inDis" : "50",
      "routeId" : "183",
      "seqNo" : "56"
   },
   {
      "GoBack" : "1",
      "longitude" : "120.57435",
      "outDis" : "50",
      "Id" : "4119",
      "oid" : "13526",
      "districtId" : "1",
      "nameZh" : "清水高中",
      "pgp" : "0",
      "terminal" : "0",
      "latitude" : "24.2661",
      "inDis" : "50",
      "routeId" : "183",
      "seqNo" : "58"
   },
   {
      "GoBack" : "1",
      "longitude" : "120.57516",
      "outDis" : "50",
      "Id" : "5141",
      "oid" : "14057",
      "districtId" : "1",
      "nameZh" : "華南銀行(清水分行)",
      "pgp" : "0",
      "terminal" : "0",
      "latitude" : "24.2683",
      "inDis" : "50",
      "routeId" : "183",
      "seqNo" : "59"
   },
   {
      "GoBack" : "1",
      "longitude" : "120.57632",
      "outDis" : "50",
      "Id" : "3013",
      "oid" : "6223",
      "districtId" : "1",
      "nameZh" : "清水",
      "pgp" : "0",
      "terminal" : "0",
      "latitude" : "24.27125",
      "inDis" : "50",
      "routeId" : "183",
      "seqNo" : "60"
   },
   {
      "GoBack" : "1",
      "longitude" : "120.57707",
      "outDis" : "50",
      "Id" : "4521",
      "oid" : "16883",
      "districtId" : "1",
      "nameZh" : "中山董公街口",
      "pgp" : "0",
      "terminal" : "0",
      "latitude" : "24.27301",
      "inDis" : "50",
      "routeId" : "183",
      "seqNo" : "61"
   },
   {
      "GoBack" : "1",
      "longitude" : "120.57725",
      "outDis" : "50",
      "Id" : "4442",
      "oid" : "14059",
      "districtId" : "1",
      "nameZh" : "中山高美路口",
      "pgp" : "0",
      "terminal" : "0",
      "latitude" : "24.27531",
      "inDis" : "50",
      "routeId" : "183",
      "seqNo" : "62"
   },
   {
      "GoBack" : "1",
      "longitude" : "120.5736",
      "outDis" : "50",
      "Id" : "4956",
      "oid" : "17830",
      "districtId" : "1",
      "nameZh" : "西寧國小",
      "pgp" : "0",
      "terminal" : "0",
      "latitude" : "24.27699",
      "inDis" : "50",
      "routeId" : "183",
      "seqNo" : "63"
   },
   {
      "GoBack" : "1",
      "longitude" : "120.57207",
      "outDis" : "50",
      "Id" : "5228",
      "oid" : "310787762",
      "districtId" : "1",
      "nameZh" : "五權東鎮新路口",
      "pgp" : "0",
      "terminal" : "0",
      "latitude" : "24.27509",
      "inDis" : "50",
      "routeId" : "183",
      "seqNo" : "64"
   },
   {
      "GoBack" : "1",
      "longitude" : "120.56798",
      "outDis" : "50",
      "Id" : "5227",
      "oid" : "310787760",
      "districtId" : "1",
      "nameZh" : "五權民享路口",
      "pgp" : "0",
      "terminal" : "0",
      "latitude" : "24.27697",
      "inDis" : "50",
      "routeId" : "183",
      "seqNo" : "65"
   },
   {
      "GoBack" : "1",
      "longitude" : "120.56472",
      "outDis" : "50",
      "Id" : "5777",
      "oid" : "320882922",
      "districtId" : "1",
      "nameZh" : "五權華江北街口",
      "pgp" : "0",
      "terminal" : "0",
      "latitude" : "24.27708",
      "inDis" : "50",
      "routeId" : "183",
      "seqNo" : "66"
   },
   {
      "GoBack" : "1",
      "longitude" : "120.56179",
      "outDis" : "50",
      "Id" : "4959",
      "oid" : "17816",
      "districtId" : "1",
      "nameZh" : "慈濟靜思堂(五權路)",
      "pgp" : "0",
      "terminal" : "0",
      "latitude" : "24.27715",
      "inDis" : "50",
      "routeId" : "183",
      "seqNo" : "67"
   },
   {
      "GoBack" : "1",
      "longitude" : "120.55948",
      "outDis" : "50",
      "Id" : "5047",
      "oid" : "309863797",
      "districtId" : "1",
      "nameZh" : "上武鹿",
      "pgp" : "0",
      "terminal" : "0",
      "latitude" : "24.27949",
      "inDis" : "50",
      "routeId" : "183",
      "seqNo" : "68"
   },
   {
      "GoBack" : "1",
      "longitude" : "120.55645",
      "outDis" : "50",
      "Id" : "2476",
      "oid" : "5934",
      "districtId" : "1",
      "nameZh" : "武鹿",
      "pgp" : "0",
      "terminal" : "0",
      "latitude" : "24.27995",
      "inDis" : "50",
      "routeId" : "183",
      "seqNo" : "69"
   },
   {
      "GoBack" : "1",
      "longitude" : "120.55417",
      "outDis" : "50",
      "Id" : "1159",
      "oid" : "5127",
      "districtId" : "1",
      "nameZh" : "下武鹿",
      "pgp" : "0",
      "terminal" : "0",
      "latitude" : "24.27987",
      "inDis" : "50",
      "routeId" : "183",
      "seqNo" : "70"
   },
   {
      "GoBack" : "1",
      "longitude" : "120.55201",
      "outDis" : "50",
      "Id" : "2143",
      "oid" : "5737",
      "districtId" : "1",
      "nameZh" : "竹仔寮",
      "pgp" : "0",
      "terminal" : "0",
      "latitude" : "24.28078",
      "inDis" : "50",
      "routeId" : "183",
      "seqNo" : "71"
   },
   {
      "GoBack" : "1",
      "longitude" : "120.54703",
      "outDis" : "50",
      "Id" : "3143",
      "oid" : "6302",
      "districtId" : "1",
      "nameZh" : "頂海濱里",
      "pgp" : "0",
      "terminal" : "0",
      "latitude" : "24.28675",
      "inDis" : "50",
      "routeId" : "183",
      "seqNo" : "72"
   },
   {
      "GoBack" : "1",
      "longitude" : "120.54541",
      "outDis" : "50",
      "Id" : "2812",
      "oid" : "6128",
      "districtId" : "1",
      "nameZh" : "海濱里",
      "pgp" : "0",
      "terminal" : "0",
      "latitude" : "24.28674",
      "inDis" : "50",
      "routeId" : "183",
      "seqNo" : "73"
   },
   {
      "GoBack" : "1",
      "longitude" : "120.53974",
      "outDis" : "50",
      "Id" : "5063",
      "oid" : "309863813",
      "districtId" : "1",
      "nameZh" : "臺中港北堤",
      "pgp" : "0",
      "terminal" : "0",
      "latitude" : "24.28838",
      "inDis" : "50",
      "routeId" : "183",
      "seqNo" : "74"
   },
   {
      "GoBack" : "1",
      "longitude" : "120.5379",
      "outDis" : "50",
      "Id" : "3763",
      "oid" : "6613",
      "districtId" : "1",
      "nameZh" : "賢德大樓",
      "pgp" : "0",
      "terminal" : "0",
      "latitude" : "24.28528",
      "inDis" : "50",
      "routeId" : "183",
      "seqNo" : "75"
   },
   {
      "GoBack" : "1",
      "longitude" : "120.53703",
      "outDis" : "50",
      "Id" : "3729",
      "oid" : "6596",
      "districtId" : "1",
      "nameZh" : "德豐大樓",
      "pgp" : "0",
      "terminal" : "0",
      "latitude" : "24.28326",
      "inDis" : "50",
      "routeId" : "183",
      "seqNo" : "76"
   },
   {
      "GoBack" : "1",
      "longitude" : "120.53637",
      "outDis" : "50",
      "Id" : "2180",
      "oid" : "5757",
      "districtId" : "1",
      "nameZh" : "西瓜寮",
      "pgp" : "0",
      "terminal" : "0",
      "latitude" : "24.28169",
      "inDis" : "50",
      "routeId" : "183",
      "seqNo" : "77"
   },
   {
      "GoBack" : "1",
      "longitude" : "120.53504",
      "outDis" : "50",
      "Id" : "2657",
      "oid" : "6030",
      "districtId" : "1",
      "nameZh" : "後營門口",
      "pgp" : "0",
      "terminal" : "0",
      "latitude" : "24.27858",
      "inDis" : "50",
      "routeId" : "183",
      "seqNo" : "78"
   },
   {
      "GoBack" : "1",
      "longitude" : "120.53423",
      "outDis" : "50",
      "Id" : "2996",
      "oid" : "6206",
      "districtId" : "1",
      "nameZh" : "梧棟",
      "pgp" : "0",
      "terminal" : "0",
      "latitude" : "24.27666",
      "inDis" : "50",
      "routeId" : "183",
      "seqNo" : "79"
   },
   {
      "GoBack" : "1",
      "longitude" : "120.5331",
      "outDis" : "50",
      "Id" : "5066",
      "oid" : "309863816",
      "districtId" : "1",
      "nameZh" : "環球大樓",
      "pgp" : "0",
      "terminal" : "0",
      "latitude" : "24.27372",
      "inDis" : "50",
      "routeId" : "183",
      "seqNo" : "80"
   },
   {
      "GoBack" : "1",
      "longitude" : "120.53229",
      "outDis" : "50",
      "Id" : "5058",
      "oid" : "309863808",
      "districtId" : "1",
      "nameZh" : "舶來品商圈",
      "pgp" : "0",
      "terminal" : "0",
      "latitude" : "24.27162",
      "inDis" : "50",
      "routeId" : "183",
      "seqNo" : "81"
   },
   {
      "GoBack" : "1",
      "longitude" : "120.53144",
      "outDis" : "50",
      "Id" : "4397",
      "oid" : "13547",
      "districtId" : "1",
      "nameZh" : "港灣技術中心",
      "pgp" : "0",
      "terminal" : "0",
      "latitude" : "24.26981",
      "inDis" : "50",
      "routeId" : "183",
      "seqNo" : "82"
   },
   {
      "GoBack" : "1",
      "longitude" : "120.52987",
      "outDis" : "50",
      "Id" : "4374",
      "oid" : "309863799",
      "districtId" : "1",
      "nameZh" : "大智梧北路口",
      "pgp" : "0",
      "terminal" : "0",
      "latitude" : "24.26109",
      "inDis" : "50",
      "routeId" : "183",
      "seqNo" : "83"
   },
   {
      "GoBack" : "1",
      "longitude" : "120.53213",
      "outDis" : "50",
      "Id" : "4668",
      "oid" : "13518",
      "districtId" : "1",
      "nameZh" : "頂寮里",
      "pgp" : "0",
      "terminal" : "0",
      "latitude" : "24.26035",
      "inDis" : "50",
      "routeId" : "183",
      "seqNo" : "84"
   },
   {
      "GoBack" : "1",
      "longitude" : "120.53495",
      "outDis" : "50",
      "Id" : "4840",
      "oid" : "15056",
      "districtId" : "1",
      "nameZh" : "國都飯店",
      "pgp" : "0",
      "terminal" : "0",
      "latitude" : "24.25932",
      "inDis" : "50",
      "routeId" : "183",
      "seqNo" : "85"
   },
   {
      "GoBack" : "1",
      "longitude" : "120.53645",
      "outDis" : "50",
      "Id" : "5065",
      "oid" : "309863815",
      "districtId" : "1",
      "nameZh" : "臺銀中港分行",
      "pgp" : "0",
      "terminal" : "0",
      "latitude" : "24.25985",
      "inDis" : "50",
      "routeId" : "183",
      "seqNo" : "86"
   },
   {
      "GoBack" : "1",
      "longitude" : "120.53737",
      "outDis" : "50",
      "Id" : "5064",
      "oid" : "309863814",
      "districtId" : "1",
      "nameZh" : "臺中港郵局",
      "pgp" : "0",
      "terminal" : "0",
      "latitude" : "24.26212",
      "inDis" : "50",
      "routeId" : "183",
      "seqNo" : "87"
   },
   {
      "GoBack" : "2",
      "longitude" : "120.53737",
      "outDis" : "50",
      "Id" : "5064",
      "oid" : "309863814",
      "districtId" : "1",
      "nameZh" : "臺中港郵局",
      "pgp" : "0",
      "terminal" : "0",
      "latitude" : "24.26212",
      "inDis" : "50",
      "routeId" : "183",
      "seqNo" : "1"
   },
   {
      "GoBack" : "2",
      "longitude" : "120.53645",
      "outDis" : "50",
      "Id" : "5065",
      "oid" : "309863815",
      "districtId" : "1",
      "nameZh" : "臺銀中港分行",
      "pgp" : "0",
      "terminal" : "0",
      "latitude" : "24.25985",
      "inDis" : "50",
      "routeId" : "183",
      "seqNo" : "2"
   },
   {
      "GoBack" : "2",
      "longitude" : "120.53495",
      "outDis" : "50",
      "Id" : "4840",
      "oid" : "15056",
      "districtId" : "1",
      "nameZh" : "國都飯店",
      "pgp" : "0",
      "terminal" : "0",
      "latitude" : "24.25932",
      "inDis" : "50",
      "routeId" : "183",
      "seqNo" : "3"
   },
   {
      "GoBack" : "2",
      "longitude" : "120.53213",
      "outDis" : "50",
      "Id" : "4668",
      "oid" : "13518",
      "districtId" : "1",
      "nameZh" : "頂寮里",
      "pgp" : "0",
      "terminal" : "0",
      "latitude" : "24.26035",
      "inDis" : "50",
      "routeId" : "183",
      "seqNo" : "4"
   },
   {
      "GoBack" : "2",
      "longitude" : "120.52987",
      "outDis" : "50",
      "Id" : "4374",
      "oid" : "309863799",
      "districtId" : "1",
      "nameZh" : "大智梧北路口",
      "pgp" : "0",
      "terminal" : "0",
      "latitude" : "24.26109",
      "inDis" : "50",
      "routeId" : "183",
      "seqNo" : "5"
   },
   {
      "GoBack" : "2",
      "longitude" : "120.53144",
      "outDis" : "50",
      "Id" : "4397",
      "oid" : "13547",
      "districtId" : "1",
      "nameZh" : "港灣技術中心",
      "pgp" : "0",
      "terminal" : "0",
      "latitude" : "24.26981",
      "inDis" : "50",
      "routeId" : "183",
      "seqNo" : "6"
   },
   {
      "GoBack" : "2",
      "longitude" : "120.53229",
      "outDis" : "50",
      "Id" : "5058",
      "oid" : "309863808",
      "districtId" : "1",
      "nameZh" : "舶來品商圈",
      "pgp" : "0",
      "terminal" : "0",
      "latitude" : "24.27162",
      "inDis" : "50",
      "routeId" : "183",
      "seqNo" : "7"
   },
   {
      "GoBack" : "2",
      "longitude" : "120.5331",
      "outDis" : "50",
      "Id" : "5066",
      "oid" : "309863816",
      "districtId" : "1",
      "nameZh" : "環球大樓",
      "pgp" : "0",
      "terminal" : "0",
      "latitude" : "24.27372",
      "inDis" : "50",
      "routeId" : "183",
      "seqNo" : "8"
   },
   {
      "GoBack" : "2",
      "longitude" : "120.53423",
      "outDis" : "50",
      "Id" : "2996",
      "oid" : "6206",
      "districtId" : "1",
      "nameZh" : "梧棟",
      "pgp" : "0",
      "terminal" : "0",
      "latitude" : "24.27666",
      "inDis" : "50",
      "routeId" : "183",
      "seqNo" : "9"
   },
   {
      "GoBack" : "2",
      "longitude" : "120.53504",
      "outDis" : "50",
      "Id" : "2657",
      "oid" : "6030",
      "districtId" : "1",
      "nameZh" : "後營門口",
      "pgp" : "0",
      "terminal" : "0",
      "latitude" : "24.27858",
      "inDis" : "50",
      "routeId" : "183",
      "seqNo" : "10"
   },
   {
      "GoBack" : "2",
      "longitude" : "120.53637",
      "outDis" : "50",
      "Id" : "2180",
      "oid" : "5757",
      "districtId" : "1",
      "nameZh" : "西瓜寮",
      "pgp" : "0",
      "terminal" : "0",
      "latitude" : "24.28169",
      "inDis" : "50",
      "routeId" : "183",
      "seqNo" : "11"
   },
   {
      "GoBack" : "2",
      "longitude" : "120.53703",
      "outDis" : "50",
      "Id" : "3729",
      "oid" : "6596",
      "districtId" : "1",
      "nameZh" : "德豐大樓",
      "pgp" : "0",
      "terminal" : "0",
      "latitude" : "24.28326",
      "inDis" : "50",
      "routeId" : "183",
      "seqNo" : "12"
   },
   {
      "GoBack" : "2",
      "longitude" : "120.5379",
      "outDis" : "50",
      "Id" : "3763",
      "oid" : "6613",
      "districtId" : "1",
      "nameZh" : "賢德大樓",
      "pgp" : "0",
      "terminal" : "0",
      "latitude" : "24.28528",
      "inDis" : "50",
      "routeId" : "183",
      "seqNo" : "13"
   },
   {
      "GoBack" : "2",
      "longitude" : "120.53974",
      "outDis" : "50",
      "Id" : "5063",
      "oid" : "309863813",
      "districtId" : "1",
      "nameZh" : "臺中港北堤",
      "pgp" : "0",
      "terminal" : "0",
      "latitude" : "24.28838",
      "inDis" : "50",
      "routeId" : "183",
      "seqNo" : "14"
   },
   {
      "GoBack" : "2",
      "longitude" : "120.54541",
      "outDis" : "50",
      "Id" : "2812",
      "oid" : "6128",
      "districtId" : "1",
      "nameZh" : "海濱里",
      "pgp" : "0",
      "terminal" : "0",
      "latitude" : "24.28674",
      "inDis" : "50",
      "routeId" : "183",
      "seqNo" : "15"
   },
   {
      "GoBack" : "2",
      "longitude" : "120.54703",
      "outDis" : "50",
      "Id" : "3143",
      "oid" : "6302",
      "districtId" : "1",
      "nameZh" : "頂海濱里",
      "pgp" : "0",
      "terminal" : "0",
      "latitude" : "24.28675",
      "inDis" : "50",
      "routeId" : "183",
      "seqNo" : "16"
   },
   {
      "GoBack" : "2",
      "longitude" : "120.55158",
      "outDis" : "50",
      "Id" : "2697",
      "oid" : "6054",
      "districtId" : "1",
      "nameZh" : "秋金工廠",
      "pgp" : "0",
      "terminal" : "0",
      "latitude" : "24.28218",
      "inDis" : "50",
      "routeId" : "183",
      "seqNo" : "17"
   },
   {
      "GoBack" : "2",
      "longitude" : "120.55201",
      "outDis" : "50",
      "Id" : "2143",
      "oid" : "5737",
      "districtId" : "1",
      "nameZh" : "竹仔寮",
      "pgp" : "0",
      "terminal" : "0",
      "latitude" : "24.28078",
      "inDis" : "50",
      "routeId" : "183",
      "seqNo" : "18"
   },
   {
      "GoBack" : "2",
      "longitude" : "120.55417",
      "outDis" : "50",
      "Id" : "1159",
      "oid" : "5127",
      "districtId" : "1",
      "nameZh" : "下武鹿",
      "pgp" : "0",
      "terminal" : "0",
      "latitude" : "24.27987",
      "inDis" : "50",
      "routeId" : "183",
      "seqNo" : "19"
   },
   {
      "GoBack" : "2",
      "longitude" : "120.55645",
      "outDis" : "50",
      "Id" : "2476",
      "oid" : "5934",
      "districtId" : "1",
      "nameZh" : "武鹿",
      "pgp" : "0",
      "terminal" : "0",
      "latitude" : "24.27995",
      "inDis" : "50",
      "routeId" : "183",
      "seqNo" : "20"
   },
   {
      "GoBack" : "2",
      "longitude" : "120.55948",
      "outDis" : "50",
      "Id" : "5047",
      "oid" : "309863797",
      "districtId" : "1",
      "nameZh" : "上武鹿",
      "pgp" : "0",
      "terminal" : "0",
      "latitude" : "24.27949",
      "inDis" : "50",
      "routeId" : "183",
      "seqNo" : "21"
   },
   {
      "GoBack" : "2",
      "longitude" : "120.56179",
      "outDis" : "50",
      "Id" : "4959",
      "oid" : "17816",
      "districtId" : "1",
      "nameZh" : "慈濟靜思堂(五權路)",
      "pgp" : "0",
      "terminal" : "0",
      "latitude" : "24.27715",
      "inDis" : "50",
      "routeId" : "183",
      "seqNo" : "22"
   },
   {
      "GoBack" : "2",
      "longitude" : "120.56472",
      "outDis" : "50",
      "Id" : "5777",
      "oid" : "320882922",
      "districtId" : "1",
      "nameZh" : "五權華江北街口",
      "pgp" : "0",
      "terminal" : "0",
      "latitude" : "24.27708",
      "inDis" : "50",
      "routeId" : "183",
      "seqNo" : "23"
   },
   {
      "GoBack" : "2",
      "longitude" : "120.56798",
      "outDis" : "50",
      "Id" : "5227",
      "oid" : "310787761",
      "districtId" : "1",
      "nameZh" : "五權民享路口",
      "pgp" : "0",
      "terminal" : "0",
      "latitude" : "24.27697",
      "inDis" : "50",
      "routeId" : "183",
      "seqNo" : "24"
   },
   {
      "GoBack" : "2",
      "longitude" : "120.57207",
      "outDis" : "50",
      "Id" : "5228",
      "oid" : "310787763",
      "districtId" : "1",
      "nameZh" : "五權東鎮新路口",
      "pgp" : "0",
      "terminal" : "0",
      "latitude" : "24.27509",
      "inDis" : "50",
      "routeId" : "183",
      "seqNo" : "25"
   },
   {
      "GoBack" : "2",
      "longitude" : "120.57505",
      "outDis" : "50",
      "Id" : "4956",
      "oid" : "17813",
      "districtId" : "1",
      "nameZh" : "西寧國小",
      "pgp" : "0",
      "terminal" : "0",
      "latitude" : "24.2757",
      "inDis" : "50",
      "routeId" : "183",
      "seqNo" : "26"
   },
   {
      "GoBack" : "2",
      "longitude" : "120.57725",
      "outDis" : "50",
      "Id" : "4442",
      "oid" : "14059",
      "districtId" : "1",
      "nameZh" : "中山高美路口",
      "pgp" : "0",
      "terminal" : "0",
      "latitude" : "24.27531",
      "inDis" : "50",
      "routeId" : "183",
      "seqNo" : "27"
   },
   {
      "GoBack" : "2",
      "longitude" : "120.57707",
      "outDis" : "50",
      "Id" : "4521",
      "oid" : "16883",
      "districtId" : "1",
      "nameZh" : "中山董公街口",
      "pgp" : "0",
      "terminal" : "0",
      "latitude" : "24.27301",
      "inDis" : "50",
      "routeId" : "183",
      "seqNo" : "28"
   },
   {
      "GoBack" : "2",
      "longitude" : "120.57632",
      "outDis" : "50",
      "Id" : "3013",
      "oid" : "6223",
      "districtId" : "1",
      "nameZh" : "清水",
      "pgp" : "0",
      "terminal" : "0",
      "latitude" : "24.27125",
      "inDis" : "50",
      "routeId" : "183",
      "seqNo" : "29"
   },
   {
      "GoBack" : "2",
      "longitude" : "120.57516",
      "outDis" : "50",
      "Id" : "5141",
      "oid" : "14057",
      "districtId" : "1",
      "nameZh" : "華南銀行(清水分行)",
      "pgp" : "0",
      "terminal" : "0",
      "latitude" : "24.2683",
      "inDis" : "50",
      "routeId" : "183",
      "seqNo" : "30"
   },
   {
      "GoBack" : "2",
      "longitude" : "120.57435",
      "outDis" : "50",
      "Id" : "4119",
      "oid" : "13526",
      "districtId" : "1",
      "nameZh" : "清水高中",
      "pgp" : "0",
      "terminal" : "0",
      "latitude" : "24.2661",
      "inDis" : "50",
      "routeId" : "183",
      "seqNo" : "31"
   },
   {
      "GoBack" : "2",
      "longitude" : "120.58224",
      "outDis" : "50",
      "Id" : "4137",
      "oid" : "13560",
      "districtId" : "1",
      "nameZh" : "嘉陽高中",
      "pgp" : "0",
      "terminal" : "0",
      "latitude" : "24.26578",
      "inDis" : "50",
      "routeId" : "183",
      "seqNo" : "33"
   },
   {
      "GoBack" : "2",
      "longitude" : "120.58787",
      "outDis" : "50",
      "Id" : "5033",
      "oid" : "309555541",
      "districtId" : "1",
      "nameZh" : "國仕加油站",
      "pgp" : "0",
      "terminal" : "0",
      "latitude" : "24.26416",
      "inDis" : "50",
      "routeId" : "183",
      "seqNo" : "35"
   },
   {
      "GoBack" : "2",
      "longitude" : "120.59513",
      "outDis" : "50",
      "Id" : "4083",
      "oid" : "13450",
      "districtId" : "1",
      "nameZh" : "公館國小",
      "pgp" : "0",
      "terminal" : "0",
      "latitude" : "24.26084",
      "inDis" : "50",
      "routeId" : "183",
      "seqNo" : "36"
   },
   {
      "GoBack" : "2",
      "longitude" : "120.5987",
      "outDis" : "50",
      "Id" : "4101",
      "oid" : "317773389",
      "districtId" : "1",
      "nameZh" : "西勢里",
      "pgp" : "0",
      "terminal" : "0",
      "latitude" : "24.25982",
      "inDis" : "50",
      "routeId" : "183",
      "seqNo" : "37"
   },
   {
      "GoBack" : "2",
      "longitude" : "120.60129",
      "outDis" : "50",
      "Id" : "5662",
      "oid" : "317773387",
      "districtId" : "1",
      "nameZh" : "中航和睦路口",
      "pgp" : "0",
      "terminal" : "0",
      "latitude" : "24.25821",
      "inDis" : "50",
      "routeId" : "183",
      "seqNo" : "38"
   },
   {
      "GoBack" : "2",
      "longitude" : "120.60003",
      "outDis" : "50",
      "Id" : "5381",
      "oid" : "312172944",
      "districtId" : "1",
      "nameZh" : "西勢十巷口",
      "pgp" : "0",
      "terminal" : "0",
      "latitude" : "24.25557",
      "inDis" : "50",
      "routeId" : "183",
      "seqNo" : "39"
   },
   {
      "GoBack" : "2",
      "longitude" : "120.59899",
      "outDis" : "50",
      "Id" : "0135",
      "oid" : "312174380",
      "districtId" : "1",
      "nameZh" : "臺中航空站",
      "pgp" : "0",
      "terminal" : "0",
      "latitude" : "24.25348",
      "inDis" : "50",
      "routeId" : "183",
      "seqNo" : "40"
   },
   {
      "GoBack" : "2",
      "longitude" : "120.59992",
      "outDis" : "50",
      "Id" : "5381",
      "oid" : "319604756",
      "districtId" : "1",
      "nameZh" : "西勢十巷口",
      "pgp" : "0",
      "terminal" : "0",
      "latitude" : "24.25515",
      "inDis" : "50",
      "routeId" : "183",
      "seqNo" : "41"
   },
   {
      "GoBack" : "2",
      "longitude" : "120.60111",
      "outDis" : "50",
      "Id" : "5662",
      "oid" : "319604757",
      "districtId" : "1",
      "nameZh" : "中航和睦路口",
      "pgp" : "0",
      "terminal" : "0",
      "latitude" : "24.25767",
      "inDis" : "50",
      "routeId" : "183",
      "seqNo" : "42"
   },
   {
      "GoBack" : "2",
      "longitude" : "120.60402",
      "outDis" : "50",
      "Id" : "3295",
      "oid" : "6370",
      "districtId" : "1",
      "nameZh" : "澔明公司",
      "pgp" : "0",
      "terminal" : "0",
      "latitude" : "24.26215",
      "inDis" : "50",
      "routeId" : "183",
      "seqNo" : "43"
   },
   {
      "GoBack" : "2",
      "longitude" : "120.60631",
      "outDis" : "50",
      "Id" : "2223",
      "oid" : "5781",
      "districtId" : "1",
      "nameZh" : "吳厝里",
      "pgp" : "0",
      "terminal" : "0",
      "latitude" : "24.2666",
      "inDis" : "50",
      "routeId" : "183",
      "seqNo" : "44"
   },
   {
      "GoBack" : "2",
      "longitude" : "120.60769",
      "outDis" : "50",
      "Id" : "3434",
      "oid" : "6454",
      "districtId" : "1",
      "nameZh" : "新興社區",
      "pgp" : "0",
      "terminal" : "0",
      "latitude" : "24.26934",
      "inDis" : "50",
      "routeId" : "183",
      "seqNo" : "45"
   },
   {
      "GoBack" : "2",
      "longitude" : "120.61116",
      "outDis" : "50",
      "Id" : "3119",
      "oid" : "6294",
      "districtId" : "1",
      "nameZh" : "頂吳厝里",
      "pgp" : "0",
      "terminal" : "0",
      "latitude" : "24.27616",
      "inDis" : "50",
      "routeId" : "183",
      "seqNo" : "46"
   },
   {
      "GoBack" : "2",
      "longitude" : "120.61289",
      "outDis" : "50",
      "Id" : "4955",
      "oid" : "17809",
      "districtId" : "1",
      "nameZh" : "許厝寮",
      "pgp" : "0",
      "terminal" : "0",
      "latitude" : "24.27944",
      "inDis" : "50",
      "routeId" : "183",
      "seqNo" : "47"
   },
   {
      "GoBack" : "2",
      "longitude" : "120.6133",
      "outDis" : "50",
      "Id" : "1203",
      "oid" : "5155",
      "districtId" : "1",
      "nameZh" : "下楊厝里",
      "pgp" : "0",
      "terminal" : "0",
      "latitude" : "24.28594",
      "inDis" : "50",
      "routeId" : "183",
      "seqNo" : "48"
   },
   {
      "GoBack" : "2",
      "longitude" : "120.61558",
      "outDis" : "50",
      "Id" : "3448",
      "oid" : "6466",
      "districtId" : "1",
      "nameZh" : "楊厝里",
      "pgp" : "0",
      "terminal" : "0",
      "latitude" : "24.28907",
      "inDis" : "50",
      "routeId" : "183",
      "seqNo" : "49"
   },
   {
      "GoBack" : "2",
      "longitude" : "120.61939",
      "outDis" : "50",
      "Id" : "2807",
      "oid" : "6125",
      "districtId" : "1",
      "nameZh" : "海風里",
      "pgp" : "0",
      "terminal" : "0",
      "latitude" : "24.29252",
      "inDis" : "50",
      "routeId" : "183",
      "seqNo" : "50"
   },
   {
      "GoBack" : "2",
      "longitude" : "120.62546",
      "outDis" : "50",
      "Id" : "2271",
      "oid" : "5805",
      "districtId" : "1",
      "nameZh" : "良逸公司",
      "pgp" : "0",
      "terminal" : "0",
      "latitude" : "24.29249",
      "inDis" : "50",
      "routeId" : "183",
      "seqNo" : "51"
   },
   {
      "GoBack" : "2",
      "longitude" : "120.63047",
      "outDis" : "50",
      "Id" : "1215",
      "oid" : "5164",
      "districtId" : "1",
      "nameZh" : "下舊庄",
      "pgp" : "0",
      "terminal" : "0",
      "latitude" : "24.29275",
      "inDis" : "50",
      "routeId" : "183",
      "seqNo" : "52"
   },
   {
      "GoBack" : "2",
      "longitude" : "120.63278",
      "outDis" : "50",
      "Id" : "3918",
      "oid" : "6687",
      "districtId" : "1",
      "nameZh" : "舊庄",
      "pgp" : "0",
      "terminal" : "0",
      "latitude" : "24.29185",
      "inDis" : "50",
      "routeId" : "183",
      "seqNo" : "53"
   },
   {
      "GoBack" : "2",
      "longitude" : "120.63516",
      "outDis" : "50",
      "Id" : "3180",
      "oid" : "6319",
      "districtId" : "1",
      "nameZh" : "頂舊庄",
      "pgp" : "0",
      "terminal" : "0",
      "latitude" : "24.2898",
      "inDis" : "50",
      "routeId" : "183",
      "seqNo" : "54"
   },
   {
      "GoBack" : "2",
      "longitude" : "120.64146",
      "outDis" : "50",
      "Id" : "1948",
      "oid" : "5619",
      "districtId" : "1",
      "nameZh" : "永進公司",
      "pgp" : "0",
      "terminal" : "0",
      "latitude" : "24.28672",
      "inDis" : "50",
      "routeId" : "183",
      "seqNo" : "55"
   },
   {
      "GoBack" : "2",
      "longitude" : "120.64462",
      "outDis" : "50",
      "Id" : "3062",
      "oid" : "6262",
      "districtId" : "1",
      "nameZh" : "庄尾",
      "pgp" : "0",
      "terminal" : "0",
      "latitude" : "24.28459",
      "inDis" : "50",
      "routeId" : "183",
      "seqNo" : "56"
   },
   {
      "GoBack" : "2",
      "longitude" : "120.65244",
      "outDis" : "50",
      "Id" : "3418",
      "oid" : "6446",
      "districtId" : "1",
      "nameZh" : "新庄車庫",
      "pgp" : "0",
      "terminal" : "0",
      "latitude" : "24.28102",
      "inDis" : "50",
      "routeId" : "183",
      "seqNo" : "57"
   },
   {
      "GoBack" : "2",
      "longitude" : "120.65427",
      "outDis" : "50",
      "Id" : "3415",
      "oid" : "6445",
      "districtId" : "1",
      "nameZh" : "新庄",
      "pgp" : "0",
      "terminal" : "0",
      "latitude" : "24.28033",
      "inDis" : "50",
      "routeId" : "183",
      "seqNo" : "58"
   },
   {
      "GoBack" : "2",
      "longitude" : "120.6566",
      "outDis" : "50",
      "Id" : "3660",
      "oid" : "6556",
      "districtId" : "1",
      "nameZh" : "福德祠",
      "pgp" : "0",
      "terminal" : "0",
      "latitude" : "24.27887",
      "inDis" : "50",
      "routeId" : "183",
      "seqNo" : "59"
   },
   {
      "GoBack" : "2",
      "longitude" : "120.65903",
      "outDis" : "50",
      "Id" : "3121",
      "oid" : "6295",
      "districtId" : "1",
      "nameZh" : "頂車站",
      "pgp" : "0",
      "terminal" : "0",
      "latitude" : "24.27418",
      "inDis" : "50",
      "routeId" : "183",
      "seqNo" : "60"
   },
   {
      "GoBack" : "2",
      "longitude" : "120.65753",
      "outDis" : "50",
      "Id" : "2095",
      "oid" : "5708",
      "districtId" : "1",
      "nameZh" : "圳堵",
      "pgp" : "0",
      "terminal" : "0",
      "latitude" : "24.27116",
      "inDis" : "50",
      "routeId" : "183",
      "seqNo" : "61"
   },
   {
      "GoBack" : "2",
      "longitude" : "120.65642",
      "outDis" : "50",
      "Id" : "4755",
      "oid" : "307119931",
      "districtId" : "1",
      "nameZh" : "圳堵里口",
      "pgp" : "0",
      "terminal" : "0",
      "latitude" : "24.26864",
      "inDis" : "50",
      "routeId" : "183",
      "seqNo" : "62"
   },
   {
      "GoBack" : "2",
      "longitude" : "120.65595",
      "outDis" : "50",
      "Id" : "3111",
      "oid" : "6290",
      "districtId" : "1",
      "nameZh" : "頂圳前",
      "pgp" : "0",
      "terminal" : "0",
      "latitude" : "24.26742",
      "inDis" : "50",
      "routeId" : "183",
      "seqNo" : "63"
   },
   {
      "GoBack" : "2",
      "longitude" : "120.65766",
      "outDis" : "50",
      "Id" : "2094",
      "oid" : "5707",
      "districtId" : "1",
      "nameZh" : "圳前里",
      "pgp" : "0",
      "terminal" : "0",
      "latitude" : "24.26399",
      "inDis" : "50",
      "routeId" : "183",
      "seqNo" : "64"
   },
   {
      "GoBack" : "2",
      "longitude" : "120.65861",
      "outDis" : "50",
      "Id" : "4962",
      "oid" : "308514219",
      "districtId" : "1",
      "nameZh" : "神圳國中",
      "pgp" : "0",
      "terminal" : "0",
      "latitude" : "24.26062",
      "inDis" : "50",
      "routeId" : "183",
      "seqNo" : "65"
   },
   {
      "GoBack" : "2",
      "longitude" : "120.65858",
      "outDis" : "50",
      "Id" : "2838",
      "oid" : "6142",
      "districtId" : "1",
      "nameZh" : "神岡農會",
      "pgp" : "0",
      "terminal" : "0",
      "latitude" : "24.25847",
      "inDis" : "50",
      "routeId" : "183",
      "seqNo" : "66"
   },
   {
      "GoBack" : "2",
      "longitude" : "120.6593",
      "outDis" : "50",
      "Id" : "2835",
      "oid" : "6139",
      "districtId" : "1",
      "nameZh" : "神岡",
      "pgp" : "0",
      "terminal" : "0",
      "latitude" : "24.25703",
      "inDis" : "50",
      "routeId" : "183",
      "seqNo" : "67"
   },
   {
      "GoBack" : "2",
      "longitude" : "120.66141",
      "outDis" : "50",
      "Id" : "2837",
      "oid" : "6141",
      "districtId" : "1",
      "nameZh" : "神岡區公所",
      "pgp" : "0",
      "terminal" : "0",
      "latitude" : "24.25771",
      "inDis" : "50",
      "routeId" : "183",
      "seqNo" : "68"
   },
   {
      "GoBack" : "2",
      "longitude" : "120.66294",
      "outDis" : "50",
      "Id" : "3066",
      "oid" : "6265",
      "districtId" : "1",
      "nameZh" : "庄頭",
      "pgp" : "0",
      "terminal" : "0",
      "latitude" : "24.25812",
      "inDis" : "50",
      "routeId" : "183",
      "seqNo" : "69"
   },
   {
      "GoBack" : "2",
      "longitude" : "120.66832",
      "outDis" : "50",
      "Id" : "1783",
      "oid" : "5526",
      "districtId" : "1",
      "nameZh" : "北庄",
      "pgp" : "0",
      "terminal" : "0",
      "latitude" : "24.25732",
      "inDis" : "50",
      "routeId" : "183",
      "seqNo" : "70"
   },
   {
      "GoBack" : "2",
      "longitude" : "120.67224",
      "outDis" : "50",
      "Id" : "3460",
      "oid" : "6474",
      "districtId" : "1",
      "nameZh" : "中山溝心路口",
      "pgp" : "0",
      "terminal" : "0",
      "latitude" : "24.25521",
      "inDis" : "50",
      "routeId" : "183",
      "seqNo" : "71"
   },
   {
      "GoBack" : "2",
      "longitude" : "120.67387",
      "outDis" : "50",
      "Id" : "3556",
      "oid" : "307752281",
      "districtId" : "1",
      "nameZh" : "電信局",
      "pgp" : "0",
      "terminal" : "0",
      "latitude" : "24.25294",
      "inDis" : "50",
      "routeId" : "183",
      "seqNo" : "72"
   },
   {
      "GoBack" : "2",
      "longitude" : "120.67622",
      "outDis" : "50",
      "Id" : "3655",
      "oid" : "6552",
      "districtId" : "1",
      "nameZh" : "福華公司",
      "pgp" : "0",
      "terminal" : "0",
      "latitude" : "24.25099",
      "inDis" : "50",
      "routeId" : "183",
      "seqNo" : "73"
   },
   {
      "GoBack" : "2",
      "longitude" : "120.67946",
      "outDis" : "50",
      "Id" : "3656",
      "oid" : "6553",
      "districtId" : "1",
      "nameZh" : "福隆新村",
      "pgp" : "0",
      "terminal" : "0",
      "latitude" : "24.24901",
      "inDis" : "50",
      "routeId" : "183",
      "seqNo" : "74"
   },
   {
      "GoBack" : "2",
      "longitude" : "120.68146",
      "outDis" : "50",
      "Id" : "2836",
      "oid" : "6140",
      "districtId" : "1",
      "nameZh" : "神岡國中",
      "pgp" : "0",
      "terminal" : "0",
      "latitude" : "24.24731",
      "inDis" : "50",
      "routeId" : "183",
      "seqNo" : "75"
   },
   {
      "GoBack" : "2",
      "longitude" : "120.68563",
      "outDis" : "50",
      "Id" : "2486",
      "oid" : "5941",
      "districtId" : "1",
      "nameZh" : "社口",
      "pgp" : "0",
      "terminal" : "0",
      "latitude" : "24.24668",
      "inDis" : "50",
      "routeId" : "183",
      "seqNo" : "76"
   },
   {
      "GoBack" : "2",
      "longitude" : "120.6896",
      "outDis" : "50",
      "Id" : "2700",
      "oid" : "6056",
      "districtId" : "1",
      "nameZh" : "紅瓦厝口",
      "pgp" : "0",
      "terminal" : "0",
      "latitude" : "24.2476",
      "inDis" : "50",
      "routeId" : "183",
      "seqNo" : "77"
   },
   {
      "GoBack" : "2",
      "longitude" : "120.69323",
      "outDis" : "50",
      "Id" : "2993",
      "oid" : "6203",
      "districtId" : "1",
      "nameZh" : "望寮",
      "pgp" : "0",
      "terminal" : "0",
      "latitude" : "24.24841",
      "inDis" : "50",
      "routeId" : "183",
      "seqNo" : "78"
   },
   {
      "GoBack" : "2",
      "longitude" : "120.69799",
      "outDis" : "50",
      "Id" : "5438",
      "oid" : "5237",
      "districtId" : "1",
      "nameZh" : "岸裡國小",
      "pgp" : "0",
      "terminal" : "0",
      "latitude" : "24.2487",
      "inDis" : "50",
      "routeId" : "183",
      "seqNo" : "79"
   },
   {
      "GoBack" : "2",
      "longitude" : "120.70003",
      "outDis" : "50",
      "Id" : "4498",
      "oid" : "13826",
      "districtId" : "1",
      "nameZh" : "臺豐社區",
      "pgp" : "0",
      "terminal" : "0",
      "latitude" : "24.249",
      "inDis" : "50",
      "routeId" : "183",
      "seqNo" : "80"
   },
   {
      "GoBack" : "2",
      "longitude" : "120.70229",
      "outDis" : "50",
      "Id" : "2489",
      "oid" : "5943",
      "districtId" : "1",
      "nameZh" : "社皮鐵路巷",
      "pgp" : "0",
      "terminal" : "0",
      "latitude" : "24.24951",
      "inDis" : "50",
      "routeId" : "183",
      "seqNo" : "81"
   },
   {
      "GoBack" : "2",
      "longitude" : "120.70434",
      "outDis" : "50",
      "Id" : "2349",
      "oid" : "5856",
      "districtId" : "1",
      "nameZh" : "忠勤新村",
      "pgp" : "0",
      "terminal" : "0",
      "latitude" : "24.24962",
      "inDis" : "50",
      "routeId" : "183",
      "seqNo" : "82"
   },
   {
      "GoBack" : "2",
      "longitude" : "120.70672",
      "outDis" : "50",
      "Id" : "1065",
      "oid" : "5072",
      "districtId" : "1",
      "nameZh" : "三光新村",
      "pgp" : "0",
      "terminal" : "0",
      "latitude" : "24.24999",
      "inDis" : "50",
      "routeId" : "183",
      "seqNo" : "83"
   },
   {
      "GoBack" : "2",
      "longitude" : "120.70963",
      "outDis" : "50",
      "Id" : "4448",
      "oid" : "6688",
      "districtId" : "1",
      "nameZh" : "中正圓環西路口",
      "pgp" : "0",
      "terminal" : "0",
      "latitude" : "24.25039",
      "inDis" : "50",
      "routeId" : "183",
      "seqNo" : "84"
   },
   {
      "GoBack" : "2",
      "longitude" : "120.712",
      "outDis" : "50",
      "Id" : "3357",
      "oid" : "6406",
      "districtId" : "1",
      "nameZh" : "慈龍寺",
      "pgp" : "0",
      "terminal" : "0",
      "latitude" : "24.25079",
      "inDis" : "50",
      "routeId" : "183",
      "seqNo" : "85"
   },
   {
      "GoBack" : "2",
      "longitude" : "120.71526",
      "outDis" : "50",
      "Id" : "3939",
      "oid" : "6698",
      "districtId" : "1",
      "nameZh" : "豐原郵局",
      "pgp" : "0",
      "terminal" : "0",
      "latitude" : "24.25136",
      "inDis" : "50",
      "routeId" : "183",
      "seqNo" : "86"
   },
   {
      "GoBack" : "2",
      "longitude" : "120.71851",
      "outDis" : "50",
      "Id" : "3343",
      "oid" : "6397",
      "districtId" : "1",
      "nameZh" : "媽祖廟",
      "pgp" : "0",
      "terminal" : "0",
      "latitude" : "24.25157",
      "inDis" : "50",
      "routeId" : "183",
      "seqNo" : "87"
   },
   {
      "GoBack" : "2",
      "longitude" : "120.71986",
      "outDis" : "50",
      "Id" : "2309",
      "oid" : "5835",
      "districtId" : "1",
      "nameZh" : "和平街",
      "pgp" : "0",
      "terminal" : "0",
      "latitude" : "24.25233",
      "inDis" : "50",
      "routeId" : "183",
      "seqNo" : "88"
   },
   {
      "GoBack" : "2",
      "longitude" : "120.72154",
      "outDis" : "70",
      "Id" : "3935",
      "oid" : "6693",
      "districtId" : "1",
      "nameZh" : "豐原",
      "pgp" : "0",
      "terminal" : "0",
      "latitude" : "24.2538",
      "inDis" : "70",
      "routeId" : "183",
      "seqNo" : "89"
   }
]
