[
   {
      "GoBack" : "1",
      "longitude" : "120.82862",
      "outDis" : "50",
      "Id" : "2428",
      "oid" : "5900",
      "districtId" : "1",
      "nameZh" : "東勢",
      "pgp" : "0",
      "terminal" : "0",
      "latitude" : "24.25742",
      "inDis" : "50",
      "routeId" : "272",
      "seqNo" : "1"
   },
   {
      "GoBack" : "1",
      "longitude" : "120.8272",
      "outDis" : "80",
      "Id" : "4500",
      "oid" : "5745",
      "districtId" : "1",
      "nameZh" : "東勢老人會館",
      "pgp" : "0",
      "terminal" : "0",
      "latitude" : "24.26098",
      "inDis" : "50",
      "routeId" : "272",
      "seqNo" : "2"
   },
   {
      "GoBack" : "1",
      "longitude" : "120.82676",
      "outDis" : "80",
      "Id" : "2434",
      "oid" : "5905",
      "districtId" : "1",
      "nameZh" : "東新國中",
      "pgp" : "0",
      "terminal" : "0",
      "latitude" : "24.26256",
      "inDis" : "50",
      "routeId" : "272",
      "seqNo" : "3"
   },
   {
      "GoBack" : "1",
      "longitude" : "120.82464",
      "outDis" : "50",
      "Id" : "4494",
      "oid" : "6462",
      "districtId" : "1",
      "nameZh" : "新豐新寧街口",
      "pgp" : "0",
      "terminal" : "0",
      "latitude" : "24.26264",
      "inDis" : "50",
      "routeId" : "272",
      "seqNo" : "4"
   },
   {
      "GoBack" : "1",
      "longitude" : "120.81565",
      "outDis" : "50",
      "Id" : "4650",
      "oid" : "5197",
      "districtId" : "1",
      "nameZh" : "土牛(和盛街)",
      "pgp" : "0",
      "terminal" : "0",
      "latitude" : "24.25913",
      "inDis" : "50",
      "routeId" : "272",
      "seqNo" : "5"
   },
   {
      "GoBack" : "1",
      "longitude" : "120.81402",
      "outDis" : "50",
      "Id" : "2593",
      "oid" : "6000",
      "districtId" : "1",
      "nameZh" : "南眉",
      "pgp" : "0",
      "terminal" : "0",
      "latitude" : "24.25639",
      "inDis" : "50",
      "routeId" : "272",
      "seqNo" : "6"
   },
   {
      "GoBack" : "1",
      "longitude" : "120.80775",
      "outDis" : "50",
      "Id" : "2446",
      "oid" : "5914",
      "districtId" : "1",
      "nameZh" : "果菜市場",
      "pgp" : "0",
      "terminal" : "0",
      "latitude" : "24.25706",
      "inDis" : "50",
      "routeId" : "272",
      "seqNo" : "9"
   },
   {
      "GoBack" : "1",
      "longitude" : "120.80698",
      "outDis" : "50",
      "Id" : "1394",
      "oid" : "5287",
      "districtId" : "1",
      "nameZh" : "山頂",
      "pgp" : "0",
      "terminal" : "0",
      "latitude" : "24.25547",
      "inDis" : "50",
      "routeId" : "272",
      "seqNo" : "10"
   },
   {
      "GoBack" : "1",
      "longitude" : "120.80775",
      "outDis" : "50",
      "Id" : "3557",
      "oid" : "6515",
      "districtId" : "1",
      "nameZh" : "電信局前",
      "pgp" : "0",
      "terminal" : "0",
      "latitude" : "24.25339",
      "inDis" : "50",
      "routeId" : "272",
      "seqNo" : "11"
   },
   {
      "GoBack" : "1",
      "longitude" : "120.80893",
      "outDis" : "50",
      "Id" : "1438",
      "oid" : "5318",
      "districtId" : "1",
      "nameZh" : "中正里",
      "pgp" : "0",
      "terminal" : "0",
      "latitude" : "24.25027",
      "inDis" : "50",
      "routeId" : "272",
      "seqNo" : "12"
   },
   {
      "GoBack" : "1",
      "longitude" : "120.80868",
      "outDis" : "50",
      "Id" : "0011",
      "oid" : "6372",
      "districtId" : "1",
      "nameZh" : "郵局",
      "pgp" : "0",
      "terminal" : "0",
      "latitude" : "24.24772",
      "inDis" : "50",
      "routeId" : "272",
      "seqNo" : "13"
   },
   {
      "GoBack" : "1",
      "longitude" : "120.80832",
      "outDis" : "50",
      "Id" : "1199",
      "oid" : "5153",
      "districtId" : "1",
      "nameZh" : "下新社",
      "pgp" : "0",
      "terminal" : "0",
      "latitude" : "24.24638",
      "inDis" : "50",
      "routeId" : "272",
      "seqNo" : "14"
   },
   {
      "GoBack" : "1",
      "longitude" : "120.80835",
      "outDis" : "50",
      "Id" : "3398",
      "oid" : "6433",
      "districtId" : "1",
      "nameZh" : "新社",
      "pgp" : "0",
      "terminal" : "0",
      "latitude" : "24.24458",
      "inDis" : "50",
      "routeId" : "272",
      "seqNo" : "15"
   },
   {
      "GoBack" : "1",
      "longitude" : "120.80769",
      "outDis" : "50",
      "Id" : "3162",
      "oid" : "6311",
      "districtId" : "1",
      "nameZh" : "頂新社",
      "pgp" : "0",
      "terminal" : "0",
      "latitude" : "24.24262",
      "inDis" : "50",
      "routeId" : "272",
      "seqNo" : "16"
   },
   {
      "GoBack" : "1",
      "longitude" : "120.80658",
      "outDis" : "50",
      "Id" : "3400",
      "oid" : "319916591",
      "districtId" : "1",
      "nameZh" : "新社高中",
      "pgp" : "0",
      "terminal" : "0",
      "latitude" : "24.23922",
      "inDis" : "50",
      "routeId" : "272",
      "seqNo" : "17"
   },
   {
      "GoBack" : "1",
      "longitude" : "120.8057",
      "outDis" : "50",
      "Id" : "5707",
      "oid" : "319916592",
      "districtId" : "1",
      "nameZh" : "擺頭店",
      "pgp" : "0",
      "terminal" : "0",
      "latitude" : "24.23711",
      "inDis" : "50",
      "routeId" : "272",
      "seqNo" : "18"
   },
   {
      "GoBack" : "1",
      "longitude" : "120.80451",
      "outDis" : "50",
      "Id" : "5705",
      "oid" : "319916593",
      "districtId" : "1",
      "nameZh" : "復盛橋",
      "pgp" : "0",
      "terminal" : "0",
      "latitude" : "24.23582",
      "inDis" : "50",
      "routeId" : "272",
      "seqNo" : "19"
   },
   {
      "GoBack" : "1",
      "longitude" : "120.80339",
      "outDis" : "50",
      "Id" : "3679",
      "oid" : "6570",
      "districtId" : "1",
      "nameZh" : "種苗繁殖場",
      "pgp" : "0",
      "terminal" : "0",
      "latitude" : "24.2302",
      "inDis" : "50",
      "routeId" : "272",
      "seqNo" : "20"
   },
   {
      "GoBack" : "1",
      "longitude" : "120.79961",
      "outDis" : "50",
      "Id" : "1318",
      "oid" : "5239",
      "districtId" : "1",
      "nameZh" : "大南",
      "pgp" : "0",
      "terminal" : "0",
      "latitude" : "24.22922",
      "inDis" : "50",
      "routeId" : "272",
      "seqNo" : "21"
   },
   {
      "GoBack" : "1",
      "longitude" : "120.79874",
      "outDis" : "50",
      "Id" : "2356",
      "oid" : "5864",
      "districtId" : "1",
      "nameZh" : "內觀中心",
      "pgp" : "0",
      "terminal" : "0",
      "latitude" : "24.22815",
      "inDis" : "50",
      "routeId" : "272",
      "seqNo" : "22"
   },
   {
      "GoBack" : "1",
      "longitude" : "120.79749",
      "outDis" : "50",
      "Id" : "3586",
      "oid" : "6530",
      "districtId" : "1",
      "nameZh" : "廖厝",
      "pgp" : "0",
      "terminal" : "0",
      "latitude" : "24.22637",
      "inDis" : "50",
      "routeId" : "272",
      "seqNo" : "23"
   },
   {
      "GoBack" : "1",
      "longitude" : "120.79585",
      "outDis" : "50",
      "Id" : "1720",
      "oid" : "5490",
      "districtId" : "1",
      "nameZh" : "水頭",
      "pgp" : "0",
      "terminal" : "0",
      "latitude" : "24.22431",
      "inDis" : "50",
      "routeId" : "272",
      "seqNo" : "24"
   },
   {
      "GoBack" : "1",
      "longitude" : "120.79363",
      "outDis" : "50",
      "Id" : "2940",
      "oid" : "6181",
      "districtId" : "1",
      "nameZh" : "國隆社區",
      "pgp" : "0",
      "terminal" : "0",
      "latitude" : "24.22204",
      "inDis" : "50",
      "routeId" : "272",
      "seqNo" : "25"
   },
   {
      "GoBack" : "1",
      "longitude" : "120.7931",
      "outDis" : "50",
      "Id" : "2892",
      "oid" : "6159",
      "districtId" : "1",
      "nameZh" : "馬力埔",
      "pgp" : "0",
      "terminal" : "0",
      "latitude" : "24.22078",
      "inDis" : "50",
      "routeId" : "272",
      "seqNo" : "26"
   },
   {
      "GoBack" : "1",
      "longitude" : "120.79235",
      "outDis" : "50",
      "Id" : "2675",
      "oid" : "6036",
      "districtId" : "1",
      "nameZh" : "活動中心",
      "pgp" : "0",
      "terminal" : "0",
      "latitude" : "24.219",
      "inDis" : "50",
      "routeId" : "272",
      "seqNo" : "27"
   },
   {
      "GoBack" : "1",
      "longitude" : "120.79421",
      "outDis" : "50",
      "Id" : "2987",
      "oid" : "6199",
      "districtId" : "1",
      "nameZh" : "教堂前",
      "pgp" : "0",
      "terminal" : "0",
      "latitude" : "24.21843",
      "inDis" : "50",
      "routeId" : "272",
      "seqNo" : "28"
   },
   {
      "GoBack" : "1",
      "longitude" : "120.79603",
      "outDis" : "50",
      "Id" : "3363",
      "oid" : "6410",
      "districtId" : "1",
      "nameZh" : "新二村",
      "pgp" : "0",
      "terminal" : "0",
      "latitude" : "24.21791",
      "inDis" : "50",
      "routeId" : "272",
      "seqNo" : "29"
   },
   {
      "GoBack" : "1",
      "longitude" : "120.79593",
      "outDis" : "50",
      "Id" : "3082",
      "oid" : "6274",
      "districtId" : "1",
      "nameZh" : "陳厝",
      "pgp" : "0",
      "terminal" : "0",
      "latitude" : "24.21429",
      "inDis" : "50",
      "routeId" : "272",
      "seqNo" : "30"
   },
   {
      "GoBack" : "1",
      "longitude" : "120.79583",
      "outDis" : "50",
      "Id" : "1123",
      "oid" : "5107",
      "districtId" : "1",
      "nameZh" : "下中興嶺",
      "pgp" : "0",
      "terminal" : "0",
      "latitude" : "24.21127",
      "inDis" : "50",
      "routeId" : "272",
      "seqNo" : "31"
   },
   {
      "GoBack" : "1",
      "longitude" : "120.79445",
      "outDis" : "50",
      "Id" : "3885",
      "oid" : "6667",
      "districtId" : "1",
      "nameZh" : "營區前",
      "pgp" : "0",
      "terminal" : "0",
      "latitude" : "24.2075",
      "inDis" : "50",
      "routeId" : "272",
      "seqNo" : "32"
   },
   {
      "GoBack" : "1",
      "longitude" : "120.79406",
      "outDis" : "50",
      "Id" : "0437",
      "oid" : "5362",
      "districtId" : "1",
      "nameZh" : "中興嶺",
      "pgp" : "0",
      "terminal" : "0",
      "latitude" : "24.20579",
      "inDis" : "50",
      "routeId" : "272",
      "seqNo" : "33"
   },
   {
      "GoBack" : "1",
      "longitude" : "120.79725",
      "outDis" : "50",
      "Id" : "1224",
      "oid" : "5171",
      "districtId" : "1",
      "nameZh" : "上中興嶺",
      "pgp" : "0",
      "terminal" : "0",
      "latitude" : "24.20328",
      "inDis" : "50",
      "routeId" : "272",
      "seqNo" : "34"
   },
   {
      "GoBack" : "1",
      "longitude" : "120.80023",
      "outDis" : "50",
      "Id" : "3825",
      "oid" : "6638",
      "districtId" : "1",
      "nameZh" : "頭嵙口",
      "pgp" : "0",
      "terminal" : "0",
      "latitude" : "24.19925",
      "inDis" : "50",
      "routeId" : "272",
      "seqNo" : "35"
   },
   {
      "GoBack" : "1",
      "longitude" : "120.80283",
      "outDis" : "50",
      "Id" : "1849",
      "oid" : "5573",
      "districtId" : "1",
      "nameZh" : "四村口",
      "pgp" : "0",
      "terminal" : "0",
      "latitude" : "24.19719",
      "inDis" : "50",
      "routeId" : "272",
      "seqNo" : "36"
   },
   {
      "GoBack" : "1",
      "longitude" : "120.80492",
      "outDis" : "50",
      "Id" : "3372",
      "oid" : "6415",
      "districtId" : "1",
      "nameZh" : "新四村",
      "pgp" : "0",
      "terminal" : "0",
      "latitude" : "24.19549",
      "inDis" : "50",
      "routeId" : "272",
      "seqNo" : "37"
   },
   {
      "GoBack" : "1",
      "longitude" : "120.80661",
      "outDis" : "50",
      "Id" : "1095",
      "oid" : "5061",
      "districtId" : "1",
      "nameZh" : "三嵙口",
      "pgp" : "0",
      "terminal" : "0",
      "latitude" : "24.19425",
      "inDis" : "50",
      "routeId" : "272",
      "seqNo" : "38"
   },
   {
      "GoBack" : "1",
      "longitude" : "120.80927",
      "outDis" : "50",
      "Id" : "1354",
      "oid" : "5211",
      "districtId" : "1",
      "nameZh" : "大嵙口",
      "pgp" : "0",
      "terminal" : "0",
      "latitude" : "24.19202",
      "inDis" : "50",
      "routeId" : "272",
      "seqNo" : "39"
   },
   {
      "GoBack" : "1",
      "longitude" : "120.81147",
      "outDis" : "50",
      "Id" : "3368",
      "oid" : "6412",
      "districtId" : "1",
      "nameZh" : "新五村",
      "pgp" : "0",
      "terminal" : "0",
      "latitude" : "24.19043",
      "inDis" : "50",
      "routeId" : "272",
      "seqNo" : "40"
   },
   {
      "GoBack" : "1",
      "longitude" : "120.81558",
      "outDis" : "50",
      "Id" : "2705",
      "oid" : "6062",
      "districtId" : "1",
      "nameZh" : "茅埔角",
      "pgp" : "0",
      "terminal" : "0",
      "latitude" : "24.18477",
      "inDis" : "50",
      "routeId" : "272",
      "seqNo" : "41"
   },
   {
      "GoBack" : "1",
      "longitude" : "120.81594",
      "outDis" : "50",
      "Id" : "4206",
      "oid" : "12291",
      "districtId" : "1",
      "nameZh" : "食水井",
      "pgp" : "0",
      "terminal" : "0",
      "latitude" : "24.17801",
      "inDis" : "50",
      "routeId" : "272",
      "seqNo" : "42"
   },
   {
      "GoBack" : "1",
      "longitude" : "120.81494",
      "outDis" : "50",
      "Id" : "2604",
      "oid" : "6006",
      "districtId" : "1",
      "nameZh" : "南華莊",
      "pgp" : "0",
      "terminal" : "0",
      "latitude" : "24.17592",
      "inDis" : "50",
      "routeId" : "272",
      "seqNo" : "43"
   },
   {
      "GoBack" : "1",
      "longitude" : "120.81009",
      "outDis" : "50",
      "Id" : "2964",
      "oid" : "6189",
      "districtId" : "1",
      "nameZh" : "崎頂",
      "pgp" : "0",
      "terminal" : "0",
      "latitude" : "24.17426",
      "inDis" : "50",
      "routeId" : "272",
      "seqNo" : "44"
   },
   {
      "GoBack" : "1",
      "longitude" : "120.8126",
      "outDis" : "50",
      "Id" : "3006",
      "oid" : "6214",
      "districtId" : "1",
      "nameZh" : "梅園",
      "pgp" : "0",
      "terminal" : "0",
      "latitude" : "24.16064",
      "inDis" : "50",
      "routeId" : "272",
      "seqNo" : "48"
   },
   {
      "GoBack" : "1",
      "longitude" : "120.81362",
      "outDis" : "50",
      "Id" : "2131",
      "oid" : "5732",
      "districtId" : "1",
      "nameZh" : "池上",
      "pgp" : "0",
      "terminal" : "0",
      "latitude" : "24.15705",
      "inDis" : "50",
      "routeId" : "272",
      "seqNo" : "49"
   },
   {
      "GoBack" : "1",
      "longitude" : "120.81321",
      "outDis" : "50",
      "Id" : "3855",
      "oid" : "6656",
      "districtId" : "1",
      "nameZh" : "龍泉",
      "pgp" : "0",
      "terminal" : "0",
      "latitude" : "24.15462",
      "inDis" : "50",
      "routeId" : "272",
      "seqNo" : "50"
   },
   {
      "GoBack" : "1",
      "longitude" : "120.81248",
      "outDis" : "50",
      "Id" : "3856",
      "oid" : "6657",
      "districtId" : "1",
      "nameZh" : "龍泉下",
      "pgp" : "0",
      "terminal" : "0",
      "latitude" : "24.15316",
      "inDis" : "50",
      "routeId" : "272",
      "seqNo" : "51"
   },
   {
      "GoBack" : "1",
      "longitude" : "120.81057",
      "outDis" : "50",
      "Id" : "2218",
      "oid" : "5775",
      "districtId" : "1",
      "nameZh" : "伯公前",
      "pgp" : "0",
      "terminal" : "0",
      "latitude" : "24.15176",
      "inDis" : "50",
      "routeId" : "272",
      "seqNo" : "52"
   },
   {
      "GoBack" : "1",
      "longitude" : "120.80589",
      "outDis" : "50",
      "Id" : "2714",
      "oid" : "6064",
      "districtId" : "1",
      "nameZh" : "茄苳寮",
      "pgp" : "0",
      "terminal" : "0",
      "latitude" : "24.15078",
      "inDis" : "50",
      "routeId" : "272",
      "seqNo" : "53"
   },
   {
      "GoBack" : "2",
      "longitude" : "120.80589",
      "outDis" : "50",
      "Id" : "2714",
      "oid" : "6064",
      "districtId" : "1",
      "nameZh" : "茄苳寮",
      "pgp" : "0",
      "terminal" : "0",
      "latitude" : "24.15078",
      "inDis" : "50",
      "routeId" : "272",
      "seqNo" : "1"
   },
   {
      "GoBack" : "2",
      "longitude" : "120.81057",
      "outDis" : "50",
      "Id" : "2218",
      "oid" : "5775",
      "districtId" : "1",
      "nameZh" : "伯公前",
      "pgp" : "0",
      "terminal" : "0",
      "latitude" : "24.15176",
      "inDis" : "50",
      "routeId" : "272",
      "seqNo" : "2"
   },
   {
      "GoBack" : "2",
      "longitude" : "120.81248",
      "outDis" : "50",
      "Id" : "3856",
      "oid" : "6657",
      "districtId" : "1",
      "nameZh" : "龍泉下",
      "pgp" : "0",
      "terminal" : "0",
      "latitude" : "24.15316",
      "inDis" : "50",
      "routeId" : "272",
      "seqNo" : "3"
   },
   {
      "GoBack" : "2",
      "longitude" : "120.81321",
      "outDis" : "50",
      "Id" : "3855",
      "oid" : "6656",
      "districtId" : "1",
      "nameZh" : "龍泉",
      "pgp" : "0",
      "terminal" : "0",
      "latitude" : "24.15462",
      "inDis" : "50",
      "routeId" : "272",
      "seqNo" : "4"
   },
   {
      "GoBack" : "2",
      "longitude" : "120.81362",
      "outDis" : "50",
      "Id" : "2131",
      "oid" : "5732",
      "districtId" : "1",
      "nameZh" : "池上",
      "pgp" : "0",
      "terminal" : "0",
      "latitude" : "24.15705",
      "inDis" : "50",
      "routeId" : "272",
      "seqNo" : "5"
   },
   {
      "GoBack" : "2",
      "longitude" : "120.8126",
      "outDis" : "50",
      "Id" : "3006",
      "oid" : "6214",
      "districtId" : "1",
      "nameZh" : "梅園",
      "pgp" : "0",
      "terminal" : "0",
      "latitude" : "24.16064",
      "inDis" : "50",
      "routeId" : "272",
      "seqNo" : "6"
   },
   {
      "GoBack" : "2",
      "longitude" : "120.81009",
      "outDis" : "50",
      "Id" : "2964",
      "oid" : "6189",
      "districtId" : "1",
      "nameZh" : "崎頂",
      "pgp" : "0",
      "terminal" : "0",
      "latitude" : "24.17426",
      "inDis" : "50",
      "routeId" : "272",
      "seqNo" : "10"
   },
   {
      "GoBack" : "2",
      "longitude" : "120.81494",
      "outDis" : "50",
      "Id" : "2604",
      "oid" : "6006",
      "districtId" : "1",
      "nameZh" : "南華莊",
      "pgp" : "0",
      "terminal" : "0",
      "latitude" : "24.17592",
      "inDis" : "50",
      "routeId" : "272",
      "seqNo" : "11"
   },
   {
      "GoBack" : "2",
      "longitude" : "120.81594",
      "outDis" : "50",
      "Id" : "4206",
      "oid" : "12291",
      "districtId" : "1",
      "nameZh" : "食水井",
      "pgp" : "0",
      "terminal" : "0",
      "latitude" : "24.17801",
      "inDis" : "50",
      "routeId" : "272",
      "seqNo" : "12"
   },
   {
      "GoBack" : "2",
      "longitude" : "120.81558",
      "outDis" : "50",
      "Id" : "2705",
      "oid" : "6062",
      "districtId" : "1",
      "nameZh" : "茅埔角",
      "pgp" : "0",
      "terminal" : "0",
      "latitude" : "24.18477",
      "inDis" : "50",
      "routeId" : "272",
      "seqNo" : "13"
   },
   {
      "GoBack" : "2",
      "longitude" : "120.81147",
      "outDis" : "50",
      "Id" : "3368",
      "oid" : "6412",
      "districtId" : "1",
      "nameZh" : "新五村",
      "pgp" : "0",
      "terminal" : "0",
      "latitude" : "24.19043",
      "inDis" : "50",
      "routeId" : "272",
      "seqNo" : "14"
   },
   {
      "GoBack" : "2",
      "longitude" : "120.80927",
      "outDis" : "50",
      "Id" : "1354",
      "oid" : "5211",
      "districtId" : "1",
      "nameZh" : "大嵙口",
      "pgp" : "0",
      "terminal" : "0",
      "latitude" : "24.19202",
      "inDis" : "50",
      "routeId" : "272",
      "seqNo" : "15"
   },
   {
      "GoBack" : "2",
      "longitude" : "120.80661",
      "outDis" : "50",
      "Id" : "1095",
      "oid" : "5061",
      "districtId" : "1",
      "nameZh" : "三嵙口",
      "pgp" : "0",
      "terminal" : "0",
      "latitude" : "24.19425",
      "inDis" : "50",
      "routeId" : "272",
      "seqNo" : "16"
   },
   {
      "GoBack" : "2",
      "longitude" : "120.80492",
      "outDis" : "50",
      "Id" : "3372",
      "oid" : "6415",
      "districtId" : "1",
      "nameZh" : "新四村",
      "pgp" : "0",
      "terminal" : "0",
      "latitude" : "24.19549",
      "inDis" : "50",
      "routeId" : "272",
      "seqNo" : "17"
   },
   {
      "GoBack" : "2",
      "longitude" : "120.80283",
      "outDis" : "50",
      "Id" : "1849",
      "oid" : "5573",
      "districtId" : "1",
      "nameZh" : "四村口",
      "pgp" : "0",
      "terminal" : "0",
      "latitude" : "24.19719",
      "inDis" : "50",
      "routeId" : "272",
      "seqNo" : "18"
   },
   {
      "GoBack" : "2",
      "longitude" : "120.80023",
      "outDis" : "50",
      "Id" : "3825",
      "oid" : "6638",
      "districtId" : "1",
      "nameZh" : "頭嵙口",
      "pgp" : "0",
      "terminal" : "0",
      "latitude" : "24.19925",
      "inDis" : "50",
      "routeId" : "272",
      "seqNo" : "19"
   },
   {
      "GoBack" : "2",
      "longitude" : "120.79725",
      "outDis" : "50",
      "Id" : "1224",
      "oid" : "5171",
      "districtId" : "1",
      "nameZh" : "上中興嶺",
      "pgp" : "0",
      "terminal" : "0",
      "latitude" : "24.20328",
      "inDis" : "50",
      "routeId" : "272",
      "seqNo" : "20"
   },
   {
      "GoBack" : "2",
      "longitude" : "120.79406",
      "outDis" : "50",
      "Id" : "0437",
      "oid" : "5362",
      "districtId" : "1",
      "nameZh" : "中興嶺",
      "pgp" : "0",
      "terminal" : "0",
      "latitude" : "24.20579",
      "inDis" : "50",
      "routeId" : "272",
      "seqNo" : "21"
   },
   {
      "GoBack" : "2",
      "longitude" : "120.79445",
      "outDis" : "50",
      "Id" : "3885",
      "oid" : "6667",
      "districtId" : "1",
      "nameZh" : "營區前",
      "pgp" : "0",
      "terminal" : "0",
      "latitude" : "24.2075",
      "inDis" : "50",
      "routeId" : "272",
      "seqNo" : "22"
   },
   {
      "GoBack" : "2",
      "longitude" : "120.79583",
      "outDis" : "50",
      "Id" : "1123",
      "oid" : "5107",
      "districtId" : "1",
      "nameZh" : "下中興嶺",
      "pgp" : "0",
      "terminal" : "0",
      "latitude" : "24.21127",
      "inDis" : "50",
      "routeId" : "272",
      "seqNo" : "23"
   },
   {
      "GoBack" : "2",
      "longitude" : "120.79593",
      "outDis" : "50",
      "Id" : "3082",
      "oid" : "6274",
      "districtId" : "1",
      "nameZh" : "陳厝",
      "pgp" : "0",
      "terminal" : "0",
      "latitude" : "24.21429",
      "inDis" : "50",
      "routeId" : "272",
      "seqNo" : "24"
   },
   {
      "GoBack" : "2",
      "longitude" : "120.79603",
      "outDis" : "50",
      "Id" : "3363",
      "oid" : "6410",
      "districtId" : "1",
      "nameZh" : "新二村",
      "pgp" : "0",
      "terminal" : "0",
      "latitude" : "24.21791",
      "inDis" : "50",
      "routeId" : "272",
      "seqNo" : "25"
   },
   {
      "GoBack" : "2",
      "longitude" : "120.79421",
      "outDis" : "50",
      "Id" : "2987",
      "oid" : "6199",
      "districtId" : "1",
      "nameZh" : "教堂前",
      "pgp" : "0",
      "terminal" : "0",
      "latitude" : "24.21843",
      "inDis" : "50",
      "routeId" : "272",
      "seqNo" : "26"
   },
   {
      "GoBack" : "2",
      "longitude" : "120.79235",
      "outDis" : "50",
      "Id" : "2675",
      "oid" : "6036",
      "districtId" : "1",
      "nameZh" : "活動中心",
      "pgp" : "0",
      "terminal" : "0",
      "latitude" : "24.219",
      "inDis" : "50",
      "routeId" : "272",
      "seqNo" : "27"
   },
   {
      "GoBack" : "2",
      "longitude" : "120.7931",
      "outDis" : "50",
      "Id" : "2892",
      "oid" : "6159",
      "districtId" : "1",
      "nameZh" : "馬力埔",
      "pgp" : "0",
      "terminal" : "0",
      "latitude" : "24.22078",
      "inDis" : "50",
      "routeId" : "272",
      "seqNo" : "28"
   },
   {
      "GoBack" : "2",
      "longitude" : "120.79363",
      "outDis" : "50",
      "Id" : "2940",
      "oid" : "6181",
      "districtId" : "1",
      "nameZh" : "國隆社區",
      "pgp" : "0",
      "terminal" : "0",
      "latitude" : "24.22204",
      "inDis" : "50",
      "routeId" : "272",
      "seqNo" : "29"
   },
   {
      "GoBack" : "2",
      "longitude" : "120.79585",
      "outDis" : "50",
      "Id" : "1720",
      "oid" : "5490",
      "districtId" : "1",
      "nameZh" : "水頭",
      "pgp" : "0",
      "terminal" : "0",
      "latitude" : "24.22431",
      "inDis" : "50",
      "routeId" : "272",
      "seqNo" : "30"
   },
   {
      "GoBack" : "2",
      "longitude" : "120.79749",
      "outDis" : "50",
      "Id" : "3586",
      "oid" : "6530",
      "districtId" : "1",
      "nameZh" : "廖厝",
      "pgp" : "0",
      "terminal" : "0",
      "latitude" : "24.22637",
      "inDis" : "50",
      "routeId" : "272",
      "seqNo" : "31"
   },
   {
      "GoBack" : "2",
      "longitude" : "120.79874",
      "outDis" : "50",
      "Id" : "2356",
      "oid" : "5864",
      "districtId" : "1",
      "nameZh" : "內觀中心",
      "pgp" : "0",
      "terminal" : "0",
      "latitude" : "24.22815",
      "inDis" : "50",
      "routeId" : "272",
      "seqNo" : "32"
   },
   {
      "GoBack" : "2",
      "longitude" : "120.79961",
      "outDis" : "50",
      "Id" : "1318",
      "oid" : "5239",
      "districtId" : "1",
      "nameZh" : "大南",
      "pgp" : "0",
      "terminal" : "0",
      "latitude" : "24.22922",
      "inDis" : "50",
      "routeId" : "272",
      "seqNo" : "33"
   },
   {
      "GoBack" : "2",
      "longitude" : "120.80339",
      "outDis" : "50",
      "Id" : "3679",
      "oid" : "6570",
      "districtId" : "1",
      "nameZh" : "種苗繁殖場",
      "pgp" : "0",
      "terminal" : "0",
      "latitude" : "24.2302",
      "inDis" : "50",
      "routeId" : "272",
      "seqNo" : "34"
   },
   {
      "GoBack" : "2",
      "longitude" : "120.80451",
      "outDis" : "50",
      "Id" : "5705",
      "oid" : "319916593",
      "districtId" : "1",
      "nameZh" : "復盛橋",
      "pgp" : "0",
      "terminal" : "0",
      "latitude" : "24.23582",
      "inDis" : "50",
      "routeId" : "272",
      "seqNo" : "35"
   },
   {
      "GoBack" : "2",
      "longitude" : "120.8057",
      "outDis" : "50",
      "Id" : "5707",
      "oid" : "319916592",
      "districtId" : "1",
      "nameZh" : "擺頭店",
      "pgp" : "0",
      "terminal" : "0",
      "latitude" : "24.23711",
      "inDis" : "50",
      "routeId" : "272",
      "seqNo" : "36"
   },
   {
      "GoBack" : "2",
      "longitude" : "120.80658",
      "outDis" : "50",
      "Id" : "3400",
      "oid" : "319916591",
      "districtId" : "1",
      "nameZh" : "新社高中",
      "pgp" : "0",
      "terminal" : "0",
      "latitude" : "24.23922",
      "inDis" : "50",
      "routeId" : "272",
      "seqNo" : "37"
   },
   {
      "GoBack" : "2",
      "longitude" : "120.80769",
      "outDis" : "50",
      "Id" : "3162",
      "oid" : "6311",
      "districtId" : "1",
      "nameZh" : "頂新社",
      "pgp" : "0",
      "terminal" : "0",
      "latitude" : "24.24262",
      "inDis" : "50",
      "routeId" : "272",
      "seqNo" : "38"
   },
   {
      "GoBack" : "2",
      "longitude" : "120.80835",
      "outDis" : "50",
      "Id" : "3398",
      "oid" : "6433",
      "districtId" : "1",
      "nameZh" : "新社",
      "pgp" : "0",
      "terminal" : "0",
      "latitude" : "24.24458",
      "inDis" : "50",
      "routeId" : "272",
      "seqNo" : "39"
   },
   {
      "GoBack" : "2",
      "longitude" : "120.80832",
      "outDis" : "50",
      "Id" : "1199",
      "oid" : "5153",
      "districtId" : "1",
      "nameZh" : "下新社",
      "pgp" : "0",
      "terminal" : "0",
      "latitude" : "24.24638",
      "inDis" : "50",
      "routeId" : "272",
      "seqNo" : "40"
   },
   {
      "GoBack" : "2",
      "longitude" : "120.80868",
      "outDis" : "50",
      "Id" : "0011",
      "oid" : "6372",
      "districtId" : "1",
      "nameZh" : "郵局",
      "pgp" : "0",
      "terminal" : "0",
      "latitude" : "24.24772",
      "inDis" : "50",
      "routeId" : "272",
      "seqNo" : "41"
   },
   {
      "GoBack" : "2",
      "longitude" : "120.80893",
      "outDis" : "50",
      "Id" : "1438",
      "oid" : "5318",
      "districtId" : "1",
      "nameZh" : "中正里",
      "pgp" : "0",
      "terminal" : "0",
      "latitude" : "24.25027",
      "inDis" : "50",
      "routeId" : "272",
      "seqNo" : "42"
   },
   {
      "GoBack" : "2",
      "longitude" : "120.80775",
      "outDis" : "50",
      "Id" : "3557",
      "oid" : "6515",
      "districtId" : "1",
      "nameZh" : "電信局前",
      "pgp" : "0",
      "terminal" : "0",
      "latitude" : "24.25339",
      "inDis" : "50",
      "routeId" : "272",
      "seqNo" : "43"
   },
   {
      "GoBack" : "2",
      "longitude" : "120.80698",
      "outDis" : "50",
      "Id" : "1394",
      "oid" : "5287",
      "districtId" : "1",
      "nameZh" : "山頂",
      "pgp" : "0",
      "terminal" : "0",
      "latitude" : "24.25547",
      "inDis" : "50",
      "routeId" : "272",
      "seqNo" : "44"
   },
   {
      "GoBack" : "2",
      "longitude" : "120.80775",
      "outDis" : "50",
      "Id" : "2446",
      "oid" : "5914",
      "districtId" : "1",
      "nameZh" : "果菜市場",
      "pgp" : "0",
      "terminal" : "0",
      "latitude" : "24.25706",
      "inDis" : "50",
      "routeId" : "272",
      "seqNo" : "45"
   },
   {
      "GoBack" : "2",
      "longitude" : "120.81402",
      "outDis" : "50",
      "Id" : "2593",
      "oid" : "6000",
      "districtId" : "1",
      "nameZh" : "南眉",
      "pgp" : "0",
      "terminal" : "0",
      "latitude" : "24.25639",
      "inDis" : "50",
      "routeId" : "272",
      "seqNo" : "48"
   },
   {
      "GoBack" : "2",
      "longitude" : "120.81565",
      "outDis" : "50",
      "Id" : "4650",
      "oid" : "5197",
      "districtId" : "1",
      "nameZh" : "土牛(和盛街)",
      "pgp" : "0",
      "terminal" : "0",
      "latitude" : "24.25913",
      "inDis" : "50",
      "routeId" : "272",
      "seqNo" : "49"
   },
   {
      "GoBack" : "2",
      "longitude" : "120.82456",
      "outDis" : "50",
      "Id" : "4415",
      "oid" : "304371955",
      "districtId" : "1",
      "nameZh" : "東勢游泳池",
      "pgp" : "0",
      "terminal" : "0",
      "latitude" : "24.26119",
      "inDis" : "50",
      "routeId" : "272",
      "seqNo" : "50"
   },
   {
      "GoBack" : "2",
      "longitude" : "120.82862",
      "outDis" : "50",
      "Id" : "2428",
      "oid" : "5900",
      "districtId" : "1",
      "nameZh" : "東勢",
      "pgp" : "0",
      "terminal" : "0",
      "latitude" : "24.25742",
      "inDis" : "50",
      "routeId" : "272",
      "seqNo" : "51"
   }
]
