[
   {
      "GoBack" : "1",
      "longitude" : "120.62008",
      "outDis" : "150",
      "Id" : "5486",
      "oid" : "314581888",
      "districtId" : "1",
      "nameZh" : "高鐵臺中站(14月台)",
      "pgp" : "0",
      "terminal" : "0",
      "latitude" : "24.10974",
      "inDis" : "150",
      "routeId" : "158",
      "seqNo" : "1"
   },
   {
      "GoBack" : "1",
      "longitude" : "120.62663",
      "outDis" : "50",
      "Id" : "4176",
      "oid" : "129833955",
      "districtId" : "1",
      "nameZh" : "光日站",
      "pgp" : "0",
      "terminal" : "0",
      "latitude" : "24.1088",
      "inDis" : "50",
      "routeId" : "158",
      "seqNo" : "2"
   },
   {
      "GoBack" : "1",
      "longitude" : "120.63425",
      "outDis" : "50",
      "Id" : "5379",
      "oid" : "312026957",
      "districtId" : "1",
      "nameZh" : "九德(建國路)",
      "pgp" : "0",
      "terminal" : "0",
      "latitude" : "24.11078",
      "inDis" : "50",
      "routeId" : "158",
      "seqNo" : "3"
   },
   {
      "GoBack" : "1",
      "longitude" : "120.64784",
      "outDis" : "50",
      "Id" : "0132",
      "oid" : "A7B7EB56349D4701963C3057A95E4DE9",
      "districtId" : "1",
      "nameZh" : "大慶火車站",
      "pgp" : "0",
      "terminal" : "0",
      "latitude" : "24.11913",
      "inDis" : "50",
      "routeId" : "158",
      "seqNo" : "4"
   },
   {
      "GoBack" : "1",
      "longitude" : "120.65184",
      "outDis" : "75",
      "Id" : "5166",
      "oid" : "10950",
      "districtId" : "1",
      "nameZh" : "中山醫學大學(建國北路)",
      "pgp" : "0",
      "terminal" : "0",
      "latitude" : "24.12166",
      "inDis" : "75",
      "routeId" : "158",
      "seqNo" : "5"
   },
   {
      "GoBack" : "1",
      "longitude" : "120.65658",
      "outDis" : "50",
      "Id" : "5073",
      "oid" : "310187786",
      "districtId" : "1",
      "nameZh" : "崇倫",
      "pgp" : "0",
      "terminal" : "0",
      "latitude" : "24.12465",
      "inDis" : "50",
      "routeId" : "158",
      "seqNo" : "6"
   },
   {
      "GoBack" : "1",
      "longitude" : "120.66465",
      "outDis" : "50",
      "Id" : "5523",
      "oid" : "315884475",
      "districtId" : "1",
      "nameZh" : "民興公園(執行分署)",
      "pgp" : "0",
      "terminal" : "0",
      "latitude" : "24.12826",
      "inDis" : "50",
      "routeId" : "158",
      "seqNo" : "7"
   },
   {
      "GoBack" : "1",
      "longitude" : "120.66961",
      "outDis" : "50",
      "Id" : "5661",
      "oid" : "C78046F3FF1E4164B7AFEBEDB87A98FA",
      "districtId" : "1",
      "nameZh" : "公館(三民路)",
      "pgp" : "0",
      "terminal" : "0",
      "latitude" : "24.1329",
      "inDis" : "50",
      "routeId" : "158",
      "seqNo" : "8"
   },
   {
      "GoBack" : "1",
      "longitude" : "120.67248",
      "outDis" : "50",
      "Id" : "0673",
      "oid" : "10388",
      "districtId" : "1",
      "nameZh" : "三民林森路口",
      "pgp" : "0",
      "terminal" : "0",
      "latitude" : "24.13556",
      "inDis" : "50",
      "routeId" : "158",
      "seqNo" : "9"
   },
   {
      "GoBack" : "1",
      "longitude" : "120.67406",
      "outDis" : "50",
      "Id" : "0210",
      "oid" : "BDA20E5509C64110B298E9D9E91B449B",
      "districtId" : "1",
      "nameZh" : "忠孝國小",
      "pgp" : "0",
      "terminal" : "0",
      "latitude" : "24.13723",
      "inDis" : "50",
      "routeId" : "158",
      "seqNo" : "10"
   },
   {
      "GoBack" : "1",
      "longitude" : "120.67604",
      "outDis" : "50",
      "Id" : "0209",
      "oid" : "10382",
      "districtId" : "1",
      "nameZh" : "臺中科大民生校區",
      "pgp" : "0",
      "terminal" : "0",
      "latitude" : "24.139",
      "inDis" : "50",
      "routeId" : "158",
      "seqNo" : "11"
   },
   {
      "GoBack" : "1",
      "longitude" : "120.67829",
      "outDis" : "50",
      "Id" : "5026",
      "oid" : "316849930",
      "districtId" : "1",
      "nameZh" : "美榮藥局",
      "pgp" : "0",
      "terminal" : "0",
      "latitude" : "24.14122",
      "inDis" : "50",
      "routeId" : "158",
      "seqNo" : "12"
   },
   {
      "GoBack" : "1",
      "longitude" : "120.68069",
      "outDis" : "50",
      "Id" : "5506",
      "oid" : "316849932",
      "districtId" : "1",
      "nameZh" : "光復國小(三民路)",
      "pgp" : "0",
      "terminal" : "0",
      "latitude" : "24.14353",
      "inDis" : "50",
      "routeId" : "158",
      "seqNo" : "13"
   },
   {
      "GoBack" : "1",
      "longitude" : "120.68254",
      "outDis" : "50",
      "Id" : "5467",
      "oid" : "314169247",
      "districtId" : "1",
      "nameZh" : "臺中公園(公園路)",
      "pgp" : "0",
      "terminal" : "0",
      "latitude" : "24.14382",
      "inDis" : "50",
      "routeId" : "158",
      "seqNo" : "14"
   },
   {
      "GoBack" : "1",
      "longitude" : "120.68391",
      "outDis" : "50",
      "Id" : "5670",
      "oid" : "0C52D3825CBE4E0EB12890BEE2862FE2",
      "districtId" : "1",
      "nameZh" : "公園自由路口",
      "pgp" : "0",
      "terminal" : "0",
      "latitude" : "24.14266",
      "inDis" : "50",
      "routeId" : "158",
      "seqNo" : "15"
   },
   {
      "GoBack" : "1",
      "longitude" : "120.68581",
      "outDis" : "50",
      "Id" : "0402",
      "oid" : "3608",
      "districtId" : "1",
      "nameZh" : "干城站",
      "pgp" : "0",
      "terminal" : "0",
      "latitude" : "24.142",
      "inDis" : "50",
      "routeId" : "158",
      "seqNo" : "16"
   },
   {
      "GoBack" : "1",
      "longitude" : "120.68454",
      "outDis" : "50",
      "Id" : "0443",
      "oid" : "DB645841DD934C0396804255B3C83D46",
      "districtId" : "1",
      "nameZh" : "仁友東站",
      "pgp" : "0",
      "terminal" : "0",
      "latitude" : "24.13906",
      "inDis" : "50",
      "routeId" : "158",
      "seqNo" : "17"
   },
   {
      "GoBack" : "1",
      "longitude" : "120.68384",
      "outDis" : "50",
      "Id" : "0049",
      "oid" : "5419CC18BB5E43B8971EAAAB96823457",
      "districtId" : "1",
      "nameZh" : "第三市場(臺中家商)",
      "pgp" : "0",
      "terminal" : "0",
      "latitude" : "24.13277",
      "inDis" : "50",
      "routeId" : "158",
      "seqNo" : "18"
   },
   {
      "GoBack" : "1",
      "longitude" : "120.6851",
      "outDis" : "50",
      "Id" : "0257",
      "oid" : "A01E727DB823459BBD9A7DBB427E9A21",
      "districtId" : "1",
      "nameZh" : "臺中國小",
      "pgp" : "0",
      "terminal" : "0",
      "latitude" : "24.13037",
      "inDis" : "50",
      "routeId" : "158",
      "seqNo" : "19"
   },
   {
      "GoBack" : "1",
      "longitude" : "120.6844",
      "outDis" : "50",
      "Id" : "5607",
      "oid" : "7955",
      "districtId" : "1",
      "nameZh" : "興大附農(臺中路)",
      "pgp" : "0",
      "terminal" : "0",
      "latitude" : "24.12749",
      "inDis" : "50",
      "routeId" : "158",
      "seqNo" : "20"
   },
   {
      "GoBack" : "1",
      "longitude" : "120.68406",
      "outDis" : "50",
      "Id" : "0255",
      "oid" : "7152",
      "districtId" : "1",
      "nameZh" : "南門仔",
      "pgp" : "0",
      "terminal" : "0",
      "latitude" : "24.12568",
      "inDis" : "50",
      "routeId" : "158",
      "seqNo" : "21"
   },
   {
      "GoBack" : "1",
      "longitude" : "120.68419",
      "outDis" : "50",
      "Id" : "0254",
      "oid" : "7119",
      "districtId" : "1",
      "nameZh" : "明德高中",
      "pgp" : "0",
      "terminal" : "0",
      "latitude" : "24.12273",
      "inDis" : "50",
      "routeId" : "158",
      "seqNo" : "22"
   },
   {
      "GoBack" : "1",
      "longitude" : "120.68177",
      "outDis" : "50",
      "Id" : "5598",
      "oid" : "316849938",
      "districtId" : "1",
      "nameZh" : "興大二村",
      "pgp" : "0",
      "terminal" : "0",
      "latitude" : "24.12244",
      "inDis" : "50",
      "routeId" : "158",
      "seqNo" : "23"
   },
   {
      "GoBack" : "1",
      "longitude" : "120.6794",
      "outDis" : "50",
      "Id" : "4347",
      "oid" : "DE2C6BA3BE8942E79BA0CABF1CF65AE0",
      "districtId" : "1",
      "nameZh" : "中興大學(國光路)",
      "pgp" : "0",
      "terminal" : "0",
      "latitude" : "24.12133",
      "inDis" : "50",
      "routeId" : "158",
      "seqNo" : "24"
   },
   {
      "GoBack" : "1",
      "longitude" : "120.67915",
      "outDis" : "50",
      "Id" : "4292",
      "oid" : "13206",
      "districtId" : "1",
      "nameZh" : "國光忠明南路口",
      "pgp" : "0",
      "terminal" : "0",
      "latitude" : "24.1183",
      "inDis" : "50",
      "routeId" : "158",
      "seqNo" : "25"
   },
   {
      "GoBack" : "1",
      "longitude" : "120.67918",
      "outDis" : "50",
      "Id" : "2930",
      "oid" : "13216",
      "districtId" : "1",
      "nameZh" : "國光橋",
      "pgp" : "0",
      "terminal" : "0",
      "latitude" : "24.11585",
      "inDis" : "50",
      "routeId" : "158",
      "seqNo" : "26"
   },
   {
      "GoBack" : "1",
      "longitude" : "120.67894",
      "outDis" : "50",
      "Id" : "4293",
      "oid" : "13208",
      "districtId" : "1",
      "nameZh" : "國光東興路口",
      "pgp" : "0",
      "terminal" : "0",
      "latitude" : "24.11363",
      "inDis" : "50",
      "routeId" : "158",
      "seqNo" : "27"
   },
   {
      "GoBack" : "1",
      "longitude" : "120.67988",
      "outDis" : "50",
      "Id" : "1558",
      "oid" : "320470414",
      "districtId" : "1",
      "nameZh" : "大里仁愛醫院(東榮路)",
      "pgp" : "0",
      "terminal" : "0",
      "latitude" : "24.10967",
      "inDis" : "50",
      "routeId" : "158",
      "seqNo" : "28"
   },
   {
      "GoBack" : "1",
      "longitude" : "120.68344",
      "outDis" : "50",
      "Id" : "5627",
      "oid" : "318373326",
      "districtId" : "1",
      "nameZh" : "興大附中(東榮路)",
      "pgp" : "0",
      "terminal" : "0",
      "latitude" : "24.11007",
      "inDis" : "50",
      "routeId" : "158",
      "seqNo" : "29"
   },
   {
      "GoBack" : "1",
      "longitude" : "120.68565",
      "outDis" : "50",
      "Id" : "5074",
      "oid" : "310187787",
      "districtId" : "1",
      "nameZh" : "大里地政事務所",
      "pgp" : "0",
      "terminal" : "0",
      "latitude" : "24.11039",
      "inDis" : "50",
      "routeId" : "158",
      "seqNo" : "30"
   },
   {
      "GoBack" : "1",
      "longitude" : "120.68799",
      "outDis" : "50",
      "Id" : "4919",
      "oid" : "308386882",
      "districtId" : "1",
      "nameZh" : "大里公園",
      "pgp" : "0",
      "terminal" : "0",
      "latitude" : "24.1102",
      "inDis" : "50",
      "routeId" : "158",
      "seqNo" : "31"
   },
   {
      "GoBack" : "1",
      "longitude" : "120.69001",
      "outDis" : "50",
      "Id" : "1363",
      "oid" : "5278",
      "districtId" : "1",
      "nameZh" : "中興大里路口",
      "pgp" : "0",
      "terminal" : "0",
      "latitude" : "24.1087",
      "inDis" : "50",
      "routeId" : "158",
      "seqNo" : "32"
   },
   {
      "GoBack" : "1",
      "longitude" : "120.68941",
      "outDis" : "50",
      "Id" : "2026",
      "oid" : "7054",
      "districtId" : "1",
      "nameZh" : "立人高中",
      "pgp" : "0",
      "terminal" : "0",
      "latitude" : "24.10584",
      "inDis" : "50",
      "routeId" : "158",
      "seqNo" : "33"
   },
   {
      "GoBack" : "1",
      "longitude" : "120.68864",
      "outDis" : "50",
      "Id" : "1126",
      "oid" : "7202",
      "districtId" : "1",
      "nameZh" : "下內新",
      "pgp" : "0",
      "terminal" : "0",
      "latitude" : "24.10257",
      "inDis" : "50",
      "routeId" : "158",
      "seqNo" : "34"
   },
   {
      "GoBack" : "1",
      "longitude" : "120.6879",
      "outDis" : "50",
      "Id" : "5151",
      "oid" : "12580",
      "districtId" : "1",
      "nameZh" : "兒童藝術館(中興路)",
      "pgp" : "0",
      "terminal" : "0",
      "latitude" : "24.10002",
      "inDis" : "50",
      "routeId" : "158",
      "seqNo" : "35"
   },
   {
      "GoBack" : "1",
      "longitude" : "120.68694",
      "outDis" : "50",
      "Id" : "1322",
      "oid" : "309974047",
      "districtId" : "1",
      "nameZh" : "大突寮(中興路)",
      "pgp" : "0",
      "terminal" : "0",
      "latitude" : "24.09735",
      "inDis" : "50",
      "routeId" : "158",
      "seqNo" : "36"
   },
   {
      "GoBack" : "1",
      "longitude" : "120.69139",
      "outDis" : "50",
      "Id" : "4950",
      "oid" : "304725405",
      "districtId" : "1",
      "nameZh" : "仁化中興路口",
      "pgp" : "0",
      "terminal" : "0",
      "latitude" : "24.09196",
      "inDis" : "50",
      "routeId" : "158",
      "seqNo" : "37"
   },
   {
      "GoBack" : "1",
      "longitude" : "120.69546",
      "outDis" : "50",
      "Id" : "5017",
      "oid" : "309414101",
      "districtId" : "1",
      "nameZh" : "仁化至善路口",
      "pgp" : "0",
      "terminal" : "0",
      "latitude" : "24.09601",
      "inDis" : "50",
      "routeId" : "158",
      "seqNo" : "38"
   },
   {
      "GoBack" : "1",
      "longitude" : "120.69865",
      "outDis" : "50",
      "Id" : "5016",
      "oid" : "304725409",
      "districtId" : "1",
      "nameZh" : "仁化慈德路口",
      "pgp" : "0",
      "terminal" : "0",
      "latitude" : "24.0966",
      "inDis" : "50",
      "routeId" : "158",
      "seqNo" : "39"
   },
   {
      "GoBack" : "1",
      "longitude" : "120.70088",
      "outDis" : "50",
      "Id" : "4420",
      "oid" : "304725411",
      "districtId" : "1",
      "nameZh" : "仁化里",
      "pgp" : "0",
      "terminal" : "0",
      "latitude" : "24.09626",
      "inDis" : "50",
      "routeId" : "158",
      "seqNo" : "40"
   },
   {
      "GoBack" : "1",
      "longitude" : "120.70345",
      "outDis" : "50",
      "Id" : "5015",
      "oid" : "304725414",
      "districtId" : "1",
      "nameZh" : "仁化仁愛路口",
      "pgp" : "0",
      "terminal" : "0",
      "latitude" : "24.09605",
      "inDis" : "50",
      "routeId" : "158",
      "seqNo" : "41"
   },
   {
      "GoBack" : "1",
      "longitude" : "120.707",
      "outDis" : "50",
      "Id" : "5014",
      "oid" : "309414094",
      "districtId" : "1",
      "nameZh" : "仁化仁城路口",
      "pgp" : "0",
      "terminal" : "0",
      "latitude" : "24.09522",
      "inDis" : "50",
      "routeId" : "158",
      "seqNo" : "42"
   },
   {
      "GoBack" : "1",
      "longitude" : "120.70962",
      "outDis" : "50",
      "Id" : "5346",
      "oid" : "314009843",
      "districtId" : "1",
      "nameZh" : "百姓公廟",
      "pgp" : "0",
      "terminal" : "0",
      "latitude" : "24.09441",
      "inDis" : "50",
      "routeId" : "158",
      "seqNo" : "43"
   },
   {
      "GoBack" : "1",
      "longitude" : "120.71392",
      "outDis" : "50",
      "Id" : "2733",
      "oid" : "6086",
      "districtId" : "1",
      "nameZh" : "修平科技大學",
      "pgp" : "0",
      "terminal" : "0",
      "latitude" : "24.09515",
      "inDis" : "50",
      "routeId" : "158",
      "seqNo" : "44"
   },
   {
      "GoBack" : "1",
      "longitude" : "120.7158",
      "outDis" : "50",
      "Id" : "2282",
      "oid" : "5811",
      "districtId" : "1",
      "nameZh" : "車站前",
      "pgp" : "0",
      "terminal" : "0",
      "latitude" : "24.09463",
      "inDis" : "50",
      "routeId" : "158",
      "seqNo" : "45"
   },
   {
      "GoBack" : "1",
      "longitude" : "120.7192",
      "outDis" : "80",
      "Id" : "2525",
      "oid" : "5959",
      "districtId" : "1",
      "nameZh" : "金田公司",
      "pgp" : "0",
      "terminal" : "0",
      "latitude" : "24.09414",
      "inDis" : "60",
      "routeId" : "158",
      "seqNo" : "46"
   },
   {
      "GoBack" : "1",
      "longitude" : "120.72154",
      "outDis" : "80",
      "Id" : "4422",
      "oid" : "304725416",
      "districtId" : "1",
      "nameZh" : "和大公司",
      "pgp" : "0",
      "terminal" : "0",
      "latitude" : "24.09251",
      "inDis" : "60",
      "routeId" : "158",
      "seqNo" : "47"
   },
   {
      "GoBack" : "1",
      "longitude" : "120.72804",
      "outDis" : "80",
      "Id" : "4423",
      "oid" : "304725418",
      "districtId" : "1",
      "nameZh" : "大愛一村",
      "pgp" : "0",
      "terminal" : "0",
      "latitude" : "24.09138",
      "inDis" : "60",
      "routeId" : "158",
      "seqNo" : "48"
   },
   {
      "GoBack" : "1",
      "longitude" : "120.72777",
      "outDis" : "50",
      "Id" : "2913",
      "oid" : "6172",
      "districtId" : "1",
      "nameZh" : "健民國小",
      "pgp" : "0",
      "terminal" : "0",
      "latitude" : "24.08973",
      "inDis" : "50",
      "routeId" : "158",
      "seqNo" : "49"
   },
   {
      "GoBack" : "1",
      "longitude" : "120.71841",
      "outDis" : "50",
      "Id" : "4724",
      "oid" : "306640244",
      "districtId" : "1",
      "nameZh" : "吉峰國小",
      "pgp" : "0",
      "terminal" : "0",
      "latitude" : "24.07966",
      "inDis" : "50",
      "routeId" : "158",
      "seqNo" : "50"
   },
   {
      "GoBack" : "1",
      "longitude" : "120.71704",
      "outDis" : "50",
      "Id" : "4725",
      "oid" : "306640245",
      "districtId" : "1",
      "nameZh" : "桐林里",
      "pgp" : "0",
      "terminal" : "0",
      "latitude" : "24.07764",
      "inDis" : "50",
      "routeId" : "158",
      "seqNo" : "51"
   },
   {
      "GoBack" : "1",
      "longitude" : "120.71493",
      "outDis" : "50",
      "Id" : "2059",
      "oid" : "306640246",
      "districtId" : "1",
      "nameZh" : "吉峰里",
      "pgp" : "0",
      "terminal" : "0",
      "latitude" : "24.07616",
      "inDis" : "50",
      "routeId" : "158",
      "seqNo" : "52"
   },
   {
      "GoBack" : "1",
      "longitude" : "120.71458",
      "outDis" : "50",
      "Id" : "2060",
      "oid" : "306640247",
      "districtId" : "1",
      "nameZh" : "吉峰東路口",
      "pgp" : "0",
      "terminal" : "0",
      "latitude" : "24.07505",
      "inDis" : "50",
      "routeId" : "158",
      "seqNo" : "53"
   },
   {
      "GoBack" : "1",
      "longitude" : "120.71551",
      "outDis" : "50",
      "Id" : "3246",
      "oid" : "7481",
      "districtId" : "1",
      "nameZh" : "朝陽科技大學",
      "pgp" : "0",
      "terminal" : "0",
      "latitude" : "24.07041",
      "inDis" : "50",
      "routeId" : "158",
      "seqNo" : "54"
   },
   {
      "GoBack" : "2",
      "longitude" : "120.71551",
      "outDis" : "50",
      "Id" : "3246",
      "oid" : "7481",
      "districtId" : "1",
      "nameZh" : "朝陽科技大學",
      "pgp" : "0",
      "terminal" : "0",
      "latitude" : "24.07041",
      "inDis" : "50",
      "routeId" : "158",
      "seqNo" : "1"
   },
   {
      "GoBack" : "2",
      "longitude" : "120.71458",
      "outDis" : "50",
      "Id" : "2060",
      "oid" : "306640247",
      "districtId" : "1",
      "nameZh" : "吉峰東路口",
      "pgp" : "0",
      "terminal" : "0",
      "latitude" : "24.07505",
      "inDis" : "50",
      "routeId" : "158",
      "seqNo" : "2"
   },
   {
      "GoBack" : "2",
      "longitude" : "120.71493",
      "outDis" : "50",
      "Id" : "2059",
      "oid" : "306640246",
      "districtId" : "1",
      "nameZh" : "吉峰里",
      "pgp" : "0",
      "terminal" : "0",
      "latitude" : "24.07616",
      "inDis" : "50",
      "routeId" : "158",
      "seqNo" : "3"
   },
   {
      "GoBack" : "2",
      "longitude" : "120.71704",
      "outDis" : "50",
      "Id" : "4725",
      "oid" : "306640245",
      "districtId" : "1",
      "nameZh" : "桐林里",
      "pgp" : "0",
      "terminal" : "0",
      "latitude" : "24.07764",
      "inDis" : "50",
      "routeId" : "158",
      "seqNo" : "4"
   },
   {
      "GoBack" : "2",
      "longitude" : "120.71841",
      "outDis" : "50",
      "Id" : "4724",
      "oid" : "306640244",
      "districtId" : "1",
      "nameZh" : "吉峰國小",
      "pgp" : "0",
      "terminal" : "0",
      "latitude" : "24.07966",
      "inDis" : "50",
      "routeId" : "158",
      "seqNo" : "5"
   },
   {
      "GoBack" : "2",
      "longitude" : "120.72777",
      "outDis" : "50",
      "Id" : "2913",
      "oid" : "6172",
      "districtId" : "1",
      "nameZh" : "健民國小",
      "pgp" : "0",
      "terminal" : "0",
      "latitude" : "24.08973",
      "inDis" : "50",
      "routeId" : "158",
      "seqNo" : "6"
   },
   {
      "GoBack" : "2",
      "longitude" : "120.72791",
      "outDis" : "50",
      "Id" : "4423",
      "oid" : "304725419",
      "districtId" : "1",
      "nameZh" : "大愛一村",
      "pgp" : "0",
      "terminal" : "0",
      "latitude" : "24.09145",
      "inDis" : "50",
      "routeId" : "158",
      "seqNo" : "7"
   },
   {
      "GoBack" : "2",
      "longitude" : "120.72144",
      "outDis" : "50",
      "Id" : "4422",
      "oid" : "304725417",
      "districtId" : "1",
      "nameZh" : "和大公司",
      "pgp" : "0",
      "terminal" : "0",
      "latitude" : "24.09263",
      "inDis" : "50",
      "routeId" : "158",
      "seqNo" : "8"
   },
   {
      "GoBack" : "2",
      "longitude" : "120.7192",
      "outDis" : "80",
      "Id" : "2525",
      "oid" : "5959",
      "districtId" : "1",
      "nameZh" : "金田公司",
      "pgp" : "0",
      "terminal" : "0",
      "latitude" : "24.09414",
      "inDis" : "60",
      "routeId" : "158",
      "seqNo" : "9"
   },
   {
      "GoBack" : "2",
      "longitude" : "120.7158",
      "outDis" : "50",
      "Id" : "2282",
      "oid" : "5811",
      "districtId" : "1",
      "nameZh" : "車站前",
      "pgp" : "0",
      "terminal" : "0",
      "latitude" : "24.09463",
      "inDis" : "50",
      "routeId" : "158",
      "seqNo" : "10"
   },
   {
      "GoBack" : "2",
      "longitude" : "120.71377",
      "outDis" : "50",
      "Id" : "2733",
      "oid" : "6087",
      "districtId" : "1",
      "nameZh" : "修平科技大學",
      "pgp" : "0",
      "terminal" : "0",
      "latitude" : "24.09507",
      "inDis" : "50",
      "routeId" : "158",
      "seqNo" : "11"
   },
   {
      "GoBack" : "2",
      "longitude" : "120.70962",
      "outDis" : "50",
      "Id" : "5346",
      "oid" : "314009843",
      "districtId" : "1",
      "nameZh" : "百姓公廟",
      "pgp" : "0",
      "terminal" : "0",
      "latitude" : "24.09441",
      "inDis" : "50",
      "routeId" : "158",
      "seqNo" : "12"
   },
   {
      "GoBack" : "2",
      "longitude" : "120.70684",
      "outDis" : "50",
      "Id" : "5014",
      "oid" : "309414095",
      "districtId" : "1",
      "nameZh" : "仁化仁城路口",
      "pgp" : "0",
      "terminal" : "0",
      "latitude" : "24.09526",
      "inDis" : "50",
      "routeId" : "158",
      "seqNo" : "13"
   },
   {
      "GoBack" : "2",
      "longitude" : "120.70345",
      "outDis" : "50",
      "Id" : "5015",
      "oid" : "304725415",
      "districtId" : "1",
      "nameZh" : "仁化仁愛路口",
      "pgp" : "0",
      "terminal" : "0",
      "latitude" : "24.09605",
      "inDis" : "50",
      "routeId" : "158",
      "seqNo" : "14"
   },
   {
      "GoBack" : "2",
      "longitude" : "120.70088",
      "outDis" : "50",
      "Id" : "4420",
      "oid" : "304725412",
      "districtId" : "1",
      "nameZh" : "仁化里",
      "pgp" : "0",
      "terminal" : "0",
      "latitude" : "24.09626",
      "inDis" : "50",
      "routeId" : "158",
      "seqNo" : "15"
   },
   {
      "GoBack" : "2",
      "longitude" : "120.69865",
      "outDis" : "50",
      "Id" : "5016",
      "oid" : "304725410",
      "districtId" : "1",
      "nameZh" : "仁化慈德路口",
      "pgp" : "0",
      "terminal" : "0",
      "latitude" : "24.0966",
      "inDis" : "50",
      "routeId" : "158",
      "seqNo" : "16"
   },
   {
      "GoBack" : "2",
      "longitude" : "120.69558",
      "outDis" : "50",
      "Id" : "5017",
      "oid" : "309414100",
      "districtId" : "1",
      "nameZh" : "仁化至善路口",
      "pgp" : "0",
      "terminal" : "0",
      "latitude" : "24.09634",
      "inDis" : "50",
      "routeId" : "158",
      "seqNo" : "17"
   },
   {
      "GoBack" : "2",
      "longitude" : "120.69132",
      "outDis" : "50",
      "Id" : "4950",
      "oid" : "304725406",
      "districtId" : "1",
      "nameZh" : "仁化中興路口",
      "pgp" : "0",
      "terminal" : "0",
      "latitude" : "24.09201",
      "inDis" : "50",
      "routeId" : "158",
      "seqNo" : "18"
   },
   {
      "GoBack" : "2",
      "longitude" : "120.68694",
      "outDis" : "50",
      "Id" : "1322",
      "oid" : "309974047",
      "districtId" : "1",
      "nameZh" : "大突寮(中興路)",
      "pgp" : "0",
      "terminal" : "0",
      "latitude" : "24.09735",
      "inDis" : "50",
      "routeId" : "158",
      "seqNo" : "19"
   },
   {
      "GoBack" : "2",
      "longitude" : "120.6879",
      "outDis" : "50",
      "Id" : "5151",
      "oid" : "12581",
      "districtId" : "1",
      "nameZh" : "兒童藝術館(中興路)",
      "pgp" : "0",
      "terminal" : "0",
      "latitude" : "24.10002",
      "inDis" : "50",
      "routeId" : "158",
      "seqNo" : "20"
   },
   {
      "GoBack" : "2",
      "longitude" : "120.68844",
      "outDis" : "50",
      "Id" : "1126",
      "oid" : "12471",
      "districtId" : "1",
      "nameZh" : "下內新",
      "pgp" : "0",
      "terminal" : "0",
      "latitude" : "24.10271",
      "inDis" : "50",
      "routeId" : "158",
      "seqNo" : "21"
   },
   {
      "GoBack" : "2",
      "longitude" : "120.68941",
      "outDis" : "50",
      "Id" : "2026",
      "oid" : "7053",
      "districtId" : "1",
      "nameZh" : "立人高中",
      "pgp" : "0",
      "terminal" : "0",
      "latitude" : "24.10584",
      "inDis" : "50",
      "routeId" : "158",
      "seqNo" : "22"
   },
   {
      "GoBack" : "2",
      "longitude" : "120.69001",
      "outDis" : "50",
      "Id" : "1363",
      "oid" : "5278",
      "districtId" : "1",
      "nameZh" : "中興大里路口",
      "pgp" : "0",
      "terminal" : "0",
      "latitude" : "24.1087",
      "inDis" : "50",
      "routeId" : "158",
      "seqNo" : "23"
   },
   {
      "GoBack" : "2",
      "longitude" : "120.68735",
      "outDis" : "50",
      "Id" : "4919",
      "oid" : "308386883",
      "districtId" : "1",
      "nameZh" : "大里公園",
      "pgp" : "0",
      "terminal" : "0",
      "latitude" : "24.11028",
      "inDis" : "50",
      "routeId" : "158",
      "seqNo" : "24"
   },
   {
      "GoBack" : "2",
      "longitude" : "120.68565",
      "outDis" : "50",
      "Id" : "5074",
      "oid" : "310187787",
      "districtId" : "1",
      "nameZh" : "大里地政事務所",
      "pgp" : "0",
      "terminal" : "0",
      "latitude" : "24.11039",
      "inDis" : "50",
      "routeId" : "158",
      "seqNo" : "25"
   },
   {
      "GoBack" : "2",
      "longitude" : "120.68344",
      "outDis" : "50",
      "Id" : "5627",
      "oid" : "139064871",
      "districtId" : "1",
      "nameZh" : "興大附中(東榮路)",
      "pgp" : "0",
      "terminal" : "0",
      "latitude" : "24.11007",
      "inDis" : "50",
      "routeId" : "158",
      "seqNo" : "26"
   },
   {
      "GoBack" : "2",
      "longitude" : "120.67988",
      "outDis" : "50",
      "Id" : "1558",
      "oid" : "320470413",
      "districtId" : "1",
      "nameZh" : "大里仁愛醫院(國光路)",
      "pgp" : "0",
      "terminal" : "0",
      "latitude" : "24.10967",
      "inDis" : "50",
      "routeId" : "158",
      "seqNo" : "27"
   },
   {
      "GoBack" : "2",
      "longitude" : "120.67894",
      "outDis" : "50",
      "Id" : "4293",
      "oid" : "13208",
      "districtId" : "1",
      "nameZh" : "國光東興路口",
      "pgp" : "0",
      "terminal" : "0",
      "latitude" : "24.11363",
      "inDis" : "50",
      "routeId" : "158",
      "seqNo" : "28"
   },
   {
      "GoBack" : "2",
      "longitude" : "120.67947",
      "outDis" : "50",
      "Id" : "2930",
      "oid" : "13215",
      "districtId" : "1",
      "nameZh" : "國光橋",
      "pgp" : "0",
      "terminal" : "0",
      "latitude" : "24.11588",
      "inDis" : "50",
      "routeId" : "158",
      "seqNo" : "29"
   },
   {
      "GoBack" : "2",
      "longitude" : "120.67915",
      "outDis" : "50",
      "Id" : "4292",
      "oid" : "13206",
      "districtId" : "1",
      "nameZh" : "國光忠明南路口",
      "pgp" : "0",
      "terminal" : "0",
      "latitude" : "24.1183",
      "inDis" : "50",
      "routeId" : "158",
      "seqNo" : "30"
   },
   {
      "GoBack" : "2",
      "longitude" : "120.67925",
      "outDis" : "50",
      "Id" : "4347",
      "oid" : "FFADDB58C7DD4E5C9DF0726DEE651794",
      "districtId" : "1",
      "nameZh" : "中興大學(國光路)",
      "pgp" : "0",
      "terminal" : "0",
      "latitude" : "24.12135",
      "inDis" : "50",
      "routeId" : "158",
      "seqNo" : "31"
   },
   {
      "GoBack" : "2",
      "longitude" : "120.68138",
      "outDis" : "50",
      "Id" : "5598",
      "oid" : "316849939",
      "districtId" : "1",
      "nameZh" : "興大二村",
      "pgp" : "0",
      "terminal" : "0",
      "latitude" : "24.12243",
      "inDis" : "50",
      "routeId" : "158",
      "seqNo" : "32"
   },
   {
      "GoBack" : "2",
      "longitude" : "120.68374",
      "outDis" : "50",
      "Id" : "5111",
      "oid" : "98471333AD524EAE9801EF0E854581C6",
      "districtId" : "1",
      "nameZh" : "明德高中(南門路)",
      "pgp" : "0",
      "terminal" : "0",
      "latitude" : "24.12239",
      "inDis" : "50",
      "routeId" : "158",
      "seqNo" : "33"
   },
   {
      "GoBack" : "2",
      "longitude" : "120.68425",
      "outDis" : "50",
      "Id" : "0255",
      "oid" : "12392",
      "districtId" : "1",
      "nameZh" : "南門仔",
      "pgp" : "0",
      "terminal" : "0",
      "latitude" : "24.12529",
      "inDis" : "50",
      "routeId" : "158",
      "seqNo" : "34"
   },
   {
      "GoBack" : "2",
      "longitude" : "120.6844",
      "outDis" : "50",
      "Id" : "5607",
      "oid" : "7955",
      "districtId" : "1",
      "nameZh" : "興大附農(臺中路)",
      "pgp" : "0",
      "terminal" : "0",
      "latitude" : "24.12749",
      "inDis" : "50",
      "routeId" : "158",
      "seqNo" : "35"
   },
   {
      "GoBack" : "2",
      "longitude" : "120.68506",
      "outDis" : "50",
      "Id" : "0257",
      "oid" : "7007",
      "districtId" : "1",
      "nameZh" : "臺中國小",
      "pgp" : "0",
      "terminal" : "0",
      "latitude" : "24.13029",
      "inDis" : "50",
      "routeId" : "158",
      "seqNo" : "36"
   },
   {
      "GoBack" : "2",
      "longitude" : "120.68367",
      "outDis" : "50",
      "Id" : "0049",
      "oid" : "969084170705431BB407E5ECA8016ECC",
      "districtId" : "1",
      "nameZh" : "第三市場(臺中家商)",
      "pgp" : "0",
      "terminal" : "0",
      "latitude" : "24.13276",
      "inDis" : "50",
      "routeId" : "158",
      "seqNo" : "37"
   },
   {
      "GoBack" : "2",
      "longitude" : "120.68207",
      "outDis" : "50",
      "Id" : "5596",
      "oid" : "316849936",
      "districtId" : "1",
      "nameZh" : "綠川西站(民權路口)",
      "pgp" : "0",
      "terminal" : "0",
      "latitude" : "24.13695",
      "inDis" : "50",
      "routeId" : "158",
      "seqNo" : "38"
   },
   {
      "GoBack" : "2",
      "longitude" : "120.68328",
      "outDis" : "50",
      "Id" : "5595",
      "oid" : "316849935",
      "districtId" : "1",
      "nameZh" : "綠川西站(臺灣大道口)",
      "pgp" : "0",
      "terminal" : "0",
      "latitude" : "24.13815",
      "inDis" : "50",
      "routeId" : "158",
      "seqNo" : "39"
   },
   {
      "GoBack" : "2",
      "longitude" : "120.68605",
      "outDis" : "75",
      "Id" : "0402",
      "oid" : "10942",
      "districtId" : "1",
      "nameZh" : "干城站",
      "pgp" : "0",
      "terminal" : "0",
      "latitude" : "24.14094",
      "inDis" : "75",
      "routeId" : "158",
      "seqNo" : "40"
   },
   {
      "GoBack" : "2",
      "longitude" : "120.68565",
      "outDis" : "50",
      "Id" : "5594",
      "oid" : "316849934",
      "districtId" : "1",
      "nameZh" : "臺中公園(自由路)",
      "pgp" : "0",
      "terminal" : "0",
      "latitude" : "24.14323",
      "inDis" : "50",
      "routeId" : "158",
      "seqNo" : "41"
   },
   {
      "GoBack" : "2",
      "longitude" : "120.68397",
      "outDis" : "50",
      "Id" : "5670",
      "oid" : "A1270307EAAA46CA8AE79551C5040FC3",
      "districtId" : "1",
      "nameZh" : "公園自由路口",
      "pgp" : "0",
      "terminal" : "0",
      "latitude" : "24.14276",
      "inDis" : "50",
      "routeId" : "158",
      "seqNo" : "42"
   },
   {
      "GoBack" : "2",
      "longitude" : "120.68135",
      "outDis" : "50",
      "Id" : "5506",
      "oid" : "316849933",
      "districtId" : "1",
      "nameZh" : "光復國小(三民路)",
      "pgp" : "0",
      "terminal" : "0",
      "latitude" : "24.14419",
      "inDis" : "50",
      "routeId" : "158",
      "seqNo" : "43"
   },
   {
      "GoBack" : "2",
      "longitude" : "120.68",
      "outDis" : "50",
      "Id" : "4609",
      "oid" : "EE17AB29EF464F9CA084E8425184F6ED",
      "districtId" : "1",
      "nameZh" : "第二市場(三民路)",
      "pgp" : "0",
      "terminal" : "0",
      "latitude" : "24.14268",
      "inDis" : "50",
      "routeId" : "158",
      "seqNo" : "44"
   },
   {
      "GoBack" : "2",
      "longitude" : "120.67865",
      "outDis" : "50",
      "Id" : "5026",
      "oid" : "316849931",
      "districtId" : "1",
      "nameZh" : "美榮藥局",
      "pgp" : "0",
      "terminal" : "0",
      "latitude" : "24.14158",
      "inDis" : "50",
      "routeId" : "158",
      "seqNo" : "45"
   },
   {
      "GoBack" : "2",
      "longitude" : "120.67604",
      "outDis" : "50",
      "Id" : "0209",
      "oid" : "10382",
      "districtId" : "1",
      "nameZh" : "臺中科大民生校區",
      "pgp" : "0",
      "terminal" : "0",
      "latitude" : "24.139",
      "inDis" : "50",
      "routeId" : "158",
      "seqNo" : "46"
   },
   {
      "GoBack" : "2",
      "longitude" : "120.67409",
      "outDis" : "50",
      "Id" : "0210",
      "oid" : "01E74E872FA34A7AB6ABB29605545998",
      "districtId" : "1",
      "nameZh" : "忠孝國小",
      "pgp" : "0",
      "terminal" : "0",
      "latitude" : "24.13709",
      "inDis" : "50",
      "routeId" : "158",
      "seqNo" : "47"
   },
   {
      "GoBack" : "2",
      "longitude" : "120.67248",
      "outDis" : "50",
      "Id" : "0673",
      "oid" : "10388",
      "districtId" : "1",
      "nameZh" : "三民林森路口",
      "pgp" : "0",
      "terminal" : "0",
      "latitude" : "24.13556",
      "inDis" : "50",
      "routeId" : "158",
      "seqNo" : "48"
   },
   {
      "GoBack" : "2",
      "longitude" : "120.6696",
      "outDis" : "50",
      "Id" : "5661",
      "oid" : "AB4F06E191E6479BB278EF729F5E33A8",
      "districtId" : "1",
      "nameZh" : "公館(三民路)",
      "pgp" : "0",
      "terminal" : "0",
      "latitude" : "24.13271",
      "inDis" : "50",
      "routeId" : "158",
      "seqNo" : "49"
   },
   {
      "GoBack" : "2",
      "longitude" : "120.66465",
      "outDis" : "50",
      "Id" : "5523",
      "oid" : "315884475",
      "districtId" : "1",
      "nameZh" : "民興公園(執行分署)",
      "pgp" : "0",
      "terminal" : "0",
      "latitude" : "24.12826",
      "inDis" : "50",
      "routeId" : "158",
      "seqNo" : "50"
   },
   {
      "GoBack" : "2",
      "longitude" : "120.65658",
      "outDis" : "50",
      "Id" : "5073",
      "oid" : "310187786",
      "districtId" : "1",
      "nameZh" : "崇倫",
      "pgp" : "0",
      "terminal" : "0",
      "latitude" : "24.12465",
      "inDis" : "50",
      "routeId" : "158",
      "seqNo" : "51"
   },
   {
      "GoBack" : "2",
      "longitude" : "120.65216",
      "outDis" : "75",
      "Id" : "5166",
      "oid" : "10951",
      "districtId" : "1",
      "nameZh" : "中山醫學大學(建國北路)",
      "pgp" : "0",
      "terminal" : "0",
      "latitude" : "24.12145",
      "inDis" : "75",
      "routeId" : "158",
      "seqNo" : "52"
   },
   {
      "GoBack" : "2",
      "longitude" : "120.64784",
      "outDis" : "50",
      "Id" : "0132",
      "oid" : "A7B7EB56349D4701963C3057A95E4DE9",
      "districtId" : "1",
      "nameZh" : "大慶火車站",
      "pgp" : "0",
      "terminal" : "0",
      "latitude" : "24.11913",
      "inDis" : "50",
      "routeId" : "158",
      "seqNo" : "53"
   },
   {
      "GoBack" : "2",
      "longitude" : "120.63425",
      "outDis" : "50",
      "Id" : "5379",
      "oid" : "312026957",
      "districtId" : "1",
      "nameZh" : "九德(建國路)",
      "pgp" : "0",
      "terminal" : "0",
      "latitude" : "24.11078",
      "inDis" : "50",
      "routeId" : "158",
      "seqNo" : "54"
   },
   {
      "GoBack" : "2",
      "longitude" : "120.62606",
      "outDis" : "50",
      "Id" : "4176",
      "oid" : "129833958",
      "districtId" : "1",
      "nameZh" : "光日站",
      "pgp" : "0",
      "terminal" : "0",
      "latitude" : "24.1086",
      "inDis" : "50",
      "routeId" : "158",
      "seqNo" : "55"
   },
   {
      "GoBack" : "2",
      "longitude" : "120.61872",
      "outDis" : "50",
      "Id" : "2907",
      "oid" : "310692259",
      "districtId" : "1",
      "nameZh" : "高鐵台中站(10月台)",
      "pgp" : "0",
      "terminal" : "0",
      "latitude" : "24.11117",
      "inDis" : "50",
      "routeId" : "158",
      "seqNo" : "56"
   }
]
