[
   {
      "GoBack" : "1",
      "longitude" : "120.72154",
      "outDis" : "70",
      "Id" : "3935",
      "oid" : "6693",
      "districtId" : "1",
      "nameZh" : "豐原",
      "pgp" : "0",
      "terminal" : "0",
      "latitude" : "24.2538",
      "inDis" : "70",
      "routeId" : "220",
      "seqNo" : "1"
   },
   {
      "GoBack" : "1",
      "longitude" : "120.71851",
      "outDis" : "50",
      "Id" : "3343",
      "oid" : "6397",
      "districtId" : "1",
      "nameZh" : "媽祖廟",
      "pgp" : "0",
      "terminal" : "0",
      "latitude" : "24.25157",
      "inDis" : "50",
      "routeId" : "220",
      "seqNo" : "2"
   },
   {
      "GoBack" : "1",
      "longitude" : "120.71526",
      "outDis" : "50",
      "Id" : "3939",
      "oid" : "6698",
      "districtId" : "1",
      "nameZh" : "豐原郵局",
      "pgp" : "0",
      "terminal" : "0",
      "latitude" : "24.25136",
      "inDis" : "50",
      "routeId" : "220",
      "seqNo" : "3"
   },
   {
      "GoBack" : "1",
      "longitude" : "120.712",
      "outDis" : "50",
      "Id" : "3357",
      "oid" : "6406",
      "districtId" : "1",
      "nameZh" : "慈龍寺",
      "pgp" : "0",
      "terminal" : "0",
      "latitude" : "24.25079",
      "inDis" : "50",
      "routeId" : "220",
      "seqNo" : "4"
   },
   {
      "GoBack" : "1",
      "longitude" : "120.70963",
      "outDis" : "50",
      "Id" : "4448",
      "oid" : "6688",
      "districtId" : "1",
      "nameZh" : "中正圓環西路口",
      "pgp" : "0",
      "terminal" : "0",
      "latitude" : "24.25039",
      "inDis" : "50",
      "routeId" : "220",
      "seqNo" : "5"
   },
   {
      "GoBack" : "1",
      "longitude" : "120.70672",
      "outDis" : "50",
      "Id" : "1065",
      "oid" : "5072",
      "districtId" : "1",
      "nameZh" : "三光新村",
      "pgp" : "0",
      "terminal" : "0",
      "latitude" : "24.24999",
      "inDis" : "50",
      "routeId" : "220",
      "seqNo" : "6"
   },
   {
      "GoBack" : "1",
      "longitude" : "120.70434",
      "outDis" : "50",
      "Id" : "2349",
      "oid" : "5856",
      "districtId" : "1",
      "nameZh" : "忠勤新村",
      "pgp" : "0",
      "terminal" : "0",
      "latitude" : "24.24962",
      "inDis" : "50",
      "routeId" : "220",
      "seqNo" : "7"
   },
   {
      "GoBack" : "1",
      "longitude" : "120.70229",
      "outDis" : "50",
      "Id" : "2489",
      "oid" : "5943",
      "districtId" : "1",
      "nameZh" : "社皮鐵路巷",
      "pgp" : "0",
      "terminal" : "0",
      "latitude" : "24.24951",
      "inDis" : "50",
      "routeId" : "220",
      "seqNo" : "8"
   },
   {
      "GoBack" : "1",
      "longitude" : "120.70003",
      "outDis" : "50",
      "Id" : "4498",
      "oid" : "13826",
      "districtId" : "1",
      "nameZh" : "臺豐社區",
      "pgp" : "0",
      "terminal" : "0",
      "latitude" : "24.249",
      "inDis" : "50",
      "routeId" : "220",
      "seqNo" : "9"
   },
   {
      "GoBack" : "1",
      "longitude" : "120.69799",
      "outDis" : "50",
      "Id" : "5438",
      "oid" : "5237",
      "districtId" : "1",
      "nameZh" : "岸裡國小",
      "pgp" : "0",
      "terminal" : "0",
      "latitude" : "24.2487",
      "inDis" : "50",
      "routeId" : "220",
      "seqNo" : "10"
   },
   {
      "GoBack" : "1",
      "longitude" : "120.69323",
      "outDis" : "50",
      "Id" : "2993",
      "oid" : "6203",
      "districtId" : "1",
      "nameZh" : "望寮",
      "pgp" : "0",
      "terminal" : "0",
      "latitude" : "24.24841",
      "inDis" : "50",
      "routeId" : "220",
      "seqNo" : "11"
   },
   {
      "GoBack" : "1",
      "longitude" : "120.6896",
      "outDis" : "50",
      "Id" : "2700",
      "oid" : "6056",
      "districtId" : "1",
      "nameZh" : "紅瓦厝口",
      "pgp" : "0",
      "terminal" : "0",
      "latitude" : "24.2476",
      "inDis" : "50",
      "routeId" : "220",
      "seqNo" : "12"
   },
   {
      "GoBack" : "1",
      "longitude" : "120.68563",
      "outDis" : "50",
      "Id" : "2486",
      "oid" : "5941",
      "districtId" : "1",
      "nameZh" : "社口",
      "pgp" : "0",
      "terminal" : "0",
      "latitude" : "24.24668",
      "inDis" : "50",
      "routeId" : "220",
      "seqNo" : "13"
   },
   {
      "GoBack" : "1",
      "longitude" : "120.68237",
      "outDis" : "50",
      "Id" : "2492",
      "oid" : "5945",
      "districtId" : "1",
      "nameZh" : "社南廟",
      "pgp" : "0",
      "terminal" : "0",
      "latitude" : "24.24607",
      "inDis" : "50",
      "routeId" : "220",
      "seqNo" : "14"
   },
   {
      "GoBack" : "1",
      "longitude" : "120.67895",
      "outDis" : "50",
      "Id" : "3103",
      "oid" : "6287",
      "districtId" : "1",
      "nameZh" : "頂牛埔",
      "pgp" : "0",
      "terminal" : "0",
      "latitude" : "24.24386",
      "inDis" : "50",
      "routeId" : "220",
      "seqNo" : "15"
   },
   {
      "GoBack" : "1",
      "longitude" : "120.67731",
      "outDis" : "50",
      "Id" : "4721",
      "oid" : "306625603",
      "districtId" : "1",
      "nameZh" : "三采幼稚園",
      "pgp" : "0",
      "terminal" : "0",
      "latitude" : "24.24282",
      "inDis" : "50",
      "routeId" : "220",
      "seqNo" : "16"
   },
   {
      "GoBack" : "1",
      "longitude" : "120.67445",
      "outDis" : "50",
      "Id" : "1733",
      "oid" : "5499",
      "districtId" : "1",
      "nameZh" : "牛埔仔",
      "pgp" : "0",
      "terminal" : "0",
      "latitude" : "24.24073",
      "inDis" : "50",
      "routeId" : "220",
      "seqNo" : "17"
   },
   {
      "GoBack" : "1",
      "longitude" : "120.67004",
      "outDis" : "50",
      "Id" : "3707",
      "oid" : "6589",
      "districtId" : "1",
      "nameZh" : "億鴻新村",
      "pgp" : "0",
      "terminal" : "0",
      "latitude" : "24.23781",
      "inDis" : "50",
      "routeId" : "220",
      "seqNo" : "18"
   },
   {
      "GoBack" : "1",
      "longitude" : "120.66726",
      "outDis" : "50",
      "Id" : "3454",
      "oid" : "6471",
      "districtId" : "1",
      "nameZh" : "楓樹腳",
      "pgp" : "0",
      "terminal" : "0",
      "latitude" : "24.23591",
      "inDis" : "50",
      "routeId" : "220",
      "seqNo" : "19"
   },
   {
      "GoBack" : "1",
      "longitude" : "120.66354",
      "outDis" : "50",
      "Id" : "1204",
      "oid" : "5156",
      "districtId" : "1",
      "nameZh" : "下楓樹腳",
      "pgp" : "0",
      "terminal" : "0",
      "latitude" : "24.23335",
      "inDis" : "50",
      "routeId" : "220",
      "seqNo" : "20"
   },
   {
      "GoBack" : "1",
      "longitude" : "120.65948",
      "outDis" : "50",
      "Id" : "3544",
      "oid" : "6510",
      "districtId" : "1",
      "nameZh" : "達聲",
      "pgp" : "0",
      "terminal" : "0",
      "latitude" : "24.23155",
      "inDis" : "50",
      "routeId" : "220",
      "seqNo" : "21"
   },
   {
      "GoBack" : "1",
      "longitude" : "120.65401",
      "outDis" : "50",
      "Id" : "3304",
      "oid" : "6380",
      "districtId" : "1",
      "nameZh" : "雅洲新城",
      "pgp" : "0",
      "terminal" : "0",
      "latitude" : "24.22915",
      "inDis" : "50",
      "routeId" : "220",
      "seqNo" : "22"
   },
   {
      "GoBack" : "1",
      "longitude" : "120.65112",
      "outDis" : "50",
      "Id" : "1366",
      "oid" : "5281",
      "districtId" : "1",
      "nameZh" : "大榮橋",
      "pgp" : "0",
      "terminal" : "0",
      "latitude" : "24.22764",
      "inDis" : "50",
      "routeId" : "220",
      "seqNo" : "23"
   },
   {
      "GoBack" : "1",
      "longitude" : "120.64796",
      "outDis" : "50",
      "Id" : "4722",
      "oid" : "306625604",
      "districtId" : "1",
      "nameZh" : "玉山銀行大雅分行",
      "pgp" : "0",
      "terminal" : "0",
      "latitude" : "24.22531",
      "inDis" : "50",
      "routeId" : "220",
      "seqNo" : "24"
   },
   {
      "GoBack" : "1",
      "longitude" : "120.64789",
      "outDis" : "50",
      "Id" : "1346",
      "oid" : "7231",
      "districtId" : "1",
      "nameZh" : "大雅",
      "pgp" : "0",
      "terminal" : "0",
      "latitude" : "24.22364",
      "inDis" : "50",
      "routeId" : "220",
      "seqNo" : "25"
   },
   {
      "GoBack" : "1",
      "longitude" : "120.645",
      "outDis" : "50",
      "Id" : "5230",
      "oid" : "310787766",
      "districtId" : "1",
      "nameZh" : "文雅里",
      "pgp" : "0",
      "terminal" : "0",
      "latitude" : "24.22165",
      "inDis" : "50",
      "routeId" : "220",
      "seqNo" : "26"
   },
   {
      "GoBack" : "1",
      "longitude" : "120.64231",
      "outDis" : "50",
      "Id" : "3218",
      "oid" : "6331",
      "districtId" : "1",
      "nameZh" : "富貴新村",
      "pgp" : "0",
      "terminal" : "0",
      "latitude" : "24.2197",
      "inDis" : "50",
      "routeId" : "220",
      "seqNo" : "27"
   },
   {
      "GoBack" : "1",
      "longitude" : "120.63943",
      "outDis" : "50",
      "Id" : "2252",
      "oid" : "5794",
      "districtId" : "1",
      "nameZh" : "秀山",
      "pgp" : "0",
      "terminal" : "0",
      "latitude" : "24.21861",
      "inDis" : "50",
      "routeId" : "220",
      "seqNo" : "28"
   },
   {
      "GoBack" : "1",
      "longitude" : "120.63528",
      "outDis" : "50",
      "Id" : "1263",
      "oid" : "5202",
      "districtId" : "1",
      "nameZh" : "土地廟",
      "pgp" : "0",
      "terminal" : "0",
      "latitude" : "24.21475",
      "inDis" : "50",
      "routeId" : "220",
      "seqNo" : "29"
   },
   {
      "GoBack" : "1",
      "longitude" : "120.63328",
      "outDis" : "50",
      "Id" : "5215",
      "oid" : "310787736",
      "districtId" : "1",
      "nameZh" : "上橫山",
      "pgp" : "0",
      "terminal" : "0",
      "latitude" : "24.21287",
      "inDis" : "50",
      "routeId" : "220",
      "seqNo" : "30"
   },
   {
      "GoBack" : "1",
      "longitude" : "120.63012",
      "outDis" : "50",
      "Id" : "0529",
      "oid" : "6619",
      "districtId" : "1",
      "nameZh" : "橫山",
      "pgp" : "0",
      "terminal" : "0",
      "latitude" : "24.20998",
      "inDis" : "50",
      "routeId" : "220",
      "seqNo" : "31"
   },
   {
      "GoBack" : "1",
      "longitude" : "120.62903",
      "outDis" : "50",
      "Id" : "5289",
      "oid" : "311033696",
      "districtId" : "1",
      "nameZh" : "福雅中科路口",
      "pgp" : "0",
      "terminal" : "0",
      "latitude" : "24.2055",
      "inDis" : "50",
      "routeId" : "220",
      "seqNo" : "32"
   },
   {
      "GoBack" : "1",
      "longitude" : "120.629",
      "outDis" : "50",
      "Id" : "0799",
      "oid" : "EEED91520DFA44E9B337F0C11B1FEF2D",
      "districtId" : "1",
      "nameZh" : "頂林厝",
      "pgp" : "0",
      "terminal" : "0",
      "latitude" : "24.20365",
      "inDis" : "50",
      "routeId" : "220",
      "seqNo" : "33"
   },
   {
      "GoBack" : "1",
      "longitude" : "120.62777",
      "outDis" : "50",
      "Id" : "0323",
      "oid" : "5074",
      "districtId" : "1",
      "nameZh" : "三角埔",
      "pgp" : "0",
      "terminal" : "0",
      "latitude" : "24.20183",
      "inDis" : "50",
      "routeId" : "220",
      "seqNo" : "34"
   },
   {
      "GoBack" : "1",
      "longitude" : "120.62649",
      "outDis" : "50",
      "Id" : "1112",
      "oid" : "5100",
      "districtId" : "1",
      "nameZh" : "下三角埔",
      "pgp" : "0",
      "terminal" : "0",
      "latitude" : "24.19971",
      "inDis" : "50",
      "routeId" : "220",
      "seqNo" : "35"
   },
   {
      "GoBack" : "1",
      "longitude" : "120.62565",
      "outDis" : "50",
      "Id" : "0671",
      "oid" : "A22A2BF183A7405B8257413F8530D585",
      "districtId" : "1",
      "nameZh" : "林厝里",
      "pgp" : "0",
      "terminal" : "0",
      "latitude" : "24.19795",
      "inDis" : "50",
      "routeId" : "220",
      "seqNo" : "36"
   },
   {
      "GoBack" : "1",
      "longitude" : "120.62423",
      "outDis" : "50",
      "Id" : "5264",
      "oid" : "310787836",
      "districtId" : "1",
      "nameZh" : "福雅安林路口",
      "pgp" : "0",
      "terminal" : "0",
      "latitude" : "24.19451",
      "inDis" : "50",
      "routeId" : "220",
      "seqNo" : "37"
   },
   {
      "GoBack" : "1",
      "longitude" : "120.62039",
      "outDis" : "50",
      "Id" : "5288",
      "oid" : "311033695",
      "districtId" : "1",
      "nameZh" : "福雅西屯路口",
      "pgp" : "0",
      "terminal" : "0",
      "latitude" : "24.18796",
      "inDis" : "50",
      "routeId" : "220",
      "seqNo" : "38"
   },
   {
      "GoBack" : "1",
      "longitude" : "120.61792",
      "outDis" : "50",
      "Id" : "5263",
      "oid" : "310787834",
      "districtId" : "1",
      "nameZh" : "福科福雅路口",
      "pgp" : "0",
      "terminal" : "0",
      "latitude" : "24.18526",
      "inDis" : "50",
      "routeId" : "220",
      "seqNo" : "39"
   },
   {
      "GoBack" : "1",
      "longitude" : "120.61784",
      "outDis" : "50",
      "Id" : "1874",
      "oid" : "310787784",
      "districtId" : "1",
      "nameZh" : "宏臺社區",
      "pgp" : "0",
      "terminal" : "0",
      "latitude" : "24.18818",
      "inDis" : "50",
      "routeId" : "220",
      "seqNo" : "40"
   },
   {
      "GoBack" : "1",
      "longitude" : "120.61587",
      "outDis" : "50",
      "Id" : "0959",
      "oid" : "3B0F0DEE617E40998DC5C9DA23137CC8",
      "districtId" : "1",
      "nameZh" : "麗景天地",
      "pgp" : "0",
      "terminal" : "0",
      "latitude" : "24.18899",
      "inDis" : "50",
      "routeId" : "220",
      "seqNo" : "41"
   },
   {
      "GoBack" : "1",
      "longitude" : "120.61361",
      "outDis" : "50",
      "Id" : "4682",
      "oid" : "305754605",
      "districtId" : "1",
      "nameZh" : "福科國中",
      "pgp" : "0",
      "terminal" : "0",
      "latitude" : "24.18971",
      "inDis" : "50",
      "routeId" : "220",
      "seqNo" : "42"
   },
   {
      "GoBack" : "1",
      "longitude" : "120.61116",
      "outDis" : "50",
      "Id" : "4683",
      "oid" : "305754608",
      "districtId" : "1",
      "nameZh" : "西屯玉門路口",
      "pgp" : "0",
      "terminal" : "0",
      "latitude" : "24.19086",
      "inDis" : "50",
      "routeId" : "220",
      "seqNo" : "43"
   },
   {
      "GoBack" : "1",
      "longitude" : "120.6079",
      "outDis" : "50",
      "Id" : "5237",
      "oid" : "310787780",
      "districtId" : "1",
      "nameZh" : "西屯東大路口",
      "pgp" : "0",
      "terminal" : "0",
      "latitude" : "24.19229",
      "inDis" : "50",
      "routeId" : "220",
      "seqNo" : "44"
   },
   {
      "GoBack" : "1",
      "longitude" : "120.60577",
      "outDis" : "50",
      "Id" : "3609",
      "oid" : "9756A7E4B22D41309E8C06DA977A7152",
      "districtId" : "1",
      "nameZh" : "榮總北院",
      "pgp" : "0",
      "terminal" : "0",
      "latitude" : "24.19006",
      "inDis" : "50",
      "routeId" : "220",
      "seqNo" : "45"
   },
   {
      "GoBack" : "1",
      "longitude" : "120.60444",
      "outDis" : "50",
      "Id" : "5258",
      "oid" : "310787824",
      "districtId" : "1",
      "nameZh" : "瑞聯天地(東大路)",
      "pgp" : "0",
      "terminal" : "0",
      "latitude" : "24.18712",
      "inDis" : "50",
      "routeId" : "220",
      "seqNo" : "46"
   },
   {
      "GoBack" : "1",
      "longitude" : "120.60491",
      "outDis" : "50",
      "Id" : "5386",
      "oid" : "5565",
      "districtId" : "1",
      "nameZh" : "臺中榮總(臺灣大道)",
      "pgp" : "0",
      "terminal" : "0",
      "latitude" : "24.18349",
      "inDis" : "50",
      "routeId" : "220",
      "seqNo" : "47"
   },
   {
      "GoBack" : "2",
      "longitude" : "120.60491",
      "outDis" : "50",
      "Id" : "5386",
      "oid" : "5565",
      "districtId" : "1",
      "nameZh" : "臺中榮總(臺灣大道)",
      "pgp" : "0",
      "terminal" : "0",
      "latitude" : "24.18349",
      "inDis" : "50",
      "routeId" : "220",
      "seqNo" : "1"
   },
   {
      "GoBack" : "2",
      "longitude" : "120.60657",
      "outDis" : "50",
      "Id" : "2378",
      "oid" : "03AB2CCC5A54474AAE13E068FBE1BAA8",
      "districtId" : "1",
      "nameZh" : "東大附中",
      "pgp" : "0",
      "terminal" : "0",
      "latitude" : "24.18358",
      "inDis" : "50",
      "routeId" : "220",
      "seqNo" : "2"
   },
   {
      "GoBack" : "2",
      "longitude" : "120.6083",
      "outDis" : "50",
      "Id" : "0004",
      "oid" : "48D25CD119514084B110421FD3CEABB7",
      "districtId" : "1",
      "nameZh" : "普濟寺",
      "pgp" : "0",
      "terminal" : "0",
      "latitude" : "24.18401",
      "inDis" : "50",
      "routeId" : "220",
      "seqNo" : "3"
   },
   {
      "GoBack" : "2",
      "longitude" : "120.6098",
      "outDis" : "50",
      "Id" : "5287",
      "oid" : "311033694",
      "districtId" : "1",
      "nameZh" : "玉門臺灣大道口",
      "pgp" : "0",
      "terminal" : "0",
      "latitude" : "24.18507",
      "inDis" : "50",
      "routeId" : "220",
      "seqNo" : "4"
   },
   {
      "GoBack" : "2",
      "longitude" : "120.60987",
      "outDis" : "50",
      "Id" : "5234",
      "oid" : "310787774",
      "districtId" : "1",
      "nameZh" : "玉門福科路口",
      "pgp" : "0",
      "terminal" : "0",
      "latitude" : "24.18714",
      "inDis" : "50",
      "routeId" : "220",
      "seqNo" : "5"
   },
   {
      "GoBack" : "2",
      "longitude" : "120.6106",
      "outDis" : "50",
      "Id" : "0885",
      "oid" : "14B033E3CC8C42079E878362159A57A1",
      "districtId" : "1",
      "nameZh" : "榮總宿舍",
      "pgp" : "0",
      "terminal" : "0",
      "latitude" : "24.19023",
      "inDis" : "50",
      "routeId" : "220",
      "seqNo" : "6"
   },
   {
      "GoBack" : "2",
      "longitude" : "120.61116",
      "outDis" : "50",
      "Id" : "4683",
      "oid" : "305754608",
      "districtId" : "1",
      "nameZh" : "西屯玉門路口",
      "pgp" : "0",
      "terminal" : "0",
      "latitude" : "24.19086",
      "inDis" : "50",
      "routeId" : "220",
      "seqNo" : "7"
   },
   {
      "GoBack" : "2",
      "longitude" : "120.61361",
      "outDis" : "50",
      "Id" : "4682",
      "oid" : "305754605",
      "districtId" : "1",
      "nameZh" : "福科國中",
      "pgp" : "0",
      "terminal" : "0",
      "latitude" : "24.18971",
      "inDis" : "50",
      "routeId" : "220",
      "seqNo" : "8"
   },
   {
      "GoBack" : "2",
      "longitude" : "120.61587",
      "outDis" : "50",
      "Id" : "0959",
      "oid" : "3B0F0DEE617E40998DC5C9DA23137CC8",
      "districtId" : "1",
      "nameZh" : "麗景天地",
      "pgp" : "0",
      "terminal" : "0",
      "latitude" : "24.18899",
      "inDis" : "50",
      "routeId" : "220",
      "seqNo" : "9"
   },
   {
      "GoBack" : "2",
      "longitude" : "120.61795",
      "outDis" : "50",
      "Id" : "1874",
      "oid" : "5593",
      "districtId" : "1",
      "nameZh" : "宏臺社區",
      "pgp" : "0",
      "terminal" : "0",
      "latitude" : "24.18817",
      "inDis" : "50",
      "routeId" : "220",
      "seqNo" : "10"
   },
   {
      "GoBack" : "2",
      "longitude" : "120.61792",
      "outDis" : "50",
      "Id" : "5263",
      "oid" : "310787834",
      "districtId" : "1",
      "nameZh" : "福科福雅路口",
      "pgp" : "0",
      "terminal" : "0",
      "latitude" : "24.18526",
      "inDis" : "50",
      "routeId" : "220",
      "seqNo" : "11"
   },
   {
      "GoBack" : "2",
      "longitude" : "120.62039",
      "outDis" : "50",
      "Id" : "5288",
      "oid" : "311033695",
      "districtId" : "1",
      "nameZh" : "福雅西屯路口",
      "pgp" : "0",
      "terminal" : "0",
      "latitude" : "24.18796",
      "inDis" : "50",
      "routeId" : "220",
      "seqNo" : "12"
   },
   {
      "GoBack" : "2",
      "longitude" : "120.62423",
      "outDis" : "50",
      "Id" : "5264",
      "oid" : "310787836",
      "districtId" : "1",
      "nameZh" : "福雅安林路口",
      "pgp" : "0",
      "terminal" : "0",
      "latitude" : "24.19451",
      "inDis" : "50",
      "routeId" : "220",
      "seqNo" : "13"
   },
   {
      "GoBack" : "2",
      "longitude" : "120.62565",
      "outDis" : "50",
      "Id" : "0671",
      "oid" : "A22A2BF183A7405B8257413F8530D585",
      "districtId" : "1",
      "nameZh" : "林厝里",
      "pgp" : "0",
      "terminal" : "0",
      "latitude" : "24.19795",
      "inDis" : "50",
      "routeId" : "220",
      "seqNo" : "14"
   },
   {
      "GoBack" : "2",
      "longitude" : "120.62649",
      "outDis" : "50",
      "Id" : "1112",
      "oid" : "5100",
      "districtId" : "1",
      "nameZh" : "下三角埔",
      "pgp" : "0",
      "terminal" : "0",
      "latitude" : "24.19971",
      "inDis" : "50",
      "routeId" : "220",
      "seqNo" : "15"
   },
   {
      "GoBack" : "2",
      "longitude" : "120.62777",
      "outDis" : "50",
      "Id" : "0323",
      "oid" : "5074",
      "districtId" : "1",
      "nameZh" : "三角埔",
      "pgp" : "0",
      "terminal" : "0",
      "latitude" : "24.20183",
      "inDis" : "50",
      "routeId" : "220",
      "seqNo" : "16"
   },
   {
      "GoBack" : "2",
      "longitude" : "120.629",
      "outDis" : "50",
      "Id" : "0799",
      "oid" : "EEED91520DFA44E9B337F0C11B1FEF2D",
      "districtId" : "1",
      "nameZh" : "頂林厝",
      "pgp" : "0",
      "terminal" : "0",
      "latitude" : "24.20365",
      "inDis" : "50",
      "routeId" : "220",
      "seqNo" : "17"
   },
   {
      "GoBack" : "2",
      "longitude" : "120.62903",
      "outDis" : "50",
      "Id" : "5289",
      "oid" : "311033696",
      "districtId" : "1",
      "nameZh" : "福雅中科路口",
      "pgp" : "0",
      "terminal" : "0",
      "latitude" : "24.2055",
      "inDis" : "50",
      "routeId" : "220",
      "seqNo" : "18"
   },
   {
      "GoBack" : "2",
      "longitude" : "120.63012",
      "outDis" : "50",
      "Id" : "0529",
      "oid" : "6619",
      "districtId" : "1",
      "nameZh" : "橫山",
      "pgp" : "0",
      "terminal" : "0",
      "latitude" : "24.20998",
      "inDis" : "50",
      "routeId" : "220",
      "seqNo" : "19"
   },
   {
      "GoBack" : "2",
      "longitude" : "120.63328",
      "outDis" : "50",
      "Id" : "5215",
      "oid" : "310787736",
      "districtId" : "1",
      "nameZh" : "上橫山",
      "pgp" : "0",
      "terminal" : "0",
      "latitude" : "24.21287",
      "inDis" : "50",
      "routeId" : "220",
      "seqNo" : "20"
   },
   {
      "GoBack" : "2",
      "longitude" : "120.63528",
      "outDis" : "50",
      "Id" : "1263",
      "oid" : "5202",
      "districtId" : "1",
      "nameZh" : "土地廟",
      "pgp" : "0",
      "terminal" : "0",
      "latitude" : "24.21475",
      "inDis" : "50",
      "routeId" : "220",
      "seqNo" : "21"
   },
   {
      "GoBack" : "2",
      "longitude" : "120.63943",
      "outDis" : "50",
      "Id" : "2252",
      "oid" : "5794",
      "districtId" : "1",
      "nameZh" : "秀山",
      "pgp" : "0",
      "terminal" : "0",
      "latitude" : "24.21861",
      "inDis" : "50",
      "routeId" : "220",
      "seqNo" : "22"
   },
   {
      "GoBack" : "2",
      "longitude" : "120.64231",
      "outDis" : "50",
      "Id" : "3218",
      "oid" : "6331",
      "districtId" : "1",
      "nameZh" : "富貴新村",
      "pgp" : "0",
      "terminal" : "0",
      "latitude" : "24.2197",
      "inDis" : "50",
      "routeId" : "220",
      "seqNo" : "23"
   },
   {
      "GoBack" : "2",
      "longitude" : "120.645",
      "outDis" : "50",
      "Id" : "5230",
      "oid" : "310787766",
      "districtId" : "1",
      "nameZh" : "文雅里",
      "pgp" : "0",
      "terminal" : "0",
      "latitude" : "24.22165",
      "inDis" : "50",
      "routeId" : "220",
      "seqNo" : "24"
   },
   {
      "GoBack" : "2",
      "longitude" : "120.64789",
      "outDis" : "50",
      "Id" : "1346",
      "oid" : "7231",
      "districtId" : "1",
      "nameZh" : "大雅",
      "pgp" : "0",
      "terminal" : "0",
      "latitude" : "24.22364",
      "inDis" : "50",
      "routeId" : "220",
      "seqNo" : "25"
   },
   {
      "GoBack" : "2",
      "longitude" : "120.64796",
      "outDis" : "50",
      "Id" : "4722",
      "oid" : "306625604",
      "districtId" : "1",
      "nameZh" : "玉山銀行大雅分行",
      "pgp" : "0",
      "terminal" : "0",
      "latitude" : "24.22531",
      "inDis" : "50",
      "routeId" : "220",
      "seqNo" : "26"
   },
   {
      "GoBack" : "2",
      "longitude" : "120.65112",
      "outDis" : "50",
      "Id" : "1366",
      "oid" : "5281",
      "districtId" : "1",
      "nameZh" : "大榮橋",
      "pgp" : "0",
      "terminal" : "0",
      "latitude" : "24.22764",
      "inDis" : "50",
      "routeId" : "220",
      "seqNo" : "27"
   },
   {
      "GoBack" : "2",
      "longitude" : "120.65401",
      "outDis" : "50",
      "Id" : "3304",
      "oid" : "6380",
      "districtId" : "1",
      "nameZh" : "雅洲新城",
      "pgp" : "0",
      "terminal" : "0",
      "latitude" : "24.22915",
      "inDis" : "50",
      "routeId" : "220",
      "seqNo" : "28"
   },
   {
      "GoBack" : "2",
      "longitude" : "120.65948",
      "outDis" : "50",
      "Id" : "3544",
      "oid" : "6510",
      "districtId" : "1",
      "nameZh" : "達聲",
      "pgp" : "0",
      "terminal" : "0",
      "latitude" : "24.23155",
      "inDis" : "50",
      "routeId" : "220",
      "seqNo" : "29"
   },
   {
      "GoBack" : "2",
      "longitude" : "120.66354",
      "outDis" : "50",
      "Id" : "1204",
      "oid" : "5156",
      "districtId" : "1",
      "nameZh" : "下楓樹腳",
      "pgp" : "0",
      "terminal" : "0",
      "latitude" : "24.23335",
      "inDis" : "50",
      "routeId" : "220",
      "seqNo" : "30"
   },
   {
      "GoBack" : "2",
      "longitude" : "120.66726",
      "outDis" : "50",
      "Id" : "3454",
      "oid" : "6471",
      "districtId" : "1",
      "nameZh" : "楓樹腳",
      "pgp" : "0",
      "terminal" : "0",
      "latitude" : "24.23591",
      "inDis" : "50",
      "routeId" : "220",
      "seqNo" : "31"
   },
   {
      "GoBack" : "2",
      "longitude" : "120.67004",
      "outDis" : "50",
      "Id" : "3707",
      "oid" : "6589",
      "districtId" : "1",
      "nameZh" : "億鴻新村",
      "pgp" : "0",
      "terminal" : "0",
      "latitude" : "24.23781",
      "inDis" : "50",
      "routeId" : "220",
      "seqNo" : "32"
   },
   {
      "GoBack" : "2",
      "longitude" : "120.67445",
      "outDis" : "50",
      "Id" : "1733",
      "oid" : "5499",
      "districtId" : "1",
      "nameZh" : "牛埔仔",
      "pgp" : "0",
      "terminal" : "0",
      "latitude" : "24.24073",
      "inDis" : "50",
      "routeId" : "220",
      "seqNo" : "33"
   },
   {
      "GoBack" : "2",
      "longitude" : "120.67731",
      "outDis" : "50",
      "Id" : "4721",
      "oid" : "306625603",
      "districtId" : "1",
      "nameZh" : "三采幼稚園",
      "pgp" : "0",
      "terminal" : "0",
      "latitude" : "24.24282",
      "inDis" : "50",
      "routeId" : "220",
      "seqNo" : "34"
   },
   {
      "GoBack" : "2",
      "longitude" : "120.67895",
      "outDis" : "50",
      "Id" : "3103",
      "oid" : "6287",
      "districtId" : "1",
      "nameZh" : "頂牛埔",
      "pgp" : "0",
      "terminal" : "0",
      "latitude" : "24.24386",
      "inDis" : "50",
      "routeId" : "220",
      "seqNo" : "35"
   },
   {
      "GoBack" : "2",
      "longitude" : "120.68237",
      "outDis" : "50",
      "Id" : "2492",
      "oid" : "5945",
      "districtId" : "1",
      "nameZh" : "社南廟",
      "pgp" : "0",
      "terminal" : "0",
      "latitude" : "24.24607",
      "inDis" : "50",
      "routeId" : "220",
      "seqNo" : "36"
   },
   {
      "GoBack" : "2",
      "longitude" : "120.68563",
      "outDis" : "50",
      "Id" : "2486",
      "oid" : "5941",
      "districtId" : "1",
      "nameZh" : "社口",
      "pgp" : "0",
      "terminal" : "0",
      "latitude" : "24.24668",
      "inDis" : "50",
      "routeId" : "220",
      "seqNo" : "37"
   },
   {
      "GoBack" : "2",
      "longitude" : "120.6896",
      "outDis" : "50",
      "Id" : "2700",
      "oid" : "6056",
      "districtId" : "1",
      "nameZh" : "紅瓦厝口",
      "pgp" : "0",
      "terminal" : "0",
      "latitude" : "24.2476",
      "inDis" : "50",
      "routeId" : "220",
      "seqNo" : "38"
   },
   {
      "GoBack" : "2",
      "longitude" : "120.69323",
      "outDis" : "50",
      "Id" : "2993",
      "oid" : "6203",
      "districtId" : "1",
      "nameZh" : "望寮",
      "pgp" : "0",
      "terminal" : "0",
      "latitude" : "24.24841",
      "inDis" : "50",
      "routeId" : "220",
      "seqNo" : "39"
   },
   {
      "GoBack" : "2",
      "longitude" : "120.69799",
      "outDis" : "50",
      "Id" : "5438",
      "oid" : "5237",
      "districtId" : "1",
      "nameZh" : "岸裡國小",
      "pgp" : "0",
      "terminal" : "0",
      "latitude" : "24.2487",
      "inDis" : "50",
      "routeId" : "220",
      "seqNo" : "40"
   },
   {
      "GoBack" : "2",
      "longitude" : "120.70003",
      "outDis" : "50",
      "Id" : "4498",
      "oid" : "13826",
      "districtId" : "1",
      "nameZh" : "臺豐社區",
      "pgp" : "0",
      "terminal" : "0",
      "latitude" : "24.249",
      "inDis" : "50",
      "routeId" : "220",
      "seqNo" : "41"
   },
   {
      "GoBack" : "2",
      "longitude" : "120.70229",
      "outDis" : "50",
      "Id" : "2489",
      "oid" : "5943",
      "districtId" : "1",
      "nameZh" : "社皮鐵路巷",
      "pgp" : "0",
      "terminal" : "0",
      "latitude" : "24.24951",
      "inDis" : "50",
      "routeId" : "220",
      "seqNo" : "42"
   },
   {
      "GoBack" : "2",
      "longitude" : "120.70434",
      "outDis" : "50",
      "Id" : "2349",
      "oid" : "5856",
      "districtId" : "1",
      "nameZh" : "忠勤新村",
      "pgp" : "0",
      "terminal" : "0",
      "latitude" : "24.24962",
      "inDis" : "50",
      "routeId" : "220",
      "seqNo" : "43"
   },
   {
      "GoBack" : "2",
      "longitude" : "120.70672",
      "outDis" : "50",
      "Id" : "1065",
      "oid" : "5072",
      "districtId" : "1",
      "nameZh" : "三光新村",
      "pgp" : "0",
      "terminal" : "0",
      "latitude" : "24.24999",
      "inDis" : "50",
      "routeId" : "220",
      "seqNo" : "44"
   },
   {
      "GoBack" : "2",
      "longitude" : "120.70963",
      "outDis" : "50",
      "Id" : "4448",
      "oid" : "6688",
      "districtId" : "1",
      "nameZh" : "中正圓環西路口",
      "pgp" : "0",
      "terminal" : "0",
      "latitude" : "24.25039",
      "inDis" : "50",
      "routeId" : "220",
      "seqNo" : "45"
   },
   {
      "GoBack" : "2",
      "longitude" : "120.712",
      "outDis" : "50",
      "Id" : "3357",
      "oid" : "6406",
      "districtId" : "1",
      "nameZh" : "慈龍寺",
      "pgp" : "0",
      "terminal" : "0",
      "latitude" : "24.25079",
      "inDis" : "50",
      "routeId" : "220",
      "seqNo" : "46"
   },
   {
      "GoBack" : "2",
      "longitude" : "120.71526",
      "outDis" : "50",
      "Id" : "3939",
      "oid" : "6698",
      "districtId" : "1",
      "nameZh" : "豐原郵局",
      "pgp" : "0",
      "terminal" : "0",
      "latitude" : "24.25136",
      "inDis" : "50",
      "routeId" : "220",
      "seqNo" : "47"
   },
   {
      "GoBack" : "2",
      "longitude" : "120.71851",
      "outDis" : "50",
      "Id" : "3343",
      "oid" : "6397",
      "districtId" : "1",
      "nameZh" : "媽祖廟",
      "pgp" : "0",
      "terminal" : "0",
      "latitude" : "24.25157",
      "inDis" : "50",
      "routeId" : "220",
      "seqNo" : "48"
   },
   {
      "GoBack" : "2",
      "longitude" : "120.71986",
      "outDis" : "50",
      "Id" : "2309",
      "oid" : "5835",
      "districtId" : "1",
      "nameZh" : "和平街",
      "pgp" : "0",
      "terminal" : "0",
      "latitude" : "24.25233",
      "inDis" : "50",
      "routeId" : "220",
      "seqNo" : "49"
   },
   {
      "GoBack" : "2",
      "longitude" : "120.72154",
      "outDis" : "70",
      "Id" : "3935",
      "oid" : "6693",
      "districtId" : "1",
      "nameZh" : "豐原",
      "pgp" : "0",
      "terminal" : "0",
      "latitude" : "24.2538",
      "inDis" : "70",
      "routeId" : "220",
      "seqNo" : "50"
   }
]
