[
   {
      "GoBack" : "1",
      "longitude" : "120.6849",
      "outDis" : "50",
      "Id" : "1824",
      "oid" : "7352",
      "districtId" : "1",
      "nameZh" : "臺中火車站",
      "pgp" : "0",
      "terminal" : "0",
      "latitude" : "24.13775",
      "inDis" : "50",
      "routeId" : "102",
      "seqNo" : "1"
   },
   {
      "GoBack" : "1",
      "longitude" : "120.68182",
      "outDis" : "50",
      "Id" : "0518",
      "oid" : "115DF7739EDA40CC9C702A4F61B74164",
      "districtId" : "1",
      "nameZh" : "臺中酒廠(復興路)",
      "pgp" : "0",
      "terminal" : "0",
      "latitude" : "24.13394",
      "inDis" : "50",
      "routeId" : "102",
      "seqNo" : "2"
   },
   {
      "GoBack" : "1",
      "longitude" : "120.67994",
      "outDis" : "50",
      "Id" : "1659",
      "oid" : "7160",
      "districtId" : "1",
      "nameZh" : "文化創意園區",
      "pgp" : "0",
      "terminal" : "0",
      "latitude" : "24.13317",
      "inDis" : "50",
      "routeId" : "102",
      "seqNo" : "3"
   },
   {
      "GoBack" : "1",
      "longitude" : "120.67877",
      "outDis" : "50",
      "Id" : "0180",
      "oid" : "7132",
      "districtId" : "1",
      "nameZh" : "林祖厝",
      "pgp" : "0",
      "terminal" : "0",
      "latitude" : "24.1328",
      "inDis" : "50",
      "routeId" : "102",
      "seqNo" : "4"
   },
   {
      "GoBack" : "1",
      "longitude" : "120.6764",
      "outDis" : "50",
      "Id" : "4604",
      "oid" : "7737",
      "districtId" : "1",
      "nameZh" : "復興有恆街口",
      "pgp" : "0",
      "terminal" : "0",
      "latitude" : "24.13182",
      "inDis" : "50",
      "routeId" : "102",
      "seqNo" : "5"
   },
   {
      "GoBack" : "1",
      "longitude" : "120.67469",
      "outDis" : "50",
      "Id" : "0178",
      "oid" : "7445",
      "districtId" : "1",
      "nameZh" : "第三分局",
      "pgp" : "0",
      "terminal" : "0",
      "latitude" : "24.13108",
      "inDis" : "50",
      "routeId" : "102",
      "seqNo" : "6"
   },
   {
      "GoBack" : "1",
      "longitude" : "120.67021",
      "outDis" : "50",
      "Id" : "5393",
      "oid" : "319430803",
      "districtId" : "1",
      "nameZh" : "公共資訊圖書館(復興路)",
      "pgp" : "0",
      "terminal" : "0",
      "latitude" : "24.12928",
      "inDis" : "50",
      "routeId" : "102",
      "seqNo" : "7"
   },
   {
      "GoBack" : "1",
      "longitude" : "120.66837",
      "outDis" : "50",
      "Id" : "5478",
      "oid" : "319311008",
      "districtId" : "1",
      "nameZh" : "高等法院臺中分院",
      "pgp" : "0",
      "terminal" : "0",
      "latitude" : "24.12838",
      "inDis" : "50",
      "routeId" : "102",
      "seqNo" : "8"
   },
   {
      "GoBack" : "1",
      "longitude" : "120.66576",
      "outDis" : "50",
      "Id" : "0543",
      "oid" : "7021",
      "districtId" : "1",
      "nameZh" : "四育國中",
      "pgp" : "0",
      "terminal" : "0",
      "latitude" : "24.12702",
      "inDis" : "50",
      "routeId" : "102",
      "seqNo" : "9"
   },
   {
      "GoBack" : "1",
      "longitude" : "120.66303",
      "outDis" : "50",
      "Id" : "3395",
      "oid" : "7515",
      "districtId" : "1",
      "nameZh" : "復興新和街口",
      "pgp" : "0",
      "terminal" : "0",
      "latitude" : "24.12392",
      "inDis" : "50",
      "routeId" : "102",
      "seqNo" : "10"
   },
   {
      "GoBack" : "1",
      "longitude" : "120.66133",
      "outDis" : "50",
      "Id" : "0128",
      "oid" : "7102",
      "districtId" : "1",
      "nameZh" : "和平國小",
      "pgp" : "0",
      "terminal" : "0",
      "latitude" : "24.12141",
      "inDis" : "50",
      "routeId" : "102",
      "seqNo" : "11"
   },
   {
      "GoBack" : "1",
      "longitude" : "120.65942",
      "outDis" : "50",
      "Id" : "0129",
      "oid" : "7108",
      "districtId" : "1",
      "nameZh" : "宜寧中學",
      "pgp" : "0",
      "terminal" : "0",
      "latitude" : "24.11898",
      "inDis" : "50",
      "routeId" : "102",
      "seqNo" : "12"
   },
   {
      "GoBack" : "1",
      "longitude" : "120.65818",
      "outDis" : "50",
      "Id" : "4538",
      "oid" : "311087406",
      "districtId" : "1",
      "nameZh" : "臺中高工(復興路)",
      "pgp" : "0",
      "terminal" : "0",
      "latitude" : "24.11751",
      "inDis" : "50",
      "routeId" : "102",
      "seqNo" : "13"
   },
   {
      "GoBack" : "1",
      "longitude" : "120.65591",
      "outDis" : "50",
      "Id" : "0130",
      "oid" : "3723",
      "districtId" : "1",
      "nameZh" : "樹義里",
      "pgp" : "0",
      "terminal" : "0",
      "latitude" : "24.11565",
      "inDis" : "50",
      "routeId" : "102",
      "seqNo" : "14"
   },
   {
      "GoBack" : "1",
      "longitude" : "120.65425",
      "outDis" : "50",
      "Id" : "4536",
      "oid" : "3724",
      "districtId" : "1",
      "nameZh" : "復興大慶街口",
      "pgp" : "0",
      "terminal" : "0",
      "latitude" : "24.11446",
      "inDis" : "50",
      "routeId" : "102",
      "seqNo" : "15"
   },
   {
      "GoBack" : "1",
      "longitude" : "120.6512",
      "outDis" : "50",
      "Id" : "3330",
      "oid" : "7498",
      "districtId" : "1",
      "nameZh" : "勤工派出所",
      "pgp" : "0",
      "terminal" : "0",
      "latitude" : "24.11225",
      "inDis" : "50",
      "routeId" : "102",
      "seqNo" : "16"
   },
   {
      "GoBack" : "1",
      "longitude" : "120.64799",
      "outDis" : "50",
      "Id" : "5195",
      "oid" : "14763",
      "districtId" : "1",
      "nameZh" : "復興環中路口",
      "pgp" : "0",
      "terminal" : "0",
      "latitude" : "24.11096",
      "inDis" : "50",
      "routeId" : "102",
      "seqNo" : "17"
   },
   {
      "GoBack" : "1",
      "longitude" : "120.64588",
      "outDis" : "50",
      "Id" : "3790",
      "oid" : "7590",
      "districtId" : "1",
      "nameZh" : "樹仔腳",
      "pgp" : "0",
      "terminal" : "0",
      "latitude" : "24.11023",
      "inDis" : "50",
      "routeId" : "102",
      "seqNo" : "18"
   },
   {
      "GoBack" : "1",
      "longitude" : "120.64182",
      "outDis" : "50",
      "Id" : "0994",
      "oid" : "7189",
      "districtId" : "1",
      "nameZh" : "九張犁",
      "pgp" : "0",
      "terminal" : "0",
      "latitude" : "24.10901",
      "inDis" : "50",
      "routeId" : "102",
      "seqNo" : "19"
   },
   {
      "GoBack" : "1",
      "longitude" : "120.63886",
      "outDis" : "50",
      "Id" : "2366",
      "oid" : "7115",
      "districtId" : "1",
      "nameZh" : "明道花園城",
      "pgp" : "0",
      "terminal" : "0",
      "latitude" : "24.10807",
      "inDis" : "50",
      "routeId" : "102",
      "seqNo" : "20"
   },
   {
      "GoBack" : "1",
      "longitude" : "120.63696",
      "outDis" : "50",
      "Id" : "2365",
      "oid" : "7114",
      "districtId" : "1",
      "nameZh" : "明道中學",
      "pgp" : "0",
      "terminal" : "0",
      "latitude" : "24.10749",
      "inDis" : "50",
      "routeId" : "102",
      "seqNo" : "21"
   },
   {
      "GoBack" : "1",
      "longitude" : "120.63294",
      "outDis" : "50",
      "Id" : "2821",
      "oid" : "7377",
      "districtId" : "1",
      "nameZh" : "烏日橋",
      "pgp" : "0",
      "terminal" : "0",
      "latitude" : "24.10581",
      "inDis" : "50",
      "routeId" : "102",
      "seqNo" : "22"
   },
   {
      "GoBack" : "1",
      "longitude" : "120.62864",
      "outDis" : "50",
      "Id" : "1454",
      "oid" : "7262",
      "districtId" : "1",
      "nameZh" : "中和紡織",
      "pgp" : "0",
      "terminal" : "0",
      "latitude" : "24.10564",
      "inDis" : "50",
      "routeId" : "102",
      "seqNo" : "23"
   },
   {
      "GoBack" : "1",
      "longitude" : "120.62631",
      "outDis" : "50",
      "Id" : "4660",
      "oid" : "AAF6EB0AFD4046C9A2273E4A0C6F2E4B",
      "districtId" : "1",
      "nameZh" : "中山五光路口",
      "pgp" : "0",
      "terminal" : "0",
      "latitude" : "24.10608",
      "inDis" : "50",
      "routeId" : "102",
      "seqNo" : "24"
   },
   {
      "GoBack" : "1",
      "longitude" : "120.62339",
      "outDis" : "50",
      "Id" : "2816",
      "oid" : "7376",
      "districtId" : "1",
      "nameZh" : "烏日",
      "pgp" : "0",
      "terminal" : "0",
      "latitude" : "24.10638",
      "inDis" : "50",
      "routeId" : "102",
      "seqNo" : "25"
   },
   {
      "GoBack" : "1",
      "longitude" : "120.61742",
      "outDis" : "50",
      "Id" : "2820",
      "oid" : "43AE4EBA5915453A8E79716A1A633F75",
      "districtId" : "1",
      "nameZh" : "烏日國中",
      "pgp" : "0",
      "terminal" : "0",
      "latitude" : "24.10628",
      "inDis" : "50",
      "routeId" : "102",
      "seqNo" : "26"
   },
   {
      "GoBack" : "1",
      "longitude" : "120.61536",
      "outDis" : "350",
      "Id" : "2907",
      "oid" : "14000",
      "districtId" : "1",
      "nameZh" : "高鐵臺中站(1月台)",
      "pgp" : "0",
      "terminal" : "0",
      "latitude" : "24.11399",
      "inDis" : "350",
      "routeId" : "102",
      "seqNo" : "28"
   },
   {
      "GoBack" : "1",
      "longitude" : "120.60767",
      "outDis" : "50",
      "Id" : "5082",
      "oid" : "14001",
      "districtId" : "1",
      "nameZh" : "三和里1",
      "pgp" : "0",
      "terminal" : "0",
      "latitude" : "24.10859",
      "inDis" : "50",
      "routeId" : "102",
      "seqNo" : "29"
   },
   {
      "GoBack" : "1",
      "longitude" : "120.60634",
      "outDis" : "50",
      "Id" : "5083",
      "oid" : "14002",
      "districtId" : "1",
      "nameZh" : "三和里2",
      "pgp" : "0",
      "terminal" : "0",
      "latitude" : "24.10878",
      "inDis" : "50",
      "routeId" : "102",
      "seqNo" : "30"
   },
   {
      "GoBack" : "1",
      "longitude" : "120.6047",
      "outDis" : "50",
      "Id" : "4468",
      "oid" : "14003",
      "districtId" : "1",
      "nameZh" : "烏日戶政",
      "pgp" : "0",
      "terminal" : "0",
      "latitude" : "24.10927",
      "inDis" : "50",
      "routeId" : "102",
      "seqNo" : "31"
   },
   {
      "GoBack" : "1",
      "longitude" : "120.60156",
      "outDis" : "50",
      "Id" : "2120",
      "oid" : "2094",
      "districtId" : "1",
      "nameZh" : "成功嶺",
      "pgp" : "0",
      "terminal" : "0",
      "latitude" : "24.11044",
      "inDis" : "50",
      "routeId" : "102",
      "seqNo" : "32"
   },
   {
      "GoBack" : "1",
      "longitude" : "120.59403",
      "outDis" : "50",
      "Id" : "3277",
      "oid" : "7489",
      "districtId" : "1",
      "nameZh" : "善光寺",
      "pgp" : "0",
      "terminal" : "0",
      "latitude" : "24.11295",
      "inDis" : "50",
      "routeId" : "102",
      "seqNo" : "33"
   },
   {
      "GoBack" : "1",
      "longitude" : "120.58856",
      "outDis" : "50",
      "Id" : "1743",
      "oid" : "7334",
      "districtId" : "1",
      "nameZh" : "王田",
      "pgp" : "0",
      "terminal" : "0",
      "latitude" : "24.11348",
      "inDis" : "50",
      "routeId" : "102",
      "seqNo" : "34"
   },
   {
      "GoBack" : "1",
      "longitude" : "120.57649",
      "outDis" : "50",
      "Id" : "2597",
      "oid" : "7159",
      "districtId" : "1",
      "nameZh" : "南追分",
      "pgp" : "0",
      "terminal" : "0",
      "latitude" : "24.11887",
      "inDis" : "50",
      "routeId" : "102",
      "seqNo" : "36"
   },
   {
      "GoBack" : "1",
      "longitude" : "120.57048",
      "outDis" : "50",
      "Id" : "2884",
      "oid" : "7389",
      "districtId" : "1",
      "nameZh" : "追分",
      "pgp" : "0",
      "terminal" : "0",
      "latitude" : "24.12114",
      "inDis" : "50",
      "routeId" : "102",
      "seqNo" : "37"
   },
   {
      "GoBack" : "1",
      "longitude" : "120.56812",
      "outDis" : "50",
      "Id" : "2885",
      "oid" : "7390",
      "districtId" : "1",
      "nameZh" : "追分國小",
      "pgp" : "0",
      "terminal" : "0",
      "latitude" : "24.12203",
      "inDis" : "50",
      "routeId" : "102",
      "seqNo" : "38"
   },
   {
      "GoBack" : "1",
      "longitude" : "120.5645",
      "outDis" : "50",
      "Id" : "1390",
      "oid" : "7241",
      "districtId" : "1",
      "nameZh" : "山仔頂",
      "pgp" : "0",
      "terminal" : "0",
      "latitude" : "24.12339",
      "inDis" : "50",
      "routeId" : "102",
      "seqNo" : "39"
   },
   {
      "GoBack" : "1",
      "longitude" : "120.56207",
      "outDis" : "50",
      "Id" : "2886",
      "oid" : "7391",
      "districtId" : "1",
      "nameZh" : "追分郵局",
      "pgp" : "0",
      "terminal" : "0",
      "latitude" : "24.12482",
      "inDis" : "50",
      "routeId" : "102",
      "seqNo" : "40"
   },
   {
      "GoBack" : "1",
      "longitude" : "120.56034",
      "outDis" : "50",
      "Id" : "4511",
      "oid" : "14012",
      "districtId" : "1",
      "nameZh" : "興國公司",
      "pgp" : "0",
      "terminal" : "0",
      "latitude" : "24.12584",
      "inDis" : "50",
      "routeId" : "102",
      "seqNo" : "41"
   },
   {
      "GoBack" : "1",
      "longitude" : "120.55759",
      "outDis" : "50",
      "Id" : "4514",
      "oid" : "14013",
      "districtId" : "1",
      "nameZh" : "營埔里",
      "pgp" : "0",
      "terminal" : "0",
      "latitude" : "24.12759",
      "inDis" : "50",
      "routeId" : "102",
      "seqNo" : "42"
   },
   {
      "GoBack" : "1",
      "longitude" : "120.55397",
      "outDis" : "50",
      "Id" : "2494",
      "oid" : "7135",
      "districtId" : "1",
      "nameZh" : "社腳",
      "pgp" : "0",
      "terminal" : "0",
      "latitude" : "24.13248",
      "inDis" : "50",
      "routeId" : "102",
      "seqNo" : "43"
   },
   {
      "GoBack" : "1",
      "longitude" : "120.55358",
      "outDis" : "50",
      "Id" : "2443",
      "oid" : "7129",
      "districtId" : "1",
      "nameZh" : "東興紡織",
      "pgp" : "0",
      "terminal" : "0",
      "latitude" : "24.13472",
      "inDis" : "50",
      "routeId" : "102",
      "seqNo" : "44"
   },
   {
      "GoBack" : "1",
      "longitude" : "120.5518",
      "outDis" : "50",
      "Id" : "4038",
      "oid" : "7183",
      "districtId" : "1",
      "nameZh" : "崁仔腳",
      "pgp" : "0",
      "terminal" : "0",
      "latitude" : "24.13717",
      "inDis" : "50",
      "routeId" : "102",
      "seqNo" : "45"
   },
   {
      "GoBack" : "1",
      "longitude" : "120.54912",
      "outDis" : "50",
      "Id" : "4491",
      "oid" : "14017",
      "districtId" : "1",
      "nameZh" : "新興里",
      "pgp" : "0",
      "terminal" : "0",
      "latitude" : "24.14098",
      "inDis" : "50",
      "routeId" : "102",
      "seqNo" : "46"
   },
   {
      "GoBack" : "1",
      "longitude" : "120.54794",
      "outDis" : "50",
      "Id" : "4460",
      "oid" : "14018",
      "districtId" : "1",
      "nameZh" : "沙田自由路口",
      "pgp" : "0",
      "terminal" : "0",
      "latitude" : "24.14309",
      "inDis" : "50",
      "routeId" : "102",
      "seqNo" : "47"
   },
   {
      "GoBack" : "1",
      "longitude" : "120.54673",
      "outDis" : "50",
      "Id" : "1359",
      "oid" : "7235",
      "districtId" : "1",
      "nameZh" : "大道國中",
      "pgp" : "0",
      "terminal" : "0",
      "latitude" : "24.14613",
      "inDis" : "50",
      "routeId" : "102",
      "seqNo" : "48"
   },
   {
      "GoBack" : "1",
      "longitude" : "120.54565",
      "outDis" : "50",
      "Id" : "1302",
      "oid" : "7217",
      "districtId" : "1",
      "nameZh" : "大肚",
      "pgp" : "0",
      "terminal" : "0",
      "latitude" : "24.15014",
      "inDis" : "50",
      "routeId" : "102",
      "seqNo" : "49"
   },
   {
      "GoBack" : "1",
      "longitude" : "120.54536",
      "outDis" : "50",
      "Id" : "4786",
      "oid" : "14021",
      "districtId" : "1",
      "nameZh" : "大肚區公所",
      "pgp" : "0",
      "terminal" : "0",
      "latitude" : "24.1512",
      "inDis" : "50",
      "routeId" : "102",
      "seqNo" : "50"
   },
   {
      "GoBack" : "1",
      "longitude" : "120.54476",
      "outDis" : "50",
      "Id" : "1303",
      "oid" : "7220",
      "districtId" : "1",
      "nameZh" : "大肚火車站",
      "pgp" : "0",
      "terminal" : "0",
      "latitude" : "24.15316",
      "inDis" : "50",
      "routeId" : "102",
      "seqNo" : "51"
   },
   {
      "GoBack" : "1",
      "longitude" : "120.54393",
      "outDis" : "50",
      "Id" : "5137",
      "oid" : "14023",
      "districtId" : "1",
      "nameZh" : "頂街(沙田路)",
      "pgp" : "0",
      "terminal" : "0",
      "latitude" : "24.15806",
      "inDis" : "50",
      "routeId" : "102",
      "seqNo" : "52"
   },
   {
      "GoBack" : "1",
      "longitude" : "120.54356",
      "outDis" : "50",
      "Id" : "4450",
      "oid" : "14024",
      "districtId" : "1",
      "nameZh" : "北頂街",
      "pgp" : "0",
      "terminal" : "0",
      "latitude" : "24.15977",
      "inDis" : "50",
      "routeId" : "102",
      "seqNo" : "53"
   },
   {
      "GoBack" : "1",
      "longitude" : "120.54283",
      "outDis" : "50",
      "Id" : "1395",
      "oid" : "7243",
      "districtId" : "1",
      "nameZh" : "山陽",
      "pgp" : "0",
      "terminal" : "0",
      "latitude" : "24.16408",
      "inDis" : "50",
      "routeId" : "102",
      "seqNo" : "54"
   },
   {
      "GoBack" : "1",
      "longitude" : "120.54238",
      "outDis" : "50",
      "Id" : "5746",
      "oid" : "7242",
      "districtId" : "1",
      "nameZh" : "山陽一站",
      "pgp" : "0",
      "terminal" : "0",
      "latitude" : "24.1689",
      "inDis" : "50",
      "routeId" : "102",
      "seqNo" : "55"
   },
   {
      "GoBack" : "1",
      "longitude" : "120.54352",
      "outDis" : "50",
      "Id" : "5482",
      "oid" : "14670",
      "districtId" : "1",
      "nameZh" : "沙田中華路口",
      "pgp" : "0",
      "terminal" : "0",
      "latitude" : "24.17402",
      "inDis" : "50",
      "routeId" : "102",
      "seqNo" : "56"
   },
   {
      "GoBack" : "1",
      "longitude" : "120.54379",
      "outDis" : "50",
      "Id" : "2144",
      "oid" : "7077",
      "districtId" : "1",
      "nameZh" : "竹坑口",
      "pgp" : "0",
      "terminal" : "0",
      "latitude" : "24.17549",
      "inDis" : "50",
      "routeId" : "102",
      "seqNo" : "57"
   },
   {
      "GoBack" : "1",
      "longitude" : "120.54461",
      "outDis" : "50",
      "Id" : "2242",
      "oid" : "7090",
      "districtId" : "1",
      "nameZh" : "村內入口",
      "pgp" : "0",
      "terminal" : "0",
      "latitude" : "24.17876",
      "inDis" : "50",
      "routeId" : "102",
      "seqNo" : "58"
   },
   {
      "GoBack" : "1",
      "longitude" : "120.54554",
      "outDis" : "50",
      "Id" : "3031",
      "oid" : "7428",
      "districtId" : "1",
      "nameZh" : "深水",
      "pgp" : "0",
      "terminal" : "0",
      "latitude" : "24.18257",
      "inDis" : "50",
      "routeId" : "102",
      "seqNo" : "59"
   },
   {
      "GoBack" : "1",
      "longitude" : "120.54549",
      "outDis" : "50",
      "Id" : "3853",
      "oid" : "7602",
      "districtId" : "1",
      "nameZh" : "龍崗",
      "pgp" : "0",
      "terminal" : "0",
      "latitude" : "24.18642",
      "inDis" : "50",
      "routeId" : "102",
      "seqNo" : "60"
   },
   {
      "GoBack" : "1",
      "longitude" : "120.54574",
      "outDis" : "50",
      "Id" : "3847",
      "oid" : "7600",
      "districtId" : "1",
      "nameZh" : "龍井加油站",
      "pgp" : "0",
      "terminal" : "0",
      "latitude" : "24.18898",
      "inDis" : "50",
      "routeId" : "102",
      "seqNo" : "61"
   },
   {
      "GoBack" : "1",
      "longitude" : "120.54608",
      "outDis" : "50",
      "Id" : "5160",
      "oid" : "7598",
      "districtId" : "1",
      "nameZh" : "龍井區公所",
      "pgp" : "0",
      "terminal" : "0",
      "latitude" : "24.19246",
      "inDis" : "50",
      "routeId" : "102",
      "seqNo" : "62"
   },
   {
      "GoBack" : "1",
      "longitude" : "120.54659",
      "outDis" : "50",
      "Id" : "3846",
      "oid" : "7599",
      "districtId" : "1",
      "nameZh" : "龍井火車站",
      "pgp" : "0",
      "terminal" : "0",
      "latitude" : "24.19687",
      "inDis" : "50",
      "routeId" : "102",
      "seqNo" : "63"
   },
   {
      "GoBack" : "1",
      "longitude" : "120.54699",
      "outDis" : "50",
      "Id" : "3855",
      "oid" : "7603",
      "districtId" : "1",
      "nameZh" : "龍泉",
      "pgp" : "0",
      "terminal" : "0",
      "latitude" : "24.19933",
      "inDis" : "50",
      "routeId" : "102",
      "seqNo" : "64"
   },
   {
      "GoBack" : "1",
      "longitude" : "120.54798",
      "outDis" : "50",
      "Id" : "3850",
      "oid" : "7601",
      "districtId" : "1",
      "nameZh" : "龍目井",
      "pgp" : "0",
      "terminal" : "0",
      "latitude" : "24.20249",
      "inDis" : "50",
      "routeId" : "102",
      "seqNo" : "65"
   },
   {
      "GoBack" : "1",
      "longitude" : "120.54923",
      "outDis" : "50",
      "Id" : "4010",
      "oid" : "7639",
      "districtId" : "1",
      "nameZh" : "鷺山",
      "pgp" : "0",
      "terminal" : "0",
      "latitude" : "24.20743",
      "inDis" : "50",
      "routeId" : "102",
      "seqNo" : "66"
   },
   {
      "GoBack" : "1",
      "longitude" : "120.55056",
      "outDis" : "50",
      "Id" : "2559",
      "oid" : "7147",
      "districtId" : "1",
      "nameZh" : "南山腳",
      "pgp" : "0",
      "terminal" : "0",
      "latitude" : "24.21022",
      "inDis" : "50",
      "routeId" : "102",
      "seqNo" : "67"
   },
   {
      "GoBack" : "1",
      "longitude" : "120.55157",
      "outDis" : "50",
      "Id" : "5159",
      "oid" : "14038",
      "districtId" : "1",
      "nameZh" : "龍山國小(山腳里)",
      "pgp" : "0",
      "terminal" : "0",
      "latitude" : "24.21255",
      "inDis" : "50",
      "routeId" : "102",
      "seqNo" : "68"
   },
   {
      "GoBack" : "1",
      "longitude" : "120.55287",
      "outDis" : "50",
      "Id" : "4459",
      "oid" : "14039",
      "districtId" : "1",
      "nameZh" : "沙田太平路口",
      "pgp" : "0",
      "terminal" : "0",
      "latitude" : "24.21671",
      "inDis" : "50",
      "routeId" : "102",
      "seqNo" : "69"
   },
   {
      "GoBack" : "1",
      "longitude" : "120.55613",
      "outDis" : "50",
      "Id" : "2613",
      "oid" : "7163",
      "districtId" : "1",
      "nameZh" : "南勢里",
      "pgp" : "0",
      "terminal" : "0",
      "latitude" : "24.22126",
      "inDis" : "50",
      "routeId" : "102",
      "seqNo" : "70"
   },
   {
      "GoBack" : "1",
      "longitude" : "120.55678",
      "outDis" : "50",
      "Id" : "4458",
      "oid" : "14041",
      "districtId" : "1",
      "nameZh" : "沙田天仁街口",
      "pgp" : "0",
      "terminal" : "0",
      "latitude" : "24.2227",
      "inDis" : "50",
      "routeId" : "102",
      "seqNo" : "71"
   },
   {
      "GoBack" : "1",
      "longitude" : "120.55737",
      "outDis" : "50",
      "Id" : "1664",
      "oid" : "7327",
      "districtId" : "1",
      "nameZh" : "文光國小",
      "pgp" : "0",
      "terminal" : "0",
      "latitude" : "24.22398",
      "inDis" : "50",
      "routeId" : "102",
      "seqNo" : "72"
   },
   {
      "GoBack" : "1",
      "longitude" : "120.5588",
      "outDis" : "50",
      "Id" : "3809",
      "oid" : "7593",
      "districtId" : "1",
      "nameZh" : "興仁里",
      "pgp" : "0",
      "terminal" : "0",
      "latitude" : "24.23027",
      "inDis" : "50",
      "routeId" : "102",
      "seqNo" : "73"
   },
   {
      "GoBack" : "1",
      "longitude" : "120.55882",
      "outDis" : "50",
      "Id" : "4816",
      "oid" : "313222697",
      "districtId" : "1",
      "nameZh" : "沙鹿光田醫院",
      "pgp" : "0",
      "terminal" : "0",
      "latitude" : "24.23492",
      "inDis" : "50",
      "routeId" : "102",
      "seqNo" : "74"
   },
   {
      "GoBack" : "1",
      "longitude" : "120.55967",
      "outDis" : "50",
      "Id" : "4681",
      "oid" : "14045",
      "districtId" : "1",
      "nameZh" : "沙鹿市場",
      "pgp" : "0",
      "terminal" : "0",
      "latitude" : "24.23737",
      "inDis" : "50",
      "routeId" : "102",
      "seqNo" : "75"
   },
   {
      "GoBack" : "1",
      "longitude" : "120.56",
      "outDis" : "50",
      "Id" : "5135",
      "oid" : "14046",
      "districtId" : "1",
      "nameZh" : "第一銀行(沙鹿分行)",
      "pgp" : "0",
      "terminal" : "0",
      "latitude" : "24.23932",
      "inDis" : "50",
      "routeId" : "102",
      "seqNo" : "76"
   },
   {
      "GoBack" : "2",
      "longitude" : "120.56",
      "outDis" : "50",
      "Id" : "5135",
      "oid" : "14046",
      "districtId" : "1",
      "nameZh" : "第一銀行(沙鹿分行)",
      "pgp" : "0",
      "terminal" : "0",
      "latitude" : "24.23932",
      "inDis" : "50",
      "routeId" : "102",
      "seqNo" : "1"
   },
   {
      "GoBack" : "2",
      "longitude" : "120.55967",
      "outDis" : "50",
      "Id" : "4681",
      "oid" : "14045",
      "districtId" : "1",
      "nameZh" : "沙鹿市場",
      "pgp" : "0",
      "terminal" : "0",
      "latitude" : "24.23737",
      "inDis" : "50",
      "routeId" : "102",
      "seqNo" : "2"
   },
   {
      "GoBack" : "2",
      "longitude" : "120.55882",
      "outDis" : "50",
      "Id" : "4816",
      "oid" : "313222697",
      "districtId" : "1",
      "nameZh" : "沙鹿光田醫院",
      "pgp" : "0",
      "terminal" : "0",
      "latitude" : "24.23492",
      "inDis" : "50",
      "routeId" : "102",
      "seqNo" : "3"
   },
   {
      "GoBack" : "2",
      "longitude" : "120.5588",
      "outDis" : "50",
      "Id" : "3809",
      "oid" : "7593",
      "districtId" : "1",
      "nameZh" : "興仁里",
      "pgp" : "0",
      "terminal" : "0",
      "latitude" : "24.23027",
      "inDis" : "50",
      "routeId" : "102",
      "seqNo" : "4"
   },
   {
      "GoBack" : "2",
      "longitude" : "120.55737",
      "outDis" : "50",
      "Id" : "1664",
      "oid" : "7327",
      "districtId" : "1",
      "nameZh" : "文光國小",
      "pgp" : "0",
      "terminal" : "0",
      "latitude" : "24.22398",
      "inDis" : "50",
      "routeId" : "102",
      "seqNo" : "5"
   },
   {
      "GoBack" : "2",
      "longitude" : "120.55678",
      "outDis" : "50",
      "Id" : "4458",
      "oid" : "14041",
      "districtId" : "1",
      "nameZh" : "沙田天仁街口",
      "pgp" : "0",
      "terminal" : "0",
      "latitude" : "24.2227",
      "inDis" : "50",
      "routeId" : "102",
      "seqNo" : "6"
   },
   {
      "GoBack" : "2",
      "longitude" : "120.55613",
      "outDis" : "50",
      "Id" : "2613",
      "oid" : "7163",
      "districtId" : "1",
      "nameZh" : "南勢里",
      "pgp" : "0",
      "terminal" : "0",
      "latitude" : "24.22126",
      "inDis" : "50",
      "routeId" : "102",
      "seqNo" : "7"
   },
   {
      "GoBack" : "2",
      "longitude" : "120.55287",
      "outDis" : "50",
      "Id" : "4459",
      "oid" : "14039",
      "districtId" : "1",
      "nameZh" : "沙田太平路口",
      "pgp" : "0",
      "terminal" : "0",
      "latitude" : "24.21671",
      "inDis" : "50",
      "routeId" : "102",
      "seqNo" : "8"
   },
   {
      "GoBack" : "2",
      "longitude" : "120.55157",
      "outDis" : "50",
      "Id" : "5159",
      "oid" : "14038",
      "districtId" : "1",
      "nameZh" : "龍山國小(山腳里)",
      "pgp" : "0",
      "terminal" : "0",
      "latitude" : "24.21255",
      "inDis" : "50",
      "routeId" : "102",
      "seqNo" : "9"
   },
   {
      "GoBack" : "2",
      "longitude" : "120.55056",
      "outDis" : "50",
      "Id" : "2559",
      "oid" : "7147",
      "districtId" : "1",
      "nameZh" : "南山腳",
      "pgp" : "0",
      "terminal" : "0",
      "latitude" : "24.21022",
      "inDis" : "50",
      "routeId" : "102",
      "seqNo" : "10"
   },
   {
      "GoBack" : "2",
      "longitude" : "120.54923",
      "outDis" : "50",
      "Id" : "4010",
      "oid" : "7639",
      "districtId" : "1",
      "nameZh" : "鷺山",
      "pgp" : "0",
      "terminal" : "0",
      "latitude" : "24.20743",
      "inDis" : "50",
      "routeId" : "102",
      "seqNo" : "11"
   },
   {
      "GoBack" : "2",
      "longitude" : "120.54798",
      "outDis" : "50",
      "Id" : "3850",
      "oid" : "7601",
      "districtId" : "1",
      "nameZh" : "龍目井",
      "pgp" : "0",
      "terminal" : "0",
      "latitude" : "24.20249",
      "inDis" : "50",
      "routeId" : "102",
      "seqNo" : "12"
   },
   {
      "GoBack" : "2",
      "longitude" : "120.54699",
      "outDis" : "50",
      "Id" : "3855",
      "oid" : "7603",
      "districtId" : "1",
      "nameZh" : "龍泉",
      "pgp" : "0",
      "terminal" : "0",
      "latitude" : "24.19933",
      "inDis" : "50",
      "routeId" : "102",
      "seqNo" : "13"
   },
   {
      "GoBack" : "2",
      "longitude" : "120.54659",
      "outDis" : "50",
      "Id" : "3846",
      "oid" : "7599",
      "districtId" : "1",
      "nameZh" : "龍井火車站",
      "pgp" : "0",
      "terminal" : "0",
      "latitude" : "24.19687",
      "inDis" : "50",
      "routeId" : "102",
      "seqNo" : "14"
   },
   {
      "GoBack" : "2",
      "longitude" : "120.54608",
      "outDis" : "50",
      "Id" : "5160",
      "oid" : "7598",
      "districtId" : "1",
      "nameZh" : "龍井區公所",
      "pgp" : "0",
      "terminal" : "0",
      "latitude" : "24.19246",
      "inDis" : "50",
      "routeId" : "102",
      "seqNo" : "15"
   },
   {
      "GoBack" : "2",
      "longitude" : "120.54574",
      "outDis" : "50",
      "Id" : "3847",
      "oid" : "7600",
      "districtId" : "1",
      "nameZh" : "龍井加油站",
      "pgp" : "0",
      "terminal" : "0",
      "latitude" : "24.18898",
      "inDis" : "50",
      "routeId" : "102",
      "seqNo" : "16"
   },
   {
      "GoBack" : "2",
      "longitude" : "120.54549",
      "outDis" : "50",
      "Id" : "3853",
      "oid" : "7602",
      "districtId" : "1",
      "nameZh" : "龍崗",
      "pgp" : "0",
      "terminal" : "0",
      "latitude" : "24.18642",
      "inDis" : "50",
      "routeId" : "102",
      "seqNo" : "17"
   },
   {
      "GoBack" : "2",
      "longitude" : "120.54554",
      "outDis" : "50",
      "Id" : "3031",
      "oid" : "7428",
      "districtId" : "1",
      "nameZh" : "深水",
      "pgp" : "0",
      "terminal" : "0",
      "latitude" : "24.18257",
      "inDis" : "50",
      "routeId" : "102",
      "seqNo" : "18"
   },
   {
      "GoBack" : "2",
      "longitude" : "120.54461",
      "outDis" : "50",
      "Id" : "2242",
      "oid" : "7090",
      "districtId" : "1",
      "nameZh" : "村內入口",
      "pgp" : "0",
      "terminal" : "0",
      "latitude" : "24.17876",
      "inDis" : "50",
      "routeId" : "102",
      "seqNo" : "19"
   },
   {
      "GoBack" : "2",
      "longitude" : "120.54379",
      "outDis" : "50",
      "Id" : "2144",
      "oid" : "7077",
      "districtId" : "1",
      "nameZh" : "竹坑口",
      "pgp" : "0",
      "terminal" : "0",
      "latitude" : "24.17549",
      "inDis" : "50",
      "routeId" : "102",
      "seqNo" : "20"
   },
   {
      "GoBack" : "2",
      "longitude" : "120.54266",
      "outDis" : "50",
      "Id" : "5482",
      "oid" : "14732",
      "districtId" : "1",
      "nameZh" : "沙田中華路口",
      "pgp" : "0",
      "terminal" : "0",
      "latitude" : "24.17189",
      "inDis" : "50",
      "routeId" : "102",
      "seqNo" : "21"
   },
   {
      "GoBack" : "2",
      "longitude" : "120.54238",
      "outDis" : "50",
      "Id" : "5746",
      "oid" : "7242",
      "districtId" : "1",
      "nameZh" : "山陽一站",
      "pgp" : "0",
      "terminal" : "0",
      "latitude" : "24.1689",
      "inDis" : "50",
      "routeId" : "102",
      "seqNo" : "22"
   },
   {
      "GoBack" : "2",
      "longitude" : "120.54283",
      "outDis" : "50",
      "Id" : "1395",
      "oid" : "7243",
      "districtId" : "1",
      "nameZh" : "山陽",
      "pgp" : "0",
      "terminal" : "0",
      "latitude" : "24.16408",
      "inDis" : "50",
      "routeId" : "102",
      "seqNo" : "23"
   },
   {
      "GoBack" : "2",
      "longitude" : "120.54356",
      "outDis" : "50",
      "Id" : "4450",
      "oid" : "14024",
      "districtId" : "1",
      "nameZh" : "北頂街",
      "pgp" : "0",
      "terminal" : "0",
      "latitude" : "24.15977",
      "inDis" : "50",
      "routeId" : "102",
      "seqNo" : "24"
   },
   {
      "GoBack" : "2",
      "longitude" : "120.54393",
      "outDis" : "50",
      "Id" : "5137",
      "oid" : "14023",
      "districtId" : "1",
      "nameZh" : "頂街(沙田路)",
      "pgp" : "0",
      "terminal" : "0",
      "latitude" : "24.15806",
      "inDis" : "50",
      "routeId" : "102",
      "seqNo" : "25"
   },
   {
      "GoBack" : "2",
      "longitude" : "120.54476",
      "outDis" : "50",
      "Id" : "1303",
      "oid" : "7220",
      "districtId" : "1",
      "nameZh" : "大肚火車站",
      "pgp" : "0",
      "terminal" : "0",
      "latitude" : "24.15316",
      "inDis" : "50",
      "routeId" : "102",
      "seqNo" : "26"
   },
   {
      "GoBack" : "2",
      "longitude" : "120.54536",
      "outDis" : "50",
      "Id" : "4786",
      "oid" : "14021",
      "districtId" : "1",
      "nameZh" : "大肚區公所",
      "pgp" : "0",
      "terminal" : "0",
      "latitude" : "24.1512",
      "inDis" : "50",
      "routeId" : "102",
      "seqNo" : "27"
   },
   {
      "GoBack" : "2",
      "longitude" : "120.54565",
      "outDis" : "50",
      "Id" : "1302",
      "oid" : "7217",
      "districtId" : "1",
      "nameZh" : "大肚",
      "pgp" : "0",
      "terminal" : "0",
      "latitude" : "24.15014",
      "inDis" : "50",
      "routeId" : "102",
      "seqNo" : "28"
   },
   {
      "GoBack" : "2",
      "longitude" : "120.54673",
      "outDis" : "50",
      "Id" : "1359",
      "oid" : "7235",
      "districtId" : "1",
      "nameZh" : "大道國中",
      "pgp" : "0",
      "terminal" : "0",
      "latitude" : "24.14613",
      "inDis" : "50",
      "routeId" : "102",
      "seqNo" : "29"
   },
   {
      "GoBack" : "2",
      "longitude" : "120.54794",
      "outDis" : "50",
      "Id" : "4460",
      "oid" : "14018",
      "districtId" : "1",
      "nameZh" : "沙田自由路口",
      "pgp" : "0",
      "terminal" : "0",
      "latitude" : "24.14309",
      "inDis" : "50",
      "routeId" : "102",
      "seqNo" : "30"
   },
   {
      "GoBack" : "2",
      "longitude" : "120.54912",
      "outDis" : "50",
      "Id" : "4491",
      "oid" : "14017",
      "districtId" : "1",
      "nameZh" : "新興里",
      "pgp" : "0",
      "terminal" : "0",
      "latitude" : "24.14098",
      "inDis" : "50",
      "routeId" : "102",
      "seqNo" : "31"
   },
   {
      "GoBack" : "2",
      "longitude" : "120.5518",
      "outDis" : "50",
      "Id" : "4038",
      "oid" : "7183",
      "districtId" : "1",
      "nameZh" : "崁仔腳",
      "pgp" : "0",
      "terminal" : "0",
      "latitude" : "24.13717",
      "inDis" : "50",
      "routeId" : "102",
      "seqNo" : "32"
   },
   {
      "GoBack" : "2",
      "longitude" : "120.55358",
      "outDis" : "50",
      "Id" : "2443",
      "oid" : "7129",
      "districtId" : "1",
      "nameZh" : "東興紡織",
      "pgp" : "0",
      "terminal" : "0",
      "latitude" : "24.13472",
      "inDis" : "50",
      "routeId" : "102",
      "seqNo" : "33"
   },
   {
      "GoBack" : "2",
      "longitude" : "120.55397",
      "outDis" : "50",
      "Id" : "2494",
      "oid" : "7135",
      "districtId" : "1",
      "nameZh" : "社腳",
      "pgp" : "0",
      "terminal" : "0",
      "latitude" : "24.13248",
      "inDis" : "50",
      "routeId" : "102",
      "seqNo" : "34"
   },
   {
      "GoBack" : "2",
      "longitude" : "120.55759",
      "outDis" : "50",
      "Id" : "4514",
      "oid" : "14013",
      "districtId" : "1",
      "nameZh" : "營埔里",
      "pgp" : "0",
      "terminal" : "0",
      "latitude" : "24.12759",
      "inDis" : "50",
      "routeId" : "102",
      "seqNo" : "35"
   },
   {
      "GoBack" : "2",
      "longitude" : "120.56034",
      "outDis" : "50",
      "Id" : "4511",
      "oid" : "14012",
      "districtId" : "1",
      "nameZh" : "興國公司",
      "pgp" : "0",
      "terminal" : "0",
      "latitude" : "24.12584",
      "inDis" : "50",
      "routeId" : "102",
      "seqNo" : "36"
   },
   {
      "GoBack" : "2",
      "longitude" : "120.56207",
      "outDis" : "50",
      "Id" : "2886",
      "oid" : "7391",
      "districtId" : "1",
      "nameZh" : "追分郵局",
      "pgp" : "0",
      "terminal" : "0",
      "latitude" : "24.12482",
      "inDis" : "50",
      "routeId" : "102",
      "seqNo" : "37"
   },
   {
      "GoBack" : "2",
      "longitude" : "120.5645",
      "outDis" : "50",
      "Id" : "1390",
      "oid" : "7241",
      "districtId" : "1",
      "nameZh" : "山仔頂",
      "pgp" : "0",
      "terminal" : "0",
      "latitude" : "24.12339",
      "inDis" : "50",
      "routeId" : "102",
      "seqNo" : "38"
   },
   {
      "GoBack" : "2",
      "longitude" : "120.56812",
      "outDis" : "50",
      "Id" : "2885",
      "oid" : "7390",
      "districtId" : "1",
      "nameZh" : "追分國小",
      "pgp" : "0",
      "terminal" : "0",
      "latitude" : "24.12203",
      "inDis" : "50",
      "routeId" : "102",
      "seqNo" : "39"
   },
   {
      "GoBack" : "2",
      "longitude" : "120.57048",
      "outDis" : "50",
      "Id" : "2884",
      "oid" : "7389",
      "districtId" : "1",
      "nameZh" : "追分",
      "pgp" : "0",
      "terminal" : "0",
      "latitude" : "24.12114",
      "inDis" : "50",
      "routeId" : "102",
      "seqNo" : "40"
   },
   {
      "GoBack" : "2",
      "longitude" : "120.57649",
      "outDis" : "50",
      "Id" : "2597",
      "oid" : "7159",
      "districtId" : "1",
      "nameZh" : "南追分",
      "pgp" : "0",
      "terminal" : "0",
      "latitude" : "24.11887",
      "inDis" : "50",
      "routeId" : "102",
      "seqNo" : "41"
   },
   {
      "GoBack" : "2",
      "longitude" : "120.58856",
      "outDis" : "50",
      "Id" : "1743",
      "oid" : "7334",
      "districtId" : "1",
      "nameZh" : "王田",
      "pgp" : "0",
      "terminal" : "0",
      "latitude" : "24.11348",
      "inDis" : "50",
      "routeId" : "102",
      "seqNo" : "43"
   },
   {
      "GoBack" : "2",
      "longitude" : "120.59403",
      "outDis" : "50",
      "Id" : "3277",
      "oid" : "7489",
      "districtId" : "1",
      "nameZh" : "善光寺",
      "pgp" : "0",
      "terminal" : "0",
      "latitude" : "24.11295",
      "inDis" : "50",
      "routeId" : "102",
      "seqNo" : "44"
   },
   {
      "GoBack" : "2",
      "longitude" : "120.60111",
      "outDis" : "50",
      "Id" : "2120",
      "oid" : "2133",
      "districtId" : "1",
      "nameZh" : "成功嶺",
      "pgp" : "0",
      "terminal" : "0",
      "latitude" : "24.11041",
      "inDis" : "50",
      "routeId" : "102",
      "seqNo" : "45"
   },
   {
      "GoBack" : "2",
      "longitude" : "120.6047",
      "outDis" : "50",
      "Id" : "4468",
      "oid" : "14003",
      "districtId" : "1",
      "nameZh" : "烏日戶政",
      "pgp" : "0",
      "terminal" : "0",
      "latitude" : "24.10927",
      "inDis" : "50",
      "routeId" : "102",
      "seqNo" : "46"
   },
   {
      "GoBack" : "2",
      "longitude" : "120.60634",
      "outDis" : "50",
      "Id" : "5083",
      "oid" : "14002",
      "districtId" : "1",
      "nameZh" : "三和里2",
      "pgp" : "0",
      "terminal" : "0",
      "latitude" : "24.10878",
      "inDis" : "50",
      "routeId" : "102",
      "seqNo" : "47"
   },
   {
      "GoBack" : "2",
      "longitude" : "120.60767",
      "outDis" : "50",
      "Id" : "5082",
      "oid" : "14001",
      "districtId" : "1",
      "nameZh" : "三和里1",
      "pgp" : "0",
      "terminal" : "0",
      "latitude" : "24.10859",
      "inDis" : "50",
      "routeId" : "102",
      "seqNo" : "48"
   },
   {
      "GoBack" : "2",
      "longitude" : "120.61536",
      "outDis" : "350",
      "Id" : "2907",
      "oid" : "14000",
      "districtId" : "1",
      "nameZh" : "高鐵臺中站(1月台)",
      "pgp" : "0",
      "terminal" : "0",
      "latitude" : "24.11399",
      "inDis" : "350",
      "routeId" : "102",
      "seqNo" : "49"
   },
   {
      "GoBack" : "2",
      "longitude" : "120.61742",
      "outDis" : "50",
      "Id" : "2820",
      "oid" : "43AE4EBA5915453A8E79716A1A633F75",
      "districtId" : "1",
      "nameZh" : "烏日國中",
      "pgp" : "0",
      "terminal" : "0",
      "latitude" : "24.10628",
      "inDis" : "50",
      "routeId" : "102",
      "seqNo" : "51"
   },
   {
      "GoBack" : "2",
      "longitude" : "120.62339",
      "outDis" : "50",
      "Id" : "2816",
      "oid" : "7376",
      "districtId" : "1",
      "nameZh" : "烏日",
      "pgp" : "0",
      "terminal" : "0",
      "latitude" : "24.10638",
      "inDis" : "50",
      "routeId" : "102",
      "seqNo" : "52"
   },
   {
      "GoBack" : "2",
      "longitude" : "120.62665",
      "outDis" : "50",
      "Id" : "4660",
      "oid" : "311087404",
      "districtId" : "1",
      "nameZh" : "中山五光路口",
      "pgp" : "0",
      "terminal" : "0",
      "latitude" : "24.10602",
      "inDis" : "50",
      "routeId" : "102",
      "seqNo" : "53"
   },
   {
      "GoBack" : "2",
      "longitude" : "120.62864",
      "outDis" : "50",
      "Id" : "1454",
      "oid" : "7262",
      "districtId" : "1",
      "nameZh" : "中和紡織",
      "pgp" : "0",
      "terminal" : "0",
      "latitude" : "24.10564",
      "inDis" : "50",
      "routeId" : "102",
      "seqNo" : "54"
   },
   {
      "GoBack" : "2",
      "longitude" : "120.63294",
      "outDis" : "50",
      "Id" : "2821",
      "oid" : "7377",
      "districtId" : "1",
      "nameZh" : "烏日橋",
      "pgp" : "0",
      "terminal" : "0",
      "latitude" : "24.10581",
      "inDis" : "50",
      "routeId" : "102",
      "seqNo" : "55"
   },
   {
      "GoBack" : "2",
      "longitude" : "120.63696",
      "outDis" : "50",
      "Id" : "2365",
      "oid" : "7114",
      "districtId" : "1",
      "nameZh" : "明道中學",
      "pgp" : "0",
      "terminal" : "0",
      "latitude" : "24.10749",
      "inDis" : "50",
      "routeId" : "102",
      "seqNo" : "56"
   },
   {
      "GoBack" : "2",
      "longitude" : "120.63886",
      "outDis" : "50",
      "Id" : "2366",
      "oid" : "7115",
      "districtId" : "1",
      "nameZh" : "明道花園城",
      "pgp" : "0",
      "terminal" : "0",
      "latitude" : "24.10807",
      "inDis" : "50",
      "routeId" : "102",
      "seqNo" : "57"
   },
   {
      "GoBack" : "2",
      "longitude" : "120.64182",
      "outDis" : "50",
      "Id" : "0994",
      "oid" : "7189",
      "districtId" : "1",
      "nameZh" : "九張犁",
      "pgp" : "0",
      "terminal" : "0",
      "latitude" : "24.10901",
      "inDis" : "50",
      "routeId" : "102",
      "seqNo" : "58"
   },
   {
      "GoBack" : "2",
      "longitude" : "120.64588",
      "outDis" : "50",
      "Id" : "3790",
      "oid" : "7590",
      "districtId" : "1",
      "nameZh" : "樹仔腳",
      "pgp" : "0",
      "terminal" : "0",
      "latitude" : "24.11023",
      "inDis" : "50",
      "routeId" : "102",
      "seqNo" : "59"
   },
   {
      "GoBack" : "2",
      "longitude" : "120.64799",
      "outDis" : "50",
      "Id" : "5195",
      "oid" : "14763",
      "districtId" : "1",
      "nameZh" : "復興環中路口",
      "pgp" : "0",
      "terminal" : "0",
      "latitude" : "24.11096",
      "inDis" : "50",
      "routeId" : "102",
      "seqNo" : "60"
   },
   {
      "GoBack" : "2",
      "longitude" : "120.6512",
      "outDis" : "50",
      "Id" : "3330",
      "oid" : "7498",
      "districtId" : "1",
      "nameZh" : "勤工派出所",
      "pgp" : "0",
      "terminal" : "0",
      "latitude" : "24.11225",
      "inDis" : "50",
      "routeId" : "102",
      "seqNo" : "61"
   },
   {
      "GoBack" : "2",
      "longitude" : "120.65425",
      "outDis" : "50",
      "Id" : "4536",
      "oid" : "3724",
      "districtId" : "1",
      "nameZh" : "復興大慶街口",
      "pgp" : "0",
      "terminal" : "0",
      "latitude" : "24.11446",
      "inDis" : "50",
      "routeId" : "102",
      "seqNo" : "62"
   },
   {
      "GoBack" : "2",
      "longitude" : "120.65591",
      "outDis" : "50",
      "Id" : "0130",
      "oid" : "3723",
      "districtId" : "1",
      "nameZh" : "樹義里",
      "pgp" : "0",
      "terminal" : "0",
      "latitude" : "24.11565",
      "inDis" : "50",
      "routeId" : "102",
      "seqNo" : "63"
   },
   {
      "GoBack" : "2",
      "longitude" : "120.65818",
      "outDis" : "50",
      "Id" : "4538",
      "oid" : "311087406",
      "districtId" : "1",
      "nameZh" : "臺中高工(復興路)",
      "pgp" : "0",
      "terminal" : "0",
      "latitude" : "24.11751",
      "inDis" : "50",
      "routeId" : "102",
      "seqNo" : "64"
   },
   {
      "GoBack" : "2",
      "longitude" : "120.65942",
      "outDis" : "50",
      "Id" : "0129",
      "oid" : "7108",
      "districtId" : "1",
      "nameZh" : "宜寧中學",
      "pgp" : "0",
      "terminal" : "0",
      "latitude" : "24.11898",
      "inDis" : "50",
      "routeId" : "102",
      "seqNo" : "65"
   },
   {
      "GoBack" : "2",
      "longitude" : "120.66133",
      "outDis" : "50",
      "Id" : "0128",
      "oid" : "7102",
      "districtId" : "1",
      "nameZh" : "和平國小",
      "pgp" : "0",
      "terminal" : "0",
      "latitude" : "24.12141",
      "inDis" : "50",
      "routeId" : "102",
      "seqNo" : "66"
   },
   {
      "GoBack" : "2",
      "longitude" : "120.66303",
      "outDis" : "50",
      "Id" : "3395",
      "oid" : "7515",
      "districtId" : "1",
      "nameZh" : "復興新和街口",
      "pgp" : "0",
      "terminal" : "0",
      "latitude" : "24.12392",
      "inDis" : "50",
      "routeId" : "102",
      "seqNo" : "67"
   },
   {
      "GoBack" : "2",
      "longitude" : "120.66576",
      "outDis" : "50",
      "Id" : "0543",
      "oid" : "7021",
      "districtId" : "1",
      "nameZh" : "四育國中",
      "pgp" : "0",
      "terminal" : "0",
      "latitude" : "24.12702",
      "inDis" : "50",
      "routeId" : "102",
      "seqNo" : "68"
   },
   {
      "GoBack" : "2",
      "longitude" : "120.66837",
      "outDis" : "50",
      "Id" : "5478",
      "oid" : "319311008",
      "districtId" : "1",
      "nameZh" : "高等法院臺中分院",
      "pgp" : "0",
      "terminal" : "0",
      "latitude" : "24.12838",
      "inDis" : "50",
      "routeId" : "102",
      "seqNo" : "69"
   },
   {
      "GoBack" : "2",
      "longitude" : "120.67196",
      "outDis" : "50",
      "Id" : "5393",
      "oid" : "312954998",
      "districtId" : "1",
      "nameZh" : "公共資訊圖書館(復興路)",
      "pgp" : "0",
      "terminal" : "0",
      "latitude" : "24.12985",
      "inDis" : "50",
      "routeId" : "102",
      "seqNo" : "70"
   },
   {
      "GoBack" : "2",
      "longitude" : "120.67469",
      "outDis" : "50",
      "Id" : "0178",
      "oid" : "7445",
      "districtId" : "1",
      "nameZh" : "第三分局",
      "pgp" : "0",
      "terminal" : "0",
      "latitude" : "24.13108",
      "inDis" : "50",
      "routeId" : "102",
      "seqNo" : "71"
   },
   {
      "GoBack" : "2",
      "longitude" : "120.6764",
      "outDis" : "50",
      "Id" : "4604",
      "oid" : "7737",
      "districtId" : "1",
      "nameZh" : "復興有恆街口",
      "pgp" : "0",
      "terminal" : "0",
      "latitude" : "24.13182",
      "inDis" : "50",
      "routeId" : "102",
      "seqNo" : "72"
   },
   {
      "GoBack" : "2",
      "longitude" : "120.67877",
      "outDis" : "50",
      "Id" : "0180",
      "oid" : "7132",
      "districtId" : "1",
      "nameZh" : "林祖厝",
      "pgp" : "0",
      "terminal" : "0",
      "latitude" : "24.1328",
      "inDis" : "50",
      "routeId" : "102",
      "seqNo" : "73"
   },
   {
      "GoBack" : "2",
      "longitude" : "120.67994",
      "outDis" : "50",
      "Id" : "1659",
      "oid" : "7160",
      "districtId" : "1",
      "nameZh" : "文化創意園區",
      "pgp" : "0",
      "terminal" : "0",
      "latitude" : "24.13317",
      "inDis" : "50",
      "routeId" : "102",
      "seqNo" : "74"
   },
   {
      "GoBack" : "2",
      "longitude" : "120.68182",
      "outDis" : "50",
      "Id" : "0518",
      "oid" : "115DF7739EDA40CC9C702A4F61B74164",
      "districtId" : "1",
      "nameZh" : "臺中酒廠(復興路)",
      "pgp" : "0",
      "terminal" : "0",
      "latitude" : "24.13394",
      "inDis" : "50",
      "routeId" : "102",
      "seqNo" : "75"
   },
   {
      "GoBack" : "2",
      "longitude" : "120.6849",
      "outDis" : "50",
      "Id" : "1824",
      "oid" : "7352",
      "districtId" : "1",
      "nameZh" : "臺中火車站",
      "pgp" : "0",
      "terminal" : "0",
      "latitude" : "24.13775",
      "inDis" : "50",
      "routeId" : "102",
      "seqNo" : "76"
   }
]
